{"features":[{"geometry":{"coordinates":[-90.18765420776208,38.759811678198204],"type":"Point"},"id":"stl-city-public-streetlights:2:120486","properties":{"address":null,"attributes":{"Date_Installed":null,"LED_Powered":0,"LightID":"L013211","Light_Source":"LED","Light_Type":"Cobra","Lighting_Type":"LED-Powered Lamp","Verification_Date":null},"id":"stl-city-public-streetlights:2:120486","sourceLayerId":2,"sourceObjectId":120486,"sourceURL":"https://maps8.stlouis-mo.gov/arcgis/rest/services/STREETS/Streets_Permitting/MapServer/2","title":"Street light L013211"},"type":"Feature"},{"geometry":{"coordinates":[-90.18782018213784,38.75944767654989],"type":"Point"},"id":"stl-city-public-streetlights:2:120487","properties":{"address":null,"attributes":{"Date_Installed":null,"LED_Powered":0,"LightID":"L013212","Light_Source":"LED","Light_Type":"Cobra","Lighting_Type":"LED-Powered Lamp","Verification_Date":null},"id":"stl-city-public-streetlights:2:120487","sourceLayerId":2,"sourceObjectId":120487,"sourceURL":"https://maps8.stlouis-mo.gov/arcgis/rest/services/STREETS/Streets_Permitting/MapServer/2","title":"Street light L013212"},"type":"Feature"},{"geometry":{"coordinates":[-90.18795699803204,38.75913817960381],"type":"Point"},"id":"stl-city-public-streetlights:2:120488","properties":{"address":null,"attributes":{"Date_Installed":null,"LED_Powered":0,"LightID":"L013213","Light_Source":"LED","Light_Type":"Cobra","Lighting_Type":"LED-Powered Lamp","Verification_Date":null},"id":"stl-city-public-streetlights:2:120488","sourceLayerId":2,"sourceObjectId":120488,"sourceURL":"https://maps8.stlouis-mo.gov/arcgis/rest/services/STREETS/Streets_Permitting/MapServer/2","title":"Street light L013213"},"type":"Feature"},{"geometry":{"coordinates":[-90.18810147329013,38.75881702313997],"type":"Point"},"id":"stl-city-public-streetlights:2:120489","properties":{"address":null,"attributes":{"Date_Installed":null,"LED_Powered":0,"LightID":"L013214","Light_Source":"LED","Light_Type":"Cobra","Lighting_Type":"LED-Powered Lamp","Verification_Date":null},"id":"stl-city-public-streetlights:2:120489","sourceLayerId":2,"sourceObjectId":120489,"sourceURL":"https://maps8.stlouis-mo.gov/arcgis/rest/services/STREETS/Streets_Permitting/MapServer/2","title":"Street light L013214"},"type":"Feature"},{"geometry":{"coordinates":[-90.18825050037424,38.7584992163415],"type":"Point"},"id":"stl-city-public-streetlights:2:120490","properties":{"address":null,"attributes":{"Date_Installed":null,"LED_Powered":0,"LightID":"L013215","Light_Source":"LED","Light_Type":"Cobra","Lighting_Type":"LED-Powered Lamp","Verification_Date":null},"id":"stl-city-public-streetlights:2:120490","sourceLayerId":2,"sourceObjectId":120490,"sourceURL":"https://maps8.stlouis-mo.gov/arcgis/rest/services/STREETS/Streets_Permitting/MapServer/2","title":"Street light L013215"},"type":"Feature"},{"geometry":{"coordinates":[-90.18840107512597,38.75817497674354],"type":"Point"},"id":"stl-city-public-streetlights:2:120491","properties":{"address":null,"attributes":{"Date_Installed":null,"LED_Powered":0,"LightID":"L013216","Light_Source":"LED","Light_Type":"Cobra","Lighting_Type":"LED-Powered Lamp","Verification_Date":null},"id":"stl-city-public-streetlights:2:120491","sourceLayerId":2,"sourceObjectId":120491,"sourceURL":"https://maps8.stlouis-mo.gov/arcgis/rest/services/STREETS/Streets_Permitting/MapServer/2","title":"Street light L013216"},"type":"Feature"},{"geometry":{"coordinates":[-90.18863828843553,38.75787790286445],"type":"Point"},"id":"stl-city-public-streetlights:2:120492","properties":{"address":null,"attributes":{"Date_Installed":null,"LED_Powered":0,"LightID":"L013217","Light_Source":"LED","Light_Type":"Cobra","Lighting_Type":"LED-Powered Lamp","Verification_Date":null},"id":"stl-city-public-streetlights:2:120492","sourceLayerId":2,"sourceObjectId":120492,"sourceURL":"https://maps8.stlouis-mo.gov/arcgis/rest/services/STREETS/Streets_Permitting/MapServer/2","title":"Street light L013217"},"type":"Feature"},{"geometry":{"coordinates":[-90.18899988068715,38.757679838993816],"type":"Point"},"id":"stl-city-public-streetlights:2:120493","properties":{"address":null,"attributes":{"Date_Installed":null,"LED_Powered":0,"LightID":"L013218","Light_Source":"LED","Light_Type":"Cobra","Lighting_Type":"LED-Powered Lamp","Verification_Date":null},"id":"stl-city-public-streetlights:2:120493","sourceLayerId":2,"sourceObjectId":120493,"sourceURL":"https://maps8.stlouis-mo.gov/arcgis/rest/services/STREETS/Streets_Permitting/MapServer/2","title":"Street light L013218"},"type":"Feature"},{"geometry":{"coordinates":[-90.18936762565083,38.75746653501171],"type":"Point"},"id":"stl-city-public-streetlights:2:120494","properties":{"address":null,"attributes":{"Date_Installed":null,"LED_Powered":0,"LightID":"L013219","Light_Source":"LED","Light_Type":"Cobra","Lighting_Type":"LED-Powered Lamp","Verification_Date":null},"id":"stl-city-public-streetlights:2:120494","sourceLayerId":2,"sourceObjectId":120494,"sourceURL":"https://maps8.stlouis-mo.gov/arcgis/rest/services/STREETS/Streets_Permitting/MapServer/2","title":"Street light L013219"},"type":"Feature"},{"geometry":{"coordinates":[-90.1895818891385,38.757195378374384],"type":"Point"},"id":"stl-city-public-streetlights:2:120495","properties":{"address":null,"attributes":{"Date_Installed":null,"LED_Powered":0,"LightID":"L013220","Light_Source":"LED","Light_Type":"Cobra","Lighting_Type":"LED-Powered Lamp","Verification_Date":null},"id":"stl-city-public-streetlights:2:120495","sourceLayerId":2,"sourceObjectId":120495,"sourceURL":"https://maps8.stlouis-mo.gov/arcgis/rest/services/STREETS/Streets_Permitting/MapServer/2","title":"Street light L013220"},"type":"Feature"},{"geometry":{"coordinates":[-90.18975532823401,38.75686142592595],"type":"Point"},"id":"stl-city-public-streetlights:2:120496","properties":{"address":null,"attributes":{"Date_Installed":null,"LED_Powered":0,"LightID":"L013221","Light_Source":"LED","Light_Type":"Cobra","Lighting_Type":"LED-Powered Lamp","Verification_Date":null},"id":"stl-city-public-streetlights:2:120496","sourceLayerId":2,"sourceObjectId":120496,"sourceURL":"https://maps8.stlouis-mo.gov/arcgis/rest/services/STREETS/Streets_Permitting/MapServer/2","title":"Street light L013221"},"type":"Feature"},{"geometry":{"coordinates":[-90.1896650710804,38.75689846613987],"type":"Point"},"id":"stl-city-public-streetlights:2:120497","properties":{"address":null,"attributes":{"Date_Installed":null,"LED_Powered":0,"LightID":"L013222","Light_Source":"LED","Light_Type":"Cobra","Lighting_Type":"LED-Powered Lamp","Verification_Date":null},"id":"stl-city-public-streetlights:2:120497","sourceLayerId":2,"sourceObjectId":120497,"sourceURL":"https://maps8.stlouis-mo.gov/arcgis/rest/services/STREETS/Streets_Permitting/MapServer/2","title":"Street light L013222"},"type":"Feature"},{"geometry":{"coordinates":[-90.18934335170036,38.75721331338037],"type":"Point"},"id":"stl-city-public-streetlights:2:120498","properties":{"address":null,"attributes":{"Date_Installed":null,"LED_Powered":0,"LightID":"L013223","Light_Source":"High Pressure Sodium","Light_Type":"Cobra","Lighting_Type":"150-W High Pressure Sodium Vapor Lamp","Verification_Date":null},"id":"stl-city-public-streetlights:2:120498","sourceLayerId":2,"sourceObjectId":120498,"sourceURL":"https://maps8.stlouis-mo.gov/arcgis/rest/services/STREETS/Streets_Permitting/MapServer/2","title":"Street light L013223"},"type":"Feature"},{"geometry":{"coordinates":[-90.18883355617763,38.75732422289436],"type":"Point"},"id":"stl-city-public-streetlights:2:120499","properties":{"address":null,"attributes":{"Date_Installed":null,"LED_Powered":0,"LightID":"L013224","Light_Source":"High Pressure Sodium","Light_Type":"Cobra","Lighting_Type":"150-W High Pressure Sodium Vapor Lamp","Verification_Date":null},"id":"stl-city-public-streetlights:2:120499","sourceLayerId":2,"sourceObjectId":120499,"sourceURL":"https://maps8.stlouis-mo.gov/arcgis/rest/services/STREETS/Streets_Permitting/MapServer/2","title":"Street light L013224"},"type":"Feature"},{"geometry":{"coordinates":[-90.188450642786,38.75745549027802],"type":"Point"},"id":"stl-city-public-streetlights:2:120500","properties":{"address":null,"attributes":{"Date_Installed":null,"LED_Powered":0,"LightID":"L013225","Light_Source":"High Pressure Sodium","Light_Type":"Cobra","Lighting_Type":"150-W High Pressure Sodium Vapor Lamp","Verification_Date":null},"id":"stl-city-public-streetlights:2:120500","sourceLayerId":2,"sourceObjectId":120500,"sourceURL":"https://maps8.stlouis-mo.gov/arcgis/rest/services/STREETS/Streets_Permitting/MapServer/2","title":"Street light L013225"},"type":"Feature"},{"geometry":{"coordinates":[-90.18804598043074,38.75775724206996],"type":"Point"},"id":"stl-city-public-streetlights:2:120501","properties":{"address":null,"attributes":{"Date_Installed":null,"LED_Powered":0,"LightID":"L013226","Light_Source":"High Pressure Sodium","Light_Type":"Cobra","Lighting_Type":"150-W High Pressure Sodium Vapor Lamp","Verification_Date":null},"id":"stl-city-public-streetlights:2:120501","sourceLayerId":2,"sourceObjectId":120501,"sourceURL":"https://maps8.stlouis-mo.gov/arcgis/rest/services/STREETS/Streets_Permitting/MapServer/2","title":"Street light L013226"},"type":"Feature"},{"geometry":{"coordinates":[-90.18767862065467,38.75802083577397],"type":"Point"},"id":"stl-city-public-streetlights:2:120502","properties":{"address":null,"attributes":{"Date_Installed":null,"LED_Powered":0,"LightID":"L013227","Light_Source":"High Pressure Sodium","Light_Type":"Cobra","Lighting_Type":"150-W High Pressure Sodium Vapor Lamp","Verification_Date":null},"id":"stl-city-public-streetlights:2:120502","sourceLayerId":2,"sourceObjectId":120502,"sourceURL":"https://maps8.stlouis-mo.gov/arcgis/rest/services/STREETS/Streets_Permitting/MapServer/2","title":"Street light L013227"},"type":"Feature"},{"geometry":{"coordinates":[-90.187283450266,38.75830530994306],"type":"Point"},"id":"stl-city-public-streetlights:2:120503","properties":{"address":null,"attributes":{"Date_Installed":null,"LED_Powered":0,"LightID":"L013228","Light_Source":"LED","Light_Type":"Cobra","Lighting_Type":"LED-Powered Lamp","Verification_Date":null},"id":"stl-city-public-streetlights:2:120503","sourceLayerId":2,"sourceObjectId":120503,"sourceURL":"https://maps8.stlouis-mo.gov/arcgis/rest/services/STREETS/Streets_Permitting/MapServer/2","title":"Street light L013228"},"type":"Feature"},{"geometry":{"coordinates":[-90.18724668343867,38.75824884774215],"type":"Point"},"id":"stl-city-public-streetlights:2:120504","properties":{"address":null,"attributes":{"Date_Installed":null,"LED_Powered":0,"LightID":"L013229","Light_Source":"LED","Light_Type":"Cobra","Lighting_Type":"LED-Powered Lamp","Verification_Date":null},"id":"stl-city-public-streetlights:2:120504","sourceLayerId":2,"sourceObjectId":120504,"sourceURL":"https://maps8.stlouis-mo.gov/arcgis/rest/services/STREETS/Streets_Permitting/MapServer/2","title":"Street light L013229"},"type":"Feature"},{"geometry":{"coordinates":[-90.18994869757871,38.756493918200164],"type":"Point"},"id":"stl-city-public-streetlights:2:120505","properties":{"address":null,"attributes":{"Date_Installed":null,"LED_Powered":0,"LightID":"L013230","Light_Source":"LED","Light_Type":"Cobra","Lighting_Type":"LED-Powered Lamp","Verification_Date":null},"id":"stl-city-public-streetlights:2:120505","sourceLayerId":2,"sourceObjectId":120505,"sourceURL":"https://maps8.stlouis-mo.gov/arcgis/rest/services/STREETS/Streets_Permitting/MapServer/2","title":"Street light L013230"},"type":"Feature"},{"geometry":{"coordinates":[-90.18510661796498,38.759887464984914],"type":"Point"},"id":"stl-city-public-streetlights:2:137553","properties":{"address":null,"attributes":{"Date_Installed":null,"LED_Powered":1,"LightID":"L030269","Light_Source":"LED","Light_Type":"Cobra","Lighting_Type":"LED-Powered Lamp","Verification_Date":null},"id":"stl-city-public-streetlights:2:137553","sourceLayerId":2,"sourceObjectId":137553,"sourceURL":"https://maps8.stlouis-mo.gov/arcgis/rest/services/STREETS/Streets_Permitting/MapServer/2","title":"Street light L030269"},"type":"Feature"},{"geometry":{"coordinates":[-90.18537077553599,38.7595203449386],"type":"Point"},"id":"stl-city-public-streetlights:2:137554","properties":{"address":null,"attributes":{"Date_Installed":null,"LED_Powered":1,"LightID":"L030270","Light_Source":"LED","Light_Type":"Cobra","Lighting_Type":"LED-Powered Lamp","Verification_Date":null},"id":"stl-city-public-streetlights:2:137554","sourceLayerId":2,"sourceObjectId":137554,"sourceURL":"https://maps8.stlouis-mo.gov/arcgis/rest/services/STREETS/Streets_Permitting/MapServer/2","title":"Street light L030270"},"type":"Feature"},{"geometry":{"coordinates":[-90.18562298028989,38.759162740439116],"type":"Point"},"id":"stl-city-public-streetlights:2:137555","properties":{"address":null,"attributes":{"Date_Installed":null,"LED_Powered":1,"LightID":"L030271","Light_Source":"LED","Light_Type":"Cobra","Lighting_Type":"LED-Powered Lamp","Verification_Date":null},"id":"stl-city-public-streetlights:2:137555","sourceLayerId":2,"sourceObjectId":137555,"sourceURL":"https://maps8.stlouis-mo.gov/arcgis/rest/services/STREETS/Streets_Permitting/MapServer/2","title":"Street light L030271"},"type":"Feature"},{"geometry":{"coordinates":[-90.18588038033056,38.75879551903309],"type":"Point"},"id":"stl-city-public-streetlights:2:137556","properties":{"address":null,"attributes":{"Date_Installed":null,"LED_Powered":1,"LightID":"L030272","Light_Source":"LED","Light_Type":"Cobra","Lighting_Type":"LED-Powered Lamp","Verification_Date":null},"id":"stl-city-public-streetlights:2:137556","sourceLayerId":2,"sourceObjectId":137556,"sourceURL":"https://maps8.stlouis-mo.gov/arcgis/rest/services/STREETS/Streets_Permitting/MapServer/2","title":"Street light L030272"},"type":"Feature"},{"geometry":{"coordinates":[-90.18614114289582,38.75845907707554],"type":"Point"},"id":"stl-city-public-streetlights:2:137557","properties":{"address":null,"attributes":{"Date_Installed":null,"LED_Powered":1,"LightID":"L030273","Light_Source":"LED","Light_Type":"Cobra","Lighting_Type":"LED-Powered Lamp","Verification_Date":null},"id":"stl-city-public-streetlights:2:137557","sourceLayerId":2,"sourceObjectId":137557,"sourceURL":"https://maps8.stlouis-mo.gov/arcgis/rest/services/STREETS/Streets_Permitting/MapServer/2","title":"Street light L030273"},"type":"Feature"},{"geometry":{"coordinates":[-90.18640942685667,38.758100192400754],"type":"Point"},"id":"stl-city-public-streetlights:2:137558","properties":{"address":null,"attributes":{"Date_Installed":null,"LED_Powered":1,"LightID":"L030274","Light_Source":"LED","Light_Type":"Cobra","Lighting_Type":"LED-Powered Lamp","Verification_Date":null},"id":"stl-city-public-streetlights:2:137558","sourceLayerId":2,"sourceObjectId":137558,"sourceURL":"https://maps8.stlouis-mo.gov/arcgis/rest/services/STREETS/Streets_Permitting/MapServer/2","title":"Street light L030274"},"type":"Feature"},{"geometry":{"coordinates":[-90.1866926063251,38.7577431892908],"type":"Point"},"id":"stl-city-public-streetlights:2:137559","properties":{"address":null,"attributes":{"Date_Installed":null,"LED_Powered":1,"LightID":"L030275","Light_Source":"LED","Light_Type":"Cobra","Lighting_Type":"LED-Powered Lamp","Verification_Date":null},"id":"stl-city-public-streetlights:2:137559","sourceLayerId":2,"sourceObjectId":137559,"sourceURL":"https://maps8.stlouis-mo.gov/arcgis/rest/services/STREETS/Streets_Permitting/MapServer/2","title":"Street light L030275"},"type":"Feature"},{"geometry":{"coordinates":[-90.18699600279136,38.7574048218555],"type":"Point"},"id":"stl-city-public-streetlights:2:137560","properties":{"address":null,"attributes":{"Date_Installed":null,"LED_Powered":1,"LightID":"L030276","Light_Source":"LED","Light_Type":"Cobra","Lighting_Type":"LED-Powered Lamp","Verification_Date":null},"id":"stl-city-public-streetlights:2:137560","sourceLayerId":2,"sourceObjectId":137560,"sourceURL":"https://maps8.stlouis-mo.gov/arcgis/rest/services/STREETS/Streets_Permitting/MapServer/2","title":"Street light L030276"},"type":"Feature"},{"geometry":{"coordinates":[-90.18729561568952,38.75706382826077],"type":"Point"},"id":"stl-city-public-streetlights:2:137561","properties":{"address":null,"attributes":{"Date_Installed":null,"LED_Powered":1,"LightID":"L030277","Light_Source":"LED","Light_Type":"Cobra","Lighting_Type":"LED-Powered Lamp","Verification_Date":null},"id":"stl-city-public-streetlights:2:137561","sourceLayerId":2,"sourceObjectId":137561,"sourceURL":"https://maps8.stlouis-mo.gov/arcgis/rest/services/STREETS/Streets_Permitting/MapServer/2","title":"Street light L030277"},"type":"Feature"},{"geometry":{"coordinates":[-90.18759082678103,38.75673007141159],"type":"Point"},"id":"stl-city-public-streetlights:2:137562","properties":{"address":null,"attributes":{"Date_Installed":null,"LED_Powered":1,"LightID":"L030278","Light_Source":"LED","Light_Type":"Cobra","Lighting_Type":"LED-Powered Lamp","Verification_Date":null},"id":"stl-city-public-streetlights:2:137562","sourceLayerId":2,"sourceObjectId":137562,"sourceURL":"https://maps8.stlouis-mo.gov/arcgis/rest/services/STREETS/Streets_Permitting/MapServer/2","title":"Street light L030278"},"type":"Feature"},{"geometry":{"coordinates":[-90.18789006924217,38.7563943732732],"type":"Point"},"id":"stl-city-public-streetlights:2:137563","properties":{"address":null,"attributes":{"Date_Installed":null,"LED_Powered":1,"LightID":"L030279","Light_Source":"LED","Light_Type":"Cobra","Lighting_Type":"LED-Powered Lamp","Verification_Date":null},"id":"stl-city-public-streetlights:2:137563","sourceLayerId":2,"sourceObjectId":137563,"sourceURL":"https://maps8.stlouis-mo.gov/arcgis/rest/services/STREETS/Streets_Permitting/MapServer/2","title":"Street light L030279"},"type":"Feature"},{"geometry":{"coordinates":[-90.18819245814412,38.756044064316114],"type":"Point"},"id":"stl-city-public-streetlights:2:137564","properties":{"address":null,"attributes":{"Date_Installed":null,"LED_Powered":1,"LightID":"L030280","Light_Source":"LED","Light_Type":"Cobra","Lighting_Type":"LED-Powered Lamp","Verification_Date":null},"id":"stl-city-public-streetlights:2:137564","sourceLayerId":2,"sourceObjectId":137564,"sourceURL":"https://maps8.stlouis-mo.gov/arcgis/rest/services/STREETS/Streets_Permitting/MapServer/2","title":"Street light L030280"},"type":"Feature"},{"geometry":{"coordinates":[-90.18850643236664,38.75571696842348],"type":"Point"},"id":"stl-city-public-streetlights:2:137565","properties":{"address":null,"attributes":{"Date_Installed":null,"LED_Powered":1,"LightID":"L030281","Light_Source":"LED","Light_Type":"Cobra","Lighting_Type":"LED-Powered Lamp","Verification_Date":null},"id":"stl-city-public-streetlights:2:137565","sourceLayerId":2,"sourceObjectId":137565,"sourceURL":"https://maps8.stlouis-mo.gov/arcgis/rest/services/STREETS/Streets_Permitting/MapServer/2","title":"Street light L030281"},"type":"Feature"},{"geometry":{"coordinates":[-90.18882163612302,38.75538611290326],"type":"Point"},"id":"stl-city-public-streetlights:2:137566","properties":{"address":null,"attributes":{"Date_Installed":null,"LED_Powered":1,"LightID":"L030282","Light_Source":"LED","Light_Type":"Cobra","Lighting_Type":"LED-Powered Lamp","Verification_Date":null},"id":"stl-city-public-streetlights:2:137566","sourceLayerId":2,"sourceObjectId":137566,"sourceURL":"https://maps8.stlouis-mo.gov/arcgis/rest/services/STREETS/Streets_Permitting/MapServer/2","title":"Street light L030282"},"type":"Feature"},{"geometry":{"coordinates":[-90.18913869132683,38.75504868147585],"type":"Point"},"id":"stl-city-public-streetlights:2:137567","properties":{"address":null,"attributes":{"Date_Installed":null,"LED_Powered":1,"LightID":"L030283","Light_Source":"LED","Light_Type":"Cobra","Lighting_Type":"LED-Powered Lamp","Verification_Date":null},"id":"stl-city-public-streetlights:2:137567","sourceLayerId":2,"sourceObjectId":137567,"sourceURL":"https://maps8.stlouis-mo.gov/arcgis/rest/services/STREETS/Streets_Permitting/MapServer/2","title":"Street light L030283"},"type":"Feature"},{"geometry":{"coordinates":[-90.18945448735757,38.75471068187425],"type":"Point"},"id":"stl-city-public-streetlights:2:137568","properties":{"address":null,"attributes":{"Date_Installed":null,"LED_Powered":1,"LightID":"L030284","Light_Source":"LED","Light_Type":"Cobra","Lighting_Type":"LED-Powered Lamp","Verification_Date":null},"id":"stl-city-public-streetlights:2:137568","sourceLayerId":2,"sourceObjectId":137568,"sourceURL":"https://maps8.stlouis-mo.gov/arcgis/rest/services/STREETS/Streets_Permitting/MapServer/2","title":"Street light L030284"},"type":"Feature"},{"geometry":{"coordinates":[-90.18977464791045,38.75438033146081],"type":"Point"},"id":"stl-city-public-streetlights:2:137569","properties":{"address":null,"attributes":{"Date_Installed":null,"LED_Powered":1,"LightID":"L030285","Light_Source":"LED","Light_Type":"Cobra","Lighting_Type":"LED-Powered Lamp","Verification_Date":null},"id":"stl-city-public-streetlights:2:137569","sourceLayerId":2,"sourceObjectId":137569,"sourceURL":"https://maps8.stlouis-mo.gov/arcgis/rest/services/STREETS/Streets_Permitting/MapServer/2","title":"Street light L030285"},"type":"Feature"},{"geometry":{"coordinates":[-90.1859179881228,38.75963433166162],"type":"Point"},"id":"stl-city-public-streetlights:2:137576","properties":{"address":null,"attributes":{"Date_Installed":null,"LED_Powered":0,"LightID":"L030292","Light_Source":"LED","Light_Type":"Cobra","Lighting_Type":"LED-Powered Lamp","Verification_Date":null},"id":"stl-city-public-streetlights:2:137576","sourceLayerId":2,"sourceObjectId":137576,"sourceURL":"https://maps8.stlouis-mo.gov/arcgis/rest/services/STREETS/Streets_Permitting/MapServer/2","title":"Street light L030292"},"type":"Feature"},{"geometry":{"coordinates":[-90.18625334896652,38.75931535510466],"type":"Point"},"id":"stl-city-public-streetlights:2:137577","properties":{"address":null,"attributes":{"Date_Installed":null,"LED_Powered":0,"LightID":"L030293","Light_Source":"LED","Light_Type":"Cobra","Lighting_Type":"LED-Powered Lamp","Verification_Date":null},"id":"stl-city-public-streetlights:2:137577","sourceLayerId":2,"sourceObjectId":137577,"sourceURL":"https://maps8.stlouis-mo.gov/arcgis/rest/services/STREETS/Streets_Permitting/MapServer/2","title":"Street light L030293"},"type":"Feature"},{"geometry":{"coordinates":[-90.1870839192149,38.75879987693083],"type":"Point"},"id":"stl-city-public-streetlights:2:137578","properties":{"address":null,"attributes":{"Date_Installed":null,"LED_Powered":0,"LightID":"L030294","Light_Source":"LED","Light_Type":"Cobra","Lighting_Type":"LED-Powered Lamp","Verification_Date":null},"id":"stl-city-public-streetlights:2:137578","sourceLayerId":2,"sourceObjectId":137578,"sourceURL":"https://maps8.stlouis-mo.gov/arcgis/rest/services/STREETS/Streets_Permitting/MapServer/2","title":"Street light L030294"},"type":"Feature"},{"geometry":{"coordinates":[-90.18748270461758,38.758385629305074],"type":"Point"},"id":"stl-city-public-streetlights:2:137579","properties":{"address":null,"attributes":{"Date_Installed":null,"LED_Powered":0,"LightID":"L030295","Light_Source":"High Pressure Sodium","Light_Type":"Cobra","Lighting_Type":"150-W High Pressure Sodium Vapor Lamp","Verification_Date":null},"id":"stl-city-public-streetlights:2:137579","sourceLayerId":2,"sourceObjectId":137579,"sourceURL":"https://maps8.stlouis-mo.gov/arcgis/rest/services/STREETS/Streets_Permitting/MapServer/2","title":"Street light L030295"},"type":"Feature"},{"geometry":{"coordinates":[-90.18724192469256,38.758867039865656],"type":"Point"},"id":"stl-city-public-streetlights:2:137580","properties":{"address":null,"attributes":{"Date_Installed":null,"LED_Powered":0,"LightID":"L030296","Light_Source":"High Pressure Sodium","Light_Type":"Cobra","Lighting_Type":"150-W High Pressure Sodium Vapor Lamp","Verification_Date":null},"id":"stl-city-public-streetlights:2:137580","sourceLayerId":2,"sourceObjectId":137580,"sourceURL":"https://maps8.stlouis-mo.gov/arcgis/rest/services/STREETS/Streets_Permitting/MapServer/2","title":"Street light L030296"},"type":"Feature"},{"geometry":{"coordinates":[-90.1868564551044,38.759127841116765],"type":"Point"},"id":"stl-city-public-streetlights:2:137581","properties":{"address":null,"attributes":{"Date_Installed":null,"LED_Powered":0,"LightID":"L030297","Light_Source":"High Pressure Sodium","Light_Type":"Cobra","Lighting_Type":"150-W High Pressure Sodium Vapor Lamp","Verification_Date":null},"id":"stl-city-public-streetlights:2:137581","sourceLayerId":2,"sourceObjectId":137581,"sourceURL":"https://maps8.stlouis-mo.gov/arcgis/rest/services/STREETS/Streets_Permitting/MapServer/2","title":"Street light L030297"},"type":"Feature"},{"geometry":{"coordinates":[-90.18673039958362,38.75943488461271],"type":"Point"},"id":"stl-city-public-streetlights:2:137582","properties":{"address":null,"attributes":{"Date_Installed":null,"LED_Powered":0,"LightID":"L030298","Light_Source":"High Pressure Sodium","Light_Type":"Cobra","Lighting_Type":"150-W High Pressure Sodium Vapor Lamp","Verification_Date":null},"id":"stl-city-public-streetlights:2:137582","sourceLayerId":2,"sourceObjectId":137582,"sourceURL":"https://maps8.stlouis-mo.gov/arcgis/rest/services/STREETS/Streets_Permitting/MapServer/2","title":"Street light L030298"},"type":"Feature"},{"geometry":{"coordinates":[-90.18671107817246,38.758967742647435],"type":"Point"},"id":"stl-city-public-streetlights:2:137590","properties":{"address":null,"attributes":{"Date_Installed":null,"LED_Powered":0,"LightID":"L030306","Light_Source":"LED","Light_Type":"Cobra","Lighting_Type":"LED-Powered Lamp","Verification_Date":null},"id":"stl-city-public-streetlights:2:137590","sourceLayerId":2,"sourceObjectId":137590,"sourceURL":"https://maps8.stlouis-mo.gov/arcgis/rest/services/STREETS/Streets_Permitting/MapServer/2","title":"Street light L030306"},"type":"Feature"},{"geometry":{"coordinates":[-90.18744630817824,38.75772347992994],"type":"Point"},"id":"stl-city-public-streetlights:2:137592","properties":{"address":null,"attributes":{"Date_Installed":null,"LED_Powered":0,"LightID":"L030308","Light_Source":"LED","Light_Type":"Cobra","Lighting_Type":"LED-Powered Lamp","Verification_Date":null},"id":"stl-city-public-streetlights:2:137592","sourceLayerId":2,"sourceObjectId":137592,"sourceURL":"https://maps8.stlouis-mo.gov/arcgis/rest/services/STREETS/Streets_Permitting/MapServer/2","title":"Street light L030308"},"type":"Feature"},{"geometry":{"coordinates":[-90.1876782153083,38.75719780070439],"type":"Point"},"id":"stl-city-public-streetlights:2:137593","properties":{"address":null,"attributes":{"Date_Installed":null,"LED_Powered":0,"LightID":"L030309","Light_Source":"LED","Light_Type":"Cobra","Lighting_Type":"LED-Powered Lamp","Verification_Date":null},"id":"stl-city-public-streetlights:2:137593","sourceLayerId":2,"sourceObjectId":137593,"sourceURL":"https://maps8.stlouis-mo.gov/arcgis/rest/services/STREETS/Streets_Permitting/MapServer/2","title":"Street light L030309"},"type":"Feature"},{"geometry":{"coordinates":[-90.1899715907554,38.75639044730695],"type":"Point"},"id":"stl-city-public-streetlights:2:151447","properties":{"address":null,"attributes":{"Date_Installed":null,"LED_Powered":0,"LightID":"L044312","Light_Source":"LED","Light_Type":"Cobra","Lighting_Type":"LED-Powered Lamp","Verification_Date":null},"id":"stl-city-public-streetlights:2:151447","sourceLayerId":2,"sourceObjectId":151447,"sourceURL":"https://maps8.stlouis-mo.gov/arcgis/rest/services/STREETS/Streets_Permitting/MapServer/2","title":"Street light L044312"},"type":"Feature"},{"geometry":{"coordinates":[-90.18555318711712,38.75866951745949],"type":"Point"},"id":"stl-city-public-streetlights:2:151448","properties":{"address":null,"attributes":{"Date_Installed":null,"LED_Powered":0,"LightID":"L044313","Light_Source":"LED","Light_Type":"Cobra","Lighting_Type":"LED-Powered Lamp","Verification_Date":null},"id":"stl-city-public-streetlights:2:151448","sourceLayerId":2,"sourceObjectId":151448,"sourceURL":"https://maps8.stlouis-mo.gov/arcgis/rest/services/STREETS/Streets_Permitting/MapServer/2","title":"Street light L044313"},"type":"Feature"},{"geometry":{"coordinates":[-90.18588814219197,38.75830096683115],"type":"Point"},"id":"stl-city-public-streetlights:2:151449","properties":{"address":null,"attributes":{"Date_Installed":null,"LED_Powered":0,"LightID":"L044314","Light_Source":"LED","Light_Type":"Cobra","Lighting_Type":"LED-Powered Lamp","Verification_Date":null},"id":"stl-city-public-streetlights:2:151449","sourceLayerId":2,"sourceObjectId":151449,"sourceURL":"https://maps8.stlouis-mo.gov/arcgis/rest/services/STREETS/Streets_Permitting/MapServer/2","title":"Street light L044314"},"type":"Feature"},{"geometry":{"coordinates":[-90.18622096344865,38.75793205094012],"type":"Point"},"id":"stl-city-public-streetlights:2:151450","properties":{"address":null,"attributes":{"Date_Installed":null,"LED_Powered":0,"LightID":"L044315","Light_Source":"LED","Light_Type":"Cobra","Lighting_Type":"LED-Powered Lamp","Verification_Date":null},"id":"stl-city-public-streetlights:2:151450","sourceLayerId":2,"sourceObjectId":151450,"sourceURL":"https://maps8.stlouis-mo.gov/arcgis/rest/services/STREETS/Streets_Permitting/MapServer/2","title":"Street light L044315"},"type":"Feature"},{"geometry":{"coordinates":[-90.18661541098382,38.75749685924794],"type":"Point"},"id":"stl-city-public-streetlights:2:151451","properties":{"address":null,"attributes":{"Date_Installed":null,"LED_Powered":0,"LightID":"L044316","Light_Source":"LED","Light_Type":"Cobra","Lighting_Type":"LED-Powered Lamp","Verification_Date":null},"id":"stl-city-public-streetlights:2:151451","sourceLayerId":2,"sourceObjectId":151451,"sourceURL":"https://maps8.stlouis-mo.gov/arcgis/rest/services/STREETS/Streets_Permitting/MapServer/2","title":"Street light L044316"},"type":"Feature"},{"geometry":{"coordinates":[-90.18705130080257,38.75701601294529],"type":"Point"},"id":"stl-city-public-streetlights:2:151452","properties":{"address":null,"attributes":{"Date_Installed":null,"LED_Powered":0,"LightID":"L044317","Light_Source":"LED","Light_Type":"Cobra","Lighting_Type":"LED-Powered Lamp","Verification_Date":null},"id":"stl-city-public-streetlights:2:151452","sourceLayerId":2,"sourceObjectId":151452,"sourceURL":"https://maps8.stlouis-mo.gov/arcgis/rest/services/STREETS/Streets_Permitting/MapServer/2","title":"Street light L044317"},"type":"Feature"},{"geometry":{"coordinates":[-90.18750425768889,38.75652216509668],"type":"Point"},"id":"stl-city-public-streetlights:2:151453","properties":{"address":null,"attributes":{"Date_Installed":null,"LED_Powered":0,"LightID":"L044318","Light_Source":"LED","Light_Type":"Cobra","Lighting_Type":"LED-Powered Lamp","Verification_Date":null},"id":"stl-city-public-streetlights:2:151453","sourceLayerId":2,"sourceObjectId":151453,"sourceURL":"https://maps8.stlouis-mo.gov/arcgis/rest/services/STREETS/Streets_Permitting/MapServer/2","title":"Street light L044318"},"type":"Feature"},{"geometry":{"coordinates":[-90.18795453830377,38.756026390344246],"type":"Point"},"id":"stl-city-public-streetlights:2:151454","properties":{"address":null,"attributes":{"Date_Installed":null,"LED_Powered":0,"LightID":"L044319","Light_Source":"LED","Light_Type":"Cobra","Lighting_Type":"LED-Powered Lamp","Verification_Date":null},"id":"stl-city-public-streetlights:2:151454","sourceLayerId":2,"sourceObjectId":151454,"sourceURL":"https://maps8.stlouis-mo.gov/arcgis/rest/services/STREETS/Streets_Permitting/MapServer/2","title":"Street light L044319"},"type":"Feature"},{"geometry":{"coordinates":[-90.18833538750302,38.75559836603724],"type":"Point"},"id":"stl-city-public-streetlights:2:151455","properties":{"address":null,"attributes":{"Date_Installed":null,"LED_Powered":0,"LightID":"L044320","Light_Source":"LED","Light_Type":"Cobra","Lighting_Type":"LED-Powered Lamp","Verification_Date":null},"id":"stl-city-public-streetlights:2:151455","sourceLayerId":2,"sourceObjectId":151455,"sourceURL":"https://maps8.stlouis-mo.gov/arcgis/rest/services/STREETS/Streets_Permitting/MapServer/2","title":"Street light L044320"},"type":"Feature"},{"geometry":{"coordinates":[-90.18878039621893,38.75511509424878],"type":"Point"},"id":"stl-city-public-streetlights:2:151456","properties":{"address":null,"attributes":{"Date_Installed":null,"LED_Powered":0,"LightID":"L044321","Light_Source":"LED","Light_Type":"Cobra","Lighting_Type":"LED-Powered Lamp","Verification_Date":null},"id":"stl-city-public-streetlights:2:151456","sourceLayerId":2,"sourceObjectId":151456,"sourceURL":"https://maps8.stlouis-mo.gov/arcgis/rest/services/STREETS/Streets_Permitting/MapServer/2","title":"Street light L044321"},"type":"Feature"},{"geometry":{"coordinates":[-90.18922863641866,38.75462253232465],"type":"Point"},"id":"stl-city-public-streetlights:2:151457","properties":{"address":null,"attributes":{"Date_Installed":null,"LED_Powered":0,"LightID":"L044322","Light_Source":"LED","Light_Type":"Cobra","Lighting_Type":"LED-Powered Lamp","Verification_Date":null},"id":"stl-city-public-streetlights:2:151457","sourceLayerId":2,"sourceObjectId":151457,"sourceURL":"https://maps8.stlouis-mo.gov/arcgis/rest/services/STREETS/Streets_Permitting/MapServer/2","title":"Street light L044322"},"type":"Feature"},{"geometry":{"coordinates":[-90.18968036759843,38.75413057427525],"type":"Point"},"id":"stl-city-public-streetlights:2:151458","properties":{"address":null,"attributes":{"Date_Installed":null,"LED_Powered":0,"LightID":"L044323","Light_Source":"LED","Light_Type":"Cobra","Lighting_Type":"LED-Powered Lamp","Verification_Date":null},"id":"stl-city-public-streetlights:2:151458","sourceLayerId":2,"sourceObjectId":151458,"sourceURL":"https://maps8.stlouis-mo.gov/arcgis/rest/services/STREETS/Streets_Permitting/MapServer/2","title":"Street light L044323"},"type":"Feature"},{"geometry":{"coordinates":[-90.18946986898143,38.752607493240696],"type":"Point"},"id":"stl-city-public-streetlights:2:151462","properties":{"address":null,"attributes":{"Date_Installed":null,"LED_Powered":0,"LightID":"L044327","Light_Source":"LED","Light_Type":"Cobra","Lighting_Type":"LED-Powered Lamp","Verification_Date":null},"id":"stl-city-public-streetlights:2:151462","sourceLayerId":2,"sourceObjectId":151462,"sourceURL":"https://maps8.stlouis-mo.gov/arcgis/rest/services/STREETS/Streets_Permitting/MapServer/2","title":"Street light L044327"},"type":"Feature"},{"geometry":{"coordinates":[-90.18876233877016,38.752214708301445],"type":"Point"},"id":"stl-city-public-streetlights:2:151463","properties":{"address":null,"attributes":{"Date_Installed":null,"LED_Powered":0,"LightID":"L044328","Light_Source":"LED","Light_Type":"Cobra","Lighting_Type":"LED-Powered Lamp","Verification_Date":null},"id":"stl-city-public-streetlights:2:151463","sourceLayerId":2,"sourceObjectId":151463,"sourceURL":"https://maps8.stlouis-mo.gov/arcgis/rest/services/STREETS/Streets_Permitting/MapServer/2","title":"Street light L044328"},"type":"Feature"},{"geometry":{"coordinates":[-90.18967233803238,38.75119052847354],"type":"Point"},"id":"stl-city-public-streetlights:2:151469","properties":{"address":null,"attributes":{"Date_Installed":null,"LED_Powered":0,"LightID":"L044334","Light_Source":"LED","Light_Type":"Cobra","Lighting_Type":"LED-Powered Lamp","Verification_Date":null},"id":"stl-city-public-streetlights:2:151469","sourceLayerId":2,"sourceObjectId":151469,"sourceURL":"https://maps8.stlouis-mo.gov/arcgis/rest/services/STREETS/Streets_Permitting/MapServer/2","title":"Street light L044334"},"type":"Feature"},{"geometry":{"coordinates":[-90.18837512540547,38.75215103640087],"type":"Point"},"id":"stl-city-public-streetlights:2:151470","properties":{"address":null,"attributes":{"Date_Installed":null,"LED_Powered":0,"LightID":"L044335","Light_Source":"LED","Light_Type":"Cobra","Lighting_Type":"LED-Powered Lamp","Verification_Date":null},"id":"stl-city-public-streetlights:2:151470","sourceLayerId":2,"sourceObjectId":151470,"sourceURL":"https://maps8.stlouis-mo.gov/arcgis/rest/services/STREETS/Streets_Permitting/MapServer/2","title":"Street light L044335"},"type":"Feature"},{"geometry":{"coordinates":[-90.1878304528026,38.75252713895669],"type":"Point"},"id":"stl-city-public-streetlights:2:151471","properties":{"address":null,"attributes":{"Date_Installed":null,"LED_Powered":0,"LightID":"L044336","Light_Source":"LED","Light_Type":"Cobra","Lighting_Type":"LED-Powered Lamp","Verification_Date":null},"id":"stl-city-public-streetlights:2:151471","sourceLayerId":2,"sourceObjectId":151471,"sourceURL":"https://maps8.stlouis-mo.gov/arcgis/rest/services/STREETS/Streets_Permitting/MapServer/2","title":"Street light L044336"},"type":"Feature"},{"geometry":{"coordinates":[-90.18759701384809,38.75300894783355],"type":"Point"},"id":"stl-city-public-streetlights:2:151472","properties":{"address":null,"attributes":{"Date_Installed":null,"LED_Powered":0,"LightID":"L044337","Light_Source":"LED","Light_Type":"Cobra","Lighting_Type":"LED-Powered Lamp","Verification_Date":null},"id":"stl-city-public-streetlights:2:151472","sourceLayerId":2,"sourceObjectId":151472,"sourceURL":"https://maps8.stlouis-mo.gov/arcgis/rest/services/STREETS/Streets_Permitting/MapServer/2","title":"Street light L044337"},"type":"Feature"},{"geometry":{"coordinates":[-90.18709407469986,38.75334070495205],"type":"Point"},"id":"stl-city-public-streetlights:2:151473","properties":{"address":null,"attributes":{"Date_Installed":null,"LED_Powered":0,"LightID":"L044338","Light_Source":"LED","Light_Type":"Cobra","Lighting_Type":"LED-Powered Lamp","Verification_Date":null},"id":"stl-city-public-streetlights:2:151473","sourceLayerId":2,"sourceObjectId":151473,"sourceURL":"https://maps8.stlouis-mo.gov/arcgis/rest/services/STREETS/Streets_Permitting/MapServer/2","title":"Street light L044338"},"type":"Feature"},{"geometry":{"coordinates":[-90.18672945256834,38.75395730758473],"type":"Point"},"id":"stl-city-public-streetlights:2:151474","properties":{"address":null,"attributes":{"Date_Installed":null,"LED_Powered":0,"LightID":"L044339","Light_Source":"LED","Light_Type":"Cobra","Lighting_Type":"LED-Powered Lamp","Verification_Date":null},"id":"stl-city-public-streetlights:2:151474","sourceLayerId":2,"sourceObjectId":151474,"sourceURL":"https://maps8.stlouis-mo.gov/arcgis/rest/services/STREETS/Streets_Permitting/MapServer/2","title":"Street light L044339"},"type":"Feature"},{"geometry":{"coordinates":[-90.18623839006676,38.754278963392714],"type":"Point"},"id":"stl-city-public-streetlights:2:151475","properties":{"address":null,"attributes":{"Date_Installed":null,"LED_Powered":0,"LightID":"L044340","Light_Source":"LED","Light_Type":"Cobra","Lighting_Type":"LED-Powered Lamp","Verification_Date":null},"id":"stl-city-public-streetlights:2:151475","sourceLayerId":2,"sourceObjectId":151475,"sourceURL":"https://maps8.stlouis-mo.gov/arcgis/rest/services/STREETS/Streets_Permitting/MapServer/2","title":"Street light L044340"},"type":"Feature"},{"geometry":{"coordinates":[-90.18589971997426,38.75487513457316],"type":"Point"},"id":"stl-city-public-streetlights:2:151476","properties":{"address":null,"attributes":{"Date_Installed":null,"LED_Powered":0,"LightID":"L044341","Light_Source":"LED","Light_Type":"Cobra","Lighting_Type":"LED-Powered Lamp","Verification_Date":null},"id":"stl-city-public-streetlights:2:151476","sourceLayerId":2,"sourceObjectId":151476,"sourceURL":"https://maps8.stlouis-mo.gov/arcgis/rest/services/STREETS/Streets_Permitting/MapServer/2","title":"Street light L044341"},"type":"Feature"},{"geometry":{"coordinates":[-90.18538314442971,38.755222698362935],"type":"Point"},"id":"stl-city-public-streetlights:2:151477","properties":{"address":null,"attributes":{"Date_Installed":null,"LED_Powered":0,"LightID":"L044342","Light_Source":"LED","Light_Type":"Cobra","Lighting_Type":"LED-Powered Lamp","Verification_Date":null},"id":"stl-city-public-streetlights:2:151477","sourceLayerId":2,"sourceObjectId":151477,"sourceURL":"https://maps8.stlouis-mo.gov/arcgis/rest/services/STREETS/Streets_Permitting/MapServer/2","title":"Street light L044342"},"type":"Feature"},{"geometry":{"coordinates":[-90.18501263904932,38.755856155572616],"type":"Point"},"id":"stl-city-public-streetlights:2:151478","properties":{"address":null,"attributes":{"Date_Installed":null,"LED_Powered":0,"LightID":"L044343","Light_Source":"LED","Light_Type":"Cobra","Lighting_Type":"LED-Powered Lamp","Verification_Date":null},"id":"stl-city-public-streetlights:2:151478","sourceLayerId":2,"sourceObjectId":151478,"sourceURL":"https://maps8.stlouis-mo.gov/arcgis/rest/services/STREETS/Streets_Permitting/MapServer/2","title":"Street light L044343"},"type":"Feature"},{"geometry":{"coordinates":[-90.18417019377321,38.756774531135946],"type":"Point"},"id":"stl-city-public-streetlights:2:151479","properties":{"address":null,"attributes":{"Date_Installed":null,"LED_Powered":0,"LightID":"L044344","Light_Source":"LED","Light_Type":"Cobra","Lighting_Type":"LED-Powered Lamp","Verification_Date":null},"id":"stl-city-public-streetlights:2:151479","sourceLayerId":2,"sourceObjectId":151479,"sourceURL":"https://maps8.stlouis-mo.gov/arcgis/rest/services/STREETS/Streets_Permitting/MapServer/2","title":"Street light L044344"},"type":"Feature"},{"geometry":{"coordinates":[-90.1834933612134,38.75752721597887],"type":"Point"},"id":"stl-city-public-streetlights:2:151480","properties":{"address":null,"attributes":{"Date_Installed":null,"LED_Powered":0,"LightID":"L044345","Light_Source":"LED","Light_Type":"Cobra","Lighting_Type":"LED-Powered Lamp","Verification_Date":null},"id":"stl-city-public-streetlights:2:151480","sourceLayerId":2,"sourceObjectId":151480,"sourceURL":"https://maps8.stlouis-mo.gov/arcgis/rest/services/STREETS/Streets_Permitting/MapServer/2","title":"Street light L044345"},"type":"Feature"},{"geometry":{"coordinates":[-90.1829216595564,38.75803423733547],"type":"Point"},"id":"stl-city-public-streetlights:2:151481","properties":{"address":null,"attributes":{"Date_Installed":null,"LED_Powered":0,"LightID":"L044346","Light_Source":"LED","Light_Type":"Cobra","Lighting_Type":"LED-Powered Lamp","Verification_Date":null},"id":"stl-city-public-streetlights:2:151481","sourceLayerId":2,"sourceObjectId":151481,"sourceURL":"https://maps8.stlouis-mo.gov/arcgis/rest/services/STREETS/Streets_Permitting/MapServer/2","title":"Street light L044346"},"type":"Feature"},{"geometry":{"coordinates":[-90.18251014985151,38.75850148975322],"type":"Point"},"id":"stl-city-public-streetlights:2:151482","properties":{"address":null,"attributes":{"Date_Installed":null,"LED_Powered":0,"LightID":"L044347","Light_Source":"LED","Light_Type":"Cobra","Lighting_Type":"LED-Powered Lamp","Verification_Date":null},"id":"stl-city-public-streetlights:2:151482","sourceLayerId":2,"sourceObjectId":151482,"sourceURL":"https://maps8.stlouis-mo.gov/arcgis/rest/services/STREETS/Streets_Permitting/MapServer/2","title":"Street light L044347"},"type":"Feature"},{"geometry":{"coordinates":[-90.1833795765863,38.75991891444711],"type":"Point"},"id":"stl-city-public-streetlights:2:151486","properties":{"address":null,"attributes":{"Date_Installed":null,"LED_Powered":0,"LightID":"L044351","Light_Source":"LED","Light_Type":"Cobra","Lighting_Type":"LED-Powered Lamp","Verification_Date":null},"id":"stl-city-public-streetlights:2:151486","sourceLayerId":2,"sourceObjectId":151486,"sourceURL":"https://maps8.stlouis-mo.gov/arcgis/rest/services/STREETS/Streets_Permitting/MapServer/2","title":"Street light L044351"},"type":"Feature"},{"geometry":{"coordinates":[-90.1847286514757,38.759811010890175],"type":"Point"},"id":"stl-city-public-streetlights:2:151487","properties":{"address":null,"attributes":{"Date_Installed":null,"LED_Powered":0,"LightID":"L044352","Light_Source":"LED","Light_Type":"Cobra","Lighting_Type":"LED-Powered Lamp","Verification_Date":null},"id":"stl-city-public-streetlights:2:151487","sourceLayerId":2,"sourceObjectId":151487,"sourceURL":"https://maps8.stlouis-mo.gov/arcgis/rest/services/STREETS/Streets_Permitting/MapServer/2","title":"Street light L044352"},"type":"Feature"},{"geometry":{"coordinates":[-90.18509191460276,38.759410480630926],"type":"Point"},"id":"stl-city-public-streetlights:2:151488","properties":{"address":null,"attributes":{"Date_Installed":null,"LED_Powered":0,"LightID":"L044353","Light_Source":"LED","Light_Type":"Cobra","Lighting_Type":"LED-Powered Lamp","Verification_Date":null},"id":"stl-city-public-streetlights:2:151488","sourceLayerId":2,"sourceObjectId":151488,"sourceURL":"https://maps8.stlouis-mo.gov/arcgis/rest/services/STREETS/Streets_Permitting/MapServer/2","title":"Street light L044353"},"type":"Feature"},{"geometry":{"coordinates":[-90.1855437475639,38.75906131458552],"type":"Point"},"id":"stl-city-public-streetlights:2:151489","properties":{"address":null,"attributes":{"Date_Installed":null,"LED_Powered":0,"LightID":"L044354","Light_Source":"LED","Light_Type":"Cobra","Lighting_Type":"LED-Powered Lamp","Verification_Date":null},"id":"stl-city-public-streetlights:2:151489","sourceLayerId":2,"sourceObjectId":151489,"sourceURL":"https://maps8.stlouis-mo.gov/arcgis/rest/services/STREETS/Streets_Permitting/MapServer/2","title":"Street light L044354"},"type":"Feature"},{"geometry":{"coordinates":[-90.1848341544856,38.75894124983835],"type":"Point"},"id":"stl-city-public-streetlights:2:151490","properties":{"address":null,"attributes":{"Date_Installed":null,"LED_Powered":0,"LightID":"L044355","Light_Source":"LED","Light_Type":"Cobra","Lighting_Type":"LED-Powered Lamp","Verification_Date":null},"id":"stl-city-public-streetlights:2:151490","sourceLayerId":2,"sourceObjectId":151490,"sourceURL":"https://maps8.stlouis-mo.gov/arcgis/rest/services/STREETS/Streets_Permitting/MapServer/2","title":"Street light L044355"},"type":"Feature"},{"geometry":{"coordinates":[-90.18347692909366,38.75817584558848],"type":"Point"},"id":"stl-city-public-streetlights:2:151491","properties":{"address":null,"attributes":{"Date_Installed":null,"LED_Powered":0,"LightID":"L044356","Light_Source":"LED","Light_Type":"Cobra","Lighting_Type":"LED-Powered Lamp","Verification_Date":null},"id":"stl-city-public-streetlights:2:151491","sourceLayerId":2,"sourceObjectId":151491,"sourceURL":"https://maps8.stlouis-mo.gov/arcgis/rest/services/STREETS/Streets_Permitting/MapServer/2","title":"Street light L044356"},"type":"Feature"},{"geometry":{"coordinates":[-90.18375502184496,38.75804750906917],"type":"Point"},"id":"stl-city-public-streetlights:2:151492","properties":{"address":null,"attributes":{"Date_Installed":null,"LED_Powered":0,"LightID":"L044357","Light_Source":"LED","Light_Type":"Cobra","Lighting_Type":"LED-Powered Lamp","Verification_Date":null},"id":"stl-city-public-streetlights:2:151492","sourceLayerId":2,"sourceObjectId":151492,"sourceURL":"https://maps8.stlouis-mo.gov/arcgis/rest/services/STREETS/Streets_Permitting/MapServer/2","title":"Street light L044357"},"type":"Feature"},{"geometry":{"coordinates":[-90.1847297966793,38.75859359299992],"type":"Point"},"id":"stl-city-public-streetlights:2:151493","properties":{"address":null,"attributes":{"Date_Installed":null,"LED_Powered":0,"LightID":"L044358","Light_Source":"LED","Light_Type":"Cobra","Lighting_Type":"LED-Powered Lamp","Verification_Date":null},"id":"stl-city-public-streetlights:2:151493","sourceLayerId":2,"sourceObjectId":151493,"sourceURL":"https://maps8.stlouis-mo.gov/arcgis/rest/services/STREETS/Streets_Permitting/MapServer/2","title":"Street light L044358"},"type":"Feature"},{"geometry":{"coordinates":[-90.18415586292953,38.755301901097],"type":"Point"},"id":"stl-city-public-streetlights:2:151494","properties":{"address":null,"attributes":{"Date_Installed":null,"LED_Powered":0,"LightID":"L044359","Light_Source":"LED","Light_Type":"Cobra","Lighting_Type":"LED-Powered Lamp","Verification_Date":null},"id":"stl-city-public-streetlights:2:151494","sourceLayerId":2,"sourceObjectId":151494,"sourceURL":"https://maps8.stlouis-mo.gov/arcgis/rest/services/STREETS/Streets_Permitting/MapServer/2","title":"Street light L044359"},"type":"Feature"},{"geometry":{"coordinates":[-90.1836692565714,38.755029455681004],"type":"Point"},"id":"stl-city-public-streetlights:2:151495","properties":{"address":null,"attributes":{"Date_Installed":null,"LED_Powered":0,"LightID":"L044360","Light_Source":"LED","Light_Type":"Cobra","Lighting_Type":"LED-Powered Lamp","Verification_Date":null},"id":"stl-city-public-streetlights:2:151495","sourceLayerId":2,"sourceObjectId":151495,"sourceURL":"https://maps8.stlouis-mo.gov/arcgis/rest/services/STREETS/Streets_Permitting/MapServer/2","title":"Street light L044360"},"type":"Feature"},{"geometry":{"coordinates":[-90.18871477329313,38.75122078581265],"type":"Point"},"id":"stl-city-public-streetlights:2:151496","properties":{"address":null,"attributes":{"Date_Installed":null,"LED_Powered":0,"LightID":"L044361","Light_Source":"LED","Light_Type":"Cobra","Lighting_Type":"LED-Powered Lamp","Verification_Date":null},"id":"stl-city-public-streetlights:2:151496","sourceLayerId":2,"sourceObjectId":151496,"sourceURL":"https://maps8.stlouis-mo.gov/arcgis/rest/services/STREETS/Streets_Permitting/MapServer/2","title":"Street light L044361"},"type":"Feature"},{"geometry":{"coordinates":[-90.18920001436342,38.750781666346015],"type":"Point"},"id":"stl-city-public-streetlights:2:151497","properties":{"address":null,"attributes":{"Date_Installed":null,"LED_Powered":0,"LightID":"L044362","Light_Source":"LED","Light_Type":"Cobra","Lighting_Type":"LED-Powered Lamp","Verification_Date":null},"id":"stl-city-public-streetlights:2:151497","sourceLayerId":2,"sourceObjectId":151497,"sourceURL":"https://maps8.stlouis-mo.gov/arcgis/rest/services/STREETS/Streets_Permitting/MapServer/2","title":"Street light L044362"},"type":"Feature"},{"geometry":{"coordinates":[-90.18825631101583,38.75193233226046],"type":"Point"},"id":"stl-city-public-streetlights:2:159581","properties":{"address":null,"attributes":{"Date_Installed":null,"LED_Powered":0,"LightID":"L052507","Light_Source":"LED","Light_Type":"Cobra","Lighting_Type":"LED-Powered Lamp","Verification_Date":null},"id":"stl-city-public-streetlights:2:159581","sourceLayerId":2,"sourceObjectId":159581,"sourceURL":"https://maps8.stlouis-mo.gov/arcgis/rest/services/STREETS/Streets_Permitting/MapServer/2","title":"Street light L052507"},"type":"Feature"},{"geometry":{"coordinates":[-90.18759449696408,38.751529174199675],"type":"Point"},"id":"stl-city-public-streetlights:2:159582","properties":{"address":null,"attributes":{"Date_Installed":null,"LED_Powered":0,"LightID":"L052508","Light_Source":"LED","Light_Type":"Cobra","Lighting_Type":"LED-Powered Lamp","Verification_Date":null},"id":"stl-city-public-streetlights:2:159582","sourceLayerId":2,"sourceObjectId":159582,"sourceURL":"https://maps8.stlouis-mo.gov/arcgis/rest/services/STREETS/Streets_Permitting/MapServer/2","title":"Street light L052508"},"type":"Feature"},{"geometry":{"coordinates":[-90.18704169155109,38.75116773083173],"type":"Point"},"id":"stl-city-public-streetlights:2:159583","properties":{"address":null,"attributes":{"Date_Installed":null,"LED_Powered":0,"LightID":"L052509","Light_Source":"High Pressure Sodium","Light_Type":"Cobra","Lighting_Type":"150-W High Pressure Sodium Vapor Lamp (Twin Lights)","Verification_Date":null},"id":"stl-city-public-streetlights:2:159583","sourceLayerId":2,"sourceObjectId":159583,"sourceURL":"https://maps8.stlouis-mo.gov/arcgis/rest/services/STREETS/Streets_Permitting/MapServer/2","title":"Street light L052509"},"type":"Feature"},{"geometry":{"coordinates":[-90.186669220844,38.75156288022875],"type":"Point"},"id":"stl-city-public-streetlights:2:159584","properties":{"address":null,"attributes":{"Date_Installed":null,"LED_Powered":0,"LightID":"L052510","Light_Source":"LED","Light_Type":"Cobra","Lighting_Type":"LED-Powered Lamp","Verification_Date":null},"id":"stl-city-public-streetlights:2:159584","sourceLayerId":2,"sourceObjectId":159584,"sourceURL":"https://maps8.stlouis-mo.gov/arcgis/rest/services/STREETS/Streets_Permitting/MapServer/2","title":"Street light L052510"},"type":"Feature"},{"geometry":{"coordinates":[-90.18565741586438,38.752677277802434],"type":"Point"},"id":"stl-city-public-streetlights:2:159585","properties":{"address":null,"attributes":{"Date_Installed":null,"LED_Powered":0,"LightID":"L052511","Light_Source":"LED","Light_Type":"Cobra","Lighting_Type":"LED-Powered Lamp","Verification_Date":null},"id":"stl-city-public-streetlights:2:159585","sourceLayerId":2,"sourceObjectId":159585,"sourceURL":"https://maps8.stlouis-mo.gov/arcgis/rest/services/STREETS/Streets_Permitting/MapServer/2","title":"Street light L052511"},"type":"Feature"},{"geometry":{"coordinates":[-90.18529804401088,38.75306661848563],"type":"Point"},"id":"stl-city-public-streetlights:2:159586","properties":{"address":null,"attributes":{"Date_Installed":null,"LED_Powered":0,"LightID":"L052512","Light_Source":"LED","Light_Type":"Cobra","Lighting_Type":"LED-Powered Lamp","Verification_Date":null},"id":"stl-city-public-streetlights:2:159586","sourceLayerId":2,"sourceObjectId":159586,"sourceURL":"https://maps8.stlouis-mo.gov/arcgis/rest/services/STREETS/Streets_Permitting/MapServer/2","title":"Street light L052512"},"type":"Feature"},{"geometry":{"coordinates":[-90.18975696333612,38.751772023932695],"type":"Point"},"id":"stl-city-public-streetlights:2:159587","properties":{"address":null,"attributes":{"Date_Installed":null,"LED_Powered":0,"LightID":"L052513","Light_Source":"LED","Light_Type":"Cobra","Lighting_Type":"LED-Powered Lamp","Verification_Date":null},"id":"stl-city-public-streetlights:2:159587","sourceLayerId":2,"sourceObjectId":159587,"sourceURL":"https://maps8.stlouis-mo.gov/arcgis/rest/services/STREETS/Streets_Permitting/MapServer/2","title":"Street light L052513"},"type":"Feature"},{"geometry":{"coordinates":[-90.18390307922074,38.75841938595936],"type":"Point"},"id":"stl-city-public-streetlights:2:159588","properties":{"address":null,"attributes":{"Date_Installed":null,"LED_Powered":0,"LightID":"L052514","Light_Source":"LED","Light_Type":"Cobra","Lighting_Type":"LED-Powered Lamp","Verification_Date":null},"id":"stl-city-public-streetlights:2:159588","sourceLayerId":2,"sourceObjectId":159588,"sourceURL":"https://maps8.stlouis-mo.gov/arcgis/rest/services/STREETS/Streets_Permitting/MapServer/2","title":"Street light L052514"},"type":"Feature"}],"layerId":"city-streetlights","retrievedAt":"2026-09-13T21:56:18.173251+00:00","schema":"property-infrastructure-geojson-v1","sourceId":"stl-city-public-streetlights","tileId":"-9019_3875","type":"FeatureCollection"}