{"features":[{"geometry":{"coordinates":[-90.1799465289119,38.62897762430474],"type":"Point"},"id":"stl-city-public-streetlights:2:154311","properties":{"address":null,"attributes":{"Date_Installed":null,"LED_Powered":0,"LightID":"L052165","Light_Source":"High Pressure Sodium","Light_Type":"Cobra","Lighting_Type":"150-W High Pressure Sodium Vapor Lamp","Verification_Date":null},"id":"stl-city-public-streetlights:2:154311","sourceLayerId":2,"sourceObjectId":154311,"sourceURL":"https://maps8.stlouis-mo.gov/arcgis/rest/services/STREETS/Streets_Permitting/MapServer/2","title":"Street light L052165"},"type":"Feature"},{"geometry":{"coordinates":[-90.1796576830419,38.62894751527146],"type":"Point"},"id":"stl-city-public-streetlights:2:154312","properties":{"address":null,"attributes":{"Date_Installed":null,"LED_Powered":0,"LightID":"L052166","Light_Source":"High Pressure Sodium","Light_Type":"Cobra","Lighting_Type":"150-W High Pressure Sodium Vapor Lamp","Verification_Date":null},"id":"stl-city-public-streetlights:2:154312","sourceLayerId":2,"sourceObjectId":154312,"sourceURL":"https://maps8.stlouis-mo.gov/arcgis/rest/services/STREETS/Streets_Permitting/MapServer/2","title":"Street light L052166"},"type":"Feature"},{"geometry":{"coordinates":[-90.17930232888129,38.62890864227384],"type":"Point"},"id":"stl-city-public-streetlights:2:154313","properties":{"address":null,"attributes":{"Date_Installed":null,"LED_Powered":0,"LightID":"L052167","Light_Source":"High Pressure Sodium","Light_Type":"Cobra","Lighting_Type":"150-W High Pressure Sodium Vapor Lamp","Verification_Date":null},"id":"stl-city-public-streetlights:2:154313","sourceLayerId":2,"sourceObjectId":154313,"sourceURL":"https://maps8.stlouis-mo.gov/arcgis/rest/services/STREETS/Streets_Permitting/MapServer/2","title":"Street light L052167"},"type":"Feature"},{"geometry":{"coordinates":[-90.17898646703613,38.62887202157534],"type":"Point"},"id":"stl-city-public-streetlights:2:154314","properties":{"address":null,"attributes":{"Date_Installed":null,"LED_Powered":0,"LightID":"L052168","Light_Source":"High Pressure Sodium","Light_Type":"Cobra","Lighting_Type":"150-W High Pressure Sodium Vapor Lamp","Verification_Date":null},"id":"stl-city-public-streetlights:2:154314","sourceLayerId":2,"sourceObjectId":154314,"sourceURL":"https://maps8.stlouis-mo.gov/arcgis/rest/services/STREETS/Streets_Permitting/MapServer/2","title":"Street light L052168"},"type":"Feature"},{"geometry":{"coordinates":[-90.17867879002145,38.62884019091177],"type":"Point"},"id":"stl-city-public-streetlights:2:154315","properties":{"address":null,"attributes":{"Date_Installed":null,"LED_Powered":0,"LightID":"L052169","Light_Source":"High Pressure Sodium","Light_Type":"Cobra","Lighting_Type":"150-W High Pressure Sodium Vapor Lamp","Verification_Date":null},"id":"stl-city-public-streetlights:2:154315","sourceLayerId":2,"sourceObjectId":154315,"sourceURL":"https://maps8.stlouis-mo.gov/arcgis/rest/services/STREETS/Streets_Permitting/MapServer/2","title":"Street light L052169"},"type":"Feature"},{"geometry":{"coordinates":[-90.17835985917087,38.628810710455475],"type":"Point"},"id":"stl-city-public-streetlights:2:154316","properties":{"address":null,"attributes":{"Date_Installed":null,"LED_Powered":0,"LightID":"L052170","Light_Source":"High Pressure Sodium","Light_Type":"Cobra","Lighting_Type":"150-W High Pressure Sodium Vapor Lamp","Verification_Date":null},"id":"stl-city-public-streetlights:2:154316","sourceLayerId":2,"sourceObjectId":154316,"sourceURL":"https://maps8.stlouis-mo.gov/arcgis/rest/services/STREETS/Streets_Permitting/MapServer/2","title":"Street light L052170"},"type":"Feature"},{"geometry":{"coordinates":[-90.1780318547101,38.62877167094664],"type":"Point"},"id":"stl-city-public-streetlights:2:155502","properties":{"address":null,"attributes":{"Date_Installed":null,"LED_Powered":0,"LightID":"L048234","Light_Source":"High Pressure Sodium","Light_Type":"Cobra","Lighting_Type":"150-W High Pressure Sodium Vapor Lamp","Verification_Date":null},"id":"stl-city-public-streetlights:2:155502","sourceLayerId":2,"sourceObjectId":155502,"sourceURL":"https://maps8.stlouis-mo.gov/arcgis/rest/services/STREETS/Streets_Permitting/MapServer/2","title":"Street light L048234"},"type":"Feature"},{"geometry":{"coordinates":[-90.1777311349588,38.628747007298266],"type":"Point"},"id":"stl-city-public-streetlights:2:155503","properties":{"address":null,"attributes":{"Date_Installed":null,"LED_Powered":0,"LightID":"L048235","Light_Source":"High Pressure Sodium","Light_Type":"Cobra","Lighting_Type":"150-W High Pressure Sodium Vapor Lamp","Verification_Date":null},"id":"stl-city-public-streetlights:2:155503","sourceLayerId":2,"sourceObjectId":155503,"sourceURL":"https://maps8.stlouis-mo.gov/arcgis/rest/services/STREETS/Streets_Permitting/MapServer/2","title":"Street light L048235"},"type":"Feature"},{"geometry":{"coordinates":[-90.17742438162082,38.62871279122603],"type":"Point"},"id":"stl-city-public-streetlights:2:156094","properties":{"address":null,"attributes":{"Date_Installed":null,"LED_Powered":0,"LightID":"L048822","Light_Source":"High Pressure Sodium","Light_Type":"Cobra","Lighting_Type":"150-W High Pressure Sodium Vapor Lamp","Verification_Date":null},"id":"stl-city-public-streetlights:2:156094","sourceLayerId":2,"sourceObjectId":156094,"sourceURL":"https://maps8.stlouis-mo.gov/arcgis/rest/services/STREETS/Streets_Permitting/MapServer/2","title":"Street light L048822"},"type":"Feature"},{"geometry":{"coordinates":[-90.17711156045752,38.6286761738506],"type":"Point"},"id":"stl-city-public-streetlights:2:156095","properties":{"address":null,"attributes":{"Date_Installed":null,"LED_Powered":0,"LightID":"L048823","Light_Source":"High Pressure Sodium","Light_Type":"Cobra","Lighting_Type":"150-W High Pressure Sodium Vapor Lamp","Verification_Date":null},"id":"stl-city-public-streetlights:2:156095","sourceLayerId":2,"sourceObjectId":156095,"sourceURL":"https://maps8.stlouis-mo.gov/arcgis/rest/services/STREETS/Streets_Permitting/MapServer/2","title":"Street light L048823"},"type":"Feature"},{"geometry":{"coordinates":[-90.17679234064781,38.62864382890133],"type":"Point"},"id":"stl-city-public-streetlights:2:156096","properties":{"address":null,"attributes":{"Date_Installed":null,"LED_Powered":0,"LightID":"L048824","Light_Source":"High Pressure Sodium","Light_Type":"Cobra","Lighting_Type":"150-W High Pressure Sodium Vapor Lamp","Verification_Date":null},"id":"stl-city-public-streetlights:2:156096","sourceLayerId":2,"sourceObjectId":156096,"sourceURL":"https://maps8.stlouis-mo.gov/arcgis/rest/services/STREETS/Streets_Permitting/MapServer/2","title":"Street light L048824"},"type":"Feature"},{"geometry":{"coordinates":[-90.176485565641,38.62861437781696],"type":"Point"},"id":"stl-city-public-streetlights:2:156097","properties":{"address":null,"attributes":{"Date_Installed":null,"LED_Powered":0,"LightID":"L048825","Light_Source":"High Pressure Sodium","Light_Type":"Cobra","Lighting_Type":"150-W High Pressure Sodium Vapor Lamp","Verification_Date":null},"id":"stl-city-public-streetlights:2:156097","sourceLayerId":2,"sourceObjectId":156097,"sourceURL":"https://maps8.stlouis-mo.gov/arcgis/rest/services/STREETS/Streets_Permitting/MapServer/2","title":"Street light L048825"},"type":"Feature"},{"geometry":{"coordinates":[-90.17615451357716,38.62857770837423],"type":"Point"},"id":"stl-city-public-streetlights:2:156098","properties":{"address":null,"attributes":{"Date_Installed":null,"LED_Powered":0,"LightID":"L048826","Light_Source":"High Pressure Sodium","Light_Type":"Cobra","Lighting_Type":"150-W High Pressure Sodium Vapor Lamp","Verification_Date":null},"id":"stl-city-public-streetlights:2:156098","sourceLayerId":2,"sourceObjectId":156098,"sourceURL":"https://maps8.stlouis-mo.gov/arcgis/rest/services/STREETS/Streets_Permitting/MapServer/2","title":"Street light L048826"},"type":"Feature"},{"geometry":{"coordinates":[-90.17586597208414,38.62854830613194],"type":"Point"},"id":"stl-city-public-streetlights:2:156099","properties":{"address":null,"attributes":{"Date_Installed":null,"LED_Powered":0,"LightID":"L048827","Light_Source":"High Pressure Sodium","Light_Type":"Cobra","Lighting_Type":"150-W High Pressure Sodium Vapor Lamp","Verification_Date":null},"id":"stl-city-public-streetlights:2:156099","sourceLayerId":2,"sourceObjectId":156099,"sourceURL":"https://maps8.stlouis-mo.gov/arcgis/rest/services/STREETS/Streets_Permitting/MapServer/2","title":"Street light L048827"},"type":"Feature"},{"geometry":{"coordinates":[-90.17554406935893,38.62850450814523],"type":"Point"},"id":"stl-city-public-streetlights:2:156100","properties":{"address":null,"attributes":{"Date_Installed":null,"LED_Powered":0,"LightID":"L048828","Light_Source":"High Pressure Sodium","Light_Type":"Cobra","Lighting_Type":"150-W High Pressure Sodium Vapor Lamp","Verification_Date":null},"id":"stl-city-public-streetlights:2:156100","sourceLayerId":2,"sourceObjectId":156100,"sourceURL":"https://maps8.stlouis-mo.gov/arcgis/rest/services/STREETS/Streets_Permitting/MapServer/2","title":"Street light L048828"},"type":"Feature"},{"geometry":{"coordinates":[-90.17539023323397,38.62847706736826],"type":"Point"},"id":"stl-city-public-streetlights:2:156101","properties":{"address":null,"attributes":{"Date_Installed":null,"LED_Powered":0,"LightID":"L048829","Light_Source":"High Pressure Sodium","Light_Type":"Cobra","Lighting_Type":"150-W High Pressure Sodium Vapor Lamp","Verification_Date":null},"id":"stl-city-public-streetlights:2:156101","sourceLayerId":2,"sourceObjectId":156101,"sourceURL":"https://maps8.stlouis-mo.gov/arcgis/rest/services/STREETS/Streets_Permitting/MapServer/2","title":"Street light L048829"},"type":"Feature"},{"geometry":{"coordinates":[-90.17518136385691,38.628434536869456],"type":"Point"},"id":"stl-city-public-streetlights:2:156102","properties":{"address":null,"attributes":{"Date_Installed":null,"LED_Powered":0,"LightID":"L048830","Light_Source":"High Pressure Sodium","Light_Type":"Cobra","Lighting_Type":"150-W High Pressure Sodium Vapor Lamp","Verification_Date":null},"id":"stl-city-public-streetlights:2:156102","sourceLayerId":2,"sourceObjectId":156102,"sourceURL":"https://maps8.stlouis-mo.gov/arcgis/rest/services/STREETS/Streets_Permitting/MapServer/2","title":"Street light L048830"},"type":"Feature"},{"geometry":{"coordinates":[-90.17494661976,38.62839121790914],"type":"Point"},"id":"stl-city-public-streetlights:2:156103","properties":{"address":null,"attributes":{"Date_Installed":null,"LED_Powered":0,"LightID":"L048831","Light_Source":"High Pressure Sodium","Light_Type":"Cobra","Lighting_Type":"150-W High Pressure Sodium Vapor Lamp","Verification_Date":null},"id":"stl-city-public-streetlights:2:156103","sourceLayerId":2,"sourceObjectId":156103,"sourceURL":"https://maps8.stlouis-mo.gov/arcgis/rest/services/STREETS/Streets_Permitting/MapServer/2","title":"Street light L048831"},"type":"Feature"},{"geometry":{"coordinates":[-90.17471124618005,38.62836374788245],"type":"Point"},"id":"stl-city-public-streetlights:2:156104","properties":{"address":null,"attributes":{"Date_Installed":null,"LED_Powered":0,"LightID":"L048832","Light_Source":"High Pressure Sodium","Light_Type":"Cobra","Lighting_Type":"150-W High Pressure Sodium Vapor Lamp","Verification_Date":null},"id":"stl-city-public-streetlights:2:156104","sourceLayerId":2,"sourceObjectId":156104,"sourceURL":"https://maps8.stlouis-mo.gov/arcgis/rest/services/STREETS/Streets_Permitting/MapServer/2","title":"Street light L048832"},"type":"Feature"},{"geometry":{"coordinates":[-90.17446072140726,38.628327297501095],"type":"Point"},"id":"stl-city-public-streetlights:2:156535","properties":{"address":null,"attributes":{"Date_Installed":null,"LED_Powered":0,"LightID":"L049259","Light_Source":"High Pressure Sodium","Light_Type":"Cobra","Lighting_Type":"150-W High Pressure Sodium Vapor Lamp","Verification_Date":null},"id":"stl-city-public-streetlights:2:156535","sourceLayerId":2,"sourceObjectId":156535,"sourceURL":"https://maps8.stlouis-mo.gov/arcgis/rest/services/STREETS/Streets_Permitting/MapServer/2","title":"Street light L049259"},"type":"Feature"},{"geometry":{"coordinates":[-90.17422155028319,38.628299815923576],"type":"Point"},"id":"stl-city-public-streetlights:2:156536","properties":{"address":null,"attributes":{"Date_Installed":null,"LED_Powered":0,"LightID":"L049260","Light_Source":"High Pressure Sodium","Light_Type":"Cobra","Lighting_Type":"150-W High Pressure Sodium Vapor Lamp","Verification_Date":null},"id":"stl-city-public-streetlights:2:156536","sourceLayerId":2,"sourceObjectId":156536,"sourceURL":"https://maps8.stlouis-mo.gov/arcgis/rest/services/STREETS/Streets_Permitting/MapServer/2","title":"Street light L049260"},"type":"Feature"},{"geometry":{"coordinates":[-90.17398241982188,38.62826339534282],"type":"Point"},"id":"stl-city-public-streetlights:2:156537","properties":{"address":null,"attributes":{"Date_Installed":null,"LED_Powered":0,"LightID":"L049261","Light_Source":"High Pressure Sodium","Light_Type":"Cobra","Lighting_Type":"150-W High Pressure Sodium Vapor Lamp","Verification_Date":null},"id":"stl-city-public-streetlights:2:156537","sourceLayerId":2,"sourceObjectId":156537,"sourceURL":"https://maps8.stlouis-mo.gov/arcgis/rest/services/STREETS/Streets_Permitting/MapServer/2","title":"Street light L049261"},"type":"Feature"},{"geometry":{"coordinates":[-90.17375083262684,38.62823891407818],"type":"Point"},"id":"stl-city-public-streetlights:2:156538","properties":{"address":null,"attributes":{"Date_Installed":null,"LED_Powered":0,"LightID":"L049262","Light_Source":"High Pressure Sodium","Light_Type":"Cobra","Lighting_Type":"150-W High Pressure Sodium Vapor Lamp","Verification_Date":null},"id":"stl-city-public-streetlights:2:156538","sourceLayerId":2,"sourceObjectId":156538,"sourceURL":"https://maps8.stlouis-mo.gov/arcgis/rest/services/STREETS/Streets_Permitting/MapServer/2","title":"Street light L049262"},"type":"Feature"},{"geometry":{"coordinates":[-90.17350407970744,38.62820843065102],"type":"Point"},"id":"stl-city-public-streetlights:2:157197","properties":{"address":null,"attributes":{"Date_Installed":null,"LED_Powered":0,"LightID":"L049917","Light_Source":"High Pressure Sodium","Light_Type":"Cobra","Lighting_Type":"150-W High Pressure Sodium Vapor Lamp","Verification_Date":null},"id":"stl-city-public-streetlights:2:157197","sourceLayerId":2,"sourceObjectId":157197,"sourceURL":"https://maps8.stlouis-mo.gov/arcgis/rest/services/STREETS/Streets_Permitting/MapServer/2","title":"Street light L049917"},"type":"Feature"},{"geometry":{"coordinates":[-90.1732649228776,38.62817796791618],"type":"Point"},"id":"stl-city-public-streetlights:2:157198","properties":{"address":null,"attributes":{"Date_Installed":null,"LED_Powered":0,"LightID":"L049918","Light_Source":"High Pressure Sodium","Light_Type":"Cobra","Lighting_Type":"150-W High Pressure Sodium Vapor Lamp","Verification_Date":null},"id":"stl-city-public-streetlights:2:157198","sourceLayerId":2,"sourceObjectId":157198,"sourceURL":"https://maps8.stlouis-mo.gov/arcgis/rest/services/STREETS/Streets_Permitting/MapServer/2","title":"Street light L049918"},"type":"Feature"},{"geometry":{"coordinates":[-90.17301815570079,38.62815046266704],"type":"Point"},"id":"stl-city-public-streetlights:2:157199","properties":{"address":null,"attributes":{"Date_Installed":null,"LED_Powered":0,"LightID":"L049919","Light_Source":"High Pressure Sodium","Light_Type":"Cobra","Lighting_Type":"150-W High Pressure Sodium Vapor Lamp","Verification_Date":null},"id":"stl-city-public-streetlights:2:157199","sourceLayerId":2,"sourceObjectId":157199,"sourceURL":"https://maps8.stlouis-mo.gov/arcgis/rest/services/STREETS/Streets_Permitting/MapServer/2","title":"Street light L049919"},"type":"Feature"},{"geometry":{"coordinates":[-90.1727714169465,38.628116998492466],"type":"Point"},"id":"stl-city-public-streetlights:2:157205","properties":{"address":null,"attributes":{"Date_Installed":null,"LED_Powered":0,"LightID":"L049925","Light_Source":"High Pressure Sodium","Light_Type":"Cobra","Lighting_Type":"150-W High Pressure Sodium Vapor Lamp","Verification_Date":null},"id":"stl-city-public-streetlights:2:157205","sourceLayerId":2,"sourceObjectId":157205,"sourceURL":"https://maps8.stlouis-mo.gov/arcgis/rest/services/STREETS/Streets_Permitting/MapServer/2","title":"Street light L049925"},"type":"Feature"},{"geometry":{"coordinates":[-90.17253793382243,38.62809191313639],"type":"Point"},"id":"stl-city-public-streetlights:2:157206","properties":{"address":null,"attributes":{"Date_Installed":null,"LED_Powered":0,"LightID":"L049926","Light_Source":"High Pressure Sodium","Light_Type":"Cobra","Lighting_Type":"150-W High Pressure Sodium Vapor Lamp","Verification_Date":null},"id":"stl-city-public-streetlights:2:157206","sourceLayerId":2,"sourceObjectId":157206,"sourceURL":"https://maps8.stlouis-mo.gov/arcgis/rest/services/STREETS/Streets_Permitting/MapServer/2","title":"Street light L049926"},"type":"Feature"},{"geometry":{"coordinates":[-90.17229499343087,38.628058458588065],"type":"Point"},"id":"stl-city-public-streetlights:2:157207","properties":{"address":null,"attributes":{"Date_Installed":null,"LED_Powered":0,"LightID":"L049927","Light_Source":"High Pressure Sodium","Light_Type":"Cobra","Lighting_Type":"150-W High Pressure Sodium Vapor Lamp","Verification_Date":null},"id":"stl-city-public-streetlights:2:157207","sourceLayerId":2,"sourceObjectId":157207,"sourceURL":"https://maps8.stlouis-mo.gov/arcgis/rest/services/STREETS/Streets_Permitting/MapServer/2","title":"Street light L049927"},"type":"Feature"},{"geometry":{"coordinates":[-90.17205585119852,38.628025014181254],"type":"Point"},"id":"stl-city-public-streetlights:2:157208","properties":{"address":null,"attributes":{"Date_Installed":null,"LED_Powered":0,"LightID":"L049928","Light_Source":"High Pressure Sodium","Light_Type":"Cobra","Lighting_Type":"150-W High Pressure Sodium Vapor Lamp","Verification_Date":null},"id":"stl-city-public-streetlights:2:157208","sourceLayerId":2,"sourceObjectId":157208,"sourceURL":"https://maps8.stlouis-mo.gov/arcgis/rest/services/STREETS/Streets_Permitting/MapServer/2","title":"Street light L049928"},"type":"Feature"},{"geometry":{"coordinates":[-90.17180532899245,38.62798855722228],"type":"Point"},"id":"stl-city-public-streetlights:2:157767","properties":{"address":null,"attributes":{"Date_Installed":null,"LED_Powered":0,"LightID":"L050480","Light_Source":"High Pressure Sodium","Light_Type":"Cobra","Lighting_Type":"150-W High Pressure Sodium Vapor Lamp","Verification_Date":null},"id":"stl-city-public-streetlights:2:157767","sourceLayerId":2,"sourceObjectId":157767,"sourceURL":"https://maps8.stlouis-mo.gov/arcgis/rest/services/STREETS/Streets_Permitting/MapServer/2","title":"Street light L050480"},"type":"Feature"},{"geometry":{"coordinates":[-90.17155853585783,38.62796700820827],"type":"Point"},"id":"stl-city-public-streetlights:2:157768","properties":{"address":null,"attributes":{"Date_Installed":null,"LED_Powered":0,"LightID":"L050481","Light_Source":"High Pressure Sodium","Light_Type":"Cobra","Lighting_Type":"150-W High Pressure Sodium Vapor Lamp","Verification_Date":null},"id":"stl-city-public-streetlights:2:157768","sourceLayerId":2,"sourceObjectId":157768,"sourceURL":"https://maps8.stlouis-mo.gov/arcgis/rest/services/STREETS/Streets_Permitting/MapServer/2","title":"Street light L050481"},"type":"Feature"},{"geometry":{"coordinates":[-90.17131548754004,38.62795738706378],"type":"Point"},"id":"stl-city-public-streetlights:2:157769","properties":{"address":null,"attributes":{"Date_Installed":null,"LED_Powered":0,"LightID":"L050482","Light_Source":"High Pressure Sodium","Light_Type":"Cobra","Lighting_Type":"150-W High Pressure Sodium Vapor Lamp","Verification_Date":null},"id":"stl-city-public-streetlights:2:157769","sourceLayerId":2,"sourceObjectId":157769,"sourceURL":"https://maps8.stlouis-mo.gov/arcgis/rest/services/STREETS/Streets_Permitting/MapServer/2","title":"Street light L050482"},"type":"Feature"},{"geometry":{"coordinates":[-90.17107541002726,38.62796267177922],"type":"Point"},"id":"stl-city-public-streetlights:2:157773","properties":{"address":null,"attributes":{"Date_Installed":null,"LED_Powered":0,"LightID":"L050486","Light_Source":"High Pressure Sodium","Light_Type":"Cobra","Lighting_Type":"150-W High Pressure Sodium Vapor Lamp","Verification_Date":null},"id":"stl-city-public-streetlights:2:157773","sourceLayerId":2,"sourceObjectId":157773,"sourceURL":"https://maps8.stlouis-mo.gov/arcgis/rest/services/STREETS/Streets_Permitting/MapServer/2","title":"Street light L050486"},"type":"Feature"},{"geometry":{"coordinates":[-90.17081705996264,38.627976842321154],"type":"Point"},"id":"stl-city-public-streetlights:2:157774","properties":{"address":null,"attributes":{"Date_Installed":null,"LED_Powered":0,"LightID":"L052390","Light_Source":"High Pressure Sodium","Light_Type":"Cobra","Lighting_Type":"150-W High Pressure Sodium Vapor Lamp","Verification_Date":null},"id":"stl-city-public-streetlights:2:157774","sourceLayerId":2,"sourceObjectId":157774,"sourceURL":"https://maps8.stlouis-mo.gov/arcgis/rest/services/STREETS/Streets_Permitting/MapServer/2","title":"Street light L052390"},"type":"Feature"},{"geometry":{"coordinates":[-90.17056631928772,38.62798805447543],"type":"Point"},"id":"stl-city-public-streetlights:2:157905","properties":{"address":null,"attributes":{"Date_Installed":null,"LED_Powered":0,"LightID":"L050612","Light_Source":"High Pressure Sodium","Light_Type":"Cobra","Lighting_Type":"150-W High Pressure Sodium Vapor Lamp","Verification_Date":null},"id":"stl-city-public-streetlights:2:157905","sourceLayerId":2,"sourceObjectId":157905,"sourceURL":"https://maps8.stlouis-mo.gov/arcgis/rest/services/STREETS/Streets_Permitting/MapServer/2","title":"Street light L050612"},"type":"Feature"},{"geometry":{"coordinates":[-90.17031928095767,38.62802013392228],"type":"Point"},"id":"stl-city-public-streetlights:2:157906","properties":{"address":null,"attributes":{"Date_Installed":null,"LED_Powered":0,"LightID":"L050613","Light_Source":"High Pressure Sodium","Light_Type":"Cobra","Lighting_Type":"150-W High Pressure Sodium Vapor Lamp","Verification_Date":null},"id":"stl-city-public-streetlights:2:157906","sourceLayerId":2,"sourceObjectId":157906,"sourceURL":"https://maps8.stlouis-mo.gov/arcgis/rest/services/STREETS/Streets_Permitting/MapServer/2","title":"Street light L050613"},"type":"Feature"},{"geometry":{"coordinates":[-90.17060570290543,38.628235464977195],"type":"Point"},"id":"stl-city-public-streetlights:2:157907","properties":{"address":null,"attributes":{"Date_Installed":null,"LED_Powered":0,"LightID":"L050614","Light_Source":"High Pressure Sodium","Light_Type":"Cobra","Lighting_Type":"150-W High Pressure Sodium Vapor Lamp","Verification_Date":null},"id":"stl-city-public-streetlights:2:157907","sourceLayerId":2,"sourceObjectId":157907,"sourceURL":"https://maps8.stlouis-mo.gov/arcgis/rest/services/STREETS/Streets_Permitting/MapServer/2","title":"Street light L050614"},"type":"Feature"},{"geometry":{"coordinates":[-90.17084515844208,38.62820038525473],"type":"Point"},"id":"stl-city-public-streetlights:2:157908","properties":{"address":null,"attributes":{"Date_Installed":null,"LED_Powered":0,"LightID":"L050615","Light_Source":"High Pressure Sodium","Light_Type":"Cobra","Lighting_Type":"150-W High Pressure Sodium Vapor Lamp","Verification_Date":null},"id":"stl-city-public-streetlights:2:157908","sourceLayerId":2,"sourceObjectId":157908,"sourceURL":"https://maps8.stlouis-mo.gov/arcgis/rest/services/STREETS/Streets_Permitting/MapServer/2","title":"Street light L050615"},"type":"Feature"},{"geometry":{"coordinates":[-90.17107690783364,38.628189118216135],"type":"Point"},"id":"stl-city-public-streetlights:2:158648","properties":{"address":null,"attributes":{"Date_Installed":null,"LED_Powered":0,"LightID":"L051351","Light_Source":"High Pressure Sodium","Light_Type":"Cobra","Lighting_Type":"150-W High Pressure Sodium Vapor Lamp","Verification_Date":null},"id":"stl-city-public-streetlights:2:158648","sourceLayerId":2,"sourceObjectId":158648,"sourceURL":"https://maps8.stlouis-mo.gov/arcgis/rest/services/STREETS/Streets_Permitting/MapServer/2","title":"Street light L051351"},"type":"Feature"},{"geometry":{"coordinates":[-90.17130861634324,38.6281867901317],"type":"Point"},"id":"stl-city-public-streetlights:2:158649","properties":{"address":null,"attributes":{"Date_Installed":null,"LED_Powered":0,"LightID":"L051352","Light_Source":"High Pressure Sodium","Light_Type":"Cobra","Lighting_Type":"150-W High Pressure Sodium Vapor Lamp","Verification_Date":null},"id":"stl-city-public-streetlights:2:158649","sourceLayerId":2,"sourceObjectId":158649,"sourceURL":"https://maps8.stlouis-mo.gov/arcgis/rest/services/STREETS/Streets_Permitting/MapServer/2","title":"Street light L051352"},"type":"Feature"},{"geometry":{"coordinates":[-90.17154022968948,38.62820531781812],"type":"Point"},"id":"stl-city-public-streetlights:2:158650","properties":{"address":null,"attributes":{"Date_Installed":null,"LED_Powered":0,"LightID":"L051353","Light_Source":"High Pressure Sodium","Light_Type":"Cobra","Lighting_Type":"150-W High Pressure Sodium Vapor Lamp","Verification_Date":null},"id":"stl-city-public-streetlights:2:158650","sourceLayerId":2,"sourceObjectId":158650,"sourceURL":"https://maps8.stlouis-mo.gov/arcgis/rest/services/STREETS/Streets_Permitting/MapServer/2","title":"Street light L051353"},"type":"Feature"},{"geometry":{"coordinates":[-90.17176161577414,38.62821785697003],"type":"Point"},"id":"stl-city-public-streetlights:2:158651","properties":{"address":null,"attributes":{"Date_Installed":null,"LED_Powered":0,"LightID":"L051354","Light_Source":"High Pressure Sodium","Light_Type":"Cobra","Lighting_Type":"150-W High Pressure Sodium Vapor Lamp","Verification_Date":null},"id":"stl-city-public-streetlights:2:158651","sourceLayerId":2,"sourceObjectId":158651,"sourceURL":"https://maps8.stlouis-mo.gov/arcgis/rest/services/STREETS/Streets_Permitting/MapServer/2","title":"Street light L051354"},"type":"Feature"},{"geometry":{"coordinates":[-90.17203494227918,38.62825139780313],"type":"Point"},"id":"stl-city-public-streetlights:2:158652","properties":{"address":null,"attributes":{"Date_Installed":null,"LED_Powered":0,"LightID":"L051355","Light_Source":"High Pressure Sodium","Light_Type":"Cobra","Lighting_Type":"150-W High Pressure Sodium Vapor Lamp","Verification_Date":null},"id":"stl-city-public-streetlights:2:158652","sourceLayerId":2,"sourceObjectId":158652,"sourceURL":"https://maps8.stlouis-mo.gov/arcgis/rest/services/STREETS/Streets_Permitting/MapServer/2","title":"Street light L051355"},"type":"Feature"},{"geometry":{"coordinates":[-90.17227789675789,38.62828187368849],"type":"Point"},"id":"stl-city-public-streetlights:2:158653","properties":{"address":null,"attributes":{"Date_Installed":null,"LED_Powered":0,"LightID":"L051356","Light_Source":"High Pressure Sodium","Light_Type":"Cobra","Lighting_Type":"150-W High Pressure Sodium Vapor Lamp","Verification_Date":null},"id":"stl-city-public-streetlights:2:158653","sourceLayerId":2,"sourceObjectId":158653,"sourceURL":"https://maps8.stlouis-mo.gov/arcgis/rest/services/STREETS/Streets_Permitting/MapServer/2","title":"Street light L051356"},"type":"Feature"},{"geometry":{"coordinates":[-90.17252086499722,38.62830936986583],"type":"Point"},"id":"stl-city-public-streetlights:2:158654","properties":{"address":null,"attributes":{"Date_Installed":null,"LED_Powered":0,"LightID":"L051357","Light_Source":"High Pressure Sodium","Light_Type":"Cobra","Lighting_Type":"150-W High Pressure Sodium Vapor Lamp","Verification_Date":null},"id":"stl-city-public-streetlights:2:158654","sourceLayerId":2,"sourceObjectId":158654,"sourceURL":"https://maps8.stlouis-mo.gov/arcgis/rest/services/STREETS/Streets_Permitting/MapServer/2","title":"Street light L051357"},"type":"Feature"},{"geometry":{"coordinates":[-90.17277521487324,38.628339876612834],"type":"Point"},"id":"stl-city-public-streetlights:2:158655","properties":{"address":null,"attributes":{"Date_Installed":null,"LED_Powered":0,"LightID":"L051358","Light_Source":"High Pressure Sodium","Light_Type":"Cobra","Lighting_Type":"150-W High Pressure Sodium Vapor Lamp","Verification_Date":null},"id":"stl-city-public-streetlights:2:158655","sourceLayerId":2,"sourceObjectId":158655,"sourceURL":"https://maps8.stlouis-mo.gov/arcgis/rest/services/STREETS/Streets_Permitting/MapServer/2","title":"Street light L051358"},"type":"Feature"},{"geometry":{"coordinates":[-90.17298158841962,38.62836285962779],"type":"Point"},"id":"stl-city-public-streetlights:2:158656","properties":{"address":null,"attributes":{"Date_Installed":null,"LED_Powered":0,"LightID":"L051359","Light_Source":"High Pressure Sodium","Light_Type":"Cobra","Lighting_Type":"150-W High Pressure Sodium Vapor Lamp","Verification_Date":null},"id":"stl-city-public-streetlights:2:158656","sourceLayerId":2,"sourceObjectId":158656,"sourceURL":"https://maps8.stlouis-mo.gov/arcgis/rest/services/STREETS/Streets_Permitting/MapServer/2","title":"Street light L051359"},"type":"Feature"},{"geometry":{"coordinates":[-90.17322269025114,38.6284001219829],"type":"Point"},"id":"stl-city-public-streetlights:2:158657","properties":{"address":null,"attributes":{"Date_Installed":null,"LED_Powered":0,"LightID":"L051360","Light_Source":"High Pressure Sodium","Light_Type":"Cobra","Lighting_Type":"150-W High Pressure Sodium Vapor Lamp","Verification_Date":null},"id":"stl-city-public-streetlights:2:158657","sourceLayerId":2,"sourceObjectId":158657,"sourceURL":"https://maps8.stlouis-mo.gov/arcgis/rest/services/STREETS/Streets_Permitting/MapServer/2","title":"Street light L051360"},"type":"Feature"},{"geometry":{"coordinates":[-90.17351332778772,38.628435971645914],"type":"Point"},"id":"stl-city-public-streetlights:2:158658","properties":{"address":null,"attributes":{"Date_Installed":null,"LED_Powered":0,"LightID":"L051361","Light_Source":"High Pressure Sodium","Light_Type":"Cobra","Lighting_Type":"150-W High Pressure Sodium Vapor Lamp","Verification_Date":null},"id":"stl-city-public-streetlights:2:158658","sourceLayerId":2,"sourceObjectId":158658,"sourceURL":"https://maps8.stlouis-mo.gov/arcgis/rest/services/STREETS/Streets_Permitting/MapServer/2","title":"Street light L051361"},"type":"Feature"},{"geometry":{"coordinates":[-90.17396280396999,38.62849061803733],"type":"Point"},"id":"stl-city-public-streetlights:2:158659","properties":{"address":null,"attributes":{"Date_Installed":null,"LED_Powered":0,"LightID":"L051362","Light_Source":"High Pressure Sodium","Light_Type":"Cobra","Lighting_Type":"150-W High Pressure Sodium Vapor Lamp","Verification_Date":null},"id":"stl-city-public-streetlights:2:158659","sourceLayerId":2,"sourceObjectId":158659,"sourceURL":"https://maps8.stlouis-mo.gov/arcgis/rest/services/STREETS/Streets_Permitting/MapServer/2","title":"Street light L051362"},"type":"Feature"},{"geometry":{"coordinates":[-90.17438552399763,38.62854900171026],"type":"Point"},"id":"stl-city-public-streetlights:2:158660","properties":{"address":null,"attributes":{"Date_Installed":null,"LED_Powered":0,"LightID":"L051363","Light_Source":"High Pressure Sodium","Light_Type":"Cobra","Lighting_Type":"150-W High Pressure Sodium Vapor Lamp","Verification_Date":null},"id":"stl-city-public-streetlights:2:158660","sourceLayerId":2,"sourceObjectId":158660,"sourceURL":"https://maps8.stlouis-mo.gov/arcgis/rest/services/STREETS/Streets_Permitting/MapServer/2","title":"Street light L051363"},"type":"Feature"},{"geometry":{"coordinates":[-90.17467537696982,38.62858413189868],"type":"Point"},"id":"stl-city-public-streetlights:2:158661","properties":{"address":null,"attributes":{"Date_Installed":null,"LED_Powered":0,"LightID":"L051364","Light_Source":"High Pressure Sodium","Light_Type":"Cobra","Lighting_Type":"150-W High Pressure Sodium Vapor Lamp","Verification_Date":null},"id":"stl-city-public-streetlights:2:158661","sourceLayerId":2,"sourceObjectId":158661,"sourceURL":"https://maps8.stlouis-mo.gov/arcgis/rest/services/STREETS/Streets_Permitting/MapServer/2","title":"Street light L051364"},"type":"Feature"},{"geometry":{"coordinates":[-90.17514680202147,38.628623580004586],"type":"Point"},"id":"stl-city-public-streetlights:2:158662","properties":{"address":null,"attributes":{"Date_Installed":null,"LED_Powered":0,"LightID":"L051365","Light_Source":"High Pressure Sodium","Light_Type":"Cobra","Lighting_Type":"150-W High Pressure Sodium Vapor Lamp","Verification_Date":null},"id":"stl-city-public-streetlights:2:158662","sourceLayerId":2,"sourceObjectId":158662,"sourceURL":"https://maps8.stlouis-mo.gov/arcgis/rest/services/STREETS/Streets_Permitting/MapServer/2","title":"Street light L051365"},"type":"Feature"},{"geometry":{"coordinates":[-90.17538981607885,38.62864141641944],"type":"Point"},"id":"stl-city-public-streetlights:2:158663","properties":{"address":null,"attributes":{"Date_Installed":null,"LED_Powered":0,"LightID":"L052204","Light_Source":"High Pressure Sodium","Light_Type":"Cobra","Lighting_Type":"150-W High Pressure Sodium Vapor Lamp","Verification_Date":null},"id":"stl-city-public-streetlights:2:158663","sourceLayerId":2,"sourceObjectId":158663,"sourceURL":"https://maps8.stlouis-mo.gov/arcgis/rest/services/STREETS/Streets_Permitting/MapServer/2","title":"Street light L052204"},"type":"Feature"},{"geometry":{"coordinates":[-90.17566442390493,38.62866124709648],"type":"Point"},"id":"stl-city-public-streetlights:2:158664","properties":{"address":null,"attributes":{"Date_Installed":null,"LED_Powered":0,"LightID":"L052205","Light_Source":"High Pressure Sodium","Light_Type":"Cobra","Lighting_Type":"150-W High Pressure Sodium Vapor Lamp","Verification_Date":null},"id":"stl-city-public-streetlights:2:158664","sourceLayerId":2,"sourceObjectId":158664,"sourceURL":"https://maps8.stlouis-mo.gov/arcgis/rest/services/STREETS/Streets_Permitting/MapServer/2","title":"Street light L052205"},"type":"Feature"},{"geometry":{"coordinates":[-90.17598757252338,38.62869837260973],"type":"Point"},"id":"stl-city-public-streetlights:2:158665","properties":{"address":null,"attributes":{"Date_Installed":null,"LED_Powered":0,"LightID":"L052206","Light_Source":"High Pressure Sodium","Light_Type":"Cobra","Lighting_Type":"150-W High Pressure Sodium Vapor Lamp","Verification_Date":null},"id":"stl-city-public-streetlights:2:158665","sourceLayerId":2,"sourceObjectId":158665,"sourceURL":"https://maps8.stlouis-mo.gov/arcgis/rest/services/STREETS/Streets_Permitting/MapServer/2","title":"Street light L052206"},"type":"Feature"},{"geometry":{"coordinates":[-90.17629907995695,38.628729745276026],"type":"Point"},"id":"stl-city-public-streetlights:2:158666","properties":{"address":null,"attributes":{"Date_Installed":null,"LED_Powered":0,"LightID":"L052207","Light_Source":"High Pressure Sodium","Light_Type":"Cobra","Lighting_Type":"150-W High Pressure Sodium Vapor Lamp","Verification_Date":null},"id":"stl-city-public-streetlights:2:158666","sourceLayerId":2,"sourceObjectId":158666,"sourceURL":"https://maps8.stlouis-mo.gov/arcgis/rest/services/STREETS/Streets_Permitting/MapServer/2","title":"Street light L052207"},"type":"Feature"},{"geometry":{"coordinates":[-90.17661496216722,38.6287611292048],"type":"Point"},"id":"stl-city-public-streetlights:2:158667","properties":{"address":null,"attributes":{"Date_Installed":null,"LED_Powered":0,"LightID":"L052208","Light_Source":"High Pressure Sodium","Light_Type":"Cobra","Lighting_Type":"150-W High Pressure Sodium Vapor Lamp","Verification_Date":null},"id":"stl-city-public-streetlights:2:158667","sourceLayerId":2,"sourceObjectId":158667,"sourceURL":"https://maps8.stlouis-mo.gov/arcgis/rest/services/STREETS/Streets_Permitting/MapServer/2","title":"Street light L052208"},"type":"Feature"},{"geometry":{"coordinates":[-90.17696243840453,38.62879450579721],"type":"Point"},"id":"stl-city-public-streetlights:2:158668","properties":{"address":null,"attributes":{"Date_Installed":null,"LED_Powered":0,"LightID":"L052209","Light_Source":"High Pressure Sodium","Light_Type":"Cobra","Lighting_Type":"150-W High Pressure Sodium Vapor Lamp","Verification_Date":null},"id":"stl-city-public-streetlights:2:158668","sourceLayerId":2,"sourceObjectId":158668,"sourceURL":"https://maps8.stlouis-mo.gov/arcgis/rest/services/STREETS/Streets_Permitting/MapServer/2","title":"Street light L052209"},"type":"Feature"},{"geometry":{"coordinates":[-90.17724427903508,38.62882770121904],"type":"Point"},"id":"stl-city-public-streetlights:2:158669","properties":{"address":null,"attributes":{"Date_Installed":null,"LED_Powered":0,"LightID":"L052210","Light_Source":"High Pressure Sodium","Light_Type":"Cobra","Lighting_Type":"150-W High Pressure Sodium Vapor Lamp","Verification_Date":null},"id":"stl-city-public-streetlights:2:158669","sourceLayerId":2,"sourceObjectId":158669,"sourceURL":"https://maps8.stlouis-mo.gov/arcgis/rest/services/STREETS/Streets_Permitting/MapServer/2","title":"Street light L052210"},"type":"Feature"},{"geometry":{"coordinates":[-90.17755771487198,38.628862889320956],"type":"Point"},"id":"stl-city-public-streetlights:2:158670","properties":{"address":null,"attributes":{"Date_Installed":null,"LED_Powered":0,"LightID":"L052211","Light_Source":"High Pressure Sodium","Light_Type":"Cobra","Lighting_Type":"150-W High Pressure Sodium Vapor Lamp","Verification_Date":null},"id":"stl-city-public-streetlights:2:158670","sourceLayerId":2,"sourceObjectId":158670,"sourceURL":"https://maps8.stlouis-mo.gov/arcgis/rest/services/STREETS/Streets_Permitting/MapServer/2","title":"Street light L052211"},"type":"Feature"},{"geometry":{"coordinates":[-90.17786192129155,38.62889614398934],"type":"Point"},"id":"stl-city-public-streetlights:2:158671","properties":{"address":null,"attributes":{"Date_Installed":null,"LED_Powered":0,"LightID":"L052212","Light_Source":"High Pressure Sodium","Light_Type":"Cobra","Lighting_Type":"150-W High Pressure Sodium Vapor Lamp","Verification_Date":null},"id":"stl-city-public-streetlights:2:158671","sourceLayerId":2,"sourceObjectId":158671,"sourceURL":"https://maps8.stlouis-mo.gov/arcgis/rest/services/STREETS/Streets_Permitting/MapServer/2","title":"Street light L052212"},"type":"Feature"},{"geometry":{"coordinates":[-90.17817539183736,38.62892370269955],"type":"Point"},"id":"stl-city-public-streetlights:2:158672","properties":{"address":null,"attributes":{"Date_Installed":null,"LED_Powered":0,"LightID":"L052213","Light_Source":"High Pressure Sodium","Light_Type":"Cobra","Lighting_Type":"150-W High Pressure Sodium Vapor Lamp","Verification_Date":null},"id":"stl-city-public-streetlights:2:158672","sourceLayerId":2,"sourceObjectId":158672,"sourceURL":"https://maps8.stlouis-mo.gov/arcgis/rest/services/STREETS/Streets_Permitting/MapServer/2","title":"Street light L052213"},"type":"Feature"},{"geometry":{"coordinates":[-90.17852288663924,38.6289532621449],"type":"Point"},"id":"stl-city-public-streetlights:2:158673","properties":{"address":null,"attributes":{"Date_Installed":null,"LED_Powered":0,"LightID":"L052214","Light_Source":"High Pressure Sodium","Light_Type":"Cobra","Lighting_Type":"150-W High Pressure Sodium Vapor Lamp","Verification_Date":null},"id":"stl-city-public-streetlights:2:158673","sourceLayerId":2,"sourceObjectId":158673,"sourceURL":"https://maps8.stlouis-mo.gov/arcgis/rest/services/STREETS/Streets_Permitting/MapServer/2","title":"Street light L052214"},"type":"Feature"},{"geometry":{"coordinates":[-90.17881930682262,38.62898840011449],"type":"Point"},"id":"stl-city-public-streetlights:2:158674","properties":{"address":null,"attributes":{"Date_Installed":null,"LED_Powered":0,"LightID":"L052215","Light_Source":"High Pressure Sodium","Light_Type":"Cobra","Lighting_Type":"150-W High Pressure Sodium Vapor Lamp","Verification_Date":null},"id":"stl-city-public-streetlights:2:158674","sourceLayerId":2,"sourceObjectId":158674,"sourceURL":"https://maps8.stlouis-mo.gov/arcgis/rest/services/STREETS/Streets_Permitting/MapServer/2","title":"Street light L052215"},"type":"Feature"},{"geometry":{"coordinates":[-90.17913517431737,38.62902359066687],"type":"Point"},"id":"stl-city-public-streetlights:2:158675","properties":{"address":null,"attributes":{"Date_Installed":null,"LED_Powered":0,"LightID":"L052216","Light_Source":"High Pressure Sodium","Light_Type":"Cobra","Lighting_Type":"150-W High Pressure Sodium Vapor Lamp","Verification_Date":null},"id":"stl-city-public-streetlights:2:158675","sourceLayerId":2,"sourceObjectId":158675,"sourceURL":"https://maps8.stlouis-mo.gov/arcgis/rest/services/STREETS/Streets_Permitting/MapServer/2","title":"Street light L052216"},"type":"Feature"},{"geometry":{"coordinates":[-90.17947070886045,38.629064172918916],"type":"Point"},"id":"stl-city-public-streetlights:2:158676","properties":{"address":null,"attributes":{"Date_Installed":null,"LED_Powered":0,"LightID":"L052217","Light_Source":"High Pressure Sodium","Light_Type":"Cobra","Lighting_Type":"150-W High Pressure Sodium Vapor Lamp","Verification_Date":null},"id":"stl-city-public-streetlights:2:158676","sourceLayerId":2,"sourceObjectId":158676,"sourceURL":"https://maps8.stlouis-mo.gov/arcgis/rest/services/STREETS/Streets_Permitting/MapServer/2","title":"Street light L052217"},"type":"Feature"},{"geometry":{"coordinates":[-90.1798011625802,38.62909940253299],"type":"Point"},"id":"stl-city-public-streetlights:2:158677","properties":{"address":null,"attributes":{"Date_Installed":null,"LED_Powered":0,"LightID":"L052218","Light_Source":"High Pressure Sodium","Light_Type":"Cobra","Lighting_Type":"150-W High Pressure Sodium Vapor Lamp","Verification_Date":null},"id":"stl-city-public-streetlights:2:158677","sourceLayerId":2,"sourceObjectId":158677,"sourceURL":"https://maps8.stlouis-mo.gov/arcgis/rest/services/STREETS/Streets_Permitting/MapServer/2","title":"Street light L052218"},"type":"Feature"}],"layerId":"city-streetlights","retrievedAt":"2026-09-13T21:56:18.173251+00:00","schema":"property-infrastructure-geojson-v1","sourceId":"stl-city-public-streetlights","tileId":"-9018_3862","type":"FeatureCollection"}