{"features":[{"geometry":{"coordinates":[-90.1819836459594,38.773818805296315],"type":"Point"},"id":"stl-city-public-streetlights:2:137518","properties":{"address":null,"attributes":{"Date_Installed":null,"LED_Powered":0,"LightID":"L030234","Light_Source":"LED","Light_Type":"Cobra","Lighting_Type":"LED-Powered Lamp","Verification_Date":null},"id":"stl-city-public-streetlights:2:137518","sourceLayerId":2,"sourceObjectId":137518,"sourceURL":"https://maps8.stlouis-mo.gov/arcgis/rest/services/STREETS/Streets_Permitting/MapServer/2","title":"Street light L030234"},"type":"Feature"},{"geometry":{"coordinates":[-90.18196202892936,38.7734755150619],"type":"Point"},"id":"stl-city-public-streetlights:2:137519","properties":{"address":null,"attributes":{"Date_Installed":null,"LED_Powered":0,"LightID":"L030235","Light_Source":"LED","Light_Type":"Cobra","Lighting_Type":"LED-Powered Lamp","Verification_Date":null},"id":"stl-city-public-streetlights:2:137519","sourceLayerId":2,"sourceObjectId":137519,"sourceURL":"https://maps8.stlouis-mo.gov/arcgis/rest/services/STREETS/Streets_Permitting/MapServer/2","title":"Street light L030235"},"type":"Feature"},{"geometry":{"coordinates":[-90.18193088725488,38.77308319348901],"type":"Point"},"id":"stl-city-public-streetlights:2:137520","properties":{"address":null,"attributes":{"Date_Installed":null,"LED_Powered":0,"LightID":"L030236","Light_Source":"LED","Light_Type":"Cobra","Lighting_Type":"LED-Powered Lamp","Verification_Date":null},"id":"stl-city-public-streetlights:2:137520","sourceLayerId":2,"sourceObjectId":137520,"sourceURL":"https://maps8.stlouis-mo.gov/arcgis/rest/services/STREETS/Streets_Permitting/MapServer/2","title":"Street light L030236"},"type":"Feature"},{"geometry":{"coordinates":[-90.18189722534561,38.772710123770636],"type":"Point"},"id":"stl-city-public-streetlights:2:137521","properties":{"address":null,"attributes":{"Date_Installed":null,"LED_Powered":0,"LightID":"L030237","Light_Source":"LED","Light_Type":"Cobra","Lighting_Type":"LED-Powered Lamp","Verification_Date":null},"id":"stl-city-public-streetlights:2:137521","sourceLayerId":2,"sourceObjectId":137521,"sourceURL":"https://maps8.stlouis-mo.gov/arcgis/rest/services/STREETS/Streets_Permitting/MapServer/2","title":"Street light L030237"},"type":"Feature"},{"geometry":{"coordinates":[-90.18186850240653,38.7723216220869],"type":"Point"},"id":"stl-city-public-streetlights:2:137522","properties":{"address":null,"attributes":{"Date_Installed":null,"LED_Powered":0,"LightID":"L030238","Light_Source":"LED","Light_Type":"Cobra","Lighting_Type":"LED-Powered Lamp","Verification_Date":null},"id":"stl-city-public-streetlights:2:137522","sourceLayerId":2,"sourceObjectId":137522,"sourceURL":"https://maps8.stlouis-mo.gov/arcgis/rest/services/STREETS/Streets_Permitting/MapServer/2","title":"Street light L030238"},"type":"Feature"},{"geometry":{"coordinates":[-90.18186850240653,38.7723216220869],"type":"Point"},"id":"stl-city-public-streetlights:2:137523","properties":{"address":null,"attributes":{"Date_Installed":null,"LED_Powered":0,"LightID":"L030239","Light_Source":"LED","Light_Type":"Cobra","Lighting_Type":"LED-Powered Lamp","Verification_Date":null},"id":"stl-city-public-streetlights:2:137523","sourceLayerId":2,"sourceObjectId":137523,"sourceURL":"https://maps8.stlouis-mo.gov/arcgis/rest/services/STREETS/Streets_Permitting/MapServer/2","title":"Street light L030239"},"type":"Feature"},{"geometry":{"coordinates":[-90.18183978345634,38.771932548330625],"type":"Point"},"id":"stl-city-public-streetlights:2:137524","properties":{"address":null,"attributes":{"Date_Installed":null,"LED_Powered":0,"LightID":"L030240","Light_Source":"LED","Light_Type":"Cobra","Lighting_Type":"LED-Powered Lamp","Verification_Date":null},"id":"stl-city-public-streetlights:2:137524","sourceLayerId":2,"sourceObjectId":137524,"sourceURL":"https://maps8.stlouis-mo.gov/arcgis/rest/services/STREETS/Streets_Permitting/MapServer/2","title":"Street light L030240"},"type":"Feature"},{"geometry":{"coordinates":[-90.18181100943828,38.771555678448024],"type":"Point"},"id":"stl-city-public-streetlights:2:137525","properties":{"address":null,"attributes":{"Date_Installed":null,"LED_Powered":0,"LightID":"L030241","Light_Source":"LED","Light_Type":"Cobra","Lighting_Type":"LED-Powered Lamp","Verification_Date":null},"id":"stl-city-public-streetlights:2:137525","sourceLayerId":2,"sourceObjectId":137525,"sourceURL":"https://maps8.stlouis-mo.gov/arcgis/rest/services/STREETS/Streets_Permitting/MapServer/2","title":"Street light L030241"},"type":"Feature"},{"geometry":{"coordinates":[-90.18177145223216,38.771139116665026],"type":"Point"},"id":"stl-city-public-streetlights:2:137526","properties":{"address":null,"attributes":{"Date_Installed":null,"LED_Powered":0,"LightID":"L030242","Light_Source":"LED","Light_Type":"Cobra","Lighting_Type":"LED-Powered Lamp","Verification_Date":null},"id":"stl-city-public-streetlights:2:137526","sourceLayerId":2,"sourceObjectId":137526,"sourceURL":"https://maps8.stlouis-mo.gov/arcgis/rest/services/STREETS/Streets_Permitting/MapServer/2","title":"Street light L030242"},"type":"Feature"},{"geometry":{"coordinates":[-90.18227810125845,38.77237286238298],"type":"Point"},"id":"stl-city-public-streetlights:2:137527","properties":{"address":null,"attributes":{"Date_Installed":null,"LED_Powered":0,"LightID":"L030243","Light_Source":"LED","Light_Type":"Cobra","Lighting_Type":"LED-Powered Lamp","Verification_Date":null},"id":"stl-city-public-streetlights:2:137527","sourceLayerId":2,"sourceObjectId":137527,"sourceURL":"https://maps8.stlouis-mo.gov/arcgis/rest/services/STREETS/Streets_Permitting/MapServer/2","title":"Street light L030243"},"type":"Feature"},{"geometry":{"coordinates":[-90.18273910703108,38.77242178593837],"type":"Point"},"id":"stl-city-public-streetlights:2:137528","properties":{"address":null,"attributes":{"Date_Installed":null,"LED_Powered":0,"LightID":"L030244","Light_Source":"High Pressure Sodium","Light_Type":"Cobra","Lighting_Type":"150-W High Pressure Sodium Vapor Lamp","Verification_Date":null},"id":"stl-city-public-streetlights:2:137528","sourceLayerId":2,"sourceObjectId":137528,"sourceURL":"https://maps8.stlouis-mo.gov/arcgis/rest/services/STREETS/Streets_Permitting/MapServer/2","title":"Street light L030244"},"type":"Feature"},{"geometry":{"coordinates":[-90.18332893656125,38.77245008189514],"type":"Point"},"id":"stl-city-public-streetlights:2:137529","properties":{"address":null,"attributes":{"Date_Installed":null,"LED_Powered":0,"LightID":"L030245","Light_Source":"High Pressure Sodium","Light_Type":"Cobra","Lighting_Type":"150-W High Pressure Sodium Vapor Lamp","Verification_Date":null},"id":"stl-city-public-streetlights:2:137529","sourceLayerId":2,"sourceObjectId":137529,"sourceURL":"https://maps8.stlouis-mo.gov/arcgis/rest/services/STREETS/Streets_Permitting/MapServer/2","title":"Street light L030245"},"type":"Feature"},{"geometry":{"coordinates":[-90.18389287771448,38.772439213506225],"type":"Point"},"id":"stl-city-public-streetlights:2:137530","properties":{"address":null,"attributes":{"Date_Installed":null,"LED_Powered":0,"LightID":"L030246","Light_Source":"High Pressure Sodium","Light_Type":"Cobra","Lighting_Type":"150-W High Pressure Sodium Vapor Lamp","Verification_Date":null},"id":"stl-city-public-streetlights:2:137530","sourceLayerId":2,"sourceObjectId":137530,"sourceURL":"https://maps8.stlouis-mo.gov/arcgis/rest/services/STREETS/Streets_Permitting/MapServer/2","title":"Street light L030246"},"type":"Feature"},{"geometry":{"coordinates":[-90.18174147091347,38.7707600984614],"type":"Point"},"id":"stl-city-public-streetlights:2:137531","properties":{"address":null,"attributes":{"Date_Installed":null,"LED_Powered":0,"LightID":"L030247","Light_Source":"High Pressure Sodium","Light_Type":"Cobra","Lighting_Type":"400-W High Pressure Sodium Vapor Lamp","Verification_Date":null},"id":"stl-city-public-streetlights:2:137531","sourceLayerId":2,"sourceObjectId":137531,"sourceURL":"https://maps8.stlouis-mo.gov/arcgis/rest/services/STREETS/Streets_Permitting/MapServer/2","title":"Street light L030247"},"type":"Feature"},{"geometry":{"coordinates":[-90.18171616197195,38.77034662664216],"type":"Point"},"id":"stl-city-public-streetlights:2:137532","properties":{"address":null,"attributes":{"Date_Installed":null,"LED_Powered":0,"LightID":"L030248","Light_Source":"High Pressure Sodium","Light_Type":"Cobra","Lighting_Type":"400-W High Pressure Sodium Vapor Lamp","Verification_Date":null},"id":"stl-city-public-streetlights:2:137532","sourceLayerId":2,"sourceObjectId":137532,"sourceURL":"https://maps8.stlouis-mo.gov/arcgis/rest/services/STREETS/Streets_Permitting/MapServer/2","title":"Street light L030248"},"type":"Feature"}],"layerId":"city-streetlights","retrievedAt":"2026-09-13T21:56:18.173251+00:00","schema":"property-infrastructure-geojson-v1","sourceId":"stl-city-public-streetlights","tileId":"-9019_3877","type":"FeatureCollection"}