{"features":[{"geometry":{"coordinates":[-90.189777390844,38.6665958632852],"type":"Point"},"id":"stl-city-public-streetlights:2:155121","properties":{"address":null,"attributes":{"Date_Installed":null,"LED_Powered":0,"LightID":"L047853","Light_Source":"LED","Light_Type":"Cobra","Lighting_Type":"LED-Powered Lamp","Verification_Date":null},"id":"stl-city-public-streetlights:2:155121","sourceLayerId":2,"sourceObjectId":155121,"sourceURL":"https://maps8.stlouis-mo.gov/arcgis/rest/services/STREETS/Streets_Permitting/MapServer/2","title":"Street light L047853"},"type":"Feature"},{"geometry":{"coordinates":[-90.18928238484116,38.66674757626218],"type":"Point"},"id":"stl-city-public-streetlights:2:155122","properties":{"address":null,"attributes":{"Date_Installed":null,"LED_Powered":0,"LightID":"L047854","Light_Source":"LED","Light_Type":"Cobra","Lighting_Type":"LED-Powered Lamp","Verification_Date":null},"id":"stl-city-public-streetlights:2:155122","sourceLayerId":2,"sourceObjectId":155122,"sourceURL":"https://maps8.stlouis-mo.gov/arcgis/rest/services/STREETS/Streets_Permitting/MapServer/2","title":"Street light L047854"},"type":"Feature"},{"geometry":{"coordinates":[-90.18974958578589,38.66064369197222],"type":"Point"},"id":"stl-city-public-streetlights:2:155147","properties":{"address":null,"attributes":{"Date_Installed":null,"LED_Powered":0,"LightID":"L047879","Light_Source":"LED","Light_Type":"Cobra","Lighting_Type":"LED-Powered Lamp","Verification_Date":null},"id":"stl-city-public-streetlights:2:155147","sourceLayerId":2,"sourceObjectId":155147,"sourceURL":"https://maps8.stlouis-mo.gov/arcgis/rest/services/STREETS/Streets_Permitting/MapServer/2","title":"Street light L047879"},"type":"Feature"},{"geometry":{"coordinates":[-90.18936680396104,38.660758875843904],"type":"Point"},"id":"stl-city-public-streetlights:2:155148","properties":{"address":null,"attributes":{"Date_Installed":null,"LED_Powered":0,"LightID":"L047880","Light_Source":"LED","Light_Type":"Cobra","Lighting_Type":"LED-Powered Lamp","Verification_Date":null},"id":"stl-city-public-streetlights:2:155148","sourceLayerId":2,"sourceObjectId":155148,"sourceURL":"https://maps8.stlouis-mo.gov/arcgis/rest/services/STREETS/Streets_Permitting/MapServer/2","title":"Street light L047880"},"type":"Feature"},{"geometry":{"coordinates":[-90.1889002963787,38.66090243981304],"type":"Point"},"id":"stl-city-public-streetlights:2:155149","properties":{"address":null,"attributes":{"Date_Installed":null,"LED_Powered":0,"LightID":"L047881","Light_Source":"LED","Light_Type":"Cobra","Lighting_Type":"LED-Powered Lamp","Verification_Date":null},"id":"stl-city-public-streetlights:2:155149","sourceLayerId":2,"sourceObjectId":155149,"sourceURL":"https://maps8.stlouis-mo.gov/arcgis/rest/services/STREETS/Streets_Permitting/MapServer/2","title":"Street light L047881"},"type":"Feature"},{"geometry":{"coordinates":[-90.18843239435631,38.661051837737354],"type":"Point"},"id":"stl-city-public-streetlights:2:155150","properties":{"address":null,"attributes":{"Date_Installed":null,"LED_Powered":0,"LightID":"L047882","Light_Source":"LED","Light_Type":"Cobra","Lighting_Type":"LED-Powered Lamp","Verification_Date":null},"id":"stl-city-public-streetlights:2:155150","sourceLayerId":2,"sourceObjectId":155150,"sourceURL":"https://maps8.stlouis-mo.gov/arcgis/rest/services/STREETS/Streets_Permitting/MapServer/2","title":"Street light L047882"},"type":"Feature"},{"geometry":{"coordinates":[-90.1879687069322,38.661210302522875],"type":"Point"},"id":"stl-city-public-streetlights:2:155151","properties":{"address":null,"attributes":{"Date_Installed":null,"LED_Powered":0,"LightID":"L047883","Light_Source":"LED","Light_Type":"Cobra","Lighting_Type":"LED-Powered Lamp","Verification_Date":null},"id":"stl-city-public-streetlights:2:155151","sourceLayerId":2,"sourceObjectId":155151,"sourceURL":"https://maps8.stlouis-mo.gov/arcgis/rest/services/STREETS/Streets_Permitting/MapServer/2","title":"Street light L047883"},"type":"Feature"},{"geometry":{"coordinates":[-90.18753035277555,38.66134499752596],"type":"Point"},"id":"stl-city-public-streetlights:2:155152","properties":{"address":null,"attributes":{"Date_Installed":null,"LED_Powered":0,"LightID":"L047884","Light_Source":"LED","Light_Type":"Cobra","Lighting_Type":"LED-Powered Lamp","Verification_Date":null},"id":"stl-city-public-streetlights:2:155152","sourceLayerId":2,"sourceObjectId":155152,"sourceURL":"https://maps8.stlouis-mo.gov/arcgis/rest/services/STREETS/Streets_Permitting/MapServer/2","title":"Street light L047884"},"type":"Feature"},{"geometry":{"coordinates":[-90.18804953785751,38.660173316605274],"type":"Point"},"id":"stl-city-public-streetlights:2:155167","properties":{"address":null,"attributes":{"Date_Installed":null,"LED_Powered":0,"LightID":"L047899","Light_Source":"LED","Light_Type":"Cobra","Lighting_Type":"LED-Powered Lamp","Verification_Date":null},"id":"stl-city-public-streetlights:2:155167","sourceLayerId":2,"sourceObjectId":155167,"sourceURL":"https://maps8.stlouis-mo.gov/arcgis/rest/services/STREETS/Streets_Permitting/MapServer/2","title":"Street light L047899"},"type":"Feature"},{"geometry":{"coordinates":[-90.18745769548443,38.660371958465895],"type":"Point"},"id":"stl-city-public-streetlights:2:155168","properties":{"address":null,"attributes":{"Date_Installed":null,"LED_Powered":0,"LightID":"L047900","Light_Source":"LED","Light_Type":"Cobra","Lighting_Type":"LED-Powered Lamp","Verification_Date":null},"id":"stl-city-public-streetlights:2:155168","sourceLayerId":2,"sourceObjectId":155168,"sourceURL":"https://maps8.stlouis-mo.gov/arcgis/rest/services/STREETS/Streets_Permitting/MapServer/2","title":"Street light L047900"},"type":"Feature"}],"layerId":"city-streetlights","retrievedAt":"2026-09-13T21:56:18.173251+00:00","schema":"property-infrastructure-geojson-v1","sourceId":"stl-city-public-streetlights","tileId":"-9019_3866","type":"FeatureCollection"}