{"features":[{"geometry":{"coordinates":[-90.1858091298488,38.76327486957819],"type":"Point"},"id":"stl-city-public-streetlights:2:120476","properties":{"address":null,"attributes":{"Date_Installed":null,"LED_Powered":0,"LightID":"L013201","Light_Source":"LED","Light_Type":"Cobra","Lighting_Type":"LED-Powered Lamp","Verification_Date":null},"id":"stl-city-public-streetlights:2:120476","sourceLayerId":2,"sourceObjectId":120476,"sourceURL":"https://maps8.stlouis-mo.gov/arcgis/rest/services/STREETS/Streets_Permitting/MapServer/2","title":"Street light L013201"},"type":"Feature"},{"geometry":{"coordinates":[-90.18551050857828,38.763059428085036],"type":"Point"},"id":"stl-city-public-streetlights:2:120477","properties":{"address":null,"attributes":{"Date_Installed":null,"LED_Powered":0,"LightID":"L013202","Light_Source":"LED","Light_Type":"Cobra","Lighting_Type":"LED-Powered Lamp","Verification_Date":null},"id":"stl-city-public-streetlights:2:120477","sourceLayerId":2,"sourceObjectId":120477,"sourceURL":"https://maps8.stlouis-mo.gov/arcgis/rest/services/STREETS/Streets_Permitting/MapServer/2","title":"Street light L013202"},"type":"Feature"},{"geometry":{"coordinates":[-90.18584281643435,38.76281312323103],"type":"Point"},"id":"stl-city-public-streetlights:2:120478","properties":{"address":null,"attributes":{"Date_Installed":null,"LED_Powered":0,"LightID":"L013203","Light_Source":"LED","Light_Type":"Cobra","Lighting_Type":"LED-Powered Lamp","Verification_Date":null},"id":"stl-city-public-streetlights:2:120478","sourceLayerId":2,"sourceObjectId":120478,"sourceURL":"https://maps8.stlouis-mo.gov/arcgis/rest/services/STREETS/Streets_Permitting/MapServer/2","title":"Street light L013203"},"type":"Feature"},{"geometry":{"coordinates":[-90.18620415836675,38.76261006142202],"type":"Point"},"id":"stl-city-public-streetlights:2:120479","properties":{"address":null,"attributes":{"Date_Installed":null,"LED_Powered":0,"LightID":"L013204","Light_Source":"LED","Light_Type":"Cobra","Lighting_Type":"LED-Powered Lamp","Verification_Date":null},"id":"stl-city-public-streetlights:2:120479","sourceLayerId":2,"sourceObjectId":120479,"sourceURL":"https://maps8.stlouis-mo.gov/arcgis/rest/services/STREETS/Streets_Permitting/MapServer/2","title":"Street light L013204"},"type":"Feature"},{"geometry":{"coordinates":[-90.18662959612863,38.76195151424205],"type":"Point"},"id":"stl-city-public-streetlights:2:120480","properties":{"address":null,"attributes":{"Date_Installed":null,"LED_Powered":0,"LightID":"L013205","Light_Source":"LED","Light_Type":"Cobra","Lighting_Type":"LED-Powered Lamp","Verification_Date":null},"id":"stl-city-public-streetlights:2:120480","sourceLayerId":2,"sourceObjectId":120480,"sourceURL":"https://maps8.stlouis-mo.gov/arcgis/rest/services/STREETS/Streets_Permitting/MapServer/2","title":"Street light L013205"},"type":"Feature"},{"geometry":{"coordinates":[-90.18683160926768,38.761615497175555],"type":"Point"},"id":"stl-city-public-streetlights:2:120481","properties":{"address":null,"attributes":{"Date_Installed":null,"LED_Powered":0,"LightID":"L013206","Light_Source":"LED","Light_Type":"Cobra","Lighting_Type":"LED-Powered Lamp","Verification_Date":null},"id":"stl-city-public-streetlights:2:120481","sourceLayerId":2,"sourceObjectId":120481,"sourceURL":"https://maps8.stlouis-mo.gov/arcgis/rest/services/STREETS/Streets_Permitting/MapServer/2","title":"Street light L013206"},"type":"Feature"},{"geometry":{"coordinates":[-90.18703334834342,38.76116792974004],"type":"Point"},"id":"stl-city-public-streetlights:2:120482","properties":{"address":null,"attributes":{"Date_Installed":null,"LED_Powered":0,"LightID":"L013207","Light_Source":"LED","Light_Type":"Cobra","Lighting_Type":"LED-Powered Lamp","Verification_Date":null},"id":"stl-city-public-streetlights:2:120482","sourceLayerId":2,"sourceObjectId":120482,"sourceURL":"https://maps8.stlouis-mo.gov/arcgis/rest/services/STREETS/Streets_Permitting/MapServer/2","title":"Street light L013207"},"type":"Feature"},{"geometry":{"coordinates":[-90.18715784129685,38.760893200523796],"type":"Point"},"id":"stl-city-public-streetlights:2:120483","properties":{"address":null,"attributes":{"Date_Installed":null,"LED_Powered":0,"LightID":"L013208","Light_Source":"LED","Light_Type":"Cobra","Lighting_Type":"LED-Powered Lamp","Verification_Date":null},"id":"stl-city-public-streetlights:2:120483","sourceLayerId":2,"sourceObjectId":120483,"sourceURL":"https://maps8.stlouis-mo.gov/arcgis/rest/services/STREETS/Streets_Permitting/MapServer/2","title":"Street light L013208"},"type":"Feature"},{"geometry":{"coordinates":[-90.18732381033414,38.76053158244098],"type":"Point"},"id":"stl-city-public-streetlights:2:120484","properties":{"address":null,"attributes":{"Date_Installed":null,"LED_Powered":0,"LightID":"L013209","Light_Source":"LED","Light_Type":"Cobra","Lighting_Type":"LED-Powered Lamp","Verification_Date":null},"id":"stl-city-public-streetlights:2:120484","sourceLayerId":2,"sourceObjectId":120484,"sourceURL":"https://maps8.stlouis-mo.gov/arcgis/rest/services/STREETS/Streets_Permitting/MapServer/2","title":"Street light L013209"},"type":"Feature"},{"geometry":{"coordinates":[-90.1874897538872,38.76017568455186],"type":"Point"},"id":"stl-city-public-streetlights:2:120485","properties":{"address":null,"attributes":{"Date_Installed":null,"LED_Powered":0,"LightID":"L013210","Light_Source":"LED","Light_Type":"Cobra","Lighting_Type":"LED-Powered Lamp","Verification_Date":null},"id":"stl-city-public-streetlights:2:120485","sourceLayerId":2,"sourceObjectId":120485,"sourceURL":"https://maps8.stlouis-mo.gov/arcgis/rest/services/STREETS/Streets_Permitting/MapServer/2","title":"Street light L013210"},"type":"Feature"},{"geometry":{"coordinates":[-90.18186480546836,38.76993841923232],"type":"Point"},"id":"stl-city-public-streetlights:2:137533","properties":{"address":null,"attributes":{"Date_Installed":null,"LED_Powered":0,"LightID":"L030249","Light_Source":"High Pressure Sodium","Light_Type":"Cobra","Lighting_Type":"400-W High Pressure Sodium Vapor Lamp (Twin Lights)","Verification_Date":null},"id":"stl-city-public-streetlights:2:137533","sourceLayerId":2,"sourceObjectId":137533,"sourceURL":"https://maps8.stlouis-mo.gov/arcgis/rest/services/STREETS/Streets_Permitting/MapServer/2","title":"Street light L030249"},"type":"Feature"},{"geometry":{"coordinates":[-90.181924820662,38.76950185614409],"type":"Point"},"id":"stl-city-public-streetlights:2:137534","properties":{"address":null,"attributes":{"Date_Installed":null,"LED_Powered":0,"LightID":"L030250","Light_Source":"High Pressure Sodium","Light_Type":"Cobra","Lighting_Type":"400-W High Pressure Sodium Vapor Lamp (Twin Lights)","Verification_Date":null},"id":"stl-city-public-streetlights:2:137534","sourceLayerId":2,"sourceObjectId":137534,"sourceURL":"https://maps8.stlouis-mo.gov/arcgis/rest/services/STREETS/Streets_Permitting/MapServer/2","title":"Street light L030250"},"type":"Feature"},{"geometry":{"coordinates":[-90.18200745175258,38.76906315010143],"type":"Point"},"id":"stl-city-public-streetlights:2:137535","properties":{"address":null,"attributes":{"Date_Installed":null,"LED_Powered":0,"LightID":"L030251","Light_Source":"High Pressure Sodium","Light_Type":"Cobra","Lighting_Type":"400-W High Pressure Sodium Vapor Lamp (Twin Lights)","Verification_Date":null},"id":"stl-city-public-streetlights:2:137535","sourceLayerId":2,"sourceObjectId":137535,"sourceURL":"https://maps8.stlouis-mo.gov/arcgis/rest/services/STREETS/Streets_Permitting/MapServer/2","title":"Street light L030251"},"type":"Feature"},{"geometry":{"coordinates":[-90.1820930931639,38.76863172126005],"type":"Point"},"id":"stl-city-public-streetlights:2:137536","properties":{"address":null,"attributes":{"Date_Installed":null,"LED_Powered":0,"LightID":"L030252","Light_Source":"High Pressure Sodium","Light_Type":"Cobra","Lighting_Type":"400-W High Pressure Sodium Vapor Lamp (Twin Lights)","Verification_Date":null},"id":"stl-city-public-streetlights:2:137536","sourceLayerId":2,"sourceObjectId":137536,"sourceURL":"https://maps8.stlouis-mo.gov/arcgis/rest/services/STREETS/Streets_Permitting/MapServer/2","title":"Street light L030252"},"type":"Feature"},{"geometry":{"coordinates":[-90.18218359486146,38.76819130856688],"type":"Point"},"id":"stl-city-public-streetlights:2:137537","properties":{"address":null,"attributes":{"Date_Installed":null,"LED_Powered":0,"LightID":"L030253","Light_Source":"High Pressure Sodium","Light_Type":"Cobra","Lighting_Type":"400-W High Pressure Sodium Vapor Lamp (Twin Lights)","Verification_Date":null},"id":"stl-city-public-streetlights:2:137537","sourceLayerId":2,"sourceObjectId":137537,"sourceURL":"https://maps8.stlouis-mo.gov/arcgis/rest/services/STREETS/Streets_Permitting/MapServer/2","title":"Street light L030253"},"type":"Feature"},{"geometry":{"coordinates":[-90.18265983553452,38.76588213702289],"type":"Point"},"id":"stl-city-public-streetlights:2:137538","properties":{"address":null,"attributes":{"Date_Installed":null,"LED_Powered":0,"LightID":"L030254","Light_Source":"High Pressure Sodium","Light_Type":"Cobra","Lighting_Type":"400-W High Pressure Sodium Vapor Lamp (Twin Lights)","Verification_Date":null},"id":"stl-city-public-streetlights:2:137538","sourceLayerId":2,"sourceObjectId":137538,"sourceURL":"https://maps8.stlouis-mo.gov/arcgis/rest/services/STREETS/Streets_Permitting/MapServer/2","title":"Street light L030254"},"type":"Feature"},{"geometry":{"coordinates":[-90.18275316714526,38.76544808608273],"type":"Point"},"id":"stl-city-public-streetlights:2:137539","properties":{"address":null,"attributes":{"Date_Installed":null,"LED_Powered":0,"LightID":"L030255","Light_Source":"High Pressure Sodium","Light_Type":"Cobra","Lighting_Type":"400-W High Pressure Sodium Vapor Lamp (Twin Lights)","Verification_Date":null},"id":"stl-city-public-streetlights:2:137539","sourceLayerId":2,"sourceObjectId":137539,"sourceURL":"https://maps8.stlouis-mo.gov/arcgis/rest/services/STREETS/Streets_Permitting/MapServer/2","title":"Street light L030255"},"type":"Feature"},{"geometry":{"coordinates":[-90.18287742120113,38.76500944162694],"type":"Point"},"id":"stl-city-public-streetlights:2:137540","properties":{"address":null,"attributes":{"Date_Installed":null,"LED_Powered":0,"LightID":"L030256","Light_Source":"High Pressure Sodium","Light_Type":"Cobra","Lighting_Type":"400-W High Pressure Sodium Vapor Lamp (Twin Lights)","Verification_Date":null},"id":"stl-city-public-streetlights:2:137540","sourceLayerId":2,"sourceObjectId":137540,"sourceURL":"https://maps8.stlouis-mo.gov/arcgis/rest/services/STREETS/Streets_Permitting/MapServer/2","title":"Street light L030256"},"type":"Feature"},{"geometry":{"coordinates":[-90.18303104159978,38.764565904750896],"type":"Point"},"id":"stl-city-public-streetlights:2:137541","properties":{"address":null,"attributes":{"Date_Installed":null,"LED_Powered":0,"LightID":"L030257","Light_Source":"High Pressure Sodium","Light_Type":"Cobra","Lighting_Type":"400-W High Pressure Sodium Vapor Lamp (Twin Lights)","Verification_Date":null},"id":"stl-city-public-streetlights:2:137541","sourceLayerId":2,"sourceObjectId":137541,"sourceURL":"https://maps8.stlouis-mo.gov/arcgis/rest/services/STREETS/Streets_Permitting/MapServer/2","title":"Street light L030257"},"type":"Feature"},{"geometry":{"coordinates":[-90.1832525040985,38.76403759415838],"type":"Point"},"id":"stl-city-public-streetlights:2:137542","properties":{"address":null,"attributes":{"Date_Installed":null,"LED_Powered":0,"LightID":"L030258","Light_Source":"High Pressure Sodium","Light_Type":"Cobra","Lighting_Type":"400-W High Pressure Sodium Vapor Lamp (Twin Lights)","Verification_Date":null},"id":"stl-city-public-streetlights:2:137542","sourceLayerId":2,"sourceObjectId":137542,"sourceURL":"https://maps8.stlouis-mo.gov/arcgis/rest/services/STREETS/Streets_Permitting/MapServer/2","title":"Street light L030258"},"type":"Feature"},{"geometry":{"coordinates":[-90.18325619725549,38.763718599242985],"type":"Point"},"id":"stl-city-public-streetlights:2:137543","properties":{"address":null,"attributes":{"Date_Installed":null,"LED_Powered":1,"LightID":"L030259","Light_Source":"LED","Light_Type":"Cobra","Lighting_Type":"LED-Powered Lamp","Verification_Date":null},"id":"stl-city-public-streetlights:2:137543","sourceLayerId":2,"sourceObjectId":137543,"sourceURL":"https://maps8.stlouis-mo.gov/arcgis/rest/services/STREETS/Streets_Permitting/MapServer/2","title":"Street light L030259"},"type":"Feature"},{"geometry":{"coordinates":[-90.18341822519787,38.76331532455729],"type":"Point"},"id":"stl-city-public-streetlights:2:137544","properties":{"address":null,"attributes":{"Date_Installed":null,"LED_Powered":1,"LightID":"L030260","Light_Source":"LED","Light_Type":"Cobra","Lighting_Type":"LED-Powered Lamp","Verification_Date":null},"id":"stl-city-public-streetlights:2:137544","sourceLayerId":2,"sourceObjectId":137544,"sourceURL":"https://maps8.stlouis-mo.gov/arcgis/rest/services/STREETS/Streets_Permitting/MapServer/2","title":"Street light L030260"},"type":"Feature"},{"geometry":{"coordinates":[-90.1835692136647,38.76290937297644],"type":"Point"},"id":"stl-city-public-streetlights:2:137545","properties":{"address":null,"attributes":{"Date_Installed":null,"LED_Powered":1,"LightID":"L030261","Light_Source":"LED","Light_Type":"Cobra","Lighting_Type":"LED-Powered Lamp","Verification_Date":null},"id":"stl-city-public-streetlights:2:137545","sourceLayerId":2,"sourceObjectId":137545,"sourceURL":"https://maps8.stlouis-mo.gov/arcgis/rest/services/STREETS/Streets_Permitting/MapServer/2","title":"Street light L030261"},"type":"Feature"},{"geometry":{"coordinates":[-90.1837065822557,38.76251241282547],"type":"Point"},"id":"stl-city-public-streetlights:2:137546","properties":{"address":null,"attributes":{"Date_Installed":null,"LED_Powered":1,"LightID":"L030262","Light_Source":"LED","Light_Type":"Cobra","Lighting_Type":"LED-Powered Lamp","Verification_Date":null},"id":"stl-city-public-streetlights:2:137546","sourceLayerId":2,"sourceObjectId":137546,"sourceURL":"https://maps8.stlouis-mo.gov/arcgis/rest/services/STREETS/Streets_Permitting/MapServer/2","title":"Street light L030262"},"type":"Feature"},{"geometry":{"coordinates":[-90.18384565233356,38.76211386164666],"type":"Point"},"id":"stl-city-public-streetlights:2:137547","properties":{"address":null,"attributes":{"Date_Installed":null,"LED_Powered":1,"LightID":"L030263","Light_Source":"LED","Light_Type":"Cobra","Lighting_Type":"LED-Powered Lamp","Verification_Date":null},"id":"stl-city-public-streetlights:2:137547","sourceLayerId":2,"sourceObjectId":137547,"sourceURL":"https://maps8.stlouis-mo.gov/arcgis/rest/services/STREETS/Streets_Permitting/MapServer/2","title":"Street light L030263"},"type":"Feature"},{"geometry":{"coordinates":[-90.18397430755843,38.7617409442783],"type":"Point"},"id":"stl-city-public-streetlights:2:137548","properties":{"address":null,"attributes":{"Date_Installed":null,"LED_Powered":1,"LightID":"L030264","Light_Source":"LED","Light_Type":"Cobra","Lighting_Type":"LED-Powered Lamp","Verification_Date":null},"id":"stl-city-public-streetlights:2:137548","sourceLayerId":2,"sourceObjectId":137548,"sourceURL":"https://maps8.stlouis-mo.gov/arcgis/rest/services/STREETS/Streets_Permitting/MapServer/2","title":"Street light L030264"},"type":"Feature"},{"geometry":{"coordinates":[-90.18415771362177,38.76135034649745],"type":"Point"},"id":"stl-city-public-streetlights:2:137549","properties":{"address":null,"attributes":{"Date_Installed":null,"LED_Powered":1,"LightID":"L030265","Light_Source":"LED","Light_Type":"Cobra","Lighting_Type":"LED-Powered Lamp","Verification_Date":null},"id":"stl-city-public-streetlights:2:137549","sourceLayerId":2,"sourceObjectId":137549,"sourceURL":"https://maps8.stlouis-mo.gov/arcgis/rest/services/STREETS/Streets_Permitting/MapServer/2","title":"Street light L030265"},"type":"Feature"},{"geometry":{"coordinates":[-90.18434522648519,38.76098533517505],"type":"Point"},"id":"stl-city-public-streetlights:2:137550","properties":{"address":null,"attributes":{"Date_Installed":null,"LED_Powered":1,"LightID":"L030266","Light_Source":"LED","Light_Type":"Cobra","Lighting_Type":"LED-Powered Lamp","Verification_Date":null},"id":"stl-city-public-streetlights:2:137550","sourceLayerId":2,"sourceObjectId":137550,"sourceURL":"https://maps8.stlouis-mo.gov/arcgis/rest/services/STREETS/Streets_Permitting/MapServer/2","title":"Street light L030266"},"type":"Feature"},{"geometry":{"coordinates":[-90.18453198504297,38.76060697240549],"type":"Point"},"id":"stl-city-public-streetlights:2:137551","properties":{"address":null,"attributes":{"Date_Installed":null,"LED_Powered":1,"LightID":"L030267","Light_Source":"LED","Light_Type":"Cobra","Lighting_Type":"LED-Powered Lamp","Verification_Date":null},"id":"stl-city-public-streetlights:2:137551","sourceLayerId":2,"sourceObjectId":137551,"sourceURL":"https://maps8.stlouis-mo.gov/arcgis/rest/services/STREETS/Streets_Permitting/MapServer/2","title":"Street light L030267"},"type":"Feature"},{"geometry":{"coordinates":[-90.18484854835937,38.76023560238301],"type":"Point"},"id":"stl-city-public-streetlights:2:137552","properties":{"address":null,"attributes":{"Date_Installed":null,"LED_Powered":1,"LightID":"L030268","Light_Source":"LED","Light_Type":"Cobra","Lighting_Type":"LED-Powered Lamp","Verification_Date":null},"id":"stl-city-public-streetlights:2:137552","sourceLayerId":2,"sourceObjectId":137552,"sourceURL":"https://maps8.stlouis-mo.gov/arcgis/rest/services/STREETS/Streets_Permitting/MapServer/2","title":"Street light L030268"},"type":"Feature"},{"geometry":{"coordinates":[-90.18478529924575,38.76106297689273],"type":"Point"},"id":"stl-city-public-streetlights:2:137571","properties":{"address":null,"attributes":{"Date_Installed":null,"LED_Powered":0,"LightID":"L030287","Light_Source":"High Pressure Sodium","Light_Type":"Cobra","Lighting_Type":"150-W High Pressure Sodium Vapor Lamp","Verification_Date":null},"id":"stl-city-public-streetlights:2:137571","sourceLayerId":2,"sourceObjectId":137571,"sourceURL":"https://maps8.stlouis-mo.gov/arcgis/rest/services/STREETS/Streets_Permitting/MapServer/2","title":"Street light L030287"},"type":"Feature"},{"geometry":{"coordinates":[-90.18486658872317,38.760722385444254],"type":"Point"},"id":"stl-city-public-streetlights:2:137572","properties":{"address":null,"attributes":{"Date_Installed":null,"LED_Powered":0,"LightID":"L030288","Light_Source":"High Pressure Sodium","Light_Type":"Cobra","Lighting_Type":"150-W High Pressure Sodium Vapor Lamp","Verification_Date":null},"id":"stl-city-public-streetlights:2:137572","sourceLayerId":2,"sourceObjectId":137572,"sourceURL":"https://maps8.stlouis-mo.gov/arcgis/rest/services/STREETS/Streets_Permitting/MapServer/2","title":"Street light L030288"},"type":"Feature"},{"geometry":{"coordinates":[-90.18514589272868,38.760691387001934],"type":"Point"},"id":"stl-city-public-streetlights:2:137573","properties":{"address":null,"attributes":{"Date_Installed":null,"LED_Powered":0,"LightID":"L030289","Light_Source":"LED","Light_Type":"Cobra","Lighting_Type":"LED-Powered Lamp","Verification_Date":null},"id":"stl-city-public-streetlights:2:137573","sourceLayerId":2,"sourceObjectId":137573,"sourceURL":"https://maps8.stlouis-mo.gov/arcgis/rest/services/STREETS/Streets_Permitting/MapServer/2","title":"Street light L030289"},"type":"Feature"},{"geometry":{"coordinates":[-90.18501705972125,38.760826247792714],"type":"Point"},"id":"stl-city-public-streetlights:2:137574","properties":{"address":null,"attributes":{"Date_Installed":null,"LED_Powered":0,"LightID":"L030290","Light_Source":"LED","Light_Type":"Cobra","Lighting_Type":"LED-Powered Lamp","Verification_Date":null},"id":"stl-city-public-streetlights:2:137574","sourceLayerId":2,"sourceObjectId":137574,"sourceURL":"https://maps8.stlouis-mo.gov/arcgis/rest/services/STREETS/Streets_Permitting/MapServer/2","title":"Street light L030290"},"type":"Feature"},{"geometry":{"coordinates":[-90.18564811031193,38.760000057424726],"type":"Point"},"id":"stl-city-public-streetlights:2:137575","properties":{"address":null,"attributes":{"Date_Installed":null,"LED_Powered":0,"LightID":"L030291","Light_Source":"LED","Light_Type":"Cobra","Lighting_Type":"LED-Powered Lamp","Verification_Date":null},"id":"stl-city-public-streetlights:2:137575","sourceLayerId":2,"sourceObjectId":137575,"sourceURL":"https://maps8.stlouis-mo.gov/arcgis/rest/services/STREETS/Streets_Permitting/MapServer/2","title":"Street light L030291"},"type":"Feature"},{"geometry":{"coordinates":[-90.18642095699717,38.76003754927011],"type":"Point"},"id":"stl-city-public-streetlights:2:137583","properties":{"address":null,"attributes":{"Date_Installed":null,"LED_Powered":0,"LightID":"L030299","Light_Source":"High Pressure Sodium","Light_Type":"Cobra","Lighting_Type":"150-W High Pressure Sodium Vapor Lamp","Verification_Date":null},"id":"stl-city-public-streetlights:2:137583","sourceLayerId":2,"sourceObjectId":137583,"sourceURL":"https://maps8.stlouis-mo.gov/arcgis/rest/services/STREETS/Streets_Permitting/MapServer/2","title":"Street light L030299"},"type":"Feature"},{"geometry":{"coordinates":[-90.18616344809136,38.76044683039266],"type":"Point"},"id":"stl-city-public-streetlights:2:137584","properties":{"address":null,"attributes":{"Date_Installed":null,"LED_Powered":0,"LightID":"L030300","Light_Source":"High Pressure Sodium","Light_Type":"Cobra","Lighting_Type":"150-W High Pressure Sodium Vapor Lamp","Verification_Date":null},"id":"stl-city-public-streetlights:2:137584","sourceLayerId":2,"sourceObjectId":137584,"sourceURL":"https://maps8.stlouis-mo.gov/arcgis/rest/services/STREETS/Streets_Permitting/MapServer/2","title":"Street light L030300"},"type":"Feature"},{"geometry":{"coordinates":[-90.18586898621648,38.760951352430595],"type":"Point"},"id":"stl-city-public-streetlights:2:137585","properties":{"address":null,"attributes":{"Date_Installed":null,"LED_Powered":0,"LightID":"L030301","Light_Source":"High Pressure Sodium","Light_Type":"Cobra","Lighting_Type":"150-W High Pressure Sodium Vapor Lamp","Verification_Date":null},"id":"stl-city-public-streetlights:2:137585","sourceLayerId":2,"sourceObjectId":137585,"sourceURL":"https://maps8.stlouis-mo.gov/arcgis/rest/services/STREETS/Streets_Permitting/MapServer/2","title":"Street light L030301"},"type":"Feature"},{"geometry":{"coordinates":[-90.18591887692817,38.76123751346794],"type":"Point"},"id":"stl-city-public-streetlights:2:137586","properties":{"address":null,"attributes":{"Date_Installed":null,"LED_Powered":0,"LightID":"L030302","Light_Source":"High Pressure Sodium","Light_Type":"Cobra","Lighting_Type":"150-W High Pressure Sodium Vapor Lamp","Verification_Date":null},"id":"stl-city-public-streetlights:2:137586","sourceLayerId":2,"sourceObjectId":137586,"sourceURL":"https://maps8.stlouis-mo.gov/arcgis/rest/services/STREETS/Streets_Permitting/MapServer/2","title":"Street light L030302"},"type":"Feature"},{"geometry":{"coordinates":[-90.18663967411374,38.760663725830554],"type":"Point"},"id":"stl-city-public-streetlights:2:137587","properties":{"address":null,"attributes":{"Date_Installed":null,"LED_Powered":0,"LightID":"L030303","Light_Source":"High Pressure Sodium","Light_Type":"Cobra","Lighting_Type":"150-W High Pressure Sodium Vapor Lamp","Verification_Date":null},"id":"stl-city-public-streetlights:2:137587","sourceLayerId":2,"sourceObjectId":137587,"sourceURL":"https://maps8.stlouis-mo.gov/arcgis/rest/services/STREETS/Streets_Permitting/MapServer/2","title":"Street light L030303"},"type":"Feature"},{"geometry":{"coordinates":[-90.18689825340434,38.7603258098272],"type":"Point"},"id":"stl-city-public-streetlights:2:137588","properties":{"address":null,"attributes":{"Date_Installed":null,"LED_Powered":0,"LightID":"L030304","Light_Source":"High Pressure Sodium","Light_Type":"Cobra","Lighting_Type":"150-W High Pressure Sodium Vapor Lamp","Verification_Date":null},"id":"stl-city-public-streetlights:2:137588","sourceLayerId":2,"sourceObjectId":137588,"sourceURL":"https://maps8.stlouis-mo.gov/arcgis/rest/services/STREETS/Streets_Permitting/MapServer/2","title":"Street light L030304"},"type":"Feature"},{"geometry":{"coordinates":[-90.18706001246046,38.76009170071084],"type":"Point"},"id":"stl-city-public-streetlights:2:137589","properties":{"address":null,"attributes":{"Date_Installed":null,"LED_Powered":0,"LightID":"L030305","Light_Source":"High Pressure Sodium","Light_Type":"Cobra","Lighting_Type":"150-W High Pressure Sodium Vapor Lamp","Verification_Date":null},"id":"stl-city-public-streetlights:2:137589","sourceLayerId":2,"sourceObjectId":137589,"sourceURL":"https://maps8.stlouis-mo.gov/arcgis/rest/services/STREETS/Streets_Permitting/MapServer/2","title":"Street light L030305"},"type":"Feature"},{"geometry":{"coordinates":[-90.18540855135042,38.76036651186946],"type":"Point"},"id":"stl-city-public-streetlights:2:137591","properties":{"address":null,"attributes":{"Date_Installed":null,"LED_Powered":0,"LightID":"L030307","Light_Source":"LED","Light_Type":"Cobra","Lighting_Type":"LED-Powered Lamp","Verification_Date":null},"id":"stl-city-public-streetlights:2:137591","sourceLayerId":2,"sourceObjectId":137591,"sourceURL":"https://maps8.stlouis-mo.gov/arcgis/rest/services/STREETS/Streets_Permitting/MapServer/2","title":"Street light L030307"},"type":"Feature"},{"geometry":{"coordinates":[-90.18473336507057,38.76482970600005],"type":"Point"},"id":"stl-city-public-streetlights:2:137624","properties":{"address":null,"attributes":{"Date_Installed":null,"LED_Powered":0,"LightID":"L030340","Light_Source":"LED","Light_Type":"Cobra","Lighting_Type":"LED-Powered Lamp","Verification_Date":null},"id":"stl-city-public-streetlights:2:137624","sourceLayerId":2,"sourceObjectId":137624,"sourceURL":"https://maps8.stlouis-mo.gov/arcgis/rest/services/STREETS/Streets_Permitting/MapServer/2","title":"Street light L030340"},"type":"Feature"},{"geometry":{"coordinates":[-90.18495980064853,38.76469333583539],"type":"Point"},"id":"stl-city-public-streetlights:2:137625","properties":{"address":null,"attributes":{"Date_Installed":null,"LED_Powered":0,"LightID":"L030341","Light_Source":"LED","Light_Type":"Cobra","Lighting_Type":"LED-Powered Lamp","Verification_Date":null},"id":"stl-city-public-streetlights:2:137625","sourceLayerId":2,"sourceObjectId":137625,"sourceURL":"https://maps8.stlouis-mo.gov/arcgis/rest/services/STREETS/Streets_Permitting/MapServer/2","title":"Street light L030341"},"type":"Feature"},{"geometry":{"coordinates":[-90.18506645949635,38.76438496215319],"type":"Point"},"id":"stl-city-public-streetlights:2:137626","properties":{"address":null,"attributes":{"Date_Installed":null,"LED_Powered":0,"LightID":"L030342","Light_Source":"LED","Light_Type":"Cobra","Lighting_Type":"LED-Powered Lamp","Verification_Date":null},"id":"stl-city-public-streetlights:2:137626","sourceLayerId":2,"sourceObjectId":137626,"sourceURL":"https://maps8.stlouis-mo.gov/arcgis/rest/services/STREETS/Streets_Permitting/MapServer/2","title":"Street light L030342"},"type":"Feature"},{"geometry":{"coordinates":[-90.18518269400231,38.76406721358007],"type":"Point"},"id":"stl-city-public-streetlights:2:137627","properties":{"address":null,"attributes":{"Date_Installed":null,"LED_Powered":0,"LightID":"L030343","Light_Source":"LED","Light_Type":"Cobra","Lighting_Type":"LED-Powered Lamp","Verification_Date":null},"id":"stl-city-public-streetlights:2:137627","sourceLayerId":2,"sourceObjectId":137627,"sourceURL":"https://maps8.stlouis-mo.gov/arcgis/rest/services/STREETS/Streets_Permitting/MapServer/2","title":"Street light L030343"},"type":"Feature"},{"geometry":{"coordinates":[-90.18529867904866,38.76373476832374],"type":"Point"},"id":"stl-city-public-streetlights:2:137628","properties":{"address":null,"attributes":{"Date_Installed":null,"LED_Powered":0,"LightID":"L030344","Light_Source":"LED","Light_Type":"Cobra","Lighting_Type":"LED-Powered Lamp","Verification_Date":null},"id":"stl-city-public-streetlights:2:137628","sourceLayerId":2,"sourceObjectId":137628,"sourceURL":"https://maps8.stlouis-mo.gov/arcgis/rest/services/STREETS/Streets_Permitting/MapServer/2","title":"Street light L030344"},"type":"Feature"},{"geometry":{"coordinates":[-90.18541160730888,38.763414814263555],"type":"Point"},"id":"stl-city-public-streetlights:2:137629","properties":{"address":null,"attributes":{"Date_Installed":null,"LED_Powered":0,"LightID":"L030345","Light_Source":"LED","Light_Type":"Cobra","Lighting_Type":"LED-Powered Lamp","Verification_Date":null},"id":"stl-city-public-streetlights:2:137629","sourceLayerId":2,"sourceObjectId":137629,"sourceURL":"https://maps8.stlouis-mo.gov/arcgis/rest/services/STREETS/Streets_Permitting/MapServer/2","title":"Street light L030345"},"type":"Feature"},{"geometry":{"coordinates":[-90.18648545312352,38.76233260712436],"type":"Point"},"id":"stl-city-public-streetlights:2:137630","properties":{"address":null,"attributes":{"Date_Installed":null,"LED_Powered":0,"LightID":"L030346","Light_Source":"LED","Light_Type":"Cobra","Lighting_Type":"LED-Powered Lamp","Verification_Date":null},"id":"stl-city-public-streetlights:2:137630","sourceLayerId":2,"sourceObjectId":137630,"sourceURL":"https://maps8.stlouis-mo.gov/arcgis/rest/services/STREETS/Streets_Permitting/MapServer/2","title":"Street light L030346"},"type":"Feature"},{"geometry":{"coordinates":[-90.18633889972618,38.76270805299099],"type":"Point"},"id":"stl-city-public-streetlights:2:137631","properties":{"address":null,"attributes":{"Date_Installed":null,"LED_Powered":0,"LightID":"L030347","Light_Source":"LED","Light_Type":"Cobra","Lighting_Type":"LED-Powered Lamp","Verification_Date":null},"id":"stl-city-public-streetlights:2:137631","sourceLayerId":2,"sourceObjectId":137631,"sourceURL":"https://maps8.stlouis-mo.gov/arcgis/rest/services/STREETS/Streets_Permitting/MapServer/2","title":"Street light L030347"},"type":"Feature"},{"geometry":{"coordinates":[-90.18617204345715,38.763061086364374],"type":"Point"},"id":"stl-city-public-streetlights:2:137632","properties":{"address":null,"attributes":{"Date_Installed":null,"LED_Powered":0,"LightID":"L030348","Light_Source":"LED","Light_Type":"Cobra","Lighting_Type":"LED-Powered Lamp","Verification_Date":null},"id":"stl-city-public-streetlights:2:137632","sourceLayerId":2,"sourceObjectId":137632,"sourceURL":"https://maps8.stlouis-mo.gov/arcgis/rest/services/STREETS/Streets_Permitting/MapServer/2","title":"Street light L030348"},"type":"Feature"},{"geometry":{"coordinates":[-90.18207479919712,38.76009380888451],"type":"Point"},"id":"stl-city-public-streetlights:2:151483","properties":{"address":null,"attributes":{"Date_Installed":null,"LED_Powered":0,"LightID":"L044348","Light_Source":"LED","Light_Type":"Cobra","Lighting_Type":"LED-Powered Lamp","Verification_Date":null},"id":"stl-city-public-streetlights:2:151483","sourceLayerId":2,"sourceObjectId":151483,"sourceURL":"https://maps8.stlouis-mo.gov/arcgis/rest/services/STREETS/Streets_Permitting/MapServer/2","title":"Street light L044348"},"type":"Feature"},{"geometry":{"coordinates":[-90.18247723916889,38.76000442038659],"type":"Point"},"id":"stl-city-public-streetlights:2:151484","properties":{"address":null,"attributes":{"Date_Installed":null,"LED_Powered":0,"LightID":"L044349","Light_Source":"LED","Light_Type":"Cobra","Lighting_Type":"LED-Powered Lamp","Verification_Date":null},"id":"stl-city-public-streetlights:2:151484","sourceLayerId":2,"sourceObjectId":151484,"sourceURL":"https://maps8.stlouis-mo.gov/arcgis/rest/services/STREETS/Streets_Permitting/MapServer/2","title":"Street light L044349"},"type":"Feature"},{"geometry":{"coordinates":[-90.1830082958031,38.760041614634645],"type":"Point"},"id":"stl-city-public-streetlights:2:151485","properties":{"address":null,"attributes":{"Date_Installed":null,"LED_Powered":0,"LightID":"L044350","Light_Source":"LED","Light_Type":"Cobra","Lighting_Type":"LED-Powered Lamp","Verification_Date":null},"id":"stl-city-public-streetlights:2:151485","sourceLayerId":2,"sourceObjectId":151485,"sourceURL":"https://maps8.stlouis-mo.gov/arcgis/rest/services/STREETS/Streets_Permitting/MapServer/2","title":"Street light L044350"},"type":"Feature"},{"geometry":{"coordinates":[-90.18498800591077,38.764967755263676],"type":"Point"},"id":"stl-city-public-streetlights:2:158899","properties":{"address":null,"attributes":{"Date_Installed":null,"LED_Powered":0,"LightID":"L051533","Light_Source":"LED","Light_Type":"Cobra","Lighting_Type":"LED-Powered Lamp","Verification_Date":null},"id":"stl-city-public-streetlights:2:158899","sourceLayerId":2,"sourceObjectId":158899,"sourceURL":"https://maps8.stlouis-mo.gov/arcgis/rest/services/STREETS/Streets_Permitting/MapServer/2","title":"Street light L051533"},"type":"Feature"},{"geometry":{"coordinates":[-90.18723786208979,38.76027626855355],"type":"Point"},"id":"stl-city-public-streetlights:2:159632","properties":{"address":null,"attributes":{"Date_Installed":null,"LED_Powered":0,"LightID":"L052563","Light_Source":"LED","Light_Type":"Cobra","Lighting_Type":"LED-Powered Lamp","Verification_Date":null},"id":"stl-city-public-streetlights:2:159632","sourceLayerId":2,"sourceObjectId":159632,"sourceURL":"https://maps8.stlouis-mo.gov/arcgis/rest/services/STREETS/Streets_Permitting/MapServer/2","title":"Street light L052563"},"type":"Feature"}],"layerId":"city-streetlights","retrievedAt":"2026-09-13T21:56:18.173251+00:00","schema":"property-infrastructure-geojson-v1","sourceId":"stl-city-public-streetlights","tileId":"-9019_3876","type":"FeatureCollection"}