{"features":[{"geometry":{"coordinates":[-90.18970457374681,38.65817186423147],"type":"Point"},"id":"stl-city-public-streetlights:2:140999","properties":{"address":null,"attributes":{"Date_Installed":null,"LED_Powered":0,"LightID":"L033856","Light_Source":"LED","Light_Type":"Cobra","Lighting_Type":"LED-Powered Lamp","Verification_Date":null},"id":"stl-city-public-streetlights:2:140999","sourceLayerId":2,"sourceObjectId":140999,"sourceURL":"https://maps8.stlouis-mo.gov/arcgis/rest/services/STREETS/Streets_Permitting/MapServer/2","title":"Street light L033856"},"type":"Feature"},{"geometry":{"coordinates":[-90.18899578822665,38.65838879617918],"type":"Point"},"id":"stl-city-public-streetlights:2:141000","properties":{"address":null,"attributes":{"Date_Installed":null,"LED_Powered":0,"LightID":"L033857","Light_Source":"LED","Light_Type":"Cobra","Lighting_Type":"LED-Powered Lamp","Verification_Date":null},"id":"stl-city-public-streetlights:2:141000","sourceLayerId":2,"sourceObjectId":141000,"sourceURL":"https://maps8.stlouis-mo.gov/arcgis/rest/services/STREETS/Streets_Permitting/MapServer/2","title":"Street light L033857"},"type":"Feature"},{"geometry":{"coordinates":[-90.18786570734093,38.6587349837319],"type":"Point"},"id":"stl-city-public-streetlights:2:141001","properties":{"address":null,"attributes":{"Date_Installed":null,"LED_Powered":0,"LightID":"L033858","Light_Source":"LED","Light_Type":"Cobra","Lighting_Type":"LED-Powered Lamp","Verification_Date":null},"id":"stl-city-public-streetlights:2:141001","sourceLayerId":2,"sourceObjectId":141001,"sourceURL":"https://maps8.stlouis-mo.gov/arcgis/rest/services/STREETS/Streets_Permitting/MapServer/2","title":"Street light L033858"},"type":"Feature"},{"geometry":{"coordinates":[-90.1868230980992,38.65906232461154],"type":"Point"},"id":"stl-city-public-streetlights:2:141002","properties":{"address":null,"attributes":{"Date_Installed":null,"LED_Powered":0,"LightID":"L033859","Light_Source":"LED","Light_Type":"Cobra","Lighting_Type":"LED-Powered Lamp","Verification_Date":null},"id":"stl-city-public-streetlights:2:141002","sourceLayerId":2,"sourceObjectId":141002,"sourceURL":"https://maps8.stlouis-mo.gov/arcgis/rest/services/STREETS/Streets_Permitting/MapServer/2","title":"Street light L033859"},"type":"Feature"},{"geometry":{"coordinates":[-90.18716679212979,38.65734221359811],"type":"Point"},"id":"stl-city-public-streetlights:2:141003","properties":{"address":null,"attributes":{"Date_Installed":null,"LED_Powered":0,"LightID":"L033860","Light_Source":"LED","Light_Type":"Cobra","Lighting_Type":"LED-Powered Lamp","Verification_Date":null},"id":"stl-city-public-streetlights:2:141003","sourceLayerId":2,"sourceObjectId":141003,"sourceURL":"https://maps8.stlouis-mo.gov/arcgis/rest/services/STREETS/Streets_Permitting/MapServer/2","title":"Street light L033860"},"type":"Feature"},{"geometry":{"coordinates":[-90.18774682929566,38.65716153674671],"type":"Point"},"id":"stl-city-public-streetlights:2:141004","properties":{"address":null,"attributes":{"Date_Installed":null,"LED_Powered":0,"LightID":"L033861","Light_Source":"LED","Light_Type":"Cobra","Lighting_Type":"LED-Powered Lamp","Verification_Date":null},"id":"stl-city-public-streetlights:2:141004","sourceLayerId":2,"sourceObjectId":141004,"sourceURL":"https://maps8.stlouis-mo.gov/arcgis/rest/services/STREETS/Streets_Permitting/MapServer/2","title":"Street light L033861"},"type":"Feature"},{"geometry":{"coordinates":[-90.18824523804084,38.65701687130602],"type":"Point"},"id":"stl-city-public-streetlights:2:141005","properties":{"address":null,"attributes":{"Date_Installed":null,"LED_Powered":0,"LightID":"L033862","Light_Source":"LED","Light_Type":"Cobra","Lighting_Type":"LED-Powered Lamp","Verification_Date":null},"id":"stl-city-public-streetlights:2:141005","sourceLayerId":2,"sourceObjectId":141005,"sourceURL":"https://maps8.stlouis-mo.gov/arcgis/rest/services/STREETS/Streets_Permitting/MapServer/2","title":"Street light L033862"},"type":"Feature"},{"geometry":{"coordinates":[-90.18864019934281,38.65689278393466],"type":"Point"},"id":"stl-city-public-streetlights:2:141006","properties":{"address":null,"attributes":{"Date_Installed":null,"LED_Powered":0,"LightID":"L033863","Light_Source":"LED","Light_Type":"Cobra","Lighting_Type":"LED-Powered Lamp","Verification_Date":null},"id":"stl-city-public-streetlights:2:141006","sourceLayerId":2,"sourceObjectId":141006,"sourceURL":"https://maps8.stlouis-mo.gov/arcgis/rest/services/STREETS/Streets_Permitting/MapServer/2","title":"Street light L033863"},"type":"Feature"},{"geometry":{"coordinates":[-90.18921551290158,38.65671316015732],"type":"Point"},"id":"stl-city-public-streetlights:2:141007","properties":{"address":null,"attributes":{"Date_Installed":null,"LED_Powered":0,"LightID":"L033864","Light_Source":"LED","Light_Type":"Cobra","Lighting_Type":"LED-Powered Lamp","Verification_Date":null},"id":"stl-city-public-streetlights:2:141007","sourceLayerId":2,"sourceObjectId":141007,"sourceURL":"https://maps8.stlouis-mo.gov/arcgis/rest/services/STREETS/Streets_Permitting/MapServer/2","title":"Street light L033864"},"type":"Feature"},{"geometry":{"coordinates":[-90.18960607394631,38.65658667498001],"type":"Point"},"id":"stl-city-public-streetlights:2:141008","properties":{"address":null,"attributes":{"Date_Installed":null,"LED_Powered":0,"LightID":"L033865","Light_Source":"LED","Light_Type":"Cobra","Lighting_Type":"LED-Powered Lamp","Verification_Date":null},"id":"stl-city-public-streetlights:2:141008","sourceLayerId":2,"sourceObjectId":141008,"sourceURL":"https://maps8.stlouis-mo.gov/arcgis/rest/services/STREETS/Streets_Permitting/MapServer/2","title":"Street light L033865"},"type":"Feature"},{"geometry":{"coordinates":[-90.18998969161673,38.65132463655548],"type":"Point"},"id":"stl-city-public-streetlights:2:141473","properties":{"address":null,"attributes":{"Date_Installed":"4/1/2017","LED_Powered":1,"LightID":"L034330","Light_Source":"LED","Light_Type":"Cobra","Lighting_Type":"LED-Powered Lamp","Verification_Date":null},"id":"stl-city-public-streetlights:2:141473","sourceLayerId":2,"sourceObjectId":141473,"sourceURL":"https://maps8.stlouis-mo.gov/arcgis/rest/services/STREETS/Streets_Permitting/MapServer/2","title":"Street light L034330"},"type":"Feature"},{"geometry":{"coordinates":[-90.18980703162613,38.65096718418416],"type":"Point"},"id":"stl-city-public-streetlights:2:141474","properties":{"address":null,"attributes":{"Date_Installed":"4/1/2017","LED_Powered":1,"LightID":"L034331","Light_Source":"LED","Light_Type":"Cobra","Lighting_Type":"LED-Powered Lamp","Verification_Date":null},"id":"stl-city-public-streetlights:2:141474","sourceLayerId":2,"sourceObjectId":141474,"sourceURL":"https://maps8.stlouis-mo.gov/arcgis/rest/services/STREETS/Streets_Permitting/MapServer/2","title":"Street light L034331"},"type":"Feature"},{"geometry":{"coordinates":[-90.18960086916994,38.65056190234169],"type":"Point"},"id":"stl-city-public-streetlights:2:141475","properties":{"address":null,"attributes":{"Date_Installed":"4/1/2017","LED_Powered":1,"LightID":"L034332","Light_Source":"LED","Light_Type":"Cobra","Lighting_Type":"LED-Powered Lamp","Verification_Date":null},"id":"stl-city-public-streetlights:2:141475","sourceLayerId":2,"sourceObjectId":141475,"sourceURL":"https://maps8.stlouis-mo.gov/arcgis/rest/services/STREETS/Streets_Permitting/MapServer/2","title":"Street light L034332"},"type":"Feature"},{"geometry":{"coordinates":[-90.189376791508,38.65008277551195],"type":"Point"},"id":"stl-city-public-streetlights:2:141476","properties":{"address":null,"attributes":{"Date_Installed":"4/1/2017","LED_Powered":1,"LightID":"L034333","Light_Source":"LED","Light_Type":"Cobra","Lighting_Type":"LED-Powered Lamp","Verification_Date":null},"id":"stl-city-public-streetlights:2:141476","sourceLayerId":2,"sourceObjectId":141476,"sourceURL":"https://maps8.stlouis-mo.gov/arcgis/rest/services/STREETS/Streets_Permitting/MapServer/2","title":"Street light L034333"},"type":"Feature"},{"geometry":{"coordinates":[-90.1870334889693,38.65006754357737],"type":"Point"},"id":"stl-city-public-streetlights:2:141865","properties":{"address":null,"attributes":{"Date_Installed":null,"LED_Powered":0,"LightID":"L034722","Light_Source":"LED","Light_Type":"Cobra","Lighting_Type":"LED-Powered Lamp","Verification_Date":null},"id":"stl-city-public-streetlights:2:141865","sourceLayerId":2,"sourceObjectId":141865,"sourceURL":"https://maps8.stlouis-mo.gov/arcgis/rest/services/STREETS/Streets_Permitting/MapServer/2","title":"Street light L034722"},"type":"Feature"},{"geometry":{"coordinates":[-90.18663778986809,38.650194403881],"type":"Point"},"id":"stl-city-public-streetlights:2:141866","properties":{"address":null,"attributes":{"Date_Installed":null,"LED_Powered":0,"LightID":"L034723","Light_Source":"LED","Light_Type":"Cobra","Lighting_Type":"LED-Powered Lamp","Verification_Date":null},"id":"stl-city-public-streetlights:2:141866","sourceLayerId":2,"sourceObjectId":141866,"sourceURL":"https://maps8.stlouis-mo.gov/arcgis/rest/services/STREETS/Streets_Permitting/MapServer/2","title":"Street light L034723"},"type":"Feature"},{"geometry":{"coordinates":[-90.18631403604422,38.650272671873786],"type":"Point"},"id":"stl-city-public-streetlights:2:141867","properties":{"address":null,"attributes":{"Date_Installed":null,"LED_Powered":0,"LightID":"L034724","Light_Source":"LED","Light_Type":"Cobra","Lighting_Type":"LED-Powered Lamp","Verification_Date":null},"id":"stl-city-public-streetlights:2:141867","sourceLayerId":2,"sourceObjectId":141867,"sourceURL":"https://maps8.stlouis-mo.gov/arcgis/rest/services/STREETS/Streets_Permitting/MapServer/2","title":"Street light L034724"},"type":"Feature"},{"geometry":{"coordinates":[-90.1889601574474,38.65024749919801],"type":"Point"},"id":"stl-city-public-streetlights:2:141875","properties":{"address":null,"attributes":{"Date_Installed":null,"LED_Powered":0,"LightID":"L034732","Light_Source":"LED","Light_Type":"Cobra","Lighting_Type":"LED-Powered Lamp","Verification_Date":null},"id":"stl-city-public-streetlights:2:141875","sourceLayerId":2,"sourceObjectId":141875,"sourceURL":"https://maps8.stlouis-mo.gov/arcgis/rest/services/STREETS/Streets_Permitting/MapServer/2","title":"Street light L034732"},"type":"Feature"},{"geometry":{"coordinates":[-90.18842687053139,38.65042055926822],"type":"Point"},"id":"stl-city-public-streetlights:2:141876","properties":{"address":null,"attributes":{"Date_Installed":null,"LED_Powered":0,"LightID":"L034733","Light_Source":"LED","Light_Type":"Cobra","Lighting_Type":"LED-Powered Lamp","Verification_Date":null},"id":"stl-city-public-streetlights:2:141876","sourceLayerId":2,"sourceObjectId":141876,"sourceURL":"https://maps8.stlouis-mo.gov/arcgis/rest/services/STREETS/Streets_Permitting/MapServer/2","title":"Street light L034733"},"type":"Feature"},{"geometry":{"coordinates":[-90.18792675421678,38.65056986973523],"type":"Point"},"id":"stl-city-public-streetlights:2:141877","properties":{"address":null,"attributes":{"Date_Installed":null,"LED_Powered":0,"LightID":"L034734","Light_Source":"LED","Light_Type":"Cobra","Lighting_Type":"LED-Powered Lamp","Verification_Date":null},"id":"stl-city-public-streetlights:2:141877","sourceLayerId":2,"sourceObjectId":141877,"sourceURL":"https://maps8.stlouis-mo.gov/arcgis/rest/services/STREETS/Streets_Permitting/MapServer/2","title":"Street light L034734"},"type":"Feature"},{"geometry":{"coordinates":[-90.1874577878538,38.65071354065514],"type":"Point"},"id":"stl-city-public-streetlights:2:141878","properties":{"address":null,"attributes":{"Date_Installed":null,"LED_Powered":0,"LightID":"L034735","Light_Source":"LED","Light_Type":"Cobra","Lighting_Type":"LED-Powered Lamp","Verification_Date":null},"id":"stl-city-public-streetlights:2:141878","sourceLayerId":2,"sourceObjectId":141878,"sourceURL":"https://maps8.stlouis-mo.gov/arcgis/rest/services/STREETS/Streets_Permitting/MapServer/2","title":"Street light L034735"},"type":"Feature"},{"geometry":{"coordinates":[-90.18704139220637,38.650845909082214],"type":"Point"},"id":"stl-city-public-streetlights:2:141879","properties":{"address":null,"attributes":{"Date_Installed":null,"LED_Powered":0,"LightID":"L034736","Light_Source":"LED","Light_Type":"Cobra","Lighting_Type":"LED-Powered Lamp","Verification_Date":null},"id":"stl-city-public-streetlights:2:141879","sourceLayerId":2,"sourceObjectId":141879,"sourceURL":"https://maps8.stlouis-mo.gov/arcgis/rest/services/STREETS/Streets_Permitting/MapServer/2","title":"Street light L034736"},"type":"Feature"},{"geometry":{"coordinates":[-90.18661768341693,38.650982069883305],"type":"Point"},"id":"stl-city-public-streetlights:2:141880","properties":{"address":null,"attributes":{"Date_Installed":null,"LED_Powered":0,"LightID":"L034737","Light_Source":"LED","Light_Type":"Cobra","Lighting_Type":"LED-Powered Lamp","Verification_Date":null},"id":"stl-city-public-streetlights:2:141880","sourceLayerId":2,"sourceObjectId":141880,"sourceURL":"https://maps8.stlouis-mo.gov/arcgis/rest/services/STREETS/Streets_Permitting/MapServer/2","title":"Street light L034737"},"type":"Feature"},{"geometry":{"coordinates":[-90.18615917885751,38.65112309427798],"type":"Point"},"id":"stl-city-public-streetlights:2:141881","properties":{"address":null,"attributes":{"Date_Installed":null,"LED_Powered":0,"LightID":"L034738","Light_Source":"LED","Light_Type":"Cobra","Lighting_Type":"LED-Powered Lamp","Verification_Date":null},"id":"stl-city-public-streetlights:2:141881","sourceLayerId":2,"sourceObjectId":141881,"sourceURL":"https://maps8.stlouis-mo.gov/arcgis/rest/services/STREETS/Streets_Permitting/MapServer/2","title":"Street light L034738"},"type":"Feature"},{"geometry":{"coordinates":[-90.18569897495222,38.65126296817792],"type":"Point"},"id":"stl-city-public-streetlights:2:141882","properties":{"address":null,"attributes":{"Date_Installed":null,"LED_Powered":0,"LightID":"L034739","Light_Source":"LED","Light_Type":"Cobra","Lighting_Type":"LED-Powered Lamp","Verification_Date":null},"id":"stl-city-public-streetlights:2:141882","sourceLayerId":2,"sourceObjectId":141882,"sourceURL":"https://maps8.stlouis-mo.gov/arcgis/rest/services/STREETS/Streets_Permitting/MapServer/2","title":"Street light L034739"},"type":"Feature"},{"geometry":{"coordinates":[-90.1852573855298,38.65142767913483],"type":"Point"},"id":"stl-city-public-streetlights:2:141883","properties":{"address":null,"attributes":{"Date_Installed":null,"LED_Powered":0,"LightID":"L034740","Light_Source":"LED","Light_Type":"Cobra","Lighting_Type":"LED-Powered Lamp","Verification_Date":null},"id":"stl-city-public-streetlights:2:141883","sourceLayerId":2,"sourceObjectId":141883,"sourceURL":"https://maps8.stlouis-mo.gov/arcgis/rest/services/STREETS/Streets_Permitting/MapServer/2","title":"Street light L034740"},"type":"Feature"},{"geometry":{"coordinates":[-90.18476798599,38.65157014013029],"type":"Point"},"id":"stl-city-public-streetlights:2:141884","properties":{"address":null,"attributes":{"Date_Installed":null,"LED_Powered":0,"LightID":"L034741","Light_Source":"LED","Light_Type":"Cobra","Lighting_Type":"LED-Powered Lamp","Verification_Date":null},"id":"stl-city-public-streetlights:2:141884","sourceLayerId":2,"sourceObjectId":141884,"sourceURL":"https://maps8.stlouis-mo.gov/arcgis/rest/services/STREETS/Streets_Permitting/MapServer/2","title":"Street light L034741"},"type":"Feature"},{"geometry":{"coordinates":[-90.18419449454213,38.65173359876952],"type":"Point"},"id":"stl-city-public-streetlights:2:141885","properties":{"address":null,"attributes":{"Date_Installed":null,"LED_Powered":0,"LightID":"L034742","Light_Source":"High Pressure Sodium","Light_Type":"Cobra","Lighting_Type":"400-W High Pressure Sodium Vapor Lamp","Verification_Date":null},"id":"stl-city-public-streetlights:2:141885","sourceLayerId":2,"sourceObjectId":141885,"sourceURL":"https://maps8.stlouis-mo.gov/arcgis/rest/services/STREETS/Streets_Permitting/MapServer/2","title":"Street light L034742"},"type":"Feature"},{"geometry":{"coordinates":[-90.18953289747088,38.650277662510675],"type":"Point"},"id":"stl-city-public-streetlights:2:141888","properties":{"address":null,"attributes":{"Date_Installed":null,"LED_Powered":0,"LightID":"L034745","Light_Source":"LED","Light_Type":"Cobra","Lighting_Type":"LED-Powered Lamp","Verification_Date":null},"id":"stl-city-public-streetlights:2:141888","sourceLayerId":2,"sourceObjectId":141888,"sourceURL":"https://maps8.stlouis-mo.gov/arcgis/rest/services/STREETS/Streets_Permitting/MapServer/2","title":"Street light L034745"},"type":"Feature"},{"geometry":{"coordinates":[-90.1899949780904,38.651046701855385],"type":"Point"},"id":"stl-city-public-streetlights:2:141894","properties":{"address":null,"attributes":{"Date_Installed":null,"LED_Powered":0,"LightID":"L034751","Light_Source":"LED","Light_Type":"Cobra","Lighting_Type":"LED-Powered Lamp","Verification_Date":null},"id":"stl-city-public-streetlights:2:141894","sourceLayerId":2,"sourceObjectId":141894,"sourceURL":"https://maps8.stlouis-mo.gov/arcgis/rest/services/STREETS/Streets_Permitting/MapServer/2","title":"Street light L034751"},"type":"Feature"},{"geometry":{"coordinates":[-90.18931877299417,38.650425860148644],"type":"Point"},"id":"stl-city-public-streetlights:2:142079","properties":{"address":null,"attributes":{"Date_Installed":"4/1/2017","LED_Powered":1,"LightID":"L034933","Light_Source":"LED","Light_Type":"Cobra","Lighting_Type":"LED-Powered Lamp","Verification_Date":null},"id":"stl-city-public-streetlights:2:142079","sourceLayerId":2,"sourceObjectId":142079,"sourceURL":"https://maps8.stlouis-mo.gov/arcgis/rest/services/STREETS/Streets_Permitting/MapServer/2","title":"Street light L034933"},"type":"Feature"},{"geometry":{"coordinates":[-90.1895207722974,38.65081759292252],"type":"Point"},"id":"stl-city-public-streetlights:2:142080","properties":{"address":null,"attributes":{"Date_Installed":"4/1/2017","LED_Powered":1,"LightID":"L034934","Light_Source":"LED","Light_Type":"Cobra","Lighting_Type":"LED-Powered Lamp","Verification_Date":null},"id":"stl-city-public-streetlights:2:142080","sourceLayerId":2,"sourceObjectId":142080,"sourceURL":"https://maps8.stlouis-mo.gov/arcgis/rest/services/STREETS/Streets_Permitting/MapServer/2","title":"Street light L034934"},"type":"Feature"},{"geometry":{"coordinates":[-90.18970389485196,38.65120002675483],"type":"Point"},"id":"stl-city-public-streetlights:2:142081","properties":{"address":null,"attributes":{"Date_Installed":"4/1/2017","LED_Powered":1,"LightID":"L034935","Light_Source":"LED","Light_Type":"Cobra","Lighting_Type":"LED-Powered Lamp","Verification_Date":null},"id":"stl-city-public-streetlights:2:142081","sourceLayerId":2,"sourceObjectId":142081,"sourceURL":"https://maps8.stlouis-mo.gov/arcgis/rest/services/STREETS/Streets_Permitting/MapServer/2","title":"Street light L034935"},"type":"Feature"},{"geometry":{"coordinates":[-90.18989996360011,38.65157600731418],"type":"Point"},"id":"stl-city-public-streetlights:2:142082","properties":{"address":null,"attributes":{"Date_Installed":"4/1/2017","LED_Powered":1,"LightID":"L034936","Light_Source":"LED","Light_Type":"Cobra","Lighting_Type":"LED-Powered Lamp","Verification_Date":null},"id":"stl-city-public-streetlights:2:142082","sourceLayerId":2,"sourceObjectId":142082,"sourceURL":"https://maps8.stlouis-mo.gov/arcgis/rest/services/STREETS/Streets_Permitting/MapServer/2","title":"Street light L034936"},"type":"Feature"},{"geometry":{"coordinates":[-90.18977413969958,38.652007638827186],"type":"Point"},"id":"stl-city-public-streetlights:2:154396","properties":{"address":null,"attributes":{"Date_Installed":null,"LED_Powered":0,"LightID":"L052376","Light_Source":"LED","Light_Type":"Cobra","Lighting_Type":"LED-Powered Lamp","Verification_Date":null},"id":"stl-city-public-streetlights:2:154396","sourceLayerId":2,"sourceObjectId":154396,"sourceURL":"https://maps8.stlouis-mo.gov/arcgis/rest/services/STREETS/Streets_Permitting/MapServer/2","title":"Street light L052376"},"type":"Feature"},{"geometry":{"coordinates":[-90.18999097561537,38.65953782881552],"type":"Point"},"id":"stl-city-public-streetlights:2:155164","properties":{"address":null,"attributes":{"Date_Installed":null,"LED_Powered":0,"LightID":"L047896","Light_Source":"LED","Light_Type":"Cobra","Lighting_Type":"LED-Powered Lamp","Verification_Date":null},"id":"stl-city-public-streetlights:2:155164","sourceLayerId":2,"sourceObjectId":155164,"sourceURL":"https://maps8.stlouis-mo.gov/arcgis/rest/services/STREETS/Streets_Permitting/MapServer/2","title":"Street light L047896"},"type":"Feature"},{"geometry":{"coordinates":[-90.1891802854081,38.659818548234874],"type":"Point"},"id":"stl-city-public-streetlights:2:155165","properties":{"address":null,"attributes":{"Date_Installed":null,"LED_Powered":0,"LightID":"L047897","Light_Source":"LED","Light_Type":"Cobra","Lighting_Type":"LED-Powered Lamp","Verification_Date":null},"id":"stl-city-public-streetlights:2:155165","sourceLayerId":2,"sourceObjectId":155165,"sourceURL":"https://maps8.stlouis-mo.gov/arcgis/rest/services/STREETS/Streets_Permitting/MapServer/2","title":"Street light L047897"},"type":"Feature"},{"geometry":{"coordinates":[-90.18864758522245,38.65998017014044],"type":"Point"},"id":"stl-city-public-streetlights:2:155166","properties":{"address":null,"attributes":{"Date_Installed":null,"LED_Powered":0,"LightID":"L047898","Light_Source":"LED","Light_Type":"Cobra","Lighting_Type":"LED-Powered Lamp","Verification_Date":null},"id":"stl-city-public-streetlights:2:155166","sourceLayerId":2,"sourceObjectId":155166,"sourceURL":"https://maps8.stlouis-mo.gov/arcgis/rest/services/STREETS/Streets_Permitting/MapServer/2","title":"Street light L047898"},"type":"Feature"},{"geometry":{"coordinates":[-90.18924568924584,38.65037323443092],"type":"Point"},"id":"stl-city-public-streetlights:2:158933","properties":{"address":null,"attributes":{"Date_Installed":null,"LED_Powered":0,"LightID":"L052444","Light_Source":"High Pressure Sodium","Light_Type":"Cobra","Lighting_Type":"400-W High Pressure Sodium Vapor Lamp","Verification_Date":null},"id":"stl-city-public-streetlights:2:158933","sourceLayerId":2,"sourceObjectId":158933,"sourceURL":"https://maps8.stlouis-mo.gov/arcgis/rest/services/STREETS/Streets_Permitting/MapServer/2","title":"Street light L052444"},"type":"Feature"}],"layerId":"city-streetlights","retrievedAt":"2026-09-13T21:56:18.173251+00:00","schema":"property-infrastructure-geojson-v1","sourceId":"stl-city-public-streetlights","tileId":"-9019_3865","type":"FeatureCollection"}