{"features":[{"geometry":{"coordinates":[-90.1865184815639,38.61943382913622],"type":"Point"},"id":"stl-city-public-streetlights:2:116201","properties":{"address":null,"attributes":{"Date_Installed":null,"LED_Powered":0,"LightID":"L052254","Light_Source":"High Pressure Sodium","Light_Type":"Cobra","Lighting_Type":"250-W High Pressure Sodium Vapor Lamp (Twin Lights)","Verification_Date":null},"id":"stl-city-public-streetlights:2:116201","sourceLayerId":2,"sourceObjectId":116201,"sourceURL":"https://maps8.stlouis-mo.gov/arcgis/rest/services/STREETS/Streets_Permitting/MapServer/2","title":"Street light L052254"},"type":"Feature"},{"geometry":{"coordinates":[-90.1868843918931,38.61955065177697],"type":"Point"},"id":"stl-city-public-streetlights:2:116202","properties":{"address":null,"attributes":{"Date_Installed":null,"LED_Powered":0,"LightID":"L052255","Light_Source":"High Pressure Sodium","Light_Type":"Cobra","Lighting_Type":"250-W High Pressure Sodium Vapor Lamp (Twin Lights)","Verification_Date":null},"id":"stl-city-public-streetlights:2:116202","sourceLayerId":2,"sourceObjectId":116202,"sourceURL":"https://maps8.stlouis-mo.gov/arcgis/rest/services/STREETS/Streets_Permitting/MapServer/2","title":"Street light L052255"},"type":"Feature"},{"geometry":{"coordinates":[-90.18730653996373,38.61968907739841],"type":"Point"},"id":"stl-city-public-streetlights:2:116203","properties":{"address":null,"attributes":{"Date_Installed":null,"LED_Powered":0,"LightID":"L052256","Light_Source":"High Pressure Sodium","Light_Type":"Cobra","Lighting_Type":"250-W High Pressure Sodium Vapor Lamp (Twin Lights)","Verification_Date":null},"id":"stl-city-public-streetlights:2:116203","sourceLayerId":2,"sourceObjectId":116203,"sourceURL":"https://maps8.stlouis-mo.gov/arcgis/rest/services/STREETS/Streets_Permitting/MapServer/2","title":"Street light L052256"},"type":"Feature"},{"geometry":{"coordinates":[-90.18779962001675,38.619907780008106],"type":"Point"},"id":"stl-city-public-streetlights:2:120907","properties":{"address":null,"attributes":{"Date_Installed":null,"LED_Powered":0,"LightID":"L052257","Light_Source":"High Pressure Sodium","Light_Type":"Cobra","Lighting_Type":"250-W High Pressure Sodium Vapor Lamp (Twin Lights)","Verification_Date":null},"id":"stl-city-public-streetlights:2:120907","sourceLayerId":2,"sourceObjectId":120907,"sourceURL":"https://maps8.stlouis-mo.gov/arcgis/rest/services/STREETS/Streets_Permitting/MapServer/2","title":"Street light L052257"},"type":"Feature"},{"geometry":{"coordinates":[-90.18711392368759,38.61947642061743],"type":"Point"},"id":"stl-city-public-streetlights:2:120908","properties":{"address":null,"attributes":{"Date_Installed":null,"LED_Powered":0,"LightID":"L052258","Light_Source":"High Pressure Sodium","Light_Type":"Cobra","Lighting_Type":"250-W High Pressure Sodium Vapor Lamp","Verification_Date":null},"id":"stl-city-public-streetlights:2:120908","sourceLayerId":2,"sourceObjectId":120908,"sourceURL":"https://maps8.stlouis-mo.gov/arcgis/rest/services/STREETS/Streets_Permitting/MapServer/2","title":"Street light L052258"},"type":"Feature"},{"geometry":{"coordinates":[-90.18918583499126,38.618313554788166],"type":"Point"},"id":"stl-city-public-streetlights:2:126443","properties":{"address":null,"attributes":{"Date_Installed":null,"LED_Powered":0,"LightID":"L052259","Light_Source":"LED","Light_Type":"Cobra","Lighting_Type":"LED-Powered Lamp","Verification_Date":null},"id":"stl-city-public-streetlights:2:126443","sourceLayerId":2,"sourceObjectId":126443,"sourceURL":"https://maps8.stlouis-mo.gov/arcgis/rest/services/STREETS/Streets_Permitting/MapServer/2","title":"Street light L052259"},"type":"Feature"},{"geometry":{"coordinates":[-90.18898024140107,38.61864323478764],"type":"Point"},"id":"stl-city-public-streetlights:2:126444","properties":{"address":null,"attributes":{"Date_Installed":null,"LED_Powered":0,"LightID":"L052260","Light_Source":"LED","Light_Type":"Cobra","Lighting_Type":"LED-Powered Lamp","Verification_Date":null},"id":"stl-city-public-streetlights:2:126444","sourceLayerId":2,"sourceObjectId":126444,"sourceURL":"https://maps8.stlouis-mo.gov/arcgis/rest/services/STREETS/Streets_Permitting/MapServer/2","title":"Street light L052260"},"type":"Feature"},{"geometry":{"coordinates":[-90.18874543383775,38.618982989744424],"type":"Point"},"id":"stl-city-public-streetlights:2:126445","properties":{"address":null,"attributes":{"Date_Installed":null,"LED_Powered":0,"LightID":"L052261","Light_Source":"LED","Light_Type":"Cobra","Lighting_Type":"LED-Powered Lamp","Verification_Date":null},"id":"stl-city-public-streetlights:2:126445","sourceLayerId":2,"sourceObjectId":126445,"sourceURL":"https://maps8.stlouis-mo.gov/arcgis/rest/services/STREETS/Streets_Permitting/MapServer/2","title":"Street light L052261"},"type":"Feature"},{"geometry":{"coordinates":[-90.18954840540898,38.61538578120481],"type":"Point"},"id":"stl-city-public-streetlights:2:146155","properties":{"address":null,"attributes":{"Date_Installed":null,"LED_Powered":0,"LightID":"L039012","Light_Source":"LED","Light_Type":"Cobra","Lighting_Type":"LED-Powered Lamp","Verification_Date":1658966400000},"id":"stl-city-public-streetlights:2:146155","sourceLayerId":2,"sourceObjectId":146155,"sourceURL":"https://maps8.stlouis-mo.gov/arcgis/rest/services/STREETS/Streets_Permitting/MapServer/2","title":"Street light L039012"},"type":"Feature"},{"geometry":{"coordinates":[-90.18902333498995,38.61514368934006],"type":"Point"},"id":"stl-city-public-streetlights:2:146156","properties":{"address":null,"attributes":{"Date_Installed":null,"LED_Powered":0,"LightID":"L039013","Light_Source":"LED","Light_Type":"Cobra","Lighting_Type":"LED-Powered Lamp","Verification_Date":1658966400000},"id":"stl-city-public-streetlights:2:146156","sourceLayerId":2,"sourceObjectId":146156,"sourceURL":"https://maps8.stlouis-mo.gov/arcgis/rest/services/STREETS/Streets_Permitting/MapServer/2","title":"Street light L039013"},"type":"Feature"},{"geometry":{"coordinates":[-90.1885345511151,38.61488371981019],"type":"Point"},"id":"stl-city-public-streetlights:2:146157","properties":{"address":null,"attributes":{"Date_Installed":null,"LED_Powered":0,"LightID":"L039014","Light_Source":"LED","Light_Type":"Cobra","Lighting_Type":"LED-Powered Lamp","Verification_Date":1658966400000},"id":"stl-city-public-streetlights:2:146157","sourceLayerId":2,"sourceObjectId":146157,"sourceURL":"https://maps8.stlouis-mo.gov/arcgis/rest/services/STREETS/Streets_Permitting/MapServer/2","title":"Street light L039014"},"type":"Feature"},{"geometry":{"coordinates":[-90.1882176973302,38.614738667500276],"type":"Point"},"id":"stl-city-public-streetlights:2:146158","properties":{"address":null,"attributes":{"Date_Installed":null,"LED_Powered":0,"LightID":"L039015","Light_Source":"LED","Light_Type":"Cobra","Lighting_Type":"LED-Powered Lamp","Verification_Date":1658966400000},"id":"stl-city-public-streetlights:2:146158","sourceLayerId":2,"sourceObjectId":146158,"sourceURL":"https://maps8.stlouis-mo.gov/arcgis/rest/services/STREETS/Streets_Permitting/MapServer/2","title":"Street light L039015"},"type":"Feature"},{"geometry":{"coordinates":[-90.18785213545101,38.61451662389818],"type":"Point"},"id":"stl-city-public-streetlights:2:146159","properties":{"address":null,"attributes":{"Date_Installed":null,"LED_Powered":0,"LightID":"L039016","Light_Source":"High Pressure Sodium","Light_Type":"Cobra","Lighting_Type":"400-W High Pressure Sodium Vapor Lamp","Verification_Date":null},"id":"stl-city-public-streetlights:2:146159","sourceLayerId":2,"sourceObjectId":146159,"sourceURL":"https://maps8.stlouis-mo.gov/arcgis/rest/services/STREETS/Streets_Permitting/MapServer/2","title":"Street light L039016"},"type":"Feature"},{"geometry":{"coordinates":[-90.18814438790673,38.614592853752775],"type":"Point"},"id":"stl-city-public-streetlights:2:146160","properties":{"address":null,"attributes":{"Date_Installed":null,"LED_Powered":0,"LightID":"L039017","Light_Source":"LED","Light_Type":"Cobra","Lighting_Type":"LED-Powered Lamp","Verification_Date":1658966400000},"id":"stl-city-public-streetlights:2:146160","sourceLayerId":2,"sourceObjectId":146160,"sourceURL":"https://maps8.stlouis-mo.gov/arcgis/rest/services/STREETS/Streets_Permitting/MapServer/2","title":"Street light L039017"},"type":"Feature"},{"geometry":{"coordinates":[-90.18836204991051,38.61418112683881],"type":"Point"},"id":"stl-city-public-streetlights:2:146161","properties":{"address":null,"attributes":{"Date_Installed":null,"LED_Powered":0,"LightID":"L039018","Light_Source":"LED","Light_Type":"Cobra","Lighting_Type":"LED-Powered Lamp","Verification_Date":null},"id":"stl-city-public-streetlights:2:146161","sourceLayerId":2,"sourceObjectId":146161,"sourceURL":"https://maps8.stlouis-mo.gov/arcgis/rest/services/STREETS/Streets_Permitting/MapServer/2","title":"Street light L039018"},"type":"Feature"},{"geometry":{"coordinates":[-90.18855130799119,38.613797749743696],"type":"Point"},"id":"stl-city-public-streetlights:2:146162","properties":{"address":null,"attributes":{"Date_Installed":null,"LED_Powered":0,"LightID":"L039019","Light_Source":"High Pressure Sodium","Light_Type":"Cobra","Lighting_Type":"400-W High Pressure Sodium Vapor Lamp","Verification_Date":null},"id":"stl-city-public-streetlights:2:146162","sourceLayerId":2,"sourceObjectId":146162,"sourceURL":"https://maps8.stlouis-mo.gov/arcgis/rest/services/STREETS/Streets_Permitting/MapServer/2","title":"Street light L039019"},"type":"Feature"},{"geometry":{"coordinates":[-90.18876295968535,38.61342728130497],"type":"Point"},"id":"stl-city-public-streetlights:2:146163","properties":{"address":null,"attributes":{"Date_Installed":null,"LED_Powered":0,"LightID":"L039020","Light_Source":"LED","Light_Type":"Cobra","Lighting_Type":"LED-Powered Lamp","Verification_Date":null},"id":"stl-city-public-streetlights:2:146163","sourceLayerId":2,"sourceObjectId":146163,"sourceURL":"https://maps8.stlouis-mo.gov/arcgis/rest/services/STREETS/Streets_Permitting/MapServer/2","title":"Street light L039020"},"type":"Feature"},{"geometry":{"coordinates":[-90.18897006921223,38.613032054672594],"type":"Point"},"id":"stl-city-public-streetlights:2:146164","properties":{"address":null,"attributes":{"Date_Installed":null,"LED_Powered":0,"LightID":"L039021","Light_Source":"LED","Light_Type":"Cobra","Lighting_Type":"LED-Powered Lamp","Verification_Date":null},"id":"stl-city-public-streetlights:2:146164","sourceLayerId":2,"sourceObjectId":146164,"sourceURL":"https://maps8.stlouis-mo.gov/arcgis/rest/services/STREETS/Streets_Permitting/MapServer/2","title":"Street light L039021"},"type":"Feature"},{"geometry":{"coordinates":[-90.18917344470312,38.612650140122085],"type":"Point"},"id":"stl-city-public-streetlights:2:146165","properties":{"address":null,"attributes":{"Date_Installed":null,"LED_Powered":0,"LightID":"L039022","Light_Source":"LED","Light_Type":"Cobra","Lighting_Type":"LED-Powered Lamp","Verification_Date":null},"id":"stl-city-public-streetlights:2:146165","sourceLayerId":2,"sourceObjectId":146165,"sourceURL":"https://maps8.stlouis-mo.gov/arcgis/rest/services/STREETS/Streets_Permitting/MapServer/2","title":"Street light L039022"},"type":"Feature"},{"geometry":{"coordinates":[-90.1893139051876,38.61237866523805],"type":"Point"},"id":"stl-city-public-streetlights:2:146166","properties":{"address":null,"attributes":{"Date_Installed":null,"LED_Powered":0,"LightID":"L039023","Light_Source":"LED","Light_Type":"Cobra","Lighting_Type":"LED-Powered Lamp","Verification_Date":null},"id":"stl-city-public-streetlights:2:146166","sourceLayerId":2,"sourceObjectId":146166,"sourceURL":"https://maps8.stlouis-mo.gov/arcgis/rest/services/STREETS/Streets_Permitting/MapServer/2","title":"Street light L039023"},"type":"Feature"},{"geometry":{"coordinates":[-90.18976291312939,38.6137104078677],"type":"Point"},"id":"stl-city-public-streetlights:2:146167","properties":{"address":null,"attributes":{"Date_Installed":null,"LED_Powered":0,"LightID":"L039024","Light_Source":"LED","Light_Type":"Cobra","Lighting_Type":"LED-Powered Lamp","Verification_Date":null},"id":"stl-city-public-streetlights:2:146167","sourceLayerId":2,"sourceObjectId":146167,"sourceURL":"https://maps8.stlouis-mo.gov/arcgis/rest/services/STREETS/Streets_Permitting/MapServer/2","title":"Street light L039024"},"type":"Feature"},{"geometry":{"coordinates":[-90.18940520791752,38.61352830394157],"type":"Point"},"id":"stl-city-public-streetlights:2:146168","properties":{"address":null,"attributes":{"Date_Installed":null,"LED_Powered":0,"LightID":"L039025","Light_Source":"LED","Light_Type":"Cobra","Lighting_Type":"LED-Powered Lamp","Verification_Date":null},"id":"stl-city-public-streetlights:2:146168","sourceLayerId":2,"sourceObjectId":146168,"sourceURL":"https://maps8.stlouis-mo.gov/arcgis/rest/services/STREETS/Streets_Permitting/MapServer/2","title":"Street light L039025"},"type":"Feature"},{"geometry":{"coordinates":[-90.18888817864267,38.613306446078816],"type":"Point"},"id":"stl-city-public-streetlights:2:146169","properties":{"address":null,"attributes":{"Date_Installed":null,"LED_Powered":0,"LightID":"L039026","Light_Source":"High Pressure Sodium","Light_Type":"Cobra","Lighting_Type":"400-W High Pressure Sodium Vapor Lamp","Verification_Date":null},"id":"stl-city-public-streetlights:2:146169","sourceLayerId":2,"sourceObjectId":146169,"sourceURL":"https://maps8.stlouis-mo.gov/arcgis/rest/services/STREETS/Streets_Permitting/MapServer/2","title":"Street light L039026"},"type":"Feature"},{"geometry":{"coordinates":[-90.18905871281706,38.61559164198963],"type":"Point"},"id":"stl-city-public-streetlights:2:146170","properties":{"address":null,"attributes":{"Date_Installed":null,"LED_Powered":0,"LightID":"L039027","Light_Source":"LED","Light_Type":"Cobra","Lighting_Type":"LED-Powered Lamp","Verification_Date":null},"id":"stl-city-public-streetlights:2:146170","sourceLayerId":2,"sourceObjectId":146170,"sourceURL":"https://maps8.stlouis-mo.gov/arcgis/rest/services/STREETS/Streets_Permitting/MapServer/2","title":"Street light L039027"},"type":"Feature"},{"geometry":{"coordinates":[-90.18890641106317,38.61585962820448],"type":"Point"},"id":"stl-city-public-streetlights:2:146171","properties":{"address":null,"attributes":{"Date_Installed":null,"LED_Powered":0,"LightID":"L039028","Light_Source":"High Pressure Sodium","Light_Type":"Cobra","Lighting_Type":"400-W High Pressure Sodium Vapor Lamp (Twin Lights)","Verification_Date":null},"id":"stl-city-public-streetlights:2:146171","sourceLayerId":2,"sourceObjectId":146171,"sourceURL":"https://maps8.stlouis-mo.gov/arcgis/rest/services/STREETS/Streets_Permitting/MapServer/2","title":"Street light L039028"},"type":"Feature"},{"geometry":{"coordinates":[-90.18871652250921,38.61621189806228],"type":"Point"},"id":"stl-city-public-streetlights:2:146172","properties":{"address":null,"attributes":{"Date_Installed":null,"LED_Powered":0,"LightID":"L039029","Light_Source":"LED","Light_Type":"Cobra","Lighting_Type":"LED-Powered Lamp","Verification_Date":null},"id":"stl-city-public-streetlights:2:146172","sourceLayerId":2,"sourceObjectId":146172,"sourceURL":"https://maps8.stlouis-mo.gov/arcgis/rest/services/STREETS/Streets_Permitting/MapServer/2","title":"Street light L039029"},"type":"Feature"},{"geometry":{"coordinates":[-90.1885266220153,38.61656702788754],"type":"Point"},"id":"stl-city-public-streetlights:2:146173","properties":{"address":null,"attributes":{"Date_Installed":null,"LED_Powered":0,"LightID":"L039030","Light_Source":"LED","Light_Type":"Cobra","Lighting_Type":"LED-Powered Lamp","Verification_Date":null},"id":"stl-city-public-streetlights:2:146173","sourceLayerId":2,"sourceObjectId":146173,"sourceURL":"https://maps8.stlouis-mo.gov/arcgis/rest/services/STREETS/Streets_Permitting/MapServer/2","title":"Street light L039030"},"type":"Feature"},{"geometry":{"coordinates":[-90.18824465928505,38.616852310142484],"type":"Point"},"id":"stl-city-public-streetlights:2:146174","properties":{"address":null,"attributes":{"Date_Installed":null,"LED_Powered":0,"LightID":"L039031","Light_Source":"High Pressure Sodium","Light_Type":"Cobra","Lighting_Type":"400-W High Pressure Sodium Vapor Lamp","Verification_Date":null},"id":"stl-city-public-streetlights:2:146174","sourceLayerId":2,"sourceObjectId":146174,"sourceURL":"https://maps8.stlouis-mo.gov/arcgis/rest/services/STREETS/Streets_Permitting/MapServer/2","title":"Street light L039031"},"type":"Feature"},{"geometry":{"coordinates":[-90.1880412118741,38.61724744857795],"type":"Point"},"id":"stl-city-public-streetlights:2:146175","properties":{"address":null,"attributes":{"Date_Installed":null,"LED_Powered":0,"LightID":"L039032","Light_Source":"High Pressure Sodium","Light_Type":"Cobra","Lighting_Type":"400-W High Pressure Sodium Vapor Lamp","Verification_Date":null},"id":"stl-city-public-streetlights:2:146175","sourceLayerId":2,"sourceObjectId":146175,"sourceURL":"https://maps8.stlouis-mo.gov/arcgis/rest/services/STREETS/Streets_Permitting/MapServer/2","title":"Street light L039032"},"type":"Feature"},{"geometry":{"coordinates":[-90.18782310159541,38.617660661739414],"type":"Point"},"id":"stl-city-public-streetlights:2:146176","properties":{"address":null,"attributes":{"Date_Installed":null,"LED_Powered":0,"LightID":"L039033","Light_Source":"LED","Light_Type":"Cobra","Lighting_Type":"LED-Powered Lamp","Verification_Date":null},"id":"stl-city-public-streetlights:2:146176","sourceLayerId":2,"sourceObjectId":146176,"sourceURL":"https://maps8.stlouis-mo.gov/arcgis/rest/services/STREETS/Streets_Permitting/MapServer/2","title":"Street light L039033"},"type":"Feature"},{"geometry":{"coordinates":[-90.18764426564427,38.61798435591288],"type":"Point"},"id":"stl-city-public-streetlights:2:146177","properties":{"address":null,"attributes":{"Date_Installed":null,"LED_Powered":0,"LightID":"L039034","Light_Source":"High Pressure Sodium","Light_Type":"Cobra","Lighting_Type":"400-W High Pressure Sodium Vapor Lamp (Twin Lights)","Verification_Date":null},"id":"stl-city-public-streetlights:2:146177","sourceLayerId":2,"sourceObjectId":146177,"sourceURL":"https://maps8.stlouis-mo.gov/arcgis/rest/services/STREETS/Streets_Permitting/MapServer/2","title":"Street light L039034"},"type":"Feature"},{"geometry":{"coordinates":[-90.18745457145539,38.61834520598818],"type":"Point"},"id":"stl-city-public-streetlights:2:146178","properties":{"address":null,"attributes":{"Date_Installed":null,"LED_Powered":0,"LightID":"L039035","Light_Source":"High Pressure Sodium","Light_Type":"Cobra","Lighting_Type":"400-W High Pressure Sodium Vapor Lamp (Twin Lights)","Verification_Date":null},"id":"stl-city-public-streetlights:2:146178","sourceLayerId":2,"sourceObjectId":146178,"sourceURL":"https://maps8.stlouis-mo.gov/arcgis/rest/services/STREETS/Streets_Permitting/MapServer/2","title":"Street light L039035"},"type":"Feature"},{"geometry":{"coordinates":[-90.1872905800743,38.61868789578576],"type":"Point"},"id":"stl-city-public-streetlights:2:146179","properties":{"address":null,"attributes":{"Date_Installed":null,"LED_Powered":0,"LightID":"L039036","Light_Source":"LED","Light_Type":"Cobra","Lighting_Type":"LED-Powered Lamp","Verification_Date":null},"id":"stl-city-public-streetlights:2:146179","sourceLayerId":2,"sourceObjectId":146179,"sourceURL":"https://maps8.stlouis-mo.gov/arcgis/rest/services/STREETS/Streets_Permitting/MapServer/2","title":"Street light L039036"},"type":"Feature"},{"geometry":{"coordinates":[-90.18713855174416,38.61906410074842],"type":"Point"},"id":"stl-city-public-streetlights:2:146180","properties":{"address":null,"attributes":{"Date_Installed":null,"LED_Powered":0,"LightID":"L039037","Light_Source":"LED","Light_Type":"Cobra","Lighting_Type":"LED-Powered Lamp","Verification_Date":null},"id":"stl-city-public-streetlights:2:146180","sourceLayerId":2,"sourceObjectId":146180,"sourceURL":"https://maps8.stlouis-mo.gov/arcgis/rest/services/STREETS/Streets_Permitting/MapServer/2","title":"Street light L039037"},"type":"Feature"},{"geometry":{"coordinates":[-90.18819779437092,38.61778592706451],"type":"Point"},"id":"stl-city-public-streetlights:2:146181","properties":{"address":null,"attributes":{"Date_Installed":null,"LED_Powered":0,"LightID":"L039038","Light_Source":"LED","Light_Type":"Cobra","Lighting_Type":"LED-Powered Lamp","Verification_Date":null},"id":"stl-city-public-streetlights:2:146181","sourceLayerId":2,"sourceObjectId":146181,"sourceURL":"https://maps8.stlouis-mo.gov/arcgis/rest/services/STREETS/Streets_Permitting/MapServer/2","title":"Street light L039038"},"type":"Feature"},{"geometry":{"coordinates":[-90.1886785383301,38.6179743204933],"type":"Point"},"id":"stl-city-public-streetlights:2:146182","properties":{"address":null,"attributes":{"Date_Installed":null,"LED_Powered":0,"LightID":"L039039","Light_Source":"LED","Light_Type":"Cobra","Lighting_Type":"LED-Powered Lamp","Verification_Date":null},"id":"stl-city-public-streetlights:2:146182","sourceLayerId":2,"sourceObjectId":146182,"sourceURL":"https://maps8.stlouis-mo.gov/arcgis/rest/services/STREETS/Streets_Permitting/MapServer/2","title":"Street light L039039"},"type":"Feature"},{"geometry":{"coordinates":[-90.18894288517993,38.618075135088745],"type":"Point"},"id":"stl-city-public-streetlights:2:146183","properties":{"address":null,"attributes":{"Date_Installed":null,"LED_Powered":0,"LightID":"L039040","Light_Source":"LED","Light_Type":"Cobra","Lighting_Type":"LED-Powered Lamp","Verification_Date":null},"id":"stl-city-public-streetlights:2:146183","sourceLayerId":2,"sourceObjectId":146183,"sourceURL":"https://maps8.stlouis-mo.gov/arcgis/rest/services/STREETS/Streets_Permitting/MapServer/2","title":"Street light L039040"},"type":"Feature"},{"geometry":{"coordinates":[-90.18931898489892,38.61822391833525],"type":"Point"},"id":"stl-city-public-streetlights:2:146184","properties":{"address":null,"attributes":{"Date_Installed":null,"LED_Powered":0,"LightID":"L039041","Light_Source":"LED","Light_Type":"Cobra","Lighting_Type":"LED-Powered Lamp","Verification_Date":null},"id":"stl-city-public-streetlights:2:146184","sourceLayerId":2,"sourceObjectId":146184,"sourceURL":"https://maps8.stlouis-mo.gov/arcgis/rest/services/STREETS/Streets_Permitting/MapServer/2","title":"Street light L039041"},"type":"Feature"},{"geometry":{"coordinates":[-90.18967370058313,38.618374430129016],"type":"Point"},"id":"stl-city-public-streetlights:2:146185","properties":{"address":null,"attributes":{"Date_Installed":null,"LED_Powered":0,"LightID":"L039042","Light_Source":"LED","Light_Type":"Cobra","Lighting_Type":"LED-Powered Lamp","Verification_Date":null},"id":"stl-city-public-streetlights:2:146185","sourceLayerId":2,"sourceObjectId":146185,"sourceURL":"https://maps8.stlouis-mo.gov/arcgis/rest/services/STREETS/Streets_Permitting/MapServer/2","title":"Street light L039042"},"type":"Feature"},{"geometry":{"coordinates":[-90.18988731644892,38.61760935481128],"type":"Point"},"id":"stl-city-public-streetlights:2:146189","properties":{"address":null,"attributes":{"Date_Installed":null,"LED_Powered":0,"LightID":"L039046","Light_Source":"LED","Light_Type":"Cobra","Lighting_Type":"LED-Powered Lamp","Verification_Date":null},"id":"stl-city-public-streetlights:2:146189","sourceLayerId":2,"sourceObjectId":146189,"sourceURL":"https://maps8.stlouis-mo.gov/arcgis/rest/services/STREETS/Streets_Permitting/MapServer/2","title":"Street light L039046"},"type":"Feature"},{"geometry":{"coordinates":[-90.18947687323598,38.61744403826915],"type":"Point"},"id":"stl-city-public-streetlights:2:146190","properties":{"address":null,"attributes":{"Date_Installed":null,"LED_Powered":0,"LightID":"L039047","Light_Source":"LED","Light_Type":"Cobra","Lighting_Type":"LED-Powered Lamp","Verification_Date":null},"id":"stl-city-public-streetlights:2:146190","sourceLayerId":2,"sourceObjectId":146190,"sourceURL":"https://maps8.stlouis-mo.gov/arcgis/rest/services/STREETS/Streets_Permitting/MapServer/2","title":"Street light L039047"},"type":"Feature"},{"geometry":{"coordinates":[-90.18906453056842,38.617287178214745],"type":"Point"},"id":"stl-city-public-streetlights:2:146191","properties":{"address":null,"attributes":{"Date_Installed":null,"LED_Powered":0,"LightID":"L039048","Light_Source":"LED","Light_Type":"Cobra","Lighting_Type":"LED-Powered Lamp","Verification_Date":null},"id":"stl-city-public-streetlights:2:146191","sourceLayerId":2,"sourceObjectId":146191,"sourceURL":"https://maps8.stlouis-mo.gov/arcgis/rest/services/STREETS/Streets_Permitting/MapServer/2","title":"Street light L039048"},"type":"Feature"},{"geometry":{"coordinates":[-90.18954123556455,38.612088666797675],"type":"Point"},"id":"stl-city-public-streetlights:2:151597","properties":{"address":null,"attributes":{"Date_Installed":null,"LED_Powered":0,"LightID":"L052400","Light_Source":"High Pressure Sodium","Light_Type":"Cobra","Lighting_Type":"400-W High Pressure Sodium Vapor Lamp","Verification_Date":null},"id":"stl-city-public-streetlights:2:151597","sourceLayerId":2,"sourceObjectId":151597,"sourceURL":"https://maps8.stlouis-mo.gov/arcgis/rest/services/STREETS/Streets_Permitting/MapServer/2","title":"Street light L052400"},"type":"Feature"},{"geometry":{"coordinates":[-90.18854288983918,38.61932325981475],"type":"Point"},"id":"stl-city-public-streetlights:2:155504","properties":{"address":null,"attributes":{"Date_Installed":null,"LED_Powered":0,"LightID":"L048236","Light_Source":"High Pressure Sodium","Light_Type":"Cobra","Lighting_Type":"250-W High Pressure Sodium Vapor Lamp","Verification_Date":null},"id":"stl-city-public-streetlights:2:155504","sourceLayerId":2,"sourceObjectId":155504,"sourceURL":"https://maps8.stlouis-mo.gov/arcgis/rest/services/STREETS/Streets_Permitting/MapServer/2","title":"Street light L048236"},"type":"Feature"},{"geometry":{"coordinates":[-90.18839472932557,38.619719451234104],"type":"Point"},"id":"stl-city-public-streetlights:2:155505","properties":{"address":null,"attributes":{"Date_Installed":null,"LED_Powered":0,"LightID":"L048237","Light_Source":"High Pressure Sodium","Light_Type":"Cobra","Lighting_Type":"250-W High Pressure Sodium Vapor Lamp","Verification_Date":null},"id":"stl-city-public-streetlights:2:155505","sourceLayerId":2,"sourceObjectId":155505,"sourceURL":"https://maps8.stlouis-mo.gov/arcgis/rest/services/STREETS/Streets_Permitting/MapServer/2","title":"Street light L048237"},"type":"Feature"},{"geometry":{"coordinates":[-90.1886266191297,38.61711978120898],"type":"Point"},"id":"stl-city-public-streetlights:2:156592","properties":{"address":null,"attributes":{"Date_Installed":null,"LED_Powered":0,"LightID":"L049312","Light_Source":"LED","Light_Type":"Cobra","Lighting_Type":"LED-Powered Lamp","Verification_Date":null},"id":"stl-city-public-streetlights:2:156592","sourceLayerId":2,"sourceObjectId":156592,"sourceURL":"https://maps8.stlouis-mo.gov/arcgis/rest/services/STREETS/Streets_Permitting/MapServer/2","title":"Street light L049312"},"type":"Feature"},{"geometry":{"coordinates":[-90.18913261342692,38.61618006670918],"type":"Point"},"id":"stl-city-public-streetlights:2:156593","properties":{"address":null,"attributes":{"Date_Installed":null,"LED_Powered":0,"LightID":"L049313","Light_Source":"LED","Light_Type":"Cobra","Lighting_Type":"LED-Powered Lamp","Verification_Date":null},"id":"stl-city-public-streetlights:2:156593","sourceLayerId":2,"sourceObjectId":156593,"sourceURL":"https://maps8.stlouis-mo.gov/arcgis/rest/services/STREETS/Streets_Permitting/MapServer/2","title":"Street light L049313"},"type":"Feature"},{"geometry":{"coordinates":[-90.18967342415016,38.616455253519526],"type":"Point"},"id":"stl-city-public-streetlights:2:156594","properties":{"address":null,"attributes":{"Date_Installed":null,"LED_Powered":0,"LightID":"L049314","Light_Source":"LED","Light_Type":"Cobra","Lighting_Type":"LED-Powered Lamp","Verification_Date":null},"id":"stl-city-public-streetlights:2:156594","sourceLayerId":2,"sourceObjectId":156594,"sourceURL":"https://maps8.stlouis-mo.gov/arcgis/rest/services/STREETS/Streets_Permitting/MapServer/2","title":"Street light L049314"},"type":"Feature"},{"geometry":{"coordinates":[-90.18926506656588,38.617931814219716],"type":"Point"},"id":"stl-city-public-streetlights:2:156599","properties":{"address":null,"attributes":{"Date_Installed":null,"LED_Powered":0,"LightID":"L049319","Light_Source":"High Pressure Sodium","Light_Type":"Cobra","Lighting_Type":"100-W High Pressure Sodium Vapor Lamp","Verification_Date":null},"id":"stl-city-public-streetlights:2:156599","sourceLayerId":2,"sourceObjectId":156599,"sourceURL":"https://maps8.stlouis-mo.gov/arcgis/rest/services/STREETS/Streets_Permitting/MapServer/2","title":"Street light L049319"},"type":"Feature"},{"geometry":{"coordinates":[-90.18949973270368,38.61762375925145],"type":"Point"},"id":"stl-city-public-streetlights:2:156600","properties":{"address":null,"attributes":{"Date_Installed":null,"LED_Powered":0,"LightID":"L049320","Light_Source":"LED","Light_Type":"Cobra","Lighting_Type":"LED-Powered Lamp","Verification_Date":null},"id":"stl-city-public-streetlights:2:156600","sourceLayerId":2,"sourceObjectId":156600,"sourceURL":"https://maps8.stlouis-mo.gov/arcgis/rest/services/STREETS/Streets_Permitting/MapServer/2","title":"Street light L049320"},"type":"Feature"},{"geometry":{"coordinates":[-90.18969369952482,38.617417375010724],"type":"Point"},"id":"stl-city-public-streetlights:2:156601","properties":{"address":null,"attributes":{"Date_Installed":null,"LED_Powered":0,"LightID":"L049321","Light_Source":"LED","Light_Type":"Cobra","Lighting_Type":"LED-Powered Lamp","Verification_Date":null},"id":"stl-city-public-streetlights:2:156601","sourceLayerId":2,"sourceObjectId":156601,"sourceURL":"https://maps8.stlouis-mo.gov/arcgis/rest/services/STREETS/Streets_Permitting/MapServer/2","title":"Street light L049321"},"type":"Feature"},{"geometry":{"coordinates":[-90.18982677187478,38.617250291700046],"type":"Point"},"id":"stl-city-public-streetlights:2:156602","properties":{"address":null,"attributes":{"Date_Installed":null,"LED_Powered":0,"LightID":"L049322","Light_Source":"LED","Light_Type":"Cobra","Lighting_Type":"LED-Powered Lamp","Verification_Date":null},"id":"stl-city-public-streetlights:2:156602","sourceLayerId":2,"sourceObjectId":156602,"sourceURL":"https://maps8.stlouis-mo.gov/arcgis/rest/services/STREETS/Streets_Permitting/MapServer/2","title":"Street light L049322"},"type":"Feature"},{"geometry":{"coordinates":[-90.18749683310517,38.61876829822134],"type":"Point"},"id":"stl-city-public-streetlights:2:156647","properties":{"address":null,"attributes":{"Date_Installed":null,"LED_Powered":0,"LightID":"L049367","Light_Source":"LED","Light_Type":"Cobra","Lighting_Type":"LED-Powered Lamp","Verification_Date":null},"id":"stl-city-public-streetlights:2:156647","sourceLayerId":2,"sourceObjectId":156647,"sourceURL":"https://maps8.stlouis-mo.gov/arcgis/rest/services/STREETS/Streets_Permitting/MapServer/2","title":"Street light L049367"},"type":"Feature"},{"geometry":{"coordinates":[-90.18713855174416,38.61906410074842],"type":"Point"},"id":"stl-city-public-streetlights:2:156648","properties":{"address":null,"attributes":{"Date_Installed":null,"LED_Powered":0,"LightID":"L049368","Light_Source":"LED","Light_Type":"Cobra","Lighting_Type":"LED-Powered Lamp","Verification_Date":null},"id":"stl-city-public-streetlights:2:156648","sourceLayerId":2,"sourceObjectId":156648,"sourceURL":"https://maps8.stlouis-mo.gov/arcgis/rest/services/STREETS/Streets_Permitting/MapServer/2","title":"Street light L049368"},"type":"Feature"},{"geometry":{"coordinates":[-90.18572394145284,38.61986732288021],"type":"Point"},"id":"stl-city-public-streetlights:2:158852","properties":{"address":null,"attributes":{"Date_Installed":null,"LED_Powered":0,"LightID":"L052460","Light_Source":"High Pressure Sodium","Light_Type":"Decorative","Lighting_Type":"Riverfront light fixture","Verification_Date":null},"id":"stl-city-public-streetlights:2:158852","sourceLayerId":2,"sourceObjectId":158852,"sourceURL":"https://maps8.stlouis-mo.gov/arcgis/rest/services/STREETS/Streets_Permitting/MapServer/2","title":"Street light L052460"},"type":"Feature"},{"geometry":{"coordinates":[-90.18579765032538,38.61968636691377],"type":"Point"},"id":"stl-city-public-streetlights:2:158853","properties":{"address":null,"attributes":{"Date_Installed":null,"LED_Powered":0,"LightID":"L052461","Light_Source":"High Pressure Sodium","Light_Type":"Decorative","Lighting_Type":"Riverfront light fixture","Verification_Date":null},"id":"stl-city-public-streetlights:2:158853","sourceLayerId":2,"sourceObjectId":158853,"sourceURL":"https://maps8.stlouis-mo.gov/arcgis/rest/services/STREETS/Streets_Permitting/MapServer/2","title":"Street light L052461"},"type":"Feature"},{"geometry":{"coordinates":[-90.18587138170227,38.61950016596604],"type":"Point"},"id":"stl-city-public-streetlights:2:158854","properties":{"address":null,"attributes":{"Date_Installed":null,"LED_Powered":0,"LightID":"L052462","Light_Source":"High Pressure Sodium","Light_Type":"Decorative","Lighting_Type":"Riverfront light fixture","Verification_Date":null},"id":"stl-city-public-streetlights:2:158854","sourceLayerId":2,"sourceObjectId":158854,"sourceURL":"https://maps8.stlouis-mo.gov/arcgis/rest/services/STREETS/Streets_Permitting/MapServer/2","title":"Street light L052462"},"type":"Feature"},{"geometry":{"coordinates":[-90.18833249323279,38.61952384881839],"type":"Point"},"id":"stl-city-public-streetlights:2:158897","properties":{"address":null,"attributes":{"Date_Installed":null,"LED_Powered":0,"LightID":"L051531","Light_Source":"High Pressure Sodium","Light_Type":"Cobra","Lighting_Type":"250-W High Pressure Sodium Vapor Lamp","Verification_Date":null},"id":"stl-city-public-streetlights:2:158897","sourceLayerId":2,"sourceObjectId":158897,"sourceURL":"https://maps8.stlouis-mo.gov/arcgis/rest/services/STREETS/Streets_Permitting/MapServer/2","title":"Street light L051531"},"type":"Feature"},{"geometry":{"coordinates":[-90.1883408074595,38.6193603195437],"type":"Point"},"id":"stl-city-public-streetlights:2:158898","properties":{"address":null,"attributes":{"Date_Installed":null,"LED_Powered":0,"LightID":"L051532","Light_Source":"LED","Light_Type":"Cobra","Lighting_Type":"LED-Powered Lamp","Verification_Date":null},"id":"stl-city-public-streetlights:2:158898","sourceLayerId":2,"sourceObjectId":158898,"sourceURL":"https://maps8.stlouis-mo.gov/arcgis/rest/services/STREETS/Streets_Permitting/MapServer/2","title":"Street light L051532"},"type":"Feature"},{"geometry":{"coordinates":[-90.18895051812687,38.61149989542048],"type":"Point"},"id":"stl-city-public-streetlights:2:160958","properties":{"address":null,"attributes":{"Date_Installed":null,"LED_Powered":null,"LightID":null,"Light_Source":"LED","Light_Type":"Cobra","Lighting_Type":"LED-Powered Lamp","Verification_Date":null},"id":"stl-city-public-streetlights:2:160958","sourceLayerId":2,"sourceObjectId":160958,"sourceURL":"https://maps8.stlouis-mo.gov/arcgis/rest/services/STREETS/Streets_Permitting/MapServer/2","title":"Street light 160958"},"type":"Feature"}],"layerId":"city-streetlights","retrievedAt":"2026-09-13T21:56:18.173251+00:00","schema":"property-infrastructure-geojson-v1","sourceId":"stl-city-public-streetlights","tileId":"-9019_3861","type":"FeatureCollection"}