{"features":[{"geometry":{"coordinates":[-90.27662958327873,38.63002836058648],"type":"Point"},"id":"stl-city-public-streetlights:2:121644","properties":{"address":null,"attributes":{"Date_Installed":null,"LED_Powered":0,"LightID":"L014364","Light_Source":"High Pressure Sodium","Light_Type":"Cobra","Lighting_Type":"400-W High Pressure Sodium Vapor Lamp","Verification_Date":null},"id":"stl-city-public-streetlights:2:121644","sourceLayerId":2,"sourceObjectId":121644,"sourceURL":"https://maps8.stlouis-mo.gov/arcgis/rest/services/STREETS/Streets_Permitting/MapServer/2","title":"Street light L014364"},"type":"Feature"},{"geometry":{"coordinates":[-90.27714612013148,38.630083691834756],"type":"Point"},"id":"stl-city-public-streetlights:2:121645","properties":{"address":null,"attributes":{"Date_Installed":null,"LED_Powered":0,"LightID":"L014365","Light_Source":"High Pressure Sodium","Light_Type":"Cobra","Lighting_Type":"400-W High Pressure Sodium Vapor Lamp","Verification_Date":null},"id":"stl-city-public-streetlights:2:121645","sourceLayerId":2,"sourceObjectId":121645,"sourceURL":"https://maps8.stlouis-mo.gov/arcgis/rest/services/STREETS/Streets_Permitting/MapServer/2","title":"Street light L014365"},"type":"Feature"},{"geometry":{"coordinates":[-90.27766765698406,38.63013426278826],"type":"Point"},"id":"stl-city-public-streetlights:2:121646","properties":{"address":null,"attributes":{"Date_Installed":null,"LED_Powered":0,"LightID":"L014366","Light_Source":"High Pressure Sodium","Light_Type":"Cobra","Lighting_Type":"400-W High Pressure Sodium Vapor Lamp","Verification_Date":null},"id":"stl-city-public-streetlights:2:121646","sourceLayerId":2,"sourceObjectId":121646,"sourceURL":"https://maps8.stlouis-mo.gov/arcgis/rest/services/STREETS/Streets_Permitting/MapServer/2","title":"Street light L014366"},"type":"Feature"},{"geometry":{"coordinates":[-90.27819648197665,38.63018627584904],"type":"Point"},"id":"stl-city-public-streetlights:2:121647","properties":{"address":null,"attributes":{"Date_Installed":null,"LED_Powered":0,"LightID":"L014367","Light_Source":"High Pressure Sodium","Light_Type":"Cobra","Lighting_Type":"400-W High Pressure Sodium Vapor Lamp","Verification_Date":null},"id":"stl-city-public-streetlights:2:121647","sourceLayerId":2,"sourceObjectId":121647,"sourceURL":"https://maps8.stlouis-mo.gov/arcgis/rest/services/STREETS/Streets_Permitting/MapServer/2","title":"Street light L014367"},"type":"Feature"},{"geometry":{"coordinates":[-90.2786959067675,38.63023394087068],"type":"Point"},"id":"stl-city-public-streetlights:2:121648","properties":{"address":null,"attributes":{"Date_Installed":null,"LED_Powered":0,"LightID":"L014368","Light_Source":"High Pressure Sodium","Light_Type":"Cobra","Lighting_Type":"400-W High Pressure Sodium Vapor Lamp","Verification_Date":null},"id":"stl-city-public-streetlights:2:121648","sourceLayerId":2,"sourceObjectId":121648,"sourceURL":"https://maps8.stlouis-mo.gov/arcgis/rest/services/STREETS/Streets_Permitting/MapServer/2","title":"Street light L014368"},"type":"Feature"},{"geometry":{"coordinates":[-90.27917608902912,38.630293961004696],"type":"Point"},"id":"stl-city-public-streetlights:2:121649","properties":{"address":null,"attributes":{"Date_Installed":null,"LED_Powered":0,"LightID":"L014369","Light_Source":"High Pressure Sodium","Light_Type":"Cobra","Lighting_Type":"400-W High Pressure Sodium Vapor Lamp","Verification_Date":null},"id":"stl-city-public-streetlights:2:121649","sourceLayerId":2,"sourceObjectId":121649,"sourceURL":"https://maps8.stlouis-mo.gov/arcgis/rest/services/STREETS/Streets_Permitting/MapServer/2","title":"Street light L014369"},"type":"Feature"},{"geometry":{"coordinates":[-90.27973420087444,38.63034935928814],"type":"Point"},"id":"stl-city-public-streetlights:2:121650","properties":{"address":null,"attributes":{"Date_Installed":null,"LED_Powered":0,"LightID":"L014370","Light_Source":"High Pressure Sodium","Light_Type":"Cobra","Lighting_Type":"400-W High Pressure Sodium Vapor Lamp","Verification_Date":null},"id":"stl-city-public-streetlights:2:121650","sourceLayerId":2,"sourceObjectId":121650,"sourceURL":"https://maps8.stlouis-mo.gov/arcgis/rest/services/STREETS/Streets_Permitting/MapServer/2","title":"Street light L014370"},"type":"Feature"},{"geometry":{"coordinates":[-90.27104657195311,38.63185043501612],"type":"Point"},"id":"stl-city-public-streetlights:2:124955","properties":{"address":null,"attributes":{"Date_Installed":null,"LED_Powered":0,"LightID":"L017683","Light_Source":"High Pressure Sodium","Light_Type":"Cobra","Lighting_Type":"400-W High Pressure Sodium Vapor Lamp","Verification_Date":null},"id":"stl-city-public-streetlights:2:124955","sourceLayerId":2,"sourceObjectId":124955,"sourceURL":"https://maps8.stlouis-mo.gov/arcgis/rest/services/STREETS/Streets_Permitting/MapServer/2","title":"Street light L017683"},"type":"Feature"},{"geometry":{"coordinates":[-90.27085479016206,38.63195589171545],"type":"Point"},"id":"stl-city-public-streetlights:2:124956","properties":{"address":null,"attributes":{"Date_Installed":null,"LED_Powered":0,"LightID":"L017684","Light_Source":"High Pressure Sodium","Light_Type":"Cobra","Lighting_Type":"400-W High Pressure Sodium Vapor Lamp","Verification_Date":null},"id":"stl-city-public-streetlights:2:124956","sourceLayerId":2,"sourceObjectId":124956,"sourceURL":"https://maps8.stlouis-mo.gov/arcgis/rest/services/STREETS/Streets_Permitting/MapServer/2","title":"Street light L017684"},"type":"Feature"},{"geometry":{"coordinates":[-90.27079957259197,38.632118822267486],"type":"Point"},"id":"stl-city-public-streetlights:2:124957","properties":{"address":null,"attributes":{"Date_Installed":null,"LED_Powered":0,"LightID":"L017685","Light_Source":"High Pressure Sodium","Light_Type":"Cobra","Lighting_Type":"400-W High Pressure Sodium Vapor Lamp","Verification_Date":null},"id":"stl-city-public-streetlights:2:124957","sourceLayerId":2,"sourceObjectId":124957,"sourceURL":"https://maps8.stlouis-mo.gov/arcgis/rest/services/STREETS/Streets_Permitting/MapServer/2","title":"Street light L017685"},"type":"Feature"},{"geometry":{"coordinates":[-90.27075712292944,38.632280348092415],"type":"Point"},"id":"stl-city-public-streetlights:2:124958","properties":{"address":null,"attributes":{"Date_Installed":null,"LED_Powered":0,"LightID":"L017686","Light_Source":"High Pressure Sodium","Light_Type":"Cobra","Lighting_Type":"400-W High Pressure Sodium Vapor Lamp","Verification_Date":null},"id":"stl-city-public-streetlights:2:124958","sourceLayerId":2,"sourceObjectId":124958,"sourceURL":"https://maps8.stlouis-mo.gov/arcgis/rest/services/STREETS/Streets_Permitting/MapServer/2","title":"Street light L017686"},"type":"Feature"},{"geometry":{"coordinates":[-90.27071649123798,38.6324433080744],"type":"Point"},"id":"stl-city-public-streetlights:2:124959","properties":{"address":null,"attributes":{"Date_Installed":null,"LED_Powered":0,"LightID":"L017687","Light_Source":"High Pressure Sodium","Light_Type":"Cobra","Lighting_Type":"400-W High Pressure Sodium Vapor Lamp","Verification_Date":null},"id":"stl-city-public-streetlights:2:124959","sourceLayerId":2,"sourceObjectId":124959,"sourceURL":"https://maps8.stlouis-mo.gov/arcgis/rest/services/STREETS/Streets_Permitting/MapServer/2","title":"Street light L017687"},"type":"Feature"},{"geometry":{"coordinates":[-90.27043969350085,38.632846983245635],"type":"Point"},"id":"stl-city-public-streetlights:2:124960","properties":{"address":null,"attributes":{"Date_Installed":null,"LED_Powered":0,"LightID":"L017688","Light_Source":"LED","Light_Type":"Cobra","Lighting_Type":"LED-Powered Lamp","Verification_Date":null},"id":"stl-city-public-streetlights:2:124960","sourceLayerId":2,"sourceObjectId":124960,"sourceURL":"https://maps8.stlouis-mo.gov/arcgis/rest/services/STREETS/Streets_Permitting/MapServer/2","title":"Street light L017688"},"type":"Feature"},{"geometry":{"coordinates":[-90.2703735593644,38.63309713259594],"type":"Point"},"id":"stl-city-public-streetlights:2:124961","properties":{"address":null,"attributes":{"Date_Installed":null,"LED_Powered":0,"LightID":"L017689","Light_Source":"LED","Light_Type":"Cobra","Lighting_Type":"LED-Powered Lamp","Verification_Date":null},"id":"stl-city-public-streetlights:2:124961","sourceLayerId":2,"sourceObjectId":124961,"sourceURL":"https://maps8.stlouis-mo.gov/arcgis/rest/services/STREETS/Streets_Permitting/MapServer/2","title":"Street light L017689"},"type":"Feature"},{"geometry":{"coordinates":[-90.27033301791015,38.6334218195721],"type":"Point"},"id":"stl-city-public-streetlights:2:124962","properties":{"address":null,"attributes":{"Date_Installed":null,"LED_Powered":0,"LightID":"L017690","Light_Source":"LED","Light_Type":"Cobra","Lighting_Type":"LED-Powered Lamp","Verification_Date":null},"id":"stl-city-public-streetlights:2:124962","sourceLayerId":2,"sourceObjectId":124962,"sourceURL":"https://maps8.stlouis-mo.gov/arcgis/rest/services/STREETS/Streets_Permitting/MapServer/2","title":"Street light L017690"},"type":"Feature"},{"geometry":{"coordinates":[-90.27035028151066,38.6337257643769],"type":"Point"},"id":"stl-city-public-streetlights:2:124963","properties":{"address":null,"attributes":{"Date_Installed":null,"LED_Powered":0,"LightID":"L017691","Light_Source":"LED","Light_Type":"Cobra","Lighting_Type":"LED-Powered Lamp","Verification_Date":null},"id":"stl-city-public-streetlights:2:124963","sourceLayerId":2,"sourceObjectId":124963,"sourceURL":"https://maps8.stlouis-mo.gov/arcgis/rest/services/STREETS/Streets_Permitting/MapServer/2","title":"Street light L017691"},"type":"Feature"},{"geometry":{"coordinates":[-90.27040398533138,38.63403812292464],"type":"Point"},"id":"stl-city-public-streetlights:2:124964","properties":{"address":null,"attributes":{"Date_Installed":null,"LED_Powered":0,"LightID":"L017692","Light_Source":"LED","Light_Type":"Cobra","Lighting_Type":"LED-Powered Lamp","Verification_Date":null},"id":"stl-city-public-streetlights:2:124964","sourceLayerId":2,"sourceObjectId":124964,"sourceURL":"https://maps8.stlouis-mo.gov/arcgis/rest/services/STREETS/Streets_Permitting/MapServer/2","title":"Street light L017692"},"type":"Feature"},{"geometry":{"coordinates":[-90.27045614346022,38.634358820644294],"type":"Point"},"id":"stl-city-public-streetlights:2:124965","properties":{"address":null,"attributes":{"Date_Installed":null,"LED_Powered":0,"LightID":"L017693","Light_Source":"LED","Light_Type":"Cobra","Lighting_Type":"LED-Powered Lamp","Verification_Date":null},"id":"stl-city-public-streetlights:2:124965","sourceLayerId":2,"sourceObjectId":124965,"sourceURL":"https://maps8.stlouis-mo.gov/arcgis/rest/services/STREETS/Streets_Permitting/MapServer/2","title":"Street light L017693"},"type":"Feature"},{"geometry":{"coordinates":[-90.27047494824505,38.634656212627256],"type":"Point"},"id":"stl-city-public-streetlights:2:124966","properties":{"address":null,"attributes":{"Date_Installed":null,"LED_Powered":0,"LightID":"L017694","Light_Source":"LED","Light_Type":"Cobra","Lighting_Type":"LED-Powered Lamp","Verification_Date":null},"id":"stl-city-public-streetlights:2:124966","sourceLayerId":2,"sourceObjectId":124966,"sourceURL":"https://maps8.stlouis-mo.gov/arcgis/rest/services/STREETS/Streets_Permitting/MapServer/2","title":"Street light L017694"},"type":"Feature"},{"geometry":{"coordinates":[-90.2704966877961,38.63498638563998],"type":"Point"},"id":"stl-city-public-streetlights:2:124967","properties":{"address":null,"attributes":{"Date_Installed":null,"LED_Powered":0,"LightID":"L017695","Light_Source":"LED","Light_Type":"Cobra","Lighting_Type":"LED-Powered Lamp","Verification_Date":null},"id":"stl-city-public-streetlights:2:124967","sourceLayerId":2,"sourceObjectId":124967,"sourceURL":"https://maps8.stlouis-mo.gov/arcgis/rest/services/STREETS/Streets_Permitting/MapServer/2","title":"Street light L017695"},"type":"Feature"},{"geometry":{"coordinates":[-90.27049874080383,38.63529566260328],"type":"Point"},"id":"stl-city-public-streetlights:2:124968","properties":{"address":null,"attributes":{"Date_Installed":null,"LED_Powered":0,"LightID":"L017696","Light_Source":"LED","Light_Type":"Cobra","Lighting_Type":"LED-Powered Lamp","Verification_Date":null},"id":"stl-city-public-streetlights:2:124968","sourceLayerId":2,"sourceObjectId":124968,"sourceURL":"https://maps8.stlouis-mo.gov/arcgis/rest/services/STREETS/Streets_Permitting/MapServer/2","title":"Street light L017696"},"type":"Feature"},{"geometry":{"coordinates":[-90.27044302873149,38.63561257388084],"type":"Point"},"id":"stl-city-public-streetlights:2:124969","properties":{"address":null,"attributes":{"Date_Installed":null,"LED_Powered":0,"LightID":"L017697","Light_Source":"LED","Light_Type":"Cobra","Lighting_Type":"LED-Powered Lamp","Verification_Date":null},"id":"stl-city-public-streetlights:2:124969","sourceLayerId":2,"sourceObjectId":124969,"sourceURL":"https://maps8.stlouis-mo.gov/arcgis/rest/services/STREETS/Streets_Permitting/MapServer/2","title":"Street light L017697"},"type":"Feature"},{"geometry":{"coordinates":[-90.27038271559518,38.635942585837995],"type":"Point"},"id":"stl-city-public-streetlights:2:124970","properties":{"address":null,"attributes":{"Date_Installed":null,"LED_Powered":0,"LightID":"L017698","Light_Source":"LED","Light_Type":"Cobra","Lighting_Type":"LED-Powered Lamp","Verification_Date":null},"id":"stl-city-public-streetlights:2:124970","sourceLayerId":2,"sourceObjectId":124970,"sourceURL":"https://maps8.stlouis-mo.gov/arcgis/rest/services/STREETS/Streets_Permitting/MapServer/2","title":"Street light L017698"},"type":"Feature"},{"geometry":{"coordinates":[-90.27032094696482,38.636252333868654],"type":"Point"},"id":"stl-city-public-streetlights:2:124971","properties":{"address":null,"attributes":{"Date_Installed":null,"LED_Powered":0,"LightID":"L017699","Light_Source":"LED","Light_Type":"Cobra","Lighting_Type":"LED-Powered Lamp","Verification_Date":null},"id":"stl-city-public-streetlights:2:124971","sourceLayerId":2,"sourceObjectId":124971,"sourceURL":"https://maps8.stlouis-mo.gov/arcgis/rest/services/STREETS/Streets_Permitting/MapServer/2","title":"Street light L017699"},"type":"Feature"},{"geometry":{"coordinates":[-90.27019156861752,38.636559565312346],"type":"Point"},"id":"stl-city-public-streetlights:2:124972","properties":{"address":null,"attributes":{"Date_Installed":null,"LED_Powered":0,"LightID":"L017700","Light_Source":"LED","Light_Type":"Cobra","Lighting_Type":"LED-Powered Lamp","Verification_Date":null},"id":"stl-city-public-streetlights:2:124972","sourceLayerId":2,"sourceObjectId":124972,"sourceURL":"https://maps8.stlouis-mo.gov/arcgis/rest/services/STREETS/Streets_Permitting/MapServer/2","title":"Street light L017700"},"type":"Feature"},{"geometry":{"coordinates":[-90.27010396274585,38.63687045431819],"type":"Point"},"id":"stl-city-public-streetlights:2:124973","properties":{"address":null,"attributes":{"Date_Installed":null,"LED_Powered":0,"LightID":"L017701","Light_Source":"LED","Light_Type":"Cobra","Lighting_Type":"LED-Powered Lamp","Verification_Date":null},"id":"stl-city-public-streetlights:2:124973","sourceLayerId":2,"sourceObjectId":124973,"sourceURL":"https://maps8.stlouis-mo.gov/arcgis/rest/services/STREETS/Streets_Permitting/MapServer/2","title":"Street light L017701"},"type":"Feature"},{"geometry":{"coordinates":[-90.27017502181616,38.63726818010507],"type":"Point"},"id":"stl-city-public-streetlights:2:124974","properties":{"address":null,"attributes":{"Date_Installed":null,"LED_Powered":0,"LightID":"L017702","Light_Source":"LED","Light_Type":"Cobra","Lighting_Type":"LED-Powered Lamp","Verification_Date":null},"id":"stl-city-public-streetlights:2:124974","sourceLayerId":2,"sourceObjectId":124974,"sourceURL":"https://maps8.stlouis-mo.gov/arcgis/rest/services/STREETS/Streets_Permitting/MapServer/2","title":"Street light L017702"},"type":"Feature"},{"geometry":{"coordinates":[-90.27033725856742,38.63756931034572],"type":"Point"},"id":"stl-city-public-streetlights:2:124975","properties":{"address":null,"attributes":{"Date_Installed":null,"LED_Powered":0,"LightID":"L017703","Light_Source":"LED","Light_Type":"Cobra","Lighting_Type":"LED-Powered Lamp","Verification_Date":null},"id":"stl-city-public-streetlights:2:124975","sourceLayerId":2,"sourceObjectId":124975,"sourceURL":"https://maps8.stlouis-mo.gov/arcgis/rest/services/STREETS/Streets_Permitting/MapServer/2","title":"Street light L017703"},"type":"Feature"},{"geometry":{"coordinates":[-90.27047784771113,38.63779722039758],"type":"Point"},"id":"stl-city-public-streetlights:2:124976","properties":{"address":null,"attributes":{"Date_Installed":null,"LED_Powered":0,"LightID":"L017704","Light_Source":"LED","Light_Type":"Cobra","Lighting_Type":"LED-Powered Lamp","Verification_Date":null},"id":"stl-city-public-streetlights:2:124976","sourceLayerId":2,"sourceObjectId":124976,"sourceURL":"https://maps8.stlouis-mo.gov/arcgis/rest/services/STREETS/Streets_Permitting/MapServer/2","title":"Street light L017704"},"type":"Feature"},{"geometry":{"coordinates":[-90.27063258905149,38.6380668719215],"type":"Point"},"id":"stl-city-public-streetlights:2:124977","properties":{"address":null,"attributes":{"Date_Installed":null,"LED_Powered":0,"LightID":"L017705","Light_Source":"LED","Light_Type":"Cobra","Lighting_Type":"LED-Powered Lamp","Verification_Date":null},"id":"stl-city-public-streetlights:2:124977","sourceLayerId":2,"sourceObjectId":124977,"sourceURL":"https://maps8.stlouis-mo.gov/arcgis/rest/services/STREETS/Streets_Permitting/MapServer/2","title":"Street light L017705"},"type":"Feature"},{"geometry":{"coordinates":[-90.2799622298642,38.63401545119026],"type":"Point"},"id":"stl-city-public-streetlights:2:124980","properties":{"address":null,"attributes":{"Date_Installed":null,"LED_Powered":0,"LightID":"L017708","Light_Source":"LED","Light_Type":"Cobra","Lighting_Type":"LED-Powered Lamp","Verification_Date":null},"id":"stl-city-public-streetlights:2:124980","sourceLayerId":2,"sourceObjectId":124980,"sourceURL":"https://maps8.stlouis-mo.gov/arcgis/rest/services/STREETS/Streets_Permitting/MapServer/2","title":"Street light L017708"},"type":"Feature"},{"geometry":{"coordinates":[-90.27968267241076,38.63420656704439],"type":"Point"},"id":"stl-city-public-streetlights:2:124981","properties":{"address":null,"attributes":{"Date_Installed":null,"LED_Powered":0,"LightID":"L017709","Light_Source":"LED","Light_Type":"Cobra","Lighting_Type":"LED-Powered Lamp","Verification_Date":null},"id":"stl-city-public-streetlights:2:124981","sourceLayerId":2,"sourceObjectId":124981,"sourceURL":"https://maps8.stlouis-mo.gov/arcgis/rest/services/STREETS/Streets_Permitting/MapServer/2","title":"Street light L017709"},"type":"Feature"},{"geometry":{"coordinates":[-90.27938678169244,38.634371909379404],"type":"Point"},"id":"stl-city-public-streetlights:2:124982","properties":{"address":null,"attributes":{"Date_Installed":null,"LED_Powered":0,"LightID":"L017710","Light_Source":"LED","Light_Type":"Cobra","Lighting_Type":"LED-Powered Lamp","Verification_Date":null},"id":"stl-city-public-streetlights:2:124982","sourceLayerId":2,"sourceObjectId":124982,"sourceURL":"https://maps8.stlouis-mo.gov/arcgis/rest/services/STREETS/Streets_Permitting/MapServer/2","title":"Street light L017710"},"type":"Feature"},{"geometry":{"coordinates":[-90.27908116528157,38.634557253986664],"type":"Point"},"id":"stl-city-public-streetlights:2:124983","properties":{"address":null,"attributes":{"Date_Installed":null,"LED_Powered":0,"LightID":"L017711","Light_Source":"LED","Light_Type":"Cobra","Lighting_Type":"LED-Powered Lamp","Verification_Date":null},"id":"stl-city-public-streetlights:2:124983","sourceLayerId":2,"sourceObjectId":124983,"sourceURL":"https://maps8.stlouis-mo.gov/arcgis/rest/services/STREETS/Streets_Permitting/MapServer/2","title":"Street light L017711"},"type":"Feature"},{"geometry":{"coordinates":[-90.27878159981309,38.63473116882112],"type":"Point"},"id":"stl-city-public-streetlights:2:124984","properties":{"address":null,"attributes":{"Date_Installed":null,"LED_Powered":0,"LightID":"L017712","Light_Source":"LED","Light_Type":"Cobra","Lighting_Type":"LED-Powered Lamp","Verification_Date":null},"id":"stl-city-public-streetlights:2:124984","sourceLayerId":2,"sourceObjectId":124984,"sourceURL":"https://maps8.stlouis-mo.gov/arcgis/rest/services/STREETS/Streets_Permitting/MapServer/2","title":"Street light L017712"},"type":"Feature"},{"geometry":{"coordinates":[-90.27848568286824,38.634903659175684],"type":"Point"},"id":"stl-city-public-streetlights:2:124985","properties":{"address":null,"attributes":{"Date_Installed":null,"LED_Powered":0,"LightID":"L017713","Light_Source":"LED","Light_Type":"Cobra","Lighting_Type":"LED-Powered Lamp","Verification_Date":null},"id":"stl-city-public-streetlights:2:124985","sourceLayerId":2,"sourceObjectId":124985,"sourceURL":"https://maps8.stlouis-mo.gov/arcgis/rest/services/STREETS/Streets_Permitting/MapServer/2","title":"Street light L017713"},"type":"Feature"},{"geometry":{"coordinates":[-90.27820016236564,38.63507473787086],"type":"Point"},"id":"stl-city-public-streetlights:2:124986","properties":{"address":null,"attributes":{"Date_Installed":null,"LED_Powered":0,"LightID":"L017714","Light_Source":"LED","Light_Type":"Cobra","Lighting_Type":"LED-Powered Lamp","Verification_Date":null},"id":"stl-city-public-streetlights:2:124986","sourceLayerId":2,"sourceObjectId":124986,"sourceURL":"https://maps8.stlouis-mo.gov/arcgis/rest/services/STREETS/Streets_Permitting/MapServer/2","title":"Street light L017714"},"type":"Feature"},{"geometry":{"coordinates":[-90.27790967798843,38.635258678361964],"type":"Point"},"id":"stl-city-public-streetlights:2:124987","properties":{"address":null,"attributes":{"Date_Installed":null,"LED_Powered":0,"LightID":"L017715","Light_Source":"LED","Light_Type":"Cobra","Lighting_Type":"LED-Powered Lamp","Verification_Date":null},"id":"stl-city-public-streetlights:2:124987","sourceLayerId":2,"sourceObjectId":124987,"sourceURL":"https://maps8.stlouis-mo.gov/arcgis/rest/services/STREETS/Streets_Permitting/MapServer/2","title":"Street light L017715"},"type":"Feature"},{"geometry":{"coordinates":[-90.27765754534775,38.63542266872667],"type":"Point"},"id":"stl-city-public-streetlights:2:124988","properties":{"address":null,"attributes":{"Date_Installed":null,"LED_Powered":0,"LightID":"L017716","Light_Source":"LED","Light_Type":"Cobra","Lighting_Type":"LED-Powered Lamp","Verification_Date":null},"id":"stl-city-public-streetlights:2:124988","sourceLayerId":2,"sourceObjectId":124988,"sourceURL":"https://maps8.stlouis-mo.gov/arcgis/rest/services/STREETS/Streets_Permitting/MapServer/2","title":"Street light L017716"},"type":"Feature"},{"geometry":{"coordinates":[-90.27739394112872,38.63558091606262],"type":"Point"},"id":"stl-city-public-streetlights:2:124989","properties":{"address":null,"attributes":{"Date_Installed":null,"LED_Powered":0,"LightID":"L017717","Light_Source":"LED","Light_Type":"Cobra","Lighting_Type":"LED-Powered Lamp","Verification_Date":null},"id":"stl-city-public-streetlights:2:124989","sourceLayerId":2,"sourceObjectId":124989,"sourceURL":"https://maps8.stlouis-mo.gov/arcgis/rest/services/STREETS/Streets_Permitting/MapServer/2","title":"Street light L017717"},"type":"Feature"},{"geometry":{"coordinates":[-90.27712717044383,38.63576060876689],"type":"Point"},"id":"stl-city-public-streetlights:2:124990","properties":{"address":null,"attributes":{"Date_Installed":null,"LED_Powered":0,"LightID":"L017718","Light_Source":"LED","Light_Type":"Cobra","Lighting_Type":"LED-Powered Lamp","Verification_Date":null},"id":"stl-city-public-streetlights:2:124990","sourceLayerId":2,"sourceObjectId":124990,"sourceURL":"https://maps8.stlouis-mo.gov/arcgis/rest/services/STREETS/Streets_Permitting/MapServer/2","title":"Street light L017718"},"type":"Feature"},{"geometry":{"coordinates":[-90.27809765053775,38.63737480634232],"type":"Point"},"id":"stl-city-public-streetlights:2:124991","properties":{"address":null,"attributes":{"Date_Installed":null,"LED_Powered":0,"LightID":"L017719","Light_Source":"LED","Light_Type":"Cobra","Lighting_Type":"LED-Powered Lamp","Verification_Date":null},"id":"stl-city-public-streetlights:2:124991","sourceLayerId":2,"sourceObjectId":124991,"sourceURL":"https://maps8.stlouis-mo.gov/arcgis/rest/services/STREETS/Streets_Permitting/MapServer/2","title":"Street light L017719"},"type":"Feature"},{"geometry":{"coordinates":[-90.27824539269665,38.637163422344884],"type":"Point"},"id":"stl-city-public-streetlights:2:124992","properties":{"address":null,"attributes":{"Date_Installed":null,"LED_Powered":0,"LightID":"L017720","Light_Source":"LED","Light_Type":"Cobra","Lighting_Type":"LED-Powered Lamp","Verification_Date":null},"id":"stl-city-public-streetlights:2:124992","sourceLayerId":2,"sourceObjectId":124992,"sourceURL":"https://maps8.stlouis-mo.gov/arcgis/rest/services/STREETS/Streets_Permitting/MapServer/2","title":"Street light L017720"},"type":"Feature"},{"geometry":{"coordinates":[-90.27805421094246,38.63687607316789],"type":"Point"},"id":"stl-city-public-streetlights:2:124993","properties":{"address":null,"attributes":{"Date_Installed":null,"LED_Powered":0,"LightID":"L017721","Light_Source":"LED","Light_Type":"Cobra","Lighting_Type":"LED-Powered Lamp","Verification_Date":null},"id":"stl-city-public-streetlights:2:124993","sourceLayerId":2,"sourceObjectId":124993,"sourceURL":"https://maps8.stlouis-mo.gov/arcgis/rest/services/STREETS/Streets_Permitting/MapServer/2","title":"Street light L017721"},"type":"Feature"},{"geometry":{"coordinates":[-90.27782369677112,38.636571963593155],"type":"Point"},"id":"stl-city-public-streetlights:2:124994","properties":{"address":null,"attributes":{"Date_Installed":null,"LED_Powered":0,"LightID":"L017722","Light_Source":"LED","Light_Type":"Cobra","Lighting_Type":"LED-Powered Lamp","Verification_Date":null},"id":"stl-city-public-streetlights:2:124994","sourceLayerId":2,"sourceObjectId":124994,"sourceURL":"https://maps8.stlouis-mo.gov/arcgis/rest/services/STREETS/Streets_Permitting/MapServer/2","title":"Street light L017722"},"type":"Feature"},{"geometry":{"coordinates":[-90.2774834188834,38.63634539887381],"type":"Point"},"id":"stl-city-public-streetlights:2:124995","properties":{"address":null,"attributes":{"Date_Installed":null,"LED_Powered":0,"LightID":"L017723","Light_Source":"LED","Light_Type":"Cobra","Lighting_Type":"LED-Powered Lamp","Verification_Date":null},"id":"stl-city-public-streetlights:2:124995","sourceLayerId":2,"sourceObjectId":124995,"sourceURL":"https://maps8.stlouis-mo.gov/arcgis/rest/services/STREETS/Streets_Permitting/MapServer/2","title":"Street light L017723"},"type":"Feature"},{"geometry":{"coordinates":[-90.27708270513781,38.636204479169855],"type":"Point"},"id":"stl-city-public-streetlights:2:124996","properties":{"address":null,"attributes":{"Date_Installed":null,"LED_Powered":0,"LightID":"L017724","Light_Source":"LED","Light_Type":"Cobra","Lighting_Type":"LED-Powered Lamp","Verification_Date":null},"id":"stl-city-public-streetlights:2:124996","sourceLayerId":2,"sourceObjectId":124996,"sourceURL":"https://maps8.stlouis-mo.gov/arcgis/rest/services/STREETS/Streets_Permitting/MapServer/2","title":"Street light L017724"},"type":"Feature"},{"geometry":{"coordinates":[-90.27704821294823,38.63604087844468],"type":"Point"},"id":"stl-city-public-streetlights:2:124997","properties":{"address":null,"attributes":{"Date_Installed":null,"LED_Powered":0,"LightID":"L017725","Light_Source":"LED","Light_Type":"Cobra","Lighting_Type":"LED-Powered Lamp","Verification_Date":null},"id":"stl-city-public-streetlights:2:124997","sourceLayerId":2,"sourceObjectId":124997,"sourceURL":"https://maps8.stlouis-mo.gov/arcgis/rest/services/STREETS/Streets_Permitting/MapServer/2","title":"Street light L017725"},"type":"Feature"},{"geometry":{"coordinates":[-90.2768015528441,38.63609463002356],"type":"Point"},"id":"stl-city-public-streetlights:2:124998","properties":{"address":null,"attributes":{"Date_Installed":null,"LED_Powered":0,"LightID":"L017726","Light_Source":"LED","Light_Type":"Cobra","Lighting_Type":"LED-Powered Lamp","Verification_Date":null},"id":"stl-city-public-streetlights:2:124998","sourceLayerId":2,"sourceObjectId":124998,"sourceURL":"https://maps8.stlouis-mo.gov/arcgis/rest/services/STREETS/Streets_Permitting/MapServer/2","title":"Street light L017726"},"type":"Feature"},{"geometry":{"coordinates":[-90.27631099995408,38.63610003451621],"type":"Point"},"id":"stl-city-public-streetlights:2:124999","properties":{"address":null,"attributes":{"Date_Installed":null,"LED_Powered":0,"LightID":"L017727","Light_Source":"LED","Light_Type":"Cobra","Lighting_Type":"LED-Powered Lamp","Verification_Date":null},"id":"stl-city-public-streetlights:2:124999","sourceLayerId":2,"sourceObjectId":124999,"sourceURL":"https://maps8.stlouis-mo.gov/arcgis/rest/services/STREETS/Streets_Permitting/MapServer/2","title":"Street light L017727"},"type":"Feature"},{"geometry":{"coordinates":[-90.27584749423767,38.63609914740819],"type":"Point"},"id":"stl-city-public-streetlights:2:125000","properties":{"address":null,"attributes":{"Date_Installed":null,"LED_Powered":0,"LightID":"L017728","Light_Source":"LED","Light_Type":"Cobra","Lighting_Type":"LED-Powered Lamp","Verification_Date":null},"id":"stl-city-public-streetlights:2:125000","sourceLayerId":2,"sourceObjectId":125000,"sourceURL":"https://maps8.stlouis-mo.gov/arcgis/rest/services/STREETS/Streets_Permitting/MapServer/2","title":"Street light L017728"},"type":"Feature"},{"geometry":{"coordinates":[-90.27542441362242,38.63611549802576],"type":"Point"},"id":"stl-city-public-streetlights:2:125001","properties":{"address":null,"attributes":{"Date_Installed":null,"LED_Powered":0,"LightID":"L017729","Light_Source":"LED","Light_Type":"Cobra","Lighting_Type":"LED-Powered Lamp","Verification_Date":null},"id":"stl-city-public-streetlights:2:125001","sourceLayerId":2,"sourceObjectId":125001,"sourceURL":"https://maps8.stlouis-mo.gov/arcgis/rest/services/STREETS/Streets_Permitting/MapServer/2","title":"Street light L017729"},"type":"Feature"},{"geometry":{"coordinates":[-90.27500493042,38.636147586276955],"type":"Point"},"id":"stl-city-public-streetlights:2:125002","properties":{"address":null,"attributes":{"Date_Installed":null,"LED_Powered":0,"LightID":"L017730","Light_Source":"LED","Light_Type":"Cobra","Lighting_Type":"LED-Powered Lamp","Verification_Date":null},"id":"stl-city-public-streetlights:2:125002","sourceLayerId":2,"sourceObjectId":125002,"sourceURL":"https://maps8.stlouis-mo.gov/arcgis/rest/services/STREETS/Streets_Permitting/MapServer/2","title":"Street light L017730"},"type":"Feature"},{"geometry":{"coordinates":[-90.27457617024912,38.63617250388307],"type":"Point"},"id":"stl-city-public-streetlights:2:125003","properties":{"address":null,"attributes":{"Date_Installed":null,"LED_Powered":0,"LightID":"L017731","Light_Source":"LED","Light_Type":"Cobra","Lighting_Type":"LED-Powered Lamp","Verification_Date":null},"id":"stl-city-public-streetlights:2:125003","sourceLayerId":2,"sourceObjectId":125003,"sourceURL":"https://maps8.stlouis-mo.gov/arcgis/rest/services/STREETS/Streets_Permitting/MapServer/2","title":"Street light L017731"},"type":"Feature"},{"geometry":{"coordinates":[-90.27417118936344,38.63623178973501],"type":"Point"},"id":"stl-city-public-streetlights:2:125004","properties":{"address":null,"attributes":{"Date_Installed":null,"LED_Powered":0,"LightID":"L017732","Light_Source":"LED","Light_Type":"Cobra","Lighting_Type":"LED-Powered Lamp","Verification_Date":null},"id":"stl-city-public-streetlights:2:125004","sourceLayerId":2,"sourceObjectId":125004,"sourceURL":"https://maps8.stlouis-mo.gov/arcgis/rest/services/STREETS/Streets_Permitting/MapServer/2","title":"Street light L017732"},"type":"Feature"},{"geometry":{"coordinates":[-90.27376365615594,38.63634827577358],"type":"Point"},"id":"stl-city-public-streetlights:2:125005","properties":{"address":null,"attributes":{"Date_Installed":null,"LED_Powered":0,"LightID":"L017733","Light_Source":"LED","Light_Type":"Cobra","Lighting_Type":"LED-Powered Lamp","Verification_Date":null},"id":"stl-city-public-streetlights:2:125005","sourceLayerId":2,"sourceObjectId":125005,"sourceURL":"https://maps8.stlouis-mo.gov/arcgis/rest/services/STREETS/Streets_Permitting/MapServer/2","title":"Street light L017733"},"type":"Feature"},{"geometry":{"coordinates":[-90.27338576280818,38.63649056073852],"type":"Point"},"id":"stl-city-public-streetlights:2:125006","properties":{"address":null,"attributes":{"Date_Installed":null,"LED_Powered":0,"LightID":"L017734","Light_Source":"LED","Light_Type":"Cobra","Lighting_Type":"LED-Powered Lamp","Verification_Date":null},"id":"stl-city-public-streetlights:2:125006","sourceLayerId":2,"sourceObjectId":125006,"sourceURL":"https://maps8.stlouis-mo.gov/arcgis/rest/services/STREETS/Streets_Permitting/MapServer/2","title":"Street light L017734"},"type":"Feature"},{"geometry":{"coordinates":[-90.27306608151396,38.636675863196416],"type":"Point"},"id":"stl-city-public-streetlights:2:125007","properties":{"address":null,"attributes":{"Date_Installed":null,"LED_Powered":0,"LightID":"L017735","Light_Source":"LED","Light_Type":"Cobra","Lighting_Type":"LED-Powered Lamp","Verification_Date":null},"id":"stl-city-public-streetlights:2:125007","sourceLayerId":2,"sourceObjectId":125007,"sourceURL":"https://maps8.stlouis-mo.gov/arcgis/rest/services/STREETS/Streets_Permitting/MapServer/2","title":"Street light L017735"},"type":"Feature"},{"geometry":{"coordinates":[-90.27281106129905,38.63694066417282],"type":"Point"},"id":"stl-city-public-streetlights:2:125008","properties":{"address":null,"attributes":{"Date_Installed":null,"LED_Powered":0,"LightID":"L017736","Light_Source":"LED","Light_Type":"Cobra","Lighting_Type":"LED-Powered Lamp","Verification_Date":null},"id":"stl-city-public-streetlights:2:125008","sourceLayerId":2,"sourceObjectId":125008,"sourceURL":"https://maps8.stlouis-mo.gov/arcgis/rest/services/STREETS/Streets_Permitting/MapServer/2","title":"Street light L017736"},"type":"Feature"},{"geometry":{"coordinates":[-90.27256403737667,38.637213345794734],"type":"Point"},"id":"stl-city-public-streetlights:2:125009","properties":{"address":null,"attributes":{"Date_Installed":null,"LED_Powered":0,"LightID":"L017737","Light_Source":"LED","Light_Type":"Cobra","Lighting_Type":"LED-Powered Lamp","Verification_Date":null},"id":"stl-city-public-streetlights:2:125009","sourceLayerId":2,"sourceObjectId":125009,"sourceURL":"https://maps8.stlouis-mo.gov/arcgis/rest/services/STREETS/Streets_Permitting/MapServer/2","title":"Street light L017737"},"type":"Feature"},{"geometry":{"coordinates":[-90.27234253270724,38.637488221559224],"type":"Point"},"id":"stl-city-public-streetlights:2:125010","properties":{"address":null,"attributes":{"Date_Installed":null,"LED_Powered":0,"LightID":"L017738","Light_Source":"LED","Light_Type":"Cobra","Lighting_Type":"LED-Powered Lamp","Verification_Date":null},"id":"stl-city-public-streetlights:2:125010","sourceLayerId":2,"sourceObjectId":125010,"sourceURL":"https://maps8.stlouis-mo.gov/arcgis/rest/services/STREETS/Streets_Permitting/MapServer/2","title":"Street light L017738"},"type":"Feature"},{"geometry":{"coordinates":[-90.27208281533683,38.637747053279185],"type":"Point"},"id":"stl-city-public-streetlights:2:125011","properties":{"address":null,"attributes":{"Date_Installed":null,"LED_Powered":0,"LightID":"L017739","Light_Source":"LED","Light_Type":"Cobra","Lighting_Type":"LED-Powered Lamp","Verification_Date":null},"id":"stl-city-public-streetlights:2:125011","sourceLayerId":2,"sourceObjectId":125011,"sourceURL":"https://maps8.stlouis-mo.gov/arcgis/rest/services/STREETS/Streets_Permitting/MapServer/2","title":"Street light L017739"},"type":"Feature"},{"geometry":{"coordinates":[-90.27178963668601,38.63795766928289],"type":"Point"},"id":"stl-city-public-streetlights:2:125012","properties":{"address":null,"attributes":{"Date_Installed":null,"LED_Powered":0,"LightID":"L017740","Light_Source":"LED","Light_Type":"Cobra","Lighting_Type":"LED-Powered Lamp","Verification_Date":null},"id":"stl-city-public-streetlights:2:125012","sourceLayerId":2,"sourceObjectId":125012,"sourceURL":"https://maps8.stlouis-mo.gov/arcgis/rest/services/STREETS/Streets_Permitting/MapServer/2","title":"Street light L017740"},"type":"Feature"},{"geometry":{"coordinates":[-90.27146202966037,38.63805142052911],"type":"Point"},"id":"stl-city-public-streetlights:2:125013","properties":{"address":null,"attributes":{"Date_Installed":null,"LED_Powered":0,"LightID":"L017741","Light_Source":"LED","Light_Type":"Cobra","Lighting_Type":"LED-Powered Lamp","Verification_Date":null},"id":"stl-city-public-streetlights:2:125013","sourceLayerId":2,"sourceObjectId":125013,"sourceURL":"https://maps8.stlouis-mo.gov/arcgis/rest/services/STREETS/Streets_Permitting/MapServer/2","title":"Street light L017741"},"type":"Feature"},{"geometry":{"coordinates":[-90.27097671794063,38.63813771188371],"type":"Point"},"id":"stl-city-public-streetlights:2:125014","properties":{"address":null,"attributes":{"Date_Installed":null,"LED_Powered":0,"LightID":"L017742","Light_Source":"LED","Light_Type":"Cobra","Lighting_Type":"LED-Powered Lamp","Verification_Date":null},"id":"stl-city-public-streetlights:2:125014","sourceLayerId":2,"sourceObjectId":125014,"sourceURL":"https://maps8.stlouis-mo.gov/arcgis/rest/services/STREETS/Streets_Permitting/MapServer/2","title":"Street light L017742"},"type":"Feature"},{"geometry":{"coordinates":[-90.27257193318647,38.63100987071069],"type":"Point"},"id":"stl-city-public-streetlights:2:125015","properties":{"address":null,"attributes":{"Date_Installed":null,"LED_Powered":0,"LightID":"L017743","Light_Source":"LED","Light_Type":"Cobra","Lighting_Type":"LED-Powered Lamp","Verification_Date":null},"id":"stl-city-public-streetlights:2:125015","sourceLayerId":2,"sourceObjectId":125015,"sourceURL":"https://maps8.stlouis-mo.gov/arcgis/rest/services/STREETS/Streets_Permitting/MapServer/2","title":"Street light L017743"},"type":"Feature"},{"geometry":{"coordinates":[-90.27292601480711,38.63094548258322],"type":"Point"},"id":"stl-city-public-streetlights:2:125016","properties":{"address":null,"attributes":{"Date_Installed":null,"LED_Powered":0,"LightID":"L017744","Light_Source":"LED","Light_Type":"Cobra","Lighting_Type":"LED-Powered Lamp","Verification_Date":null},"id":"stl-city-public-streetlights:2:125016","sourceLayerId":2,"sourceObjectId":125016,"sourceURL":"https://maps8.stlouis-mo.gov/arcgis/rest/services/STREETS/Streets_Permitting/MapServer/2","title":"Street light L017744"},"type":"Feature"},{"geometry":{"coordinates":[-90.2730055879662,38.6311000983502],"type":"Point"},"id":"stl-city-public-streetlights:2:125017","properties":{"address":null,"attributes":{"Date_Installed":null,"LED_Powered":0,"LightID":"L017745","Light_Source":"LED","Light_Type":"Cobra","Lighting_Type":"LED-Powered Lamp","Verification_Date":null},"id":"stl-city-public-streetlights:2:125017","sourceLayerId":2,"sourceObjectId":125017,"sourceURL":"https://maps8.stlouis-mo.gov/arcgis/rest/services/STREETS/Streets_Permitting/MapServer/2","title":"Street light L017745"},"type":"Feature"},{"geometry":{"coordinates":[-90.27345108033327,38.631195114818794],"type":"Point"},"id":"stl-city-public-streetlights:2:125018","properties":{"address":null,"attributes":{"Date_Installed":null,"LED_Powered":0,"LightID":"L017746","Light_Source":"LED","Light_Type":"Cobra","Lighting_Type":"LED-Powered Lamp","Verification_Date":null},"id":"stl-city-public-streetlights:2:125018","sourceLayerId":2,"sourceObjectId":125018,"sourceURL":"https://maps8.stlouis-mo.gov/arcgis/rest/services/STREETS/Streets_Permitting/MapServer/2","title":"Street light L017746"},"type":"Feature"},{"geometry":{"coordinates":[-90.27408973298002,38.63077564171563],"type":"Point"},"id":"stl-city-public-streetlights:2:125019","properties":{"address":null,"attributes":{"Date_Installed":null,"LED_Powered":0,"LightID":"L017747","Light_Source":"LED","Light_Type":"Cobra","Lighting_Type":"LED-Powered Lamp","Verification_Date":null},"id":"stl-city-public-streetlights:2:125019","sourceLayerId":2,"sourceObjectId":125019,"sourceURL":"https://maps8.stlouis-mo.gov/arcgis/rest/services/STREETS/Streets_Permitting/MapServer/2","title":"Street light L017747"},"type":"Feature"},{"geometry":{"coordinates":[-90.27382832282609,38.63099299825325],"type":"Point"},"id":"stl-city-public-streetlights:2:125020","properties":{"address":null,"attributes":{"Date_Installed":null,"LED_Powered":0,"LightID":"L017748","Light_Source":"LED","Light_Type":"Cobra","Lighting_Type":"LED-Powered Lamp","Verification_Date":null},"id":"stl-city-public-streetlights:2:125020","sourceLayerId":2,"sourceObjectId":125020,"sourceURL":"https://maps8.stlouis-mo.gov/arcgis/rest/services/STREETS/Streets_Permitting/MapServer/2","title":"Street light L017748"},"type":"Feature"},{"geometry":{"coordinates":[-90.27369903966928,38.63132597792258],"type":"Point"},"id":"stl-city-public-streetlights:2:125021","properties":{"address":null,"attributes":{"Date_Installed":null,"LED_Powered":0,"LightID":"L017749","Light_Source":"LED","Light_Type":"Cobra","Lighting_Type":"LED-Powered Lamp","Verification_Date":null},"id":"stl-city-public-streetlights:2:125021","sourceLayerId":2,"sourceObjectId":125021,"sourceURL":"https://maps8.stlouis-mo.gov/arcgis/rest/services/STREETS/Streets_Permitting/MapServer/2","title":"Street light L017749"},"type":"Feature"},{"geometry":{"coordinates":[-90.27361528113978,38.63167668316491],"type":"Point"},"id":"stl-city-public-streetlights:2:125022","properties":{"address":null,"attributes":{"Date_Installed":null,"LED_Powered":0,"LightID":"L017750","Light_Source":"LED","Light_Type":"Cobra","Lighting_Type":"LED-Powered Lamp","Verification_Date":null},"id":"stl-city-public-streetlights:2:125022","sourceLayerId":2,"sourceObjectId":125022,"sourceURL":"https://maps8.stlouis-mo.gov/arcgis/rest/services/STREETS/Streets_Permitting/MapServer/2","title":"Street light L017750"},"type":"Feature"},{"geometry":{"coordinates":[-90.27353026764987,38.63203978125296],"type":"Point"},"id":"stl-city-public-streetlights:2:125023","properties":{"address":null,"attributes":{"Date_Installed":null,"LED_Powered":0,"LightID":"L017751","Light_Source":"LED","Light_Type":"Cobra","Lighting_Type":"LED-Powered Lamp","Verification_Date":null},"id":"stl-city-public-streetlights:2:125023","sourceLayerId":2,"sourceObjectId":125023,"sourceURL":"https://maps8.stlouis-mo.gov/arcgis/rest/services/STREETS/Streets_Permitting/MapServer/2","title":"Street light L017751"},"type":"Feature"},{"geometry":{"coordinates":[-90.27345889134122,38.63239511926268],"type":"Point"},"id":"stl-city-public-streetlights:2:125024","properties":{"address":null,"attributes":{"Date_Installed":null,"LED_Powered":0,"LightID":"L017752","Light_Source":"LED","Light_Type":"Cobra","Lighting_Type":"LED-Powered Lamp","Verification_Date":null},"id":"stl-city-public-streetlights:2:125024","sourceLayerId":2,"sourceObjectId":125024,"sourceURL":"https://maps8.stlouis-mo.gov/arcgis/rest/services/STREETS/Streets_Permitting/MapServer/2","title":"Street light L017752"},"type":"Feature"},{"geometry":{"coordinates":[-90.27339578284153,38.632749678634205],"type":"Point"},"id":"stl-city-public-streetlights:2:125025","properties":{"address":null,"attributes":{"Date_Installed":null,"LED_Powered":0,"LightID":"L017753","Light_Source":"LED","Light_Type":"Cobra","Lighting_Type":"LED-Powered Lamp","Verification_Date":null},"id":"stl-city-public-streetlights:2:125025","sourceLayerId":2,"sourceObjectId":125025,"sourceURL":"https://maps8.stlouis-mo.gov/arcgis/rest/services/STREETS/Streets_Permitting/MapServer/2","title":"Street light L017753"},"type":"Feature"},{"geometry":{"coordinates":[-90.27232458768528,38.63297586942593],"type":"Point"},"id":"stl-city-public-streetlights:2:125026","properties":{"address":null,"attributes":{"Date_Installed":null,"LED_Powered":0,"LightID":"L017754","Light_Source":"LED","Light_Type":"Cobra","Lighting_Type":"LED-Powered Lamp","Verification_Date":null},"id":"stl-city-public-streetlights:2:125026","sourceLayerId":2,"sourceObjectId":125026,"sourceURL":"https://maps8.stlouis-mo.gov/arcgis/rest/services/STREETS/Streets_Permitting/MapServer/2","title":"Street light L017754"},"type":"Feature"},{"geometry":{"coordinates":[-90.2723618045029,38.633219069703074],"type":"Point"},"id":"stl-city-public-streetlights:2:125027","properties":{"address":null,"attributes":{"Date_Installed":null,"LED_Powered":0,"LightID":"L017755","Light_Source":"LED","Light_Type":"Cobra","Lighting_Type":"LED-Powered Lamp","Verification_Date":null},"id":"stl-city-public-streetlights:2:125027","sourceLayerId":2,"sourceObjectId":125027,"sourceURL":"https://maps8.stlouis-mo.gov/arcgis/rest/services/STREETS/Streets_Permitting/MapServer/2","title":"Street light L017755"},"type":"Feature"},{"geometry":{"coordinates":[-90.27087612985088,38.638414163782905],"type":"Point"},"id":"stl-city-public-streetlights:2:125028","properties":{"address":null,"attributes":{"Date_Installed":null,"LED_Powered":0,"LightID":"L017756","Light_Source":"LED","Light_Type":"Cobra","Lighting_Type":"LED-Powered Lamp","Verification_Date":null},"id":"stl-city-public-streetlights:2:125028","sourceLayerId":2,"sourceObjectId":125028,"sourceURL":"https://maps8.stlouis-mo.gov/arcgis/rest/services/STREETS/Streets_Permitting/MapServer/2","title":"Street light L017756"},"type":"Feature"},{"geometry":{"coordinates":[-90.2710712355824,38.63870236648935],"type":"Point"},"id":"stl-city-public-streetlights:2:125029","properties":{"address":null,"attributes":{"Date_Installed":null,"LED_Powered":0,"LightID":"L017757","Light_Source":"LED","Light_Type":"Cobra","Lighting_Type":"LED-Powered Lamp","Verification_Date":null},"id":"stl-city-public-streetlights:2:125029","sourceLayerId":2,"sourceObjectId":125029,"sourceURL":"https://maps8.stlouis-mo.gov/arcgis/rest/services/STREETS/Streets_Permitting/MapServer/2","title":"Street light L017757"},"type":"Feature"},{"geometry":{"coordinates":[-90.27129212721191,38.63900551728206],"type":"Point"},"id":"stl-city-public-streetlights:2:125030","properties":{"address":null,"attributes":{"Date_Installed":null,"LED_Powered":0,"LightID":"L017758","Light_Source":"LED","Light_Type":"Cobra","Lighting_Type":"LED-Powered Lamp","Verification_Date":null},"id":"stl-city-public-streetlights:2:125030","sourceLayerId":2,"sourceObjectId":125030,"sourceURL":"https://maps8.stlouis-mo.gov/arcgis/rest/services/STREETS/Streets_Permitting/MapServer/2","title":"Street light L017758"},"type":"Feature"},{"geometry":{"coordinates":[-90.27147866726344,38.639312175281006],"type":"Point"},"id":"stl-city-public-streetlights:2:125031","properties":{"address":null,"attributes":{"Date_Installed":null,"LED_Powered":0,"LightID":"L017759","Light_Source":"LED","Light_Type":"Cobra","Lighting_Type":"LED-Powered Lamp","Verification_Date":null},"id":"stl-city-public-streetlights:2:125031","sourceLayerId":2,"sourceObjectId":125031,"sourceURL":"https://maps8.stlouis-mo.gov/arcgis/rest/services/STREETS/Streets_Permitting/MapServer/2","title":"Street light L017759"},"type":"Feature"},{"geometry":{"coordinates":[-90.27164785590733,38.63962833411809],"type":"Point"},"id":"stl-city-public-streetlights:2:125032","properties":{"address":null,"attributes":{"Date_Installed":null,"LED_Powered":0,"LightID":"L017760","Light_Source":"LED","Light_Type":"Cobra","Lighting_Type":"LED-Powered Lamp","Verification_Date":null},"id":"stl-city-public-streetlights:2:125032","sourceLayerId":2,"sourceObjectId":125032,"sourceURL":"https://maps8.stlouis-mo.gov/arcgis/rest/services/STREETS/Streets_Permitting/MapServer/2","title":"Street light L017760"},"type":"Feature"},{"geometry":{"coordinates":[-90.27185203006353,38.639933834033314],"type":"Point"},"id":"stl-city-public-streetlights:2:125033","properties":{"address":null,"attributes":{"Date_Installed":null,"LED_Powered":0,"LightID":"L017761","Light_Source":"LED","Light_Type":"Cobra","Lighting_Type":"LED-Powered Lamp","Verification_Date":null},"id":"stl-city-public-streetlights:2:125033","sourceLayerId":2,"sourceObjectId":125033,"sourceURL":"https://maps8.stlouis-mo.gov/arcgis/rest/services/STREETS/Streets_Permitting/MapServer/2","title":"Street light L017761"},"type":"Feature"},{"geometry":{"coordinates":[-90.27948539146757,38.63010957608448],"type":"Point"},"id":"stl-city-public-streetlights:2:133283","properties":{"address":null,"attributes":{"Date_Installed":null,"LED_Powered":0,"LightID":"L025999","Light_Source":"LED","Light_Type":"Cobra","Lighting_Type":"LED-Powered Lamp","Verification_Date":null},"id":"stl-city-public-streetlights:2:133283","sourceLayerId":2,"sourceObjectId":133283,"sourceURL":"https://maps8.stlouis-mo.gov/arcgis/rest/services/STREETS/Streets_Permitting/MapServer/2","title":"Street light L025999"},"type":"Feature"},{"geometry":{"coordinates":[-90.27898348702077,38.63007811948341],"type":"Point"},"id":"stl-city-public-streetlights:2:133284","properties":{"address":null,"attributes":{"Date_Installed":null,"LED_Powered":0,"LightID":"L026000","Light_Source":"LED","Light_Type":"Cobra","Lighting_Type":"LED-Powered Lamp","Verification_Date":null},"id":"stl-city-public-streetlights:2:133284","sourceLayerId":2,"sourceObjectId":133284,"sourceURL":"https://maps8.stlouis-mo.gov/arcgis/rest/services/STREETS/Streets_Permitting/MapServer/2","title":"Street light L026000"},"type":"Feature"},{"geometry":{"coordinates":[-90.27847288902967,38.63002757420509],"type":"Point"},"id":"stl-city-public-streetlights:2:133285","properties":{"address":null,"attributes":{"Date_Installed":null,"LED_Powered":0,"LightID":"L026001","Light_Source":"LED","Light_Type":"Cobra","Lighting_Type":"LED-Powered Lamp","Verification_Date":null},"id":"stl-city-public-streetlights:2:133285","sourceLayerId":2,"sourceObjectId":133285,"sourceURL":"https://maps8.stlouis-mo.gov/arcgis/rest/services/STREETS/Streets_Permitting/MapServer/2","title":"Street light L026001"},"type":"Feature"},{"geometry":{"coordinates":[-90.27917462098125,38.63092493336175],"type":"Point"},"id":"stl-city-public-streetlights:2:137120","properties":{"address":null,"attributes":{"Date_Installed":null,"LED_Powered":0,"LightID":"L029836","Light_Source":"LED","Light_Type":"Cobra","Lighting_Type":"LED-Powered Lamp","Verification_Date":null},"id":"stl-city-public-streetlights:2:137120","sourceLayerId":2,"sourceObjectId":137120,"sourceURL":"https://maps8.stlouis-mo.gov/arcgis/rest/services/STREETS/Streets_Permitting/MapServer/2","title":"Street light L029836"},"type":"Feature"},{"geometry":{"coordinates":[-90.27934684026623,38.631248476362586],"type":"Point"},"id":"stl-city-public-streetlights:2:137121","properties":{"address":null,"attributes":{"Date_Installed":null,"LED_Powered":0,"LightID":"L029837","Light_Source":"LED","Light_Type":"Cobra","Lighting_Type":"LED-Powered Lamp","Verification_Date":null},"id":"stl-city-public-streetlights:2:137121","sourceLayerId":2,"sourceObjectId":137121,"sourceURL":"https://maps8.stlouis-mo.gov/arcgis/rest/services/STREETS/Streets_Permitting/MapServer/2","title":"Street light L029837"},"type":"Feature"},{"geometry":{"coordinates":[-90.27951728980972,38.63155485378567],"type":"Point"},"id":"stl-city-public-streetlights:2:137122","properties":{"address":null,"attributes":{"Date_Installed":null,"LED_Powered":0,"LightID":"L029838","Light_Source":"LED","Light_Type":"Cobra","Lighting_Type":"LED-Powered Lamp","Verification_Date":null},"id":"stl-city-public-streetlights:2:137122","sourceLayerId":2,"sourceObjectId":137122,"sourceURL":"https://maps8.stlouis-mo.gov/arcgis/rest/services/STREETS/Streets_Permitting/MapServer/2","title":"Street light L029838"},"type":"Feature"},{"geometry":{"coordinates":[-90.27974698677296,38.63186491722931],"type":"Point"},"id":"stl-city-public-streetlights:2:137123","properties":{"address":null,"attributes":{"Date_Installed":null,"LED_Powered":0,"LightID":"L029839","Light_Source":"LED","Light_Type":"Cobra","Lighting_Type":"LED-Powered Lamp","Verification_Date":null},"id":"stl-city-public-streetlights:2:137123","sourceLayerId":2,"sourceObjectId":137123,"sourceURL":"https://maps8.stlouis-mo.gov/arcgis/rest/services/STREETS/Streets_Permitting/MapServer/2","title":"Street light L029839"},"type":"Feature"},{"geometry":{"coordinates":[-90.27992843500344,38.63215343745033],"type":"Point"},"id":"stl-city-public-streetlights:2:137124","properties":{"address":null,"attributes":{"Date_Installed":null,"LED_Powered":0,"LightID":"L029840","Light_Source":"LED","Light_Type":"Cobra","Lighting_Type":"LED-Powered Lamp","Verification_Date":null},"id":"stl-city-public-streetlights:2:137124","sourceLayerId":2,"sourceObjectId":137124,"sourceURL":"https://maps8.stlouis-mo.gov/arcgis/rest/services/STREETS/Streets_Permitting/MapServer/2","title":"Street light L029840"},"type":"Feature"},{"geometry":{"coordinates":[-90.27987971005054,38.63317114790135],"type":"Point"},"id":"stl-city-public-streetlights:2:137133","properties":{"address":null,"attributes":{"Date_Installed":null,"LED_Powered":0,"LightID":"L029849","Light_Source":"LED","Light_Type":"Cobra","Lighting_Type":"LED-Powered Lamp","Verification_Date":null},"id":"stl-city-public-streetlights:2:137133","sourceLayerId":2,"sourceObjectId":137133,"sourceURL":"https://maps8.stlouis-mo.gov/arcgis/rest/services/STREETS/Streets_Permitting/MapServer/2","title":"Street light L029849"},"type":"Feature"},{"geometry":{"coordinates":[-90.27948318183714,38.633294945745696],"type":"Point"},"id":"stl-city-public-streetlights:2:137134","properties":{"address":null,"attributes":{"Date_Installed":null,"LED_Powered":0,"LightID":"L029850","Light_Source":"LED","Light_Type":"Cobra","Lighting_Type":"LED-Powered Lamp","Verification_Date":null},"id":"stl-city-public-streetlights:2:137134","sourceLayerId":2,"sourceObjectId":137134,"sourceURL":"https://maps8.stlouis-mo.gov/arcgis/rest/services/STREETS/Streets_Permitting/MapServer/2","title":"Street light L029850"},"type":"Feature"},{"geometry":{"coordinates":[-90.27906967824175,38.63336507746342],"type":"Point"},"id":"stl-city-public-streetlights:2:137135","properties":{"address":null,"attributes":{"Date_Installed":null,"LED_Powered":0,"LightID":"L029851","Light_Source":"LED","Light_Type":"Cobra","Lighting_Type":"LED-Powered Lamp","Verification_Date":null},"id":"stl-city-public-streetlights:2:137135","sourceLayerId":2,"sourceObjectId":137135,"sourceURL":"https://maps8.stlouis-mo.gov/arcgis/rest/services/STREETS/Streets_Permitting/MapServer/2","title":"Street light L029851"},"type":"Feature"},{"geometry":{"coordinates":[-90.27865171274222,38.63340349783469],"type":"Point"},"id":"stl-city-public-streetlights:2:137136","properties":{"address":null,"attributes":{"Date_Installed":null,"LED_Powered":0,"LightID":"L029852","Light_Source":"LED","Light_Type":"Cobra","Lighting_Type":"LED-Powered Lamp","Verification_Date":null},"id":"stl-city-public-streetlights:2:137136","sourceLayerId":2,"sourceObjectId":137136,"sourceURL":"https://maps8.stlouis-mo.gov/arcgis/rest/services/STREETS/Streets_Permitting/MapServer/2","title":"Street light L029852"},"type":"Feature"},{"geometry":{"coordinates":[-90.27822553161987,38.63341568161751],"type":"Point"},"id":"stl-city-public-streetlights:2:137137","properties":{"address":null,"attributes":{"Date_Installed":null,"LED_Powered":0,"LightID":"L029853","Light_Source":"LED","Light_Type":"Cobra","Lighting_Type":"LED-Powered Lamp","Verification_Date":null},"id":"stl-city-public-streetlights:2:137137","sourceLayerId":2,"sourceObjectId":137137,"sourceURL":"https://maps8.stlouis-mo.gov/arcgis/rest/services/STREETS/Streets_Permitting/MapServer/2","title":"Street light L029853"},"type":"Feature"},{"geometry":{"coordinates":[-90.2778079017216,38.63339462821316],"type":"Point"},"id":"stl-city-public-streetlights:2:137138","properties":{"address":null,"attributes":{"Date_Installed":null,"LED_Powered":0,"LightID":"L029854","Light_Source":"LED","Light_Type":"Cobra","Lighting_Type":"LED-Powered Lamp","Verification_Date":null},"id":"stl-city-public-streetlights:2:137138","sourceLayerId":2,"sourceObjectId":137138,"sourceURL":"https://maps8.stlouis-mo.gov/arcgis/rest/services/STREETS/Streets_Permitting/MapServer/2","title":"Street light L029854"},"type":"Feature"},{"geometry":{"coordinates":[-90.27739951456796,38.633352377631226],"type":"Point"},"id":"stl-city-public-streetlights:2:137139","properties":{"address":null,"attributes":{"Date_Installed":null,"LED_Powered":0,"LightID":"L029855","Light_Source":"LED","Light_Type":"Cobra","Lighting_Type":"LED-Powered Lamp","Verification_Date":null},"id":"stl-city-public-streetlights:2:137139","sourceLayerId":2,"sourceObjectId":137139,"sourceURL":"https://maps8.stlouis-mo.gov/arcgis/rest/services/STREETS/Streets_Permitting/MapServer/2","title":"Street light L029855"},"type":"Feature"},{"geometry":{"coordinates":[-90.27697935571193,38.63331367791983],"type":"Point"},"id":"stl-city-public-streetlights:2:137140","properties":{"address":null,"attributes":{"Date_Installed":null,"LED_Powered":0,"LightID":"L029856","Light_Source":"LED","Light_Type":"Cobra","Lighting_Type":"LED-Powered Lamp","Verification_Date":null},"id":"stl-city-public-streetlights:2:137140","sourceLayerId":2,"sourceObjectId":137140,"sourceURL":"https://maps8.stlouis-mo.gov/arcgis/rest/services/STREETS/Streets_Permitting/MapServer/2","title":"Street light L029856"},"type":"Feature"},{"geometry":{"coordinates":[-90.276542522459,38.63327244218015],"type":"Point"},"id":"stl-city-public-streetlights:2:137141","properties":{"address":null,"attributes":{"Date_Installed":null,"LED_Powered":0,"LightID":"L029857","Light_Source":"LED","Light_Type":"Cobra","Lighting_Type":"LED-Powered Lamp","Verification_Date":null},"id":"stl-city-public-streetlights:2:137141","sourceLayerId":2,"sourceObjectId":137141,"sourceURL":"https://maps8.stlouis-mo.gov/arcgis/rest/services/STREETS/Streets_Permitting/MapServer/2","title":"Street light L029857"},"type":"Feature"},{"geometry":{"coordinates":[-90.27611552169803,38.633235513666556],"type":"Point"},"id":"stl-city-public-streetlights:2:137142","properties":{"address":null,"attributes":{"Date_Installed":null,"LED_Powered":0,"LightID":"L029858","Light_Source":"LED","Light_Type":"Cobra","Lighting_Type":"LED-Powered Lamp","Verification_Date":null},"id":"stl-city-public-streetlights:2:137142","sourceLayerId":2,"sourceObjectId":137142,"sourceURL":"https://maps8.stlouis-mo.gov/arcgis/rest/services/STREETS/Streets_Permitting/MapServer/2","title":"Street light L029858"},"type":"Feature"},{"geometry":{"coordinates":[-90.27568644199876,38.63319321750776],"type":"Point"},"id":"stl-city-public-streetlights:2:137143","properties":{"address":null,"attributes":{"Date_Installed":null,"LED_Powered":0,"LightID":"L029859","Light_Source":"LED","Light_Type":"Cobra","Lighting_Type":"LED-Powered Lamp","Verification_Date":null},"id":"stl-city-public-streetlights:2:137143","sourceLayerId":2,"sourceObjectId":137143,"sourceURL":"https://maps8.stlouis-mo.gov/arcgis/rest/services/STREETS/Streets_Permitting/MapServer/2","title":"Street light L029859"},"type":"Feature"},{"geometry":{"coordinates":[-90.27524715672614,38.63314946955699],"type":"Point"},"id":"stl-city-public-streetlights:2:137144","properties":{"address":null,"attributes":{"Date_Installed":null,"LED_Powered":0,"LightID":"L029860","Light_Source":"LED","Light_Type":"Cobra","Lighting_Type":"LED-Powered Lamp","Verification_Date":null},"id":"stl-city-public-streetlights:2:137144","sourceLayerId":2,"sourceObjectId":137144,"sourceURL":"https://maps8.stlouis-mo.gov/arcgis/rest/services/STREETS/Streets_Permitting/MapServer/2","title":"Street light L029860"},"type":"Feature"},{"geometry":{"coordinates":[-90.27481443367971,38.633106447894654],"type":"Point"},"id":"stl-city-public-streetlights:2:137145","properties":{"address":null,"attributes":{"Date_Installed":null,"LED_Powered":0,"LightID":"L029861","Light_Source":"LED","Light_Type":"Cobra","Lighting_Type":"LED-Powered Lamp","Verification_Date":null},"id":"stl-city-public-streetlights:2:137145","sourceLayerId":2,"sourceObjectId":137145,"sourceURL":"https://maps8.stlouis-mo.gov/arcgis/rest/services/STREETS/Streets_Permitting/MapServer/2","title":"Street light L029861"},"type":"Feature"},{"geometry":{"coordinates":[-90.27438213059293,38.63306518848496],"type":"Point"},"id":"stl-city-public-streetlights:2:137146","properties":{"address":null,"attributes":{"Date_Installed":null,"LED_Powered":0,"LightID":"L029862","Light_Source":"LED","Light_Type":"Cobra","Lighting_Type":"LED-Powered Lamp","Verification_Date":null},"id":"stl-city-public-streetlights:2:137146","sourceLayerId":2,"sourceObjectId":137146,"sourceURL":"https://maps8.stlouis-mo.gov/arcgis/rest/services/STREETS/Streets_Permitting/MapServer/2","title":"Street light L029862"},"type":"Feature"},{"geometry":{"coordinates":[-90.2739543973489,38.633020503913905],"type":"Point"},"id":"stl-city-public-streetlights:2:137147","properties":{"address":null,"attributes":{"Date_Installed":null,"LED_Powered":0,"LightID":"L029863","Light_Source":"LED","Light_Type":"Cobra","Lighting_Type":"LED-Powered Lamp","Verification_Date":null},"id":"stl-city-public-streetlights:2:137147","sourceLayerId":2,"sourceObjectId":137147,"sourceURL":"https://maps8.stlouis-mo.gov/arcgis/rest/services/STREETS/Streets_Permitting/MapServer/2","title":"Street light L029863"},"type":"Feature"},{"geometry":{"coordinates":[-90.27350804832297,38.63298150330028],"type":"Point"},"id":"stl-city-public-streetlights:2:137148","properties":{"address":null,"attributes":{"Date_Installed":null,"LED_Powered":0,"LightID":"L029864","Light_Source":"LED","Light_Type":"Cobra","Lighting_Type":"LED-Powered Lamp","Verification_Date":null},"id":"stl-city-public-streetlights:2:137148","sourceLayerId":2,"sourceObjectId":137148,"sourceURL":"https://maps8.stlouis-mo.gov/arcgis/rest/services/STREETS/Streets_Permitting/MapServer/2","title":"Street light L029864"},"type":"Feature"},{"geometry":{"coordinates":[-90.27308236732884,38.632941587027894],"type":"Point"},"id":"stl-city-public-streetlights:2:137149","properties":{"address":null,"attributes":{"Date_Installed":null,"LED_Powered":0,"LightID":"L029865","Light_Source":"LED","Light_Type":"Cobra","Lighting_Type":"LED-Powered Lamp","Verification_Date":null},"id":"stl-city-public-streetlights:2:137149","sourceLayerId":2,"sourceObjectId":137149,"sourceURL":"https://maps8.stlouis-mo.gov/arcgis/rest/services/STREETS/Streets_Permitting/MapServer/2","title":"Street light L029865"},"type":"Feature"},{"geometry":{"coordinates":[-90.27265157854379,38.632902613325065],"type":"Point"},"id":"stl-city-public-streetlights:2:137150","properties":{"address":null,"attributes":{"Date_Installed":null,"LED_Powered":0,"LightID":"L029866","Light_Source":"LED","Light_Type":"Cobra","Lighting_Type":"LED-Powered Lamp","Verification_Date":null},"id":"stl-city-public-streetlights:2:137150","sourceLayerId":2,"sourceObjectId":137150,"sourceURL":"https://maps8.stlouis-mo.gov/arcgis/rest/services/STREETS/Streets_Permitting/MapServer/2","title":"Street light L029866"},"type":"Feature"},{"geometry":{"coordinates":[-90.27221252992685,38.63286217512502],"type":"Point"},"id":"stl-city-public-streetlights:2:137151","properties":{"address":null,"attributes":{"Date_Installed":null,"LED_Powered":0,"LightID":"L029867","Light_Source":"LED","Light_Type":"Cobra","Lighting_Type":"LED-Powered Lamp","Verification_Date":null},"id":"stl-city-public-streetlights:2:137151","sourceLayerId":2,"sourceObjectId":137151,"sourceURL":"https://maps8.stlouis-mo.gov/arcgis/rest/services/STREETS/Streets_Permitting/MapServer/2","title":"Street light L029867"},"type":"Feature"},{"geometry":{"coordinates":[-90.27177377990147,38.63281031076461],"type":"Point"},"id":"stl-city-public-streetlights:2:137152","properties":{"address":null,"attributes":{"Date_Installed":null,"LED_Powered":0,"LightID":"L029868","Light_Source":"LED","Light_Type":"Cobra","Lighting_Type":"LED-Powered Lamp","Verification_Date":null},"id":"stl-city-public-streetlights:2:137152","sourceLayerId":2,"sourceObjectId":137152,"sourceURL":"https://maps8.stlouis-mo.gov/arcgis/rest/services/STREETS/Streets_Permitting/MapServer/2","title":"Street light L029868"},"type":"Feature"},{"geometry":{"coordinates":[-90.27134264242838,38.63279118719328],"type":"Point"},"id":"stl-city-public-streetlights:2:137153","properties":{"address":null,"attributes":{"Date_Installed":null,"LED_Powered":0,"LightID":"L029869","Light_Source":"LED","Light_Type":"Cobra","Lighting_Type":"LED-Powered Lamp","Verification_Date":null},"id":"stl-city-public-streetlights:2:137153","sourceLayerId":2,"sourceObjectId":137153,"sourceURL":"https://maps8.stlouis-mo.gov/arcgis/rest/services/STREETS/Streets_Permitting/MapServer/2","title":"Street light L029869"},"type":"Feature"},{"geometry":{"coordinates":[-90.27089580265239,38.63277808437115],"type":"Point"},"id":"stl-city-public-streetlights:2:137154","properties":{"address":null,"attributes":{"Date_Installed":null,"LED_Powered":0,"LightID":"L029870","Light_Source":"LED","Light_Type":"Cobra","Lighting_Type":"LED-Powered Lamp","Verification_Date":null},"id":"stl-city-public-streetlights:2:137154","sourceLayerId":2,"sourceObjectId":137154,"sourceURL":"https://maps8.stlouis-mo.gov/arcgis/rest/services/STREETS/Streets_Permitting/MapServer/2","title":"Street light L029870"},"type":"Feature"},{"geometry":{"coordinates":[-90.27030660487799,38.63280443693719],"type":"Point"},"id":"stl-city-public-streetlights:2:137155","properties":{"address":null,"attributes":{"Date_Installed":null,"LED_Powered":0,"LightID":"L029871","Light_Source":"LED","Light_Type":"Cobra","Lighting_Type":"LED-Powered Lamp","Verification_Date":null},"id":"stl-city-public-streetlights:2:137155","sourceLayerId":2,"sourceObjectId":137155,"sourceURL":"https://maps8.stlouis-mo.gov/arcgis/rest/services/STREETS/Streets_Permitting/MapServer/2","title":"Street light L029871"},"type":"Feature"},{"geometry":{"coordinates":[-90.27998711734648,38.63885985230814],"type":"Point"},"id":"stl-city-public-streetlights:2:137206","properties":{"address":null,"attributes":{"Date_Installed":null,"LED_Powered":0,"LightID":"L029922","Light_Source":"LED","Light_Type":"Cobra","Lighting_Type":"LED-Powered Lamp","Verification_Date":null},"id":"stl-city-public-streetlights:2:137206","sourceLayerId":2,"sourceObjectId":137206,"sourceURL":"https://maps8.stlouis-mo.gov/arcgis/rest/services/STREETS/Streets_Permitting/MapServer/2","title":"Street light L029922"},"type":"Feature"},{"geometry":{"coordinates":[-90.27956772530662,38.63908186553722],"type":"Point"},"id":"stl-city-public-streetlights:2:137207","properties":{"address":null,"attributes":{"Date_Installed":null,"LED_Powered":0,"LightID":"L029923","Light_Source":"LED","Light_Type":"Cobra","Lighting_Type":"LED-Powered Lamp","Verification_Date":null},"id":"stl-city-public-streetlights:2:137207","sourceLayerId":2,"sourceObjectId":137207,"sourceURL":"https://maps8.stlouis-mo.gov/arcgis/rest/services/STREETS/Streets_Permitting/MapServer/2","title":"Street light L029923"},"type":"Feature"},{"geometry":{"coordinates":[-90.279087934957,38.63934983111997],"type":"Point"},"id":"stl-city-public-streetlights:2:137208","properties":{"address":null,"attributes":{"Date_Installed":null,"LED_Powered":0,"LightID":"L029924","Light_Source":"LED","Light_Type":"Cobra","Lighting_Type":"LED-Powered Lamp","Verification_Date":null},"id":"stl-city-public-streetlights:2:137208","sourceLayerId":2,"sourceObjectId":137208,"sourceURL":"https://maps8.stlouis-mo.gov/arcgis/rest/services/STREETS/Streets_Permitting/MapServer/2","title":"Street light L029924"},"type":"Feature"},{"geometry":{"coordinates":[-90.27862508746905,38.63957138050894],"type":"Point"},"id":"stl-city-public-streetlights:2:137209","properties":{"address":null,"attributes":{"Date_Installed":null,"LED_Powered":0,"LightID":"L029925","Light_Source":"LED","Light_Type":"Cobra","Lighting_Type":"LED-Powered Lamp","Verification_Date":null},"id":"stl-city-public-streetlights:2:137209","sourceLayerId":2,"sourceObjectId":137209,"sourceURL":"https://maps8.stlouis-mo.gov/arcgis/rest/services/STREETS/Streets_Permitting/MapServer/2","title":"Street light L029925"},"type":"Feature"},{"geometry":{"coordinates":[-90.27821327129314,38.63955534577975],"type":"Point"},"id":"stl-city-public-streetlights:2:137210","properties":{"address":null,"attributes":{"Date_Installed":null,"LED_Powered":0,"LightID":"L029926","Light_Source":"LED","Light_Type":"Cobra","Lighting_Type":"LED-Powered Lamp","Verification_Date":null},"id":"stl-city-public-streetlights:2:137210","sourceLayerId":2,"sourceObjectId":137210,"sourceURL":"https://maps8.stlouis-mo.gov/arcgis/rest/services/STREETS/Streets_Permitting/MapServer/2","title":"Street light L029926"},"type":"Feature"},{"geometry":{"coordinates":[-90.27780759068753,38.63944206930698],"type":"Point"},"id":"stl-city-public-streetlights:2:137211","properties":{"address":null,"attributes":{"Date_Installed":null,"LED_Powered":0,"LightID":"L029927","Light_Source":"LED","Light_Type":"Cobra","Lighting_Type":"LED-Powered Lamp","Verification_Date":null},"id":"stl-city-public-streetlights:2:137211","sourceLayerId":2,"sourceObjectId":137211,"sourceURL":"https://maps8.stlouis-mo.gov/arcgis/rest/services/STREETS/Streets_Permitting/MapServer/2","title":"Street light L029927"},"type":"Feature"},{"geometry":{"coordinates":[-90.27741174897639,38.639292579964106],"type":"Point"},"id":"stl-city-public-streetlights:2:137212","properties":{"address":null,"attributes":{"Date_Installed":null,"LED_Powered":0,"LightID":"L029928","Light_Source":"LED","Light_Type":"Cobra","Lighting_Type":"LED-Powered Lamp","Verification_Date":null},"id":"stl-city-public-streetlights:2:137212","sourceLayerId":2,"sourceObjectId":137212,"sourceURL":"https://maps8.stlouis-mo.gov/arcgis/rest/services/STREETS/Streets_Permitting/MapServer/2","title":"Street light L029928"},"type":"Feature"},{"geometry":{"coordinates":[-90.27992157666331,38.63639585062605],"type":"Point"},"id":"stl-city-public-streetlights:2:137214","properties":{"address":null,"attributes":{"Date_Installed":null,"LED_Powered":0,"LightID":"L029930","Light_Source":"LED","Light_Type":"Cobra","Lighting_Type":"LED-Powered Lamp","Verification_Date":null},"id":"stl-city-public-streetlights:2:137214","sourceLayerId":2,"sourceObjectId":137214,"sourceURL":"https://maps8.stlouis-mo.gov/arcgis/rest/services/STREETS/Streets_Permitting/MapServer/2","title":"Street light L029930"},"type":"Feature"},{"geometry":{"coordinates":[-90.27952485353974,38.63653812091133],"type":"Point"},"id":"stl-city-public-streetlights:2:137215","properties":{"address":null,"attributes":{"Date_Installed":null,"LED_Powered":0,"LightID":"L029931","Light_Source":"LED","Light_Type":"Cobra","Lighting_Type":"LED-Powered Lamp","Verification_Date":null},"id":"stl-city-public-streetlights:2:137215","sourceLayerId":2,"sourceObjectId":137215,"sourceURL":"https://maps8.stlouis-mo.gov/arcgis/rest/services/STREETS/Streets_Permitting/MapServer/2","title":"Street light L029931"},"type":"Feature"},{"geometry":{"coordinates":[-90.27917507553795,38.63671194115103],"type":"Point"},"id":"stl-city-public-streetlights:2:137216","properties":{"address":null,"attributes":{"Date_Installed":null,"LED_Powered":0,"LightID":"L029932","Light_Source":"LED","Light_Type":"Cobra","Lighting_Type":"LED-Powered Lamp","Verification_Date":null},"id":"stl-city-public-streetlights:2:137216","sourceLayerId":2,"sourceObjectId":137216,"sourceURL":"https://maps8.stlouis-mo.gov/arcgis/rest/services/STREETS/Streets_Permitting/MapServer/2","title":"Street light L029932"},"type":"Feature"},{"geometry":{"coordinates":[-90.27886625772501,38.636926836373334],"type":"Point"},"id":"stl-city-public-streetlights:2:137217","properties":{"address":null,"attributes":{"Date_Installed":null,"LED_Powered":0,"LightID":"L029933","Light_Source":"LED","Light_Type":"Cobra","Lighting_Type":"LED-Powered Lamp","Verification_Date":null},"id":"stl-city-public-streetlights:2:137217","sourceLayerId":2,"sourceObjectId":137217,"sourceURL":"https://maps8.stlouis-mo.gov/arcgis/rest/services/STREETS/Streets_Permitting/MapServer/2","title":"Street light L029933"},"type":"Feature"},{"geometry":{"coordinates":[-90.27859805227904,38.637177084686755],"type":"Point"},"id":"stl-city-public-streetlights:2:137218","properties":{"address":null,"attributes":{"Date_Installed":null,"LED_Powered":0,"LightID":"L029934","Light_Source":"LED","Light_Type":"Cobra","Lighting_Type":"LED-Powered Lamp","Verification_Date":null},"id":"stl-city-public-streetlights:2:137218","sourceLayerId":2,"sourceObjectId":137218,"sourceURL":"https://maps8.stlouis-mo.gov/arcgis/rest/services/STREETS/Streets_Permitting/MapServer/2","title":"Street light L029934"},"type":"Feature"},{"geometry":{"coordinates":[-90.27832199787338,38.637449246966575],"type":"Point"},"id":"stl-city-public-streetlights:2:137219","properties":{"address":null,"attributes":{"Date_Installed":null,"LED_Powered":0,"LightID":"L029935","Light_Source":"LED","Light_Type":"Cobra","Lighting_Type":"LED-Powered Lamp","Verification_Date":null},"id":"stl-city-public-streetlights:2:137219","sourceLayerId":2,"sourceObjectId":137219,"sourceURL":"https://maps8.stlouis-mo.gov/arcgis/rest/services/STREETS/Streets_Permitting/MapServer/2","title":"Street light L029935"},"type":"Feature"},{"geometry":{"coordinates":[-90.27807925778446,38.63771861145093],"type":"Point"},"id":"stl-city-public-streetlights:2:137220","properties":{"address":null,"attributes":{"Date_Installed":null,"LED_Powered":0,"LightID":"L029936","Light_Source":"LED","Light_Type":"Cobra","Lighting_Type":"LED-Powered Lamp","Verification_Date":null},"id":"stl-city-public-streetlights:2:137220","sourceLayerId":2,"sourceObjectId":137220,"sourceURL":"https://maps8.stlouis-mo.gov/arcgis/rest/services/STREETS/Streets_Permitting/MapServer/2","title":"Street light L029936"},"type":"Feature"},{"geometry":{"coordinates":[-90.27784198969971,38.63798703266642],"type":"Point"},"id":"stl-city-public-streetlights:2:137221","properties":{"address":null,"attributes":{"Date_Installed":null,"LED_Powered":0,"LightID":"L029937","Light_Source":"LED","Light_Type":"Cobra","Lighting_Type":"LED-Powered Lamp","Verification_Date":null},"id":"stl-city-public-streetlights:2:137221","sourceLayerId":2,"sourceObjectId":137221,"sourceURL":"https://maps8.stlouis-mo.gov/arcgis/rest/services/STREETS/Streets_Permitting/MapServer/2","title":"Street light L029937"},"type":"Feature"},{"geometry":{"coordinates":[-90.2776259581806,38.63826693415423],"type":"Point"},"id":"stl-city-public-streetlights:2:137222","properties":{"address":null,"attributes":{"Date_Installed":null,"LED_Powered":0,"LightID":"L029938","Light_Source":"LED","Light_Type":"Cobra","Lighting_Type":"LED-Powered Lamp","Verification_Date":null},"id":"stl-city-public-streetlights:2:137222","sourceLayerId":2,"sourceObjectId":137222,"sourceURL":"https://maps8.stlouis-mo.gov/arcgis/rest/services/STREETS/Streets_Permitting/MapServer/2","title":"Street light L029938"},"type":"Feature"},{"geometry":{"coordinates":[-90.27746457278101,38.63856457860689],"type":"Point"},"id":"stl-city-public-streetlights:2:137223","properties":{"address":null,"attributes":{"Date_Installed":null,"LED_Powered":0,"LightID":"L029939","Light_Source":"LED","Light_Type":"Cobra","Lighting_Type":"LED-Powered Lamp","Verification_Date":null},"id":"stl-city-public-streetlights:2:137223","sourceLayerId":2,"sourceObjectId":137223,"sourceURL":"https://maps8.stlouis-mo.gov/arcgis/rest/services/STREETS/Streets_Permitting/MapServer/2","title":"Street light L029939"},"type":"Feature"},{"geometry":{"coordinates":[-90.27735735933362,38.63887710412001],"type":"Point"},"id":"stl-city-public-streetlights:2:137224","properties":{"address":null,"attributes":{"Date_Installed":null,"LED_Powered":0,"LightID":"L029940","Light_Source":"LED","Light_Type":"Cobra","Lighting_Type":"LED-Powered Lamp","Verification_Date":null},"id":"stl-city-public-streetlights:2:137224","sourceLayerId":2,"sourceObjectId":137224,"sourceURL":"https://maps8.stlouis-mo.gov/arcgis/rest/services/STREETS/Streets_Permitting/MapServer/2","title":"Street light L029940"},"type":"Feature"},{"geometry":{"coordinates":[-90.27726155981759,38.63919346471451],"type":"Point"},"id":"stl-city-public-streetlights:2:137225","properties":{"address":null,"attributes":{"Date_Installed":null,"LED_Powered":0,"LightID":"L029941","Light_Source":"LED","Light_Type":"Cobra","Lighting_Type":"LED-Powered Lamp","Verification_Date":null},"id":"stl-city-public-streetlights:2:137225","sourceLayerId":2,"sourceObjectId":137225,"sourceURL":"https://maps8.stlouis-mo.gov/arcgis/rest/services/STREETS/Streets_Permitting/MapServer/2","title":"Street light L029941"},"type":"Feature"},{"geometry":{"coordinates":[-90.2799112673746,38.63837513808921],"type":"Point"},"id":"stl-city-public-streetlights:2:137392","properties":{"address":null,"attributes":{"Date_Installed":null,"LED_Powered":0,"LightID":"L030108","Light_Source":"High Pressure Sodium","Light_Type":"Cobra","Lighting_Type":"400-W High Pressure Sodium Vapor Lamp (Quadruple Lights)","Verification_Date":null},"id":"stl-city-public-streetlights:2:137392","sourceLayerId":2,"sourceObjectId":137392,"sourceURL":"https://maps8.stlouis-mo.gov/arcgis/rest/services/STREETS/Streets_Permitting/MapServer/2","title":"Street light L030108"},"type":"Feature"},{"geometry":{"coordinates":[-90.27985677714138,38.63870301985374],"type":"Point"},"id":"stl-city-public-streetlights:2:137393","properties":{"address":null,"attributes":{"Date_Installed":null,"LED_Powered":0,"LightID":"L030109","Light_Source":"High Pressure Sodium","Light_Type":"Cobra","Lighting_Type":"400-W High Pressure Sodium Vapor Lamp (Quadruple Lights)","Verification_Date":null},"id":"stl-city-public-streetlights:2:137393","sourceLayerId":2,"sourceObjectId":137393,"sourceURL":"https://maps8.stlouis-mo.gov/arcgis/rest/services/STREETS/Streets_Permitting/MapServer/2","title":"Street light L030109"},"type":"Feature"},{"geometry":{"coordinates":[-90.27955846232635,38.63885996702687],"type":"Point"},"id":"stl-city-public-streetlights:2:137394","properties":{"address":null,"attributes":{"Date_Installed":null,"LED_Powered":0,"LightID":"L030110","Light_Source":"High Pressure Sodium","Light_Type":"Cobra","Lighting_Type":"400-W High Pressure Sodium Vapor Lamp (Quadruple Lights)","Verification_Date":null},"id":"stl-city-public-streetlights:2:137394","sourceLayerId":2,"sourceObjectId":137394,"sourceURL":"https://maps8.stlouis-mo.gov/arcgis/rest/services/STREETS/Streets_Permitting/MapServer/2","title":"Street light L030110"},"type":"Feature"},{"geometry":{"coordinates":[-90.27883266851573,38.63927239213024],"type":"Point"},"id":"stl-city-public-streetlights:2:137395","properties":{"address":null,"attributes":{"Date_Installed":null,"LED_Powered":0,"LightID":"L030111","Light_Source":"High Pressure Sodium","Light_Type":"Cobra","Lighting_Type":"400-W High Pressure Sodium Vapor Lamp (Quadruple Lights)","Verification_Date":null},"id":"stl-city-public-streetlights:2:137395","sourceLayerId":2,"sourceObjectId":137395,"sourceURL":"https://maps8.stlouis-mo.gov/arcgis/rest/services/STREETS/Streets_Permitting/MapServer/2","title":"Street light L030111"},"type":"Feature"},{"geometry":{"coordinates":[-90.27921257705725,38.6390690725764],"type":"Point"},"id":"stl-city-public-streetlights:2:137396","properties":{"address":null,"attributes":{"Date_Installed":null,"LED_Powered":0,"LightID":"L030112","Light_Source":"High Pressure Sodium","Light_Type":"Cobra","Lighting_Type":"400-W High Pressure Sodium Vapor Lamp (Quadruple Lights)","Verification_Date":null},"id":"stl-city-public-streetlights:2:137396","sourceLayerId":2,"sourceObjectId":137396,"sourceURL":"https://maps8.stlouis-mo.gov/arcgis/rest/services/STREETS/Streets_Permitting/MapServer/2","title":"Street light L030112"},"type":"Feature"},{"geometry":{"coordinates":[-90.27938312219857,38.63855720418504],"type":"Point"},"id":"stl-city-public-streetlights:2:137397","properties":{"address":null,"attributes":{"Date_Installed":null,"LED_Powered":0,"LightID":"L030113","Light_Source":"High Pressure Sodium","Light_Type":"Cobra","Lighting_Type":"400-W High Pressure Sodium Vapor Lamp (Quadruple Lights)","Verification_Date":null},"id":"stl-city-public-streetlights:2:137397","sourceLayerId":2,"sourceObjectId":137397,"sourceURL":"https://maps8.stlouis-mo.gov/arcgis/rest/services/STREETS/Streets_Permitting/MapServer/2","title":"Street light L030113"},"type":"Feature"},{"geometry":{"coordinates":[-90.279430758048,38.63824551852462],"type":"Point"},"id":"stl-city-public-streetlights:2:137398","properties":{"address":null,"attributes":{"Date_Installed":null,"LED_Powered":0,"LightID":"L030114","Light_Source":"High Pressure Sodium","Light_Type":"Cobra","Lighting_Type":"400-W High Pressure Sodium Vapor Lamp (Quadruple Lights)","Verification_Date":null},"id":"stl-city-public-streetlights:2:137398","sourceLayerId":2,"sourceObjectId":137398,"sourceURL":"https://maps8.stlouis-mo.gov/arcgis/rest/services/STREETS/Streets_Permitting/MapServer/2","title":"Street light L030114"},"type":"Feature"},{"geometry":{"coordinates":[-90.27976101687325,38.63797726918242],"type":"Point"},"id":"stl-city-public-streetlights:2:137399","properties":{"address":null,"attributes":{"Date_Installed":null,"LED_Powered":0,"LightID":"L030115","Light_Source":"High Pressure Sodium","Light_Type":"Cobra","Lighting_Type":"400-W High Pressure Sodium Vapor Lamp (Quadruple Lights)","Verification_Date":null},"id":"stl-city-public-streetlights:2:137399","sourceLayerId":2,"sourceObjectId":137399,"sourceURL":"https://maps8.stlouis-mo.gov/arcgis/rest/services/STREETS/Streets_Permitting/MapServer/2","title":"Street light L030115"},"type":"Feature"},{"geometry":{"coordinates":[-90.27968608122934,38.637597275927725],"type":"Point"},"id":"stl-city-public-streetlights:2:137401","properties":{"address":null,"attributes":{"Date_Installed":null,"LED_Powered":0,"LightID":"L030117","Light_Source":"High Pressure Sodium","Light_Type":"Cobra","Lighting_Type":"400-W High Pressure Sodium Vapor Lamp (Quadruple Lights)","Verification_Date":null},"id":"stl-city-public-streetlights:2:137401","sourceLayerId":2,"sourceObjectId":137401,"sourceURL":"https://maps8.stlouis-mo.gov/arcgis/rest/services/STREETS/Streets_Permitting/MapServer/2","title":"Street light L030117"},"type":"Feature"},{"geometry":{"coordinates":[-90.27923779780389,38.637901533524726],"type":"Point"},"id":"stl-city-public-streetlights:2:137402","properties":{"address":null,"attributes":{"Date_Installed":null,"LED_Powered":0,"LightID":"L030118","Light_Source":"High Pressure Sodium","Light_Type":"Cobra","Lighting_Type":"400-W High Pressure Sodium Vapor Lamp (Quadruple Lights)","Verification_Date":null},"id":"stl-city-public-streetlights:2:137402","sourceLayerId":2,"sourceObjectId":137402,"sourceURL":"https://maps8.stlouis-mo.gov/arcgis/rest/services/STREETS/Streets_Permitting/MapServer/2","title":"Street light L030118"},"type":"Feature"},{"geometry":{"coordinates":[-90.27890703572487,38.63817454704935],"type":"Point"},"id":"stl-city-public-streetlights:2:137403","properties":{"address":null,"attributes":{"Date_Installed":null,"LED_Powered":0,"LightID":"L030119","Light_Source":"High Pressure Sodium","Light_Type":"Cobra","Lighting_Type":"400-W High Pressure Sodium Vapor Lamp (Quadruple Lights)","Verification_Date":null},"id":"stl-city-public-streetlights:2:137403","sourceLayerId":2,"sourceObjectId":137403,"sourceURL":"https://maps8.stlouis-mo.gov/arcgis/rest/services/STREETS/Streets_Permitting/MapServer/2","title":"Street light L030119"},"type":"Feature"},{"geometry":{"coordinates":[-90.27848049179754,38.638522700810256],"type":"Point"},"id":"stl-city-public-streetlights:2:137404","properties":{"address":null,"attributes":{"Date_Installed":null,"LED_Powered":0,"LightID":"L030120","Light_Source":"High Pressure Sodium","Light_Type":"Cobra","Lighting_Type":"400-W High Pressure Sodium Vapor Lamp (Quadruple Lights)","Verification_Date":null},"id":"stl-city-public-streetlights:2:137404","sourceLayerId":2,"sourceObjectId":137404,"sourceURL":"https://maps8.stlouis-mo.gov/arcgis/rest/services/STREETS/Streets_Permitting/MapServer/2","title":"Street light L030120"},"type":"Feature"},{"geometry":{"coordinates":[-90.27919673028248,38.63844911423237],"type":"Point"},"id":"stl-city-public-streetlights:2:137405","properties":{"address":null,"attributes":{"Date_Installed":null,"LED_Powered":0,"LightID":"L030121","Light_Source":"High Pressure Sodium","Light_Type":"Cobra","Lighting_Type":"400-W High Pressure Sodium Vapor Lamp (Quadruple Lights)","Verification_Date":null},"id":"stl-city-public-streetlights:2:137405","sourceLayerId":2,"sourceObjectId":137405,"sourceURL":"https://maps8.stlouis-mo.gov/arcgis/rest/services/STREETS/Streets_Permitting/MapServer/2","title":"Street light L030121"},"type":"Feature"},{"geometry":{"coordinates":[-90.27885062562946,38.63872991653419],"type":"Point"},"id":"stl-city-public-streetlights:2:137406","properties":{"address":null,"attributes":{"Date_Installed":null,"LED_Powered":0,"LightID":"L030122","Light_Source":"High Pressure Sodium","Light_Type":"Cobra","Lighting_Type":"400-W High Pressure Sodium Vapor Lamp (Quadruple Lights)","Verification_Date":null},"id":"stl-city-public-streetlights:2:137406","sourceLayerId":2,"sourceObjectId":137406,"sourceURL":"https://maps8.stlouis-mo.gov/arcgis/rest/services/STREETS/Streets_Permitting/MapServer/2","title":"Street light L030122"},"type":"Feature"},{"geometry":{"coordinates":[-90.27850567836319,38.63902864589226],"type":"Point"},"id":"stl-city-public-streetlights:2:137407","properties":{"address":null,"attributes":{"Date_Installed":null,"LED_Powered":0,"LightID":"L030123","Light_Source":"High Pressure Sodium","Light_Type":"Cobra","Lighting_Type":"400-W High Pressure Sodium Vapor Lamp (Quadruple Lights)","Verification_Date":null},"id":"stl-city-public-streetlights:2:137407","sourceLayerId":2,"sourceObjectId":137407,"sourceURL":"https://maps8.stlouis-mo.gov/arcgis/rest/services/STREETS/Streets_Permitting/MapServer/2","title":"Street light L030123"},"type":"Feature"},{"geometry":{"coordinates":[-90.27975107537569,38.63741243025603],"type":"Point"},"id":"stl-city-public-streetlights:2:137409","properties":{"address":null,"attributes":{"Date_Installed":null,"LED_Powered":0,"LightID":"L030125","Light_Source":"LED","Light_Type":"Cobra","Lighting_Type":"LED-Powered Lamp","Verification_Date":null},"id":"stl-city-public-streetlights:2:137409","sourceLayerId":2,"sourceObjectId":137409,"sourceURL":"https://maps8.stlouis-mo.gov/arcgis/rest/services/STREETS/Streets_Permitting/MapServer/2","title":"Street light L030125"},"type":"Feature"},{"geometry":{"coordinates":[-90.27935443869282,38.637524189651764],"type":"Point"},"id":"stl-city-public-streetlights:2:137410","properties":{"address":null,"attributes":{"Date_Installed":null,"LED_Powered":0,"LightID":"L030126","Light_Source":"LED","Light_Type":"Cobra","Lighting_Type":"LED-Powered Lamp","Verification_Date":null},"id":"stl-city-public-streetlights:2:137410","sourceLayerId":2,"sourceObjectId":137410,"sourceURL":"https://maps8.stlouis-mo.gov/arcgis/rest/services/STREETS/Streets_Permitting/MapServer/2","title":"Street light L030126"},"type":"Feature"},{"geometry":{"coordinates":[-90.27899972826786,38.63783815689387],"type":"Point"},"id":"stl-city-public-streetlights:2:137411","properties":{"address":null,"attributes":{"Date_Installed":null,"LED_Powered":0,"LightID":"L030127","Light_Source":"LED","Light_Type":"Cobra","Lighting_Type":"LED-Powered Lamp","Verification_Date":null},"id":"stl-city-public-streetlights:2:137411","sourceLayerId":2,"sourceObjectId":137411,"sourceURL":"https://maps8.stlouis-mo.gov/arcgis/rest/services/STREETS/Streets_Permitting/MapServer/2","title":"Street light L030127"},"type":"Feature"},{"geometry":{"coordinates":[-90.27885347870804,38.63795992050394],"type":"Point"},"id":"stl-city-public-streetlights:2:137412","properties":{"address":null,"attributes":{"Date_Installed":null,"LED_Powered":0,"LightID":"L030128","Light_Source":"LED","Light_Type":"Cobra","Lighting_Type":"LED-Powered Lamp","Verification_Date":null},"id":"stl-city-public-streetlights:2:137412","sourceLayerId":2,"sourceObjectId":137412,"sourceURL":"https://maps8.stlouis-mo.gov/arcgis/rest/services/STREETS/Streets_Permitting/MapServer/2","title":"Street light L030128"},"type":"Feature"},{"geometry":{"coordinates":[-90.27860573581667,38.63811677076237],"type":"Point"},"id":"stl-city-public-streetlights:2:137413","properties":{"address":null,"attributes":{"Date_Installed":null,"LED_Powered":0,"LightID":"L030129","Light_Source":"LED","Light_Type":"Cobra","Lighting_Type":"LED-Powered Lamp","Verification_Date":null},"id":"stl-city-public-streetlights:2:137413","sourceLayerId":2,"sourceObjectId":137413,"sourceURL":"https://maps8.stlouis-mo.gov/arcgis/rest/services/STREETS/Streets_Permitting/MapServer/2","title":"Street light L030129"},"type":"Feature"},{"geometry":{"coordinates":[-90.27826692778035,38.63839644102994],"type":"Point"},"id":"stl-city-public-streetlights:2:137414","properties":{"address":null,"attributes":{"Date_Installed":null,"LED_Powered":0,"LightID":"L030130","Light_Source":"LED","Light_Type":"Cobra","Lighting_Type":"LED-Powered Lamp","Verification_Date":null},"id":"stl-city-public-streetlights:2:137414","sourceLayerId":2,"sourceObjectId":137414,"sourceURL":"https://maps8.stlouis-mo.gov/arcgis/rest/services/STREETS/Streets_Permitting/MapServer/2","title":"Street light L030130"},"type":"Feature"},{"geometry":{"coordinates":[-90.2782488415746,38.63874269800797],"type":"Point"},"id":"stl-city-public-streetlights:2:137415","properties":{"address":null,"attributes":{"Date_Installed":null,"LED_Powered":0,"LightID":"L030131","Light_Source":"LED","Light_Type":"Cobra","Lighting_Type":"LED-Powered Lamp","Verification_Date":null},"id":"stl-city-public-streetlights:2:137415","sourceLayerId":2,"sourceObjectId":137415,"sourceURL":"https://maps8.stlouis-mo.gov/arcgis/rest/services/STREETS/Streets_Permitting/MapServer/2","title":"Street light L030131"},"type":"Feature"},{"geometry":{"coordinates":[-90.27827413524162,38.63921374735674],"type":"Point"},"id":"stl-city-public-streetlights:2:137416","properties":{"address":null,"attributes":{"Date_Installed":null,"LED_Powered":0,"LightID":"L030132","Light_Source":"LED","Light_Type":"Cobra","Lighting_Type":"LED-Powered Lamp","Verification_Date":null},"id":"stl-city-public-streetlights:2:137416","sourceLayerId":2,"sourceObjectId":137416,"sourceURL":"https://maps8.stlouis-mo.gov/arcgis/rest/services/STREETS/Streets_Permitting/MapServer/2","title":"Street light L030132"},"type":"Feature"},{"geometry":{"coordinates":[-90.27866422912373,38.63949327265263],"type":"Point"},"id":"stl-city-public-streetlights:2:137417","properties":{"address":null,"attributes":{"Date_Installed":null,"LED_Powered":0,"LightID":"L030133","Light_Source":"LED","Light_Type":"Cobra","Lighting_Type":"LED-Powered Lamp","Verification_Date":null},"id":"stl-city-public-streetlights:2:137417","sourceLayerId":2,"sourceObjectId":137417,"sourceURL":"https://maps8.stlouis-mo.gov/arcgis/rest/services/STREETS/Streets_Permitting/MapServer/2","title":"Street light L030133"},"type":"Feature"},{"geometry":{"coordinates":[-90.2799176786886,38.63883237609417],"type":"Point"},"id":"stl-city-public-streetlights:2:137418","properties":{"address":null,"attributes":{"Date_Installed":null,"LED_Powered":0,"LightID":"L030134","Light_Source":"LED","Light_Type":"Cobra","Lighting_Type":"LED-Powered Lamp","Verification_Date":null},"id":"stl-city-public-streetlights:2:137418","sourceLayerId":2,"sourceObjectId":137418,"sourceURL":"https://maps8.stlouis-mo.gov/arcgis/rest/services/STREETS/Streets_Permitting/MapServer/2","title":"Street light L030134"},"type":"Feature"},{"geometry":{"coordinates":[-90.27878213811013,38.637835647496864],"type":"Point"},"id":"stl-city-public-streetlights:2:137420","properties":{"address":null,"attributes":{"Date_Installed":null,"LED_Powered":0,"LightID":"L030136","Light_Source":"LED","Light_Type":"Cobra","Lighting_Type":"LED-Powered Lamp","Verification_Date":null},"id":"stl-city-public-streetlights:2:137420","sourceLayerId":2,"sourceObjectId":137420,"sourceURL":"https://maps8.stlouis-mo.gov/arcgis/rest/services/STREETS/Streets_Permitting/MapServer/2","title":"Street light L030136"},"type":"Feature"},{"geometry":{"coordinates":[-90.2784549170908,38.63751085746116],"type":"Point"},"id":"stl-city-public-streetlights:2:137421","properties":{"address":null,"attributes":{"Date_Installed":null,"LED_Powered":0,"LightID":"L030137","Light_Source":"LED","Light_Type":"Cobra","Lighting_Type":"LED-Powered Lamp","Verification_Date":null},"id":"stl-city-public-streetlights:2:137421","sourceLayerId":2,"sourceObjectId":137421,"sourceURL":"https://maps8.stlouis-mo.gov/arcgis/rest/services/STREETS/Streets_Permitting/MapServer/2","title":"Street light L030137"},"type":"Feature"},{"geometry":{"coordinates":[-90.27724561986456,38.639478899299014],"type":"Point"},"id":"stl-city-public-streetlights:2:137422","properties":{"address":null,"attributes":{"Date_Installed":null,"LED_Powered":0,"LightID":"L030138","Light_Source":"LED","Light_Type":"Cobra","Lighting_Type":"LED-Powered Lamp","Verification_Date":null},"id":"stl-city-public-streetlights:2:137422","sourceLayerId":2,"sourceObjectId":137422,"sourceURL":"https://maps8.stlouis-mo.gov/arcgis/rest/services/STREETS/Streets_Permitting/MapServer/2","title":"Street light L030138"},"type":"Feature"},{"geometry":{"coordinates":[-90.27702372427693,38.63975999292011],"type":"Point"},"id":"stl-city-public-streetlights:2:137423","properties":{"address":null,"attributes":{"Date_Installed":null,"LED_Powered":0,"LightID":"L030139","Light_Source":"LED","Light_Type":"Cobra","Lighting_Type":"LED-Powered Lamp","Verification_Date":null},"id":"stl-city-public-streetlights:2:137423","sourceLayerId":2,"sourceObjectId":137423,"sourceURL":"https://maps8.stlouis-mo.gov/arcgis/rest/services/STREETS/Streets_Permitting/MapServer/2","title":"Street light L030139"},"type":"Feature"},{"geometry":{"coordinates":[-90.27671177069364,38.63999966612575],"type":"Point"},"id":"stl-city-public-streetlights:2:137424","properties":{"address":null,"attributes":{"Date_Installed":null,"LED_Powered":0,"LightID":"L030140","Light_Source":"LED","Light_Type":"Cobra","Lighting_Type":"LED-Powered Lamp","Verification_Date":null},"id":"stl-city-public-streetlights:2:137424","sourceLayerId":2,"sourceObjectId":137424,"sourceURL":"https://maps8.stlouis-mo.gov/arcgis/rest/services/STREETS/Streets_Permitting/MapServer/2","title":"Street light L030140"},"type":"Feature"},{"geometry":{"coordinates":[-90.27223292569339,38.63368109646791],"type":"Point"},"id":"stl-city-public-streetlights:2:154332","properties":{"address":null,"attributes":{"Date_Installed":null,"LED_Powered":0,"LightID":"L052314","Light_Source":"LED","Light_Type":"Cobra","Lighting_Type":"LED-Powered Lamp","Verification_Date":null},"id":"stl-city-public-streetlights:2:154332","sourceLayerId":2,"sourceObjectId":154332,"sourceURL":"https://maps8.stlouis-mo.gov/arcgis/rest/services/STREETS/Streets_Permitting/MapServer/2","title":"Street light L052314"},"type":"Feature"},{"geometry":{"coordinates":[-90.27179454801917,38.634053626217536],"type":"Point"},"id":"stl-city-public-streetlights:2:154333","properties":{"address":null,"attributes":{"Date_Installed":null,"LED_Powered":0,"LightID":"L052315","Light_Source":"LED","Light_Type":"Cobra","Lighting_Type":"LED-Powered Lamp","Verification_Date":null},"id":"stl-city-public-streetlights:2:154333","sourceLayerId":2,"sourceObjectId":154333,"sourceURL":"https://maps8.stlouis-mo.gov/arcgis/rest/services/STREETS/Streets_Permitting/MapServer/2","title":"Street light L052315"},"type":"Feature"},{"geometry":{"coordinates":[-90.27146207171141,38.63425081729965],"type":"Point"},"id":"stl-city-public-streetlights:2:154334","properties":{"address":null,"attributes":{"Date_Installed":null,"LED_Powered":0,"LightID":"L052316","Light_Source":"LED","Light_Type":"Cobra","Lighting_Type":"LED-Powered Lamp","Verification_Date":null},"id":"stl-city-public-streetlights:2:154334","sourceLayerId":2,"sourceObjectId":154334,"sourceURL":"https://maps8.stlouis-mo.gov/arcgis/rest/services/STREETS/Streets_Permitting/MapServer/2","title":"Street light L052316"},"type":"Feature"},{"geometry":{"coordinates":[-90.27166826213528,38.634367921226946],"type":"Point"},"id":"stl-city-public-streetlights:2:154335","properties":{"address":null,"attributes":{"Date_Installed":null,"LED_Powered":0,"LightID":"L052317","Light_Source":"LED","Light_Type":"Cobra","Lighting_Type":"LED-Powered Lamp","Verification_Date":null},"id":"stl-city-public-streetlights:2:154335","sourceLayerId":2,"sourceObjectId":154335,"sourceURL":"https://maps8.stlouis-mo.gov/arcgis/rest/services/STREETS/Streets_Permitting/MapServer/2","title":"Street light L052317"},"type":"Feature"}],"layerId":"city-streetlights","retrievedAt":"2026-09-13T21:56:18.173251+00:00","schema":"property-infrastructure-geojson-v1","sourceId":"stl-city-public-streetlights","tileId":"-9028_3863","type":"FeatureCollection"}