{"features":[{"geometry":{"coordinates":[-90.23996936694424,38.56454902493623],"type":"Point"},"id":"stl-city-public-streetlights:2:108058","properties":{"address":null,"attributes":{"Date_Installed":"6/15/2017","LED_Powered":1,"LightID":"L000802","Light_Source":"LED","Light_Type":"Cobra","Lighting_Type":"LED-Powered Lamp","Verification_Date":null},"id":"stl-city-public-streetlights:2:108058","sourceLayerId":2,"sourceObjectId":108058,"sourceURL":"https://maps8.stlouis-mo.gov/arcgis/rest/services/STREETS/Streets_Permitting/MapServer/2","title":"Street light L000802"},"type":"Feature"},{"geometry":{"coordinates":[-90.23968890580214,38.56495195195979],"type":"Point"},"id":"stl-city-public-streetlights:2:108059","properties":{"address":null,"attributes":{"Date_Installed":"6/15/2017","LED_Powered":1,"LightID":"L000803","Light_Source":"LED","Light_Type":"Cobra","Lighting_Type":"LED-Powered Lamp","Verification_Date":null},"id":"stl-city-public-streetlights:2:108059","sourceLayerId":2,"sourceObjectId":108059,"sourceURL":"https://maps8.stlouis-mo.gov/arcgis/rest/services/STREETS/Streets_Permitting/MapServer/2","title":"Street light L000803"},"type":"Feature"},{"geometry":{"coordinates":[-90.2393452558912,38.56543244297418],"type":"Point"},"id":"stl-city-public-streetlights:2:108060","properties":{"address":null,"attributes":{"Date_Installed":"6/15/2017","LED_Powered":1,"LightID":"L000804","Light_Source":"LED","Light_Type":"Cobra","Lighting_Type":"LED-Powered Lamp","Verification_Date":null},"id":"stl-city-public-streetlights:2:108060","sourceLayerId":2,"sourceObjectId":108060,"sourceURL":"https://maps8.stlouis-mo.gov/arcgis/rest/services/STREETS/Streets_Permitting/MapServer/2","title":"Street light L000804"},"type":"Feature"},{"geometry":{"coordinates":[-90.23907550673928,38.56580988781657],"type":"Point"},"id":"stl-city-public-streetlights:2:108061","properties":{"address":null,"attributes":{"Date_Installed":"6/15/2017","LED_Powered":1,"LightID":"L000805","Light_Source":"LED","Light_Type":"Cobra","Lighting_Type":"LED-Powered Lamp","Verification_Date":null},"id":"stl-city-public-streetlights:2:108061","sourceLayerId":2,"sourceObjectId":108061,"sourceURL":"https://maps8.stlouis-mo.gov/arcgis/rest/services/STREETS/Streets_Permitting/MapServer/2","title":"Street light L000805"},"type":"Feature"},{"geometry":{"coordinates":[-90.23875694891427,38.56625038792577],"type":"Point"},"id":"stl-city-public-streetlights:2:108062","properties":{"address":null,"attributes":{"Date_Installed":"6/15/2017","LED_Powered":1,"LightID":"L000806","Light_Source":"LED","Light_Type":"Cobra","Lighting_Type":"LED-Powered Lamp","Verification_Date":null},"id":"stl-city-public-streetlights:2:108062","sourceLayerId":2,"sourceObjectId":108062,"sourceURL":"https://maps8.stlouis-mo.gov/arcgis/rest/services/STREETS/Streets_Permitting/MapServer/2","title":"Street light L000806"},"type":"Feature"},{"geometry":{"coordinates":[-90.23843946518134,38.56669518141915],"type":"Point"},"id":"stl-city-public-streetlights:2:108063","properties":{"address":null,"attributes":{"Date_Installed":"6/15/2017","LED_Powered":1,"LightID":"L000807","Light_Source":"LED","Light_Type":"Cobra","Lighting_Type":"LED-Powered Lamp","Verification_Date":null},"id":"stl-city-public-streetlights:2:108063","sourceLayerId":2,"sourceObjectId":108063,"sourceURL":"https://maps8.stlouis-mo.gov/arcgis/rest/services/STREETS/Streets_Permitting/MapServer/2","title":"Street light L000807"},"type":"Feature"},{"geometry":{"coordinates":[-90.23815383176287,38.56709642366975],"type":"Point"},"id":"stl-city-public-streetlights:2:108064","properties":{"address":null,"attributes":{"Date_Installed":"6/15/2017","LED_Powered":1,"LightID":"L000808","Light_Source":"LED","Light_Type":"Cobra","Lighting_Type":"LED-Powered Lamp","Verification_Date":null},"id":"stl-city-public-streetlights:2:108064","sourceLayerId":2,"sourceObjectId":108064,"sourceURL":"https://maps8.stlouis-mo.gov/arcgis/rest/services/STREETS/Streets_Permitting/MapServer/2","title":"Street light L000808"},"type":"Feature"},{"geometry":{"coordinates":[-90.23781149079377,38.567561896702],"type":"Point"},"id":"stl-city-public-streetlights:2:108065","properties":{"address":null,"attributes":{"Date_Installed":"6/15/2017","LED_Powered":1,"LightID":"L000809","Light_Source":"LED","Light_Type":"Cobra","Lighting_Type":"LED-Powered Lamp","Verification_Date":null},"id":"stl-city-public-streetlights:2:108065","sourceLayerId":2,"sourceObjectId":108065,"sourceURL":"https://maps8.stlouis-mo.gov/arcgis/rest/services/STREETS/Streets_Permitting/MapServer/2","title":"Street light L000809"},"type":"Feature"},{"geometry":{"coordinates":[-90.23749784109292,38.568017945654226],"type":"Point"},"id":"stl-city-public-streetlights:2:108066","properties":{"address":null,"attributes":{"Date_Installed":"6/15/2017","LED_Powered":1,"LightID":"L000810","Light_Source":"LED","Light_Type":"Cobra","Lighting_Type":"LED-Powered Lamp","Verification_Date":null},"id":"stl-city-public-streetlights:2:108066","sourceLayerId":2,"sourceObjectId":108066,"sourceURL":"https://maps8.stlouis-mo.gov/arcgis/rest/services/STREETS/Streets_Permitting/MapServer/2","title":"Street light L000810"},"type":"Feature"},{"geometry":{"coordinates":[-90.23717110605486,38.568481140014754],"type":"Point"},"id":"stl-city-public-streetlights:2:108067","properties":{"address":null,"attributes":{"Date_Installed":"6/15/2017","LED_Powered":1,"LightID":"L000811","Light_Source":"LED","Light_Type":"Cobra","Lighting_Type":"LED-Powered Lamp","Verification_Date":null},"id":"stl-city-public-streetlights:2:108067","sourceLayerId":2,"sourceObjectId":108067,"sourceURL":"https://maps8.stlouis-mo.gov/arcgis/rest/services/STREETS/Streets_Permitting/MapServer/2","title":"Street light L000811"},"type":"Feature"},{"geometry":{"coordinates":[-90.23687078982421,38.56890844690027],"type":"Point"},"id":"stl-city-public-streetlights:2:108068","properties":{"address":null,"attributes":{"Date_Installed":"6/15/2017","LED_Powered":1,"LightID":"L000812","Light_Source":"LED","Light_Type":"Cobra","Lighting_Type":"LED-Powered Lamp","Verification_Date":null},"id":"stl-city-public-streetlights:2:108068","sourceLayerId":2,"sourceObjectId":108068,"sourceURL":"https://maps8.stlouis-mo.gov/arcgis/rest/services/STREETS/Streets_Permitting/MapServer/2","title":"Street light L000812"},"type":"Feature"},{"geometry":{"coordinates":[-90.23651284800222,38.56940105474284],"type":"Point"},"id":"stl-city-public-streetlights:2:108069","properties":{"address":null,"attributes":{"Date_Installed":"6/15/2017","LED_Powered":1,"LightID":"L000813","Light_Source":"LED","Light_Type":"Cobra","Lighting_Type":"LED-Powered Lamp","Verification_Date":null},"id":"stl-city-public-streetlights:2:108069","sourceLayerId":2,"sourceObjectId":108069,"sourceURL":"https://maps8.stlouis-mo.gov/arcgis/rest/services/STREETS/Streets_Permitting/MapServer/2","title":"Street light L000813"},"type":"Feature"},{"geometry":{"coordinates":[-90.23652875562576,38.56917309619994],"type":"Point"},"id":"stl-city-public-streetlights:2:108070","properties":{"address":null,"attributes":{"Date_Installed":null,"LED_Powered":0,"LightID":"L000814","Light_Source":"LED","Light_Type":"Cobra","Lighting_Type":"LED-Powered Lamp","Verification_Date":null},"id":"stl-city-public-streetlights:2:108070","sourceLayerId":2,"sourceObjectId":108070,"sourceURL":"https://maps8.stlouis-mo.gov/arcgis/rest/services/STREETS/Streets_Permitting/MapServer/2","title":"Street light L000814"},"type":"Feature"},{"geometry":{"coordinates":[-90.2360714242096,38.569162530826866],"type":"Point"},"id":"stl-city-public-streetlights:2:108071","properties":{"address":null,"attributes":{"Date_Installed":null,"LED_Powered":0,"LightID":"L000815","Light_Source":"LED","Light_Type":"Cobra","Lighting_Type":"LED-Powered Lamp","Verification_Date":null},"id":"stl-city-public-streetlights:2:108071","sourceLayerId":2,"sourceObjectId":108071,"sourceURL":"https://maps8.stlouis-mo.gov/arcgis/rest/services/STREETS/Streets_Permitting/MapServer/2","title":"Street light L000815"},"type":"Feature"},{"geometry":{"coordinates":[-90.23554137314193,38.569177543516545],"type":"Point"},"id":"stl-city-public-streetlights:2:108072","properties":{"address":null,"attributes":{"Date_Installed":null,"LED_Powered":0,"LightID":"L000816","Light_Source":"LED","Light_Type":"Cobra","Lighting_Type":"LED-Powered Lamp","Verification_Date":null},"id":"stl-city-public-streetlights:2:108072","sourceLayerId":2,"sourceObjectId":108072,"sourceURL":"https://maps8.stlouis-mo.gov/arcgis/rest/services/STREETS/Streets_Permitting/MapServer/2","title":"Street light L000816"},"type":"Feature"},{"geometry":{"coordinates":[-90.23621920597965,38.56982777940759],"type":"Point"},"id":"stl-city-public-streetlights:2:108073","properties":{"address":null,"attributes":{"Date_Installed":"6/15/2017","LED_Powered":1,"LightID":"L000817","Light_Source":"LED","Light_Type":"Cobra","Lighting_Type":"LED-Powered Lamp","Verification_Date":null},"id":"stl-city-public-streetlights:2:108073","sourceLayerId":2,"sourceObjectId":108073,"sourceURL":"https://maps8.stlouis-mo.gov/arcgis/rest/services/STREETS/Streets_Permitting/MapServer/2","title":"Street light L000817"},"type":"Feature"},{"geometry":{"coordinates":[-90.23659248738703,38.569680961592425],"type":"Point"},"id":"stl-city-public-streetlights:2:108098","properties":{"address":null,"attributes":{"Date_Installed":"6/15/2017","LED_Powered":1,"LightID":"L000842","Light_Source":"LED","Light_Type":"Cobra","Lighting_Type":"LED-Powered Lamp","Verification_Date":null},"id":"stl-city-public-streetlights:2:108098","sourceLayerId":2,"sourceObjectId":108098,"sourceURL":"https://maps8.stlouis-mo.gov/arcgis/rest/services/STREETS/Streets_Permitting/MapServer/2","title":"Street light L000842"},"type":"Feature"},{"geometry":{"coordinates":[-90.23690348388843,38.569240152476375],"type":"Point"},"id":"stl-city-public-streetlights:2:108099","properties":{"address":null,"attributes":{"Date_Installed":"6/15/2017","LED_Powered":1,"LightID":"L000843","Light_Source":"LED","Light_Type":"Cobra","Lighting_Type":"LED-Powered Lamp","Verification_Date":null},"id":"stl-city-public-streetlights:2:108099","sourceLayerId":2,"sourceObjectId":108099,"sourceURL":"https://maps8.stlouis-mo.gov/arcgis/rest/services/STREETS/Streets_Permitting/MapServer/2","title":"Street light L000843"},"type":"Feature"},{"geometry":{"coordinates":[-90.23722331961937,38.56878888577264],"type":"Point"},"id":"stl-city-public-streetlights:2:108100","properties":{"address":null,"attributes":{"Date_Installed":"6/15/2017","LED_Powered":1,"LightID":"L000844","Light_Source":"LED","Light_Type":"Cobra","Lighting_Type":"LED-Powered Lamp","Verification_Date":null},"id":"stl-city-public-streetlights:2:108100","sourceLayerId":2,"sourceObjectId":108100,"sourceURL":"https://maps8.stlouis-mo.gov/arcgis/rest/services/STREETS/Streets_Permitting/MapServer/2","title":"Street light L000844"},"type":"Feature"},{"geometry":{"coordinates":[-90.23753935722455,38.5683374186483],"type":"Point"},"id":"stl-city-public-streetlights:2:108101","properties":{"address":null,"attributes":{"Date_Installed":"6/15/2017","LED_Powered":1,"LightID":"L000845","Light_Source":"LED","Light_Type":"Cobra","Lighting_Type":"LED-Powered Lamp","Verification_Date":null},"id":"stl-city-public-streetlights:2:108101","sourceLayerId":2,"sourceObjectId":108101,"sourceURL":"https://maps8.stlouis-mo.gov/arcgis/rest/services/STREETS/Streets_Permitting/MapServer/2","title":"Street light L000845"},"type":"Feature"},{"geometry":{"coordinates":[-90.23786222836128,38.56788388125076],"type":"Point"},"id":"stl-city-public-streetlights:2:108102","properties":{"address":null,"attributes":{"Date_Installed":"6/15/2017","LED_Powered":1,"LightID":"L000846","Light_Source":"LED","Light_Type":"Cobra","Lighting_Type":"LED-Powered Lamp","Verification_Date":null},"id":"stl-city-public-streetlights:2:108102","sourceLayerId":2,"sourceObjectId":108102,"sourceURL":"https://maps8.stlouis-mo.gov/arcgis/rest/services/STREETS/Streets_Permitting/MapServer/2","title":"Street light L000846"},"type":"Feature"},{"geometry":{"coordinates":[-90.23817457576764,38.56744313018574],"type":"Point"},"id":"stl-city-public-streetlights:2:108103","properties":{"address":null,"attributes":{"Date_Installed":"6/15/2017","LED_Powered":1,"LightID":"L000847","Light_Source":"LED","Light_Type":"Cobra","Lighting_Type":"LED-Powered Lamp","Verification_Date":null},"id":"stl-city-public-streetlights:2:108103","sourceLayerId":2,"sourceObjectId":108103,"sourceURL":"https://maps8.stlouis-mo.gov/arcgis/rest/services/STREETS/Streets_Permitting/MapServer/2","title":"Street light L000847"},"type":"Feature"},{"geometry":{"coordinates":[-90.2385094250497,38.56697771862272],"type":"Point"},"id":"stl-city-public-streetlights:2:108104","properties":{"address":null,"attributes":{"Date_Installed":"6/15/2017","LED_Powered":1,"LightID":"L000848","Light_Source":"LED","Light_Type":"Cobra","Lighting_Type":"LED-Powered Lamp","Verification_Date":null},"id":"stl-city-public-streetlights:2:108104","sourceLayerId":2,"sourceObjectId":108104,"sourceURL":"https://maps8.stlouis-mo.gov/arcgis/rest/services/STREETS/Streets_Permitting/MapServer/2","title":"Street light L000848"},"type":"Feature"},{"geometry":{"coordinates":[-90.23879522144495,38.56657230378712],"type":"Point"},"id":"stl-city-public-streetlights:2:108105","properties":{"address":null,"attributes":{"Date_Installed":"6/15/2017","LED_Powered":1,"LightID":"L000849","Light_Source":"LED","Light_Type":"Cobra","Lighting_Type":"LED-Powered Lamp","Verification_Date":null},"id":"stl-city-public-streetlights:2:108105","sourceLayerId":2,"sourceObjectId":108105,"sourceURL":"https://maps8.stlouis-mo.gov/arcgis/rest/services/STREETS/Streets_Permitting/MapServer/2","title":"Street light L000849"},"type":"Feature"},{"geometry":{"coordinates":[-90.23911021740847,38.56613945601793],"type":"Point"},"id":"stl-city-public-streetlights:2:108106","properties":{"address":null,"attributes":{"Date_Installed":"6/15/2017","LED_Powered":1,"LightID":"L000850","Light_Source":"LED","Light_Type":"Cobra","Lighting_Type":"LED-Powered Lamp","Verification_Date":null},"id":"stl-city-public-streetlights:2:108106","sourceLayerId":2,"sourceObjectId":108106,"sourceURL":"https://maps8.stlouis-mo.gov/arcgis/rest/services/STREETS/Streets_Permitting/MapServer/2","title":"Street light L000850"},"type":"Feature"},{"geometry":{"coordinates":[-90.23941806283989,38.56570509234858],"type":"Point"},"id":"stl-city-public-streetlights:2:108107","properties":{"address":null,"attributes":{"Date_Installed":"6/15/2017","LED_Powered":1,"LightID":"L000851","Light_Source":"LED","Light_Type":"Cobra","Lighting_Type":"LED-Powered Lamp","Verification_Date":null},"id":"stl-city-public-streetlights:2:108107","sourceLayerId":2,"sourceObjectId":108107,"sourceURL":"https://maps8.stlouis-mo.gov/arcgis/rest/services/STREETS/Streets_Permitting/MapServer/2","title":"Street light L000851"},"type":"Feature"},{"geometry":{"coordinates":[-90.23970853401158,38.56530576486513],"type":"Point"},"id":"stl-city-public-streetlights:2:108108","properties":{"address":null,"attributes":{"Date_Installed":"6/15/2017","LED_Powered":1,"LightID":"L000852","Light_Source":"LED","Light_Type":"Cobra","Lighting_Type":"LED-Powered Lamp","Verification_Date":null},"id":"stl-city-public-streetlights:2:108108","sourceLayerId":2,"sourceObjectId":108108,"sourceURL":"https://maps8.stlouis-mo.gov/arcgis/rest/services/STREETS/Streets_Permitting/MapServer/2","title":"Street light L000852"},"type":"Feature"},{"geometry":{"coordinates":[-90.23985832431302,38.565560476122776],"type":"Point"},"id":"stl-city-public-streetlights:2:108114","properties":{"address":null,"attributes":{"Date_Installed":null,"LED_Powered":0,"LightID":"L000858","Light_Source":"LED","Light_Type":"Cobra","Lighting_Type":"LED-Powered Lamp","Verification_Date":null},"id":"stl-city-public-streetlights:2:108114","sourceLayerId":2,"sourceObjectId":108114,"sourceURL":"https://maps8.stlouis-mo.gov/arcgis/rest/services/STREETS/Streets_Permitting/MapServer/2","title":"Street light L000858"},"type":"Feature"},{"geometry":{"coordinates":[-90.23919117687453,38.566357235410415],"type":"Point"},"id":"stl-city-public-streetlights:2:108116","properties":{"address":null,"attributes":{"Date_Installed":null,"LED_Powered":0,"LightID":"L000860","Light_Source":"LED","Light_Type":"Cobra","Lighting_Type":"LED-Powered Lamp","Verification_Date":null},"id":"stl-city-public-streetlights:2:108116","sourceLayerId":2,"sourceObjectId":108116,"sourceURL":"https://maps8.stlouis-mo.gov/arcgis/rest/services/STREETS/Streets_Permitting/MapServer/2","title":"Street light L000860"},"type":"Feature"},{"geometry":{"coordinates":[-90.2395811165556,38.56655850884017],"type":"Point"},"id":"stl-city-public-streetlights:2:108117","properties":{"address":null,"attributes":{"Date_Installed":null,"LED_Powered":0,"LightID":"L000861","Light_Source":"LED","Light_Type":"Cobra","Lighting_Type":"LED-Powered Lamp","Verification_Date":null},"id":"stl-city-public-streetlights:2:108117","sourceLayerId":2,"sourceObjectId":108117,"sourceURL":"https://maps8.stlouis-mo.gov/arcgis/rest/services/STREETS/Streets_Permitting/MapServer/2","title":"Street light L000861"},"type":"Feature"},{"geometry":{"coordinates":[-90.23863033784741,38.56721148850289],"type":"Point"},"id":"stl-city-public-streetlights:2:108118","properties":{"address":null,"attributes":{"Date_Installed":null,"LED_Powered":0,"LightID":"L000862","Light_Source":"LED","Light_Type":"Cobra","Lighting_Type":"LED-Powered Lamp","Verification_Date":null},"id":"stl-city-public-streetlights:2:108118","sourceLayerId":2,"sourceObjectId":108118,"sourceURL":"https://maps8.stlouis-mo.gov/arcgis/rest/services/STREETS/Streets_Permitting/MapServer/2","title":"Street light L000862"},"type":"Feature"},{"geometry":{"coordinates":[-90.23910096759474,38.567445340016896],"type":"Point"},"id":"stl-city-public-streetlights:2:108119","properties":{"address":null,"attributes":{"Date_Installed":null,"LED_Powered":0,"LightID":"L000863","Light_Source":"LED","Light_Type":"Cobra","Lighting_Type":"LED-Powered Lamp","Verification_Date":null},"id":"stl-city-public-streetlights:2:108119","sourceLayerId":2,"sourceObjectId":108119,"sourceURL":"https://maps8.stlouis-mo.gov/arcgis/rest/services/STREETS/Streets_Permitting/MapServer/2","title":"Street light L000863"},"type":"Feature"},{"geometry":{"coordinates":[-90.23999550599738,38.566607493020086],"type":"Point"},"id":"stl-city-public-streetlights:2:108250","properties":{"address":null,"attributes":{"Date_Installed":null,"LED_Powered":0,"LightID":"L000994","Light_Source":"LED","Light_Type":"Cobra","Lighting_Type":"LED-Powered Lamp","Verification_Date":null},"id":"stl-city-public-streetlights:2:108250","sourceLayerId":2,"sourceObjectId":108250,"sourceURL":"https://maps8.stlouis-mo.gov/arcgis/rest/services/STREETS/Streets_Permitting/MapServer/2","title":"Street light L000994"},"type":"Feature"},{"geometry":{"coordinates":[-90.2399899852406,38.56677281219456],"type":"Point"},"id":"stl-city-public-streetlights:2:108251","properties":{"address":null,"attributes":{"Date_Installed":null,"LED_Powered":0,"LightID":"L000995","Light_Source":"LED","Light_Type":"Cobra","Lighting_Type":"LED-Powered Lamp","Verification_Date":null},"id":"stl-city-public-streetlights:2:108251","sourceLayerId":2,"sourceObjectId":108251,"sourceURL":"https://maps8.stlouis-mo.gov/arcgis/rest/services/STREETS/Streets_Permitting/MapServer/2","title":"Street light L000995"},"type":"Feature"},{"geometry":{"coordinates":[-90.23978727288632,38.56688189412636],"type":"Point"},"id":"stl-city-public-streetlights:2:108252","properties":{"address":null,"attributes":{"Date_Installed":null,"LED_Powered":0,"LightID":"L000996","Light_Source":"LED","Light_Type":"Cobra","Lighting_Type":"LED-Powered Lamp","Verification_Date":null},"id":"stl-city-public-streetlights:2:108252","sourceLayerId":2,"sourceObjectId":108252,"sourceURL":"https://maps8.stlouis-mo.gov/arcgis/rest/services/STREETS/Streets_Permitting/MapServer/2","title":"Street light L000996"},"type":"Feature"},{"geometry":{"coordinates":[-90.23958526874242,38.56716307176325],"type":"Point"},"id":"stl-city-public-streetlights:2:108253","properties":{"address":null,"attributes":{"Date_Installed":null,"LED_Powered":0,"LightID":"L000997","Light_Source":"LED","Light_Type":"Cobra","Lighting_Type":"LED-Powered Lamp","Verification_Date":null},"id":"stl-city-public-streetlights:2:108253","sourceLayerId":2,"sourceObjectId":108253,"sourceURL":"https://maps8.stlouis-mo.gov/arcgis/rest/services/STREETS/Streets_Permitting/MapServer/2","title":"Street light L000997"},"type":"Feature"},{"geometry":{"coordinates":[-90.23936469041402,38.56747990225058],"type":"Point"},"id":"stl-city-public-streetlights:2:108254","properties":{"address":null,"attributes":{"Date_Installed":null,"LED_Powered":0,"LightID":"L000998","Light_Source":"LED","Light_Type":"Cobra","Lighting_Type":"LED-Powered Lamp","Verification_Date":null},"id":"stl-city-public-streetlights:2:108254","sourceLayerId":2,"sourceObjectId":108254,"sourceURL":"https://maps8.stlouis-mo.gov/arcgis/rest/services/STREETS/Streets_Permitting/MapServer/2","title":"Street light L000998"},"type":"Feature"},{"geometry":{"coordinates":[-90.23778119394174,38.56822002740037],"type":"Point"},"id":"stl-city-public-streetlights:2:108255","properties":{"address":null,"attributes":{"Date_Installed":null,"LED_Powered":0,"LightID":"L000999","Light_Source":"LED","Light_Type":"Cobra","Lighting_Type":"LED-Powered Lamp","Verification_Date":null},"id":"stl-city-public-streetlights:2:108255","sourceLayerId":2,"sourceObjectId":108255,"sourceURL":"https://maps8.stlouis-mo.gov/arcgis/rest/services/STREETS/Streets_Permitting/MapServer/2","title":"Street light L000999"},"type":"Feature"},{"geometry":{"coordinates":[-90.23770797918164,38.56854668469795],"type":"Point"},"id":"stl-city-public-streetlights:2:108256","properties":{"address":null,"attributes":{"Date_Installed":null,"LED_Powered":0,"LightID":"L001000","Light_Source":"LED","Light_Type":"Cobra","Lighting_Type":"LED-Powered Lamp","Verification_Date":null},"id":"stl-city-public-streetlights:2:108256","sourceLayerId":2,"sourceObjectId":108256,"sourceURL":"https://maps8.stlouis-mo.gov/arcgis/rest/services/STREETS/Streets_Permitting/MapServer/2","title":"Street light L001000"},"type":"Feature"},{"geometry":{"coordinates":[-90.23763939901367,38.56887070547395],"type":"Point"},"id":"stl-city-public-streetlights:2:108257","properties":{"address":null,"attributes":{"Date_Installed":null,"LED_Powered":0,"LightID":"L001001","Light_Source":"LED","Light_Type":"Cobra","Lighting_Type":"LED-Powered Lamp","Verification_Date":null},"id":"stl-city-public-streetlights:2:108257","sourceLayerId":2,"sourceObjectId":108257,"sourceURL":"https://maps8.stlouis-mo.gov/arcgis/rest/services/STREETS/Streets_Permitting/MapServer/2","title":"Street light L001001"},"type":"Feature"},{"geometry":{"coordinates":[-90.23850802597097,38.56928691354488],"type":"Point"},"id":"stl-city-public-streetlights:2:108258","properties":{"address":null,"attributes":{"Date_Installed":null,"LED_Powered":0,"LightID":"L001002","Light_Source":"High Pressure Sodium","Light_Type":"Cobra","Lighting_Type":"150-W High Pressure Sodium Vapor Lamp","Verification_Date":null},"id":"stl-city-public-streetlights:2:108258","sourceLayerId":2,"sourceObjectId":108258,"sourceURL":"https://maps8.stlouis-mo.gov/arcgis/rest/services/STREETS/Streets_Permitting/MapServer/2","title":"Street light L001002"},"type":"Feature"},{"geometry":{"coordinates":[-90.2382081674609,38.56925220461023],"type":"Point"},"id":"stl-city-public-streetlights:2:108259","properties":{"address":null,"attributes":{"Date_Installed":null,"LED_Powered":1,"LightID":"L001003","Light_Source":"LED","Light_Type":"Cobra","Lighting_Type":"LED-Powered Lamp","Verification_Date":null},"id":"stl-city-public-streetlights:2:108259","sourceLayerId":2,"sourceObjectId":108259,"sourceURL":"https://maps8.stlouis-mo.gov/arcgis/rest/services/STREETS/Streets_Permitting/MapServer/2","title":"Street light L001003"},"type":"Feature"},{"geometry":{"coordinates":[-90.23769747829081,38.56919309116124],"type":"Point"},"id":"stl-city-public-streetlights:2:108260","properties":{"address":null,"attributes":{"Date_Installed":null,"LED_Powered":1,"LightID":"L001004","Light_Source":"LED","Light_Type":"Cobra","Lighting_Type":"LED-Powered Lamp","Verification_Date":null},"id":"stl-city-public-streetlights:2:108260","sourceLayerId":2,"sourceObjectId":108260,"sourceURL":"https://maps8.stlouis-mo.gov/arcgis/rest/services/STREETS/Streets_Permitting/MapServer/2","title":"Street light L001004"},"type":"Feature"},{"geometry":{"coordinates":[-90.23757134289272,38.569217372387214],"type":"Point"},"id":"stl-city-public-streetlights:2:108261","properties":{"address":null,"attributes":{"Date_Installed":null,"LED_Powered":1,"LightID":"L001005","Light_Source":"LED","Light_Type":"Cobra","Lighting_Type":"LED-Powered Lamp","Verification_Date":null},"id":"stl-city-public-streetlights:2:108261","sourceLayerId":2,"sourceObjectId":108261,"sourceURL":"https://maps8.stlouis-mo.gov/arcgis/rest/services/STREETS/Streets_Permitting/MapServer/2","title":"Street light L001005"},"type":"Feature"},{"geometry":{"coordinates":[-90.2375021798634,38.5695340818355],"type":"Point"},"id":"stl-city-public-streetlights:2:108262","properties":{"address":null,"attributes":{"Date_Installed":null,"LED_Powered":1,"LightID":"L001006","Light_Source":"LED","Light_Type":"Cobra","Lighting_Type":"LED-Powered Lamp","Verification_Date":null},"id":"stl-city-public-streetlights:2:108262","sourceLayerId":2,"sourceObjectId":108262,"sourceURL":"https://maps8.stlouis-mo.gov/arcgis/rest/services/STREETS/Streets_Permitting/MapServer/2","title":"Street light L001006"},"type":"Feature"},{"geometry":{"coordinates":[-90.2374312715444,38.569850589112185],"type":"Point"},"id":"stl-city-public-streetlights:2:108263","properties":{"address":null,"attributes":{"Date_Installed":null,"LED_Powered":1,"LightID":"L001007","Light_Source":"LED","Light_Type":"Cobra","Lighting_Type":"LED-Powered Lamp","Verification_Date":null},"id":"stl-city-public-streetlights:2:108263","sourceLayerId":2,"sourceObjectId":108263,"sourceURL":"https://maps8.stlouis-mo.gov/arcgis/rest/services/STREETS/Streets_Permitting/MapServer/2","title":"Street light L001007"},"type":"Feature"},{"geometry":{"coordinates":[-90.23988512099689,38.56926335831085],"type":"Point"},"id":"stl-city-public-streetlights:2:114178","properties":{"address":null,"attributes":{"Date_Installed":null,"LED_Powered":0,"LightID":"L006922","Light_Source":"LED","Light_Type":"Cobra","Lighting_Type":"LED-Powered Lamp","Verification_Date":null},"id":"stl-city-public-streetlights:2:114178","sourceLayerId":2,"sourceObjectId":114178,"sourceURL":"https://maps8.stlouis-mo.gov/arcgis/rest/services/STREETS/Streets_Permitting/MapServer/2","title":"Street light L006922"},"type":"Feature"},{"geometry":{"coordinates":[-90.23980499798262,38.56961210510145],"type":"Point"},"id":"stl-city-public-streetlights:2:114970","properties":{"address":null,"attributes":{"Date_Installed":null,"LED_Powered":0,"LightID":"L007714","Light_Source":"LED","Light_Type":"Cobra","Lighting_Type":"LED-Powered Lamp","Verification_Date":null},"id":"stl-city-public-streetlights:2:114970","sourceLayerId":2,"sourceObjectId":114970,"sourceURL":"https://maps8.stlouis-mo.gov/arcgis/rest/services/STREETS/Streets_Permitting/MapServer/2","title":"Street light L007714"},"type":"Feature"},{"geometry":{"coordinates":[-90.23973058633693,38.56995585010569],"type":"Point"},"id":"stl-city-public-streetlights:2:114971","properties":{"address":null,"attributes":{"Date_Installed":null,"LED_Powered":0,"LightID":"L007715","Light_Source":"LED","Light_Type":"Cobra","Lighting_Type":"LED-Powered Lamp","Verification_Date":null},"id":"stl-city-public-streetlights:2:114971","sourceLayerId":2,"sourceObjectId":114971,"sourceURL":"https://maps8.stlouis-mo.gov/arcgis/rest/services/STREETS/Streets_Permitting/MapServer/2","title":"Street light L007715"},"type":"Feature"},{"geometry":{"coordinates":[-90.23915253712163,38.56777523848087],"type":"Point"},"id":"stl-city-public-streetlights:2:115031","properties":{"address":null,"attributes":{"Date_Installed":null,"LED_Powered":0,"LightID":"L007775","Light_Source":"LED","Light_Type":"Cobra","Lighting_Type":"LED-Powered Lamp","Verification_Date":null},"id":"stl-city-public-streetlights:2:115031","sourceLayerId":2,"sourceObjectId":115031,"sourceURL":"https://maps8.stlouis-mo.gov/arcgis/rest/services/STREETS/Streets_Permitting/MapServer/2","title":"Street light L007775"},"type":"Feature"},{"geometry":{"coordinates":[-90.23905864547213,38.568097985717834],"type":"Point"},"id":"stl-city-public-streetlights:2:115032","properties":{"address":null,"attributes":{"Date_Installed":null,"LED_Powered":0,"LightID":"L007776","Light_Source":"LED","Light_Type":"Cobra","Lighting_Type":"LED-Powered Lamp","Verification_Date":null},"id":"stl-city-public-streetlights:2:115032","sourceLayerId":2,"sourceObjectId":115032,"sourceURL":"https://maps8.stlouis-mo.gov/arcgis/rest/services/STREETS/Streets_Permitting/MapServer/2","title":"Street light L007776"},"type":"Feature"},{"geometry":{"coordinates":[-90.23898320473639,38.5683678542308],"type":"Point"},"id":"stl-city-public-streetlights:2:115033","properties":{"address":null,"attributes":{"Date_Installed":null,"LED_Powered":0,"LightID":"L007777","Light_Source":"LED","Light_Type":"Cobra","Lighting_Type":"LED-Powered Lamp","Verification_Date":null},"id":"stl-city-public-streetlights:2:115033","sourceLayerId":2,"sourceObjectId":115033,"sourceURL":"https://maps8.stlouis-mo.gov/arcgis/rest/services/STREETS/Streets_Permitting/MapServer/2","title":"Street light L007777"},"type":"Feature"},{"geometry":{"coordinates":[-90.2388794080779,38.5686964035215],"type":"Point"},"id":"stl-city-public-streetlights:2:115034","properties":{"address":null,"attributes":{"Date_Installed":null,"LED_Powered":0,"LightID":"L007778","Light_Source":"LED","Light_Type":"Cobra","Lighting_Type":"LED-Powered Lamp","Verification_Date":null},"id":"stl-city-public-streetlights:2:115034","sourceLayerId":2,"sourceObjectId":115034,"sourceURL":"https://maps8.stlouis-mo.gov/arcgis/rest/services/STREETS/Streets_Permitting/MapServer/2","title":"Street light L007778"},"type":"Feature"},{"geometry":{"coordinates":[-90.23872205103018,38.56902708991806],"type":"Point"},"id":"stl-city-public-streetlights:2:115035","properties":{"address":null,"attributes":{"Date_Installed":null,"LED_Powered":0,"LightID":"L007779","Light_Source":"LED","Light_Type":"Cobra","Lighting_Type":"LED-Powered Lamp","Verification_Date":null},"id":"stl-city-public-streetlights:2:115035","sourceLayerId":2,"sourceObjectId":115035,"sourceURL":"https://maps8.stlouis-mo.gov/arcgis/rest/services/STREETS/Streets_Permitting/MapServer/2","title":"Street light L007779"},"type":"Feature"},{"geometry":{"coordinates":[-90.23959042182655,38.56928538954822],"type":"Point"},"id":"stl-city-public-streetlights:2:115045","properties":{"address":null,"attributes":{"Date_Installed":null,"LED_Powered":0,"LightID":"L007789","Light_Source":"LED","Light_Type":"Cobra","Lighting_Type":"LED-Powered Lamp","Verification_Date":null},"id":"stl-city-public-streetlights:2:115045","sourceLayerId":2,"sourceObjectId":115045,"sourceURL":"https://maps8.stlouis-mo.gov/arcgis/rest/services/STREETS/Streets_Permitting/MapServer/2","title":"Street light L007789"},"type":"Feature"},{"geometry":{"coordinates":[-90.23862749672473,38.56929609477214],"type":"Point"},"id":"stl-city-public-streetlights:2:149863","properties":{"address":null,"attributes":{"Date_Installed":null,"LED_Powered":0,"LightID":"L042708","Light_Source":"High Pressure Sodium","Light_Type":"Decorative","Lighting_Type":"GE Americana Series (Historic Light Fixture)","Verification_Date":null},"id":"stl-city-public-streetlights:2:149863","sourceLayerId":2,"sourceObjectId":149863,"sourceURL":"https://maps8.stlouis-mo.gov/arcgis/rest/services/STREETS/Streets_Permitting/MapServer/2","title":"Street light L042708"},"type":"Feature"},{"geometry":{"coordinates":[-90.23875496977385,38.56930925229149],"type":"Point"},"id":"stl-city-public-streetlights:2:149864","properties":{"address":null,"attributes":{"Date_Installed":null,"LED_Powered":0,"LightID":"L042709","Light_Source":"High Pressure Sodium","Light_Type":"Decorative","Lighting_Type":"GE Americana Series (Historic Light Fixture)","Verification_Date":null},"id":"stl-city-public-streetlights:2:149864","sourceLayerId":2,"sourceObjectId":149864,"sourceURL":"https://maps8.stlouis-mo.gov/arcgis/rest/services/STREETS/Streets_Permitting/MapServer/2","title":"Street light L042709"},"type":"Feature"},{"geometry":{"coordinates":[-90.23890245908397,38.569328173233195],"type":"Point"},"id":"stl-city-public-streetlights:2:149865","properties":{"address":null,"attributes":{"Date_Installed":null,"LED_Powered":0,"LightID":"L042710","Light_Source":"High Pressure Sodium","Light_Type":"Decorative","Lighting_Type":"GE Americana Series (Historic Light Fixture)","Verification_Date":null},"id":"stl-city-public-streetlights:2:149865","sourceLayerId":2,"sourceObjectId":149865,"sourceURL":"https://maps8.stlouis-mo.gov/arcgis/rest/services/STREETS/Streets_Permitting/MapServer/2","title":"Street light L042710"},"type":"Feature"},{"geometry":{"coordinates":[-90.23906634026925,38.56934856115868],"type":"Point"},"id":"stl-city-public-streetlights:2:149866","properties":{"address":null,"attributes":{"Date_Installed":null,"LED_Powered":0,"LightID":"L042711","Light_Source":"High Pressure Sodium","Light_Type":"Decorative","Lighting_Type":"GE Americana Series (Historic Light Fixture)","Verification_Date":null},"id":"stl-city-public-streetlights:2:149866","sourceLayerId":2,"sourceObjectId":149866,"sourceURL":"https://maps8.stlouis-mo.gov/arcgis/rest/services/STREETS/Streets_Permitting/MapServer/2","title":"Street light L042711"},"type":"Feature"},{"geometry":{"coordinates":[-90.23923568491207,38.569368961025624],"type":"Point"},"id":"stl-city-public-streetlights:2:149867","properties":{"address":null,"attributes":{"Date_Installed":null,"LED_Powered":0,"LightID":"L042712","Light_Source":"High Pressure Sodium","Light_Type":"Decorative","Lighting_Type":"GE Americana Series (Historic Light Fixture)","Verification_Date":null},"id":"stl-city-public-streetlights:2:149867","sourceLayerId":2,"sourceObjectId":149867,"sourceURL":"https://maps8.stlouis-mo.gov/arcgis/rest/services/STREETS/Streets_Permitting/MapServer/2","title":"Street light L042712"},"type":"Feature"},{"geometry":{"coordinates":[-90.23945966616944,38.569393773254355],"type":"Point"},"id":"stl-city-public-streetlights:2:149868","properties":{"address":null,"attributes":{"Date_Installed":null,"LED_Powered":0,"LightID":"L042713","Light_Source":"High Pressure Sodium","Light_Type":"Decorative","Lighting_Type":"GE Americana Series (Historic Light Fixture)","Verification_Date":null},"id":"stl-city-public-streetlights:2:149868","sourceLayerId":2,"sourceObjectId":149868,"sourceURL":"https://maps8.stlouis-mo.gov/arcgis/rest/services/STREETS/Streets_Permitting/MapServer/2","title":"Street light L042713"},"type":"Feature"},{"geometry":{"coordinates":[-90.23953291206074,38.56928953186195],"type":"Point"},"id":"stl-city-public-streetlights:2:158011","properties":{"address":null,"attributes":{"Date_Installed":null,"LED_Powered":0,"LightID":"L050714","Light_Source":"High Pressure Sodium","Light_Type":"Decorative","Lighting_Type":"GE Americana Series (Historic Light Fixture)","Verification_Date":null},"id":"stl-city-public-streetlights:2:158011","sourceLayerId":2,"sourceObjectId":158011,"sourceURL":"https://maps8.stlouis-mo.gov/arcgis/rest/services/STREETS/Streets_Permitting/MapServer/2","title":"Street light L050714"},"type":"Feature"},{"geometry":{"coordinates":[-90.2393125693163,38.56926615850553],"type":"Point"},"id":"stl-city-public-streetlights:2:158012","properties":{"address":null,"attributes":{"Date_Installed":null,"LED_Powered":0,"LightID":"L050715","Light_Source":"High Pressure Sodium","Light_Type":"Decorative","Lighting_Type":"GE Americana Series (Historic Light Fixture)","Verification_Date":null},"id":"stl-city-public-streetlights:2:158012","sourceLayerId":2,"sourceObjectId":158012,"sourceURL":"https://maps8.stlouis-mo.gov/arcgis/rest/services/STREETS/Streets_Permitting/MapServer/2","title":"Street light L050715"},"type":"Feature"},{"geometry":{"coordinates":[-90.23914322374473,38.56924575874765],"type":"Point"},"id":"stl-city-public-streetlights:2:158013","properties":{"address":null,"attributes":{"Date_Installed":null,"LED_Powered":0,"LightID":"L050716","Light_Source":"High Pressure Sodium","Light_Type":"Decorative","Lighting_Type":"GE Americana Series (Historic Light Fixture)","Verification_Date":null},"id":"stl-city-public-streetlights:2:158013","sourceLayerId":2,"sourceObjectId":158013,"sourceURL":"https://maps8.stlouis-mo.gov/arcgis/rest/services/STREETS/Streets_Permitting/MapServer/2","title":"Street light L050716"},"type":"Feature"},{"geometry":{"coordinates":[-90.2389866255076,38.569226817798565],"type":"Point"},"id":"stl-city-public-streetlights:2:158014","properties":{"address":null,"attributes":{"Date_Installed":null,"LED_Powered":0,"LightID":"L050717","Light_Source":"High Pressure Sodium","Light_Type":"Decorative","Lighting_Type":"GE Americana Series (Historic Light Fixture)","Verification_Date":null},"id":"stl-city-public-streetlights:2:158014","sourceLayerId":2,"sourceObjectId":158014,"sourceURL":"https://maps8.stlouis-mo.gov/arcgis/rest/services/STREETS/Streets_Permitting/MapServer/2","title":"Street light L050717"},"type":"Feature"},{"geometry":{"coordinates":[-90.23882821026801,38.56920644195689],"type":"Point"},"id":"stl-city-public-streetlights:2:158015","properties":{"address":null,"attributes":{"Date_Installed":null,"LED_Powered":0,"LightID":"L050718","Light_Source":"High Pressure Sodium","Light_Type":"Decorative","Lighting_Type":"GE Americana Series (Historic Light Fixture)","Verification_Date":null},"id":"stl-city-public-streetlights:2:158015","sourceLayerId":2,"sourceObjectId":158015,"sourceURL":"https://maps8.stlouis-mo.gov/arcgis/rest/services/STREETS/Streets_Permitting/MapServer/2","title":"Street light L050718"},"type":"Feature"},{"geometry":{"coordinates":[-90.23868800684029,38.569187537186366],"type":"Point"},"id":"stl-city-public-streetlights:2:158016","properties":{"address":null,"attributes":{"Date_Installed":null,"LED_Powered":0,"LightID":"L050719","Light_Source":"High Pressure Sodium","Light_Type":"Decorative","Lighting_Type":"GE Americana Series (Historic Light Fixture)","Verification_Date":null},"id":"stl-city-public-streetlights:2:158016","sourceLayerId":2,"sourceObjectId":158016,"sourceURL":"https://maps8.stlouis-mo.gov/arcgis/rest/services/STREETS/Streets_Permitting/MapServer/2","title":"Street light L050719"},"type":"Feature"}],"layerId":"city-streetlights","retrievedAt":"2026-09-13T21:56:18.173251+00:00","schema":"property-infrastructure-geojson-v1","sourceId":"stl-city-public-streetlights","tileId":"-9024_3856","type":"FeatureCollection"}