{"features":[{"geometry":{"coordinates":[-90.22926515952472,38.579941832610096],"type":"Point"},"id":"stl-city-public-streetlights:2:112951","properties":{"address":null,"attributes":{"Date_Installed":"2020-03-23","LED_Powered":1,"LightID":"L005695","Light_Source":"LED","Light_Type":"Cobra","Lighting_Type":"5G Pole - 5G Pole -5G Pole - 1A","Verification_Date":null},"id":"stl-city-public-streetlights:2:112951","sourceLayerId":2,"sourceObjectId":112951,"sourceURL":"https://maps8.stlouis-mo.gov/arcgis/rest/services/STREETS/Streets_Permitting/MapServer/2","title":"Street light L005695"},"type":"Feature"},{"geometry":{"coordinates":[-90.22961445784632,38.57961552208941],"type":"Point"},"id":"stl-city-public-streetlights:2:112952","properties":{"address":null,"attributes":{"Date_Installed":"6/15/2017","LED_Powered":1,"LightID":"L005696","Light_Source":"LED","Light_Type":"Cobra","Lighting_Type":"LED-Powered Lamp","Verification_Date":null},"id":"stl-city-public-streetlights:2:112952","sourceLayerId":2,"sourceObjectId":112952,"sourceURL":"https://maps8.stlouis-mo.gov/arcgis/rest/services/STREETS/Streets_Permitting/MapServer/2","title":"Street light L005696"},"type":"Feature"},{"geometry":{"coordinates":[-90.22997192284888,38.579277407757324],"type":"Point"},"id":"stl-city-public-streetlights:2:112953","properties":{"address":null,"attributes":{"Date_Installed":null,"LED_Powered":0,"LightID":"L005697","Light_Source":"High Pressure Sodium","Light_Type":"Cobra","Lighting_Type":"400-W High Pressure Sodium Vapor Lamp","Verification_Date":null},"id":"stl-city-public-streetlights:2:112953","sourceLayerId":2,"sourceObjectId":112953,"sourceURL":"https://maps8.stlouis-mo.gov/arcgis/rest/services/STREETS/Streets_Permitting/MapServer/2","title":"Street light L005697"},"type":"Feature"},{"geometry":{"coordinates":[-90.22997739107583,38.57899184822228],"type":"Point"},"id":"stl-city-public-streetlights:2:112979","properties":{"address":null,"attributes":{"Date_Installed":"6/15/2017","LED_Powered":1,"LightID":"L005723","Light_Source":"LED","Light_Type":"Cobra","Lighting_Type":"LED-Powered Lamp","Verification_Date":null},"id":"stl-city-public-streetlights:2:112979","sourceLayerId":2,"sourceObjectId":112979,"sourceURL":"https://maps8.stlouis-mo.gov/arcgis/rest/services/STREETS/Streets_Permitting/MapServer/2","title":"Street light L005723"},"type":"Feature"},{"geometry":{"coordinates":[-90.22966274673496,38.57928955260619],"type":"Point"},"id":"stl-city-public-streetlights:2:112980","properties":{"address":null,"attributes":{"Date_Installed":"6/15/2017","LED_Powered":1,"LightID":"L005724","Light_Source":"LED","Light_Type":"Cobra","Lighting_Type":"LED-Powered Lamp","Verification_Date":null},"id":"stl-city-public-streetlights:2:112980","sourceLayerId":2,"sourceObjectId":112980,"sourceURL":"https://maps8.stlouis-mo.gov/arcgis/rest/services/STREETS/Streets_Permitting/MapServer/2","title":"Street light L005724"},"type":"Feature"},{"geometry":{"coordinates":[-90.22924127638987,38.57969131685829],"type":"Point"},"id":"stl-city-public-streetlights:2:112981","properties":{"address":null,"attributes":{"Date_Installed":"6/15/2017","LED_Powered":1,"LightID":"L005725","Light_Source":"LED","Light_Type":"Cobra","Lighting_Type":"LED-Powered Lamp","Verification_Date":null},"id":"stl-city-public-streetlights:2:112981","sourceLayerId":2,"sourceObjectId":112981,"sourceURL":"https://maps8.stlouis-mo.gov/arcgis/rest/services/STREETS/Streets_Permitting/MapServer/2","title":"Street light L005725"},"type":"Feature"},{"geometry":{"coordinates":[-90.22820921183052,38.57968059249553],"type":"Point"},"id":"stl-city-public-streetlights:2:112985","properties":{"address":null,"attributes":{"Date_Installed":"4/2020","LED_Powered":1,"LightID":"L005729","Light_Source":"LED","Light_Type":"Cobra","Lighting_Type":"LED-Powered Lamp","Verification_Date":null},"id":"stl-city-public-streetlights:2:112985","sourceLayerId":2,"sourceObjectId":112985,"sourceURL":"https://maps8.stlouis-mo.gov/arcgis/rest/services/STREETS/Streets_Permitting/MapServer/2","title":"Street light L005729"},"type":"Feature"},{"geometry":{"coordinates":[-90.22789063876789,38.57990411650418],"type":"Point"},"id":"stl-city-public-streetlights:2:114881","properties":{"address":null,"attributes":{"Date_Installed":"4/2020","LED_Powered":1,"LightID":"L007625","Light_Source":"LED","Light_Type":"Cobra","Lighting_Type":"LED-Powered Lamp","Verification_Date":null},"id":"stl-city-public-streetlights:2:114881","sourceLayerId":2,"sourceObjectId":114881,"sourceURL":"https://maps8.stlouis-mo.gov/arcgis/rest/services/STREETS/Streets_Permitting/MapServer/2","title":"Street light L007625"},"type":"Feature"},{"geometry":{"coordinates":[-90.2241627647755,38.57984562415613],"type":"Point"},"id":"stl-city-public-streetlights:2:117435","properties":{"address":null,"attributes":{"Date_Installed":null,"LED_Powered":0,"LightID":"L010160","Light_Source":"LED","Light_Type":"Cobra","Lighting_Type":"LED-Powered Lamp","Verification_Date":null},"id":"stl-city-public-streetlights:2:117435","sourceLayerId":2,"sourceObjectId":117435,"sourceURL":"https://maps8.stlouis-mo.gov/arcgis/rest/services/STREETS/Streets_Permitting/MapServer/2","title":"Street light L010160"},"type":"Feature"},{"geometry":{"coordinates":[-90.22520571686832,38.579229235092775],"type":"Point"},"id":"stl-city-public-streetlights:2:117468","properties":{"address":null,"attributes":{"Date_Installed":null,"LED_Powered":0,"LightID":"L010193","Light_Source":"LED","Light_Type":"Cobra","Lighting_Type":"LED-Powered Lamp","Verification_Date":null},"id":"stl-city-public-streetlights:2:117468","sourceLayerId":2,"sourceObjectId":117468,"sourceURL":"https://maps8.stlouis-mo.gov/arcgis/rest/services/STREETS/Streets_Permitting/MapServer/2","title":"Street light L010193"},"type":"Feature"}],"layerId":"city-streetlights","retrievedAt":"2026-09-13T21:56:18.173251+00:00","schema":"property-infrastructure-geojson-v1","sourceId":"stl-city-public-streetlights","tileId":"-9023_3857","type":"FeatureCollection"}