{"features":[{"geometry":{"coordinates":[-90.22835472657663,38.70950305318259],"type":"Point"},"id":"stl-city-public-streetlights:2:126104","properties":{"address":null,"attributes":{"Date_Installed":"2/14/2018","LED_Powered":1,"LightID":"L018832","Light_Source":"LED","Light_Type":"Cobra","Lighting_Type":"LED-Powered Lamp","Verification_Date":null},"id":"stl-city-public-streetlights:2:126104","sourceLayerId":2,"sourceObjectId":126104,"sourceURL":"https://maps8.stlouis-mo.gov/arcgis/rest/services/STREETS/Streets_Permitting/MapServer/2","title":"Street light L018832"},"type":"Feature"},{"geometry":{"coordinates":[-90.22863216084123,38.709818329074764],"type":"Point"},"id":"stl-city-public-streetlights:2:126105","properties":{"address":null,"attributes":{"Date_Installed":"2/14/2018","LED_Powered":1,"LightID":"L018833","Light_Source":"LED","Light_Type":"Cobra","Lighting_Type":"LED-Powered Lamp","Verification_Date":null},"id":"stl-city-public-streetlights:2:126105","sourceLayerId":2,"sourceObjectId":126105,"sourceURL":"https://maps8.stlouis-mo.gov/arcgis/rest/services/STREETS/Streets_Permitting/MapServer/2","title":"Street light L018833"},"type":"Feature"},{"geometry":{"coordinates":[-90.22783314608814,38.709528505405196],"type":"Point"},"id":"stl-city-public-streetlights:2:126123","properties":{"address":null,"attributes":{"Date_Installed":null,"LED_Powered":1,"LightID":"L018851","Light_Source":"LED","Light_Type":"Cobra","Lighting_Type":"LED-Powered Lamp","Verification_Date":null},"id":"stl-city-public-streetlights:2:126123","sourceLayerId":2,"sourceObjectId":126123,"sourceURL":"https://maps8.stlouis-mo.gov/arcgis/rest/services/STREETS/Streets_Permitting/MapServer/2","title":"Street light L018851"},"type":"Feature"},{"geometry":{"coordinates":[-90.22763647993062,38.709166125065664],"type":"Point"},"id":"stl-city-public-streetlights:2:126124","properties":{"address":null,"attributes":{"Date_Installed":null,"LED_Powered":1,"LightID":"L018852","Light_Source":"LED","Light_Type":"Cobra","Lighting_Type":"LED-Powered Lamp","Verification_Date":null},"id":"stl-city-public-streetlights:2:126124","sourceLayerId":2,"sourceObjectId":126124,"sourceURL":"https://maps8.stlouis-mo.gov/arcgis/rest/services/STREETS/Streets_Permitting/MapServer/2","title":"Street light L018852"},"type":"Feature"},{"geometry":{"coordinates":[-90.22721408384075,38.70861396237952],"type":"Point"},"id":"stl-city-public-streetlights:2:126125","properties":{"address":null,"attributes":{"Date_Installed":null,"LED_Powered":1,"LightID":"L018853","Light_Source":"LED","Light_Type":"Cobra","Lighting_Type":"LED-Powered Lamp","Verification_Date":null},"id":"stl-city-public-streetlights:2:126125","sourceLayerId":2,"sourceObjectId":126125,"sourceURL":"https://maps8.stlouis-mo.gov/arcgis/rest/services/STREETS/Streets_Permitting/MapServer/2","title":"Street light L018853"},"type":"Feature"},{"geometry":{"coordinates":[-90.22681561468025,38.70812344437878],"type":"Point"},"id":"stl-city-public-streetlights:2:126126","properties":{"address":null,"attributes":{"Date_Installed":"8/1/2016","LED_Powered":1,"LightID":"L018854","Light_Source":"LED","Light_Type":"Cobra","Lighting_Type":"LED-Powered Lamp","Verification_Date":null},"id":"stl-city-public-streetlights:2:126126","sourceLayerId":2,"sourceObjectId":126126,"sourceURL":"https://maps8.stlouis-mo.gov/arcgis/rest/services/STREETS/Streets_Permitting/MapServer/2","title":"Street light L018854"},"type":"Feature"},{"geometry":{"coordinates":[-90.22635510993848,38.70762837092698],"type":"Point"},"id":"stl-city-public-streetlights:2:126127","properties":{"address":null,"attributes":{"Date_Installed":null,"LED_Powered":1,"LightID":"L018855","Light_Source":"LED","Light_Type":"Cobra","Lighting_Type":"LED-Powered Lamp","Verification_Date":null},"id":"stl-city-public-streetlights:2:126127","sourceLayerId":2,"sourceObjectId":126127,"sourceURL":"https://maps8.stlouis-mo.gov/arcgis/rest/services/STREETS/Streets_Permitting/MapServer/2","title":"Street light L018855"},"type":"Feature"},{"geometry":{"coordinates":[-90.2260167588015,38.70725025828883],"type":"Point"},"id":"stl-city-public-streetlights:2:126128","properties":{"address":null,"attributes":{"Date_Installed":null,"LED_Powered":1,"LightID":"L018856","Light_Source":"LED","Light_Type":"Cobra","Lighting_Type":"LED-Powered Lamp","Verification_Date":null},"id":"stl-city-public-streetlights:2:126128","sourceLayerId":2,"sourceObjectId":126128,"sourceURL":"https://maps8.stlouis-mo.gov/arcgis/rest/services/STREETS/Streets_Permitting/MapServer/2","title":"Street light L018856"},"type":"Feature"},{"geometry":{"coordinates":[-90.22561478499304,38.70680513577361],"type":"Point"},"id":"stl-city-public-streetlights:2:126129","properties":{"address":null,"attributes":{"Date_Installed":null,"LED_Powered":1,"LightID":"L018857","Light_Source":"LED","Light_Type":"Cobra","Lighting_Type":"LED-Powered Lamp","Verification_Date":null},"id":"stl-city-public-streetlights:2:126129","sourceLayerId":2,"sourceObjectId":126129,"sourceURL":"https://maps8.stlouis-mo.gov/arcgis/rest/services/STREETS/Streets_Permitting/MapServer/2","title":"Street light L018857"},"type":"Feature"},{"geometry":{"coordinates":[-90.22523472383588,38.70635887147863],"type":"Point"},"id":"stl-city-public-streetlights:2:126130","properties":{"address":null,"attributes":{"Date_Installed":null,"LED_Powered":1,"LightID":"L018858","Light_Source":"LED","Light_Type":"Cobra","Lighting_Type":"LED-Powered Lamp","Verification_Date":null},"id":"stl-city-public-streetlights:2:126130","sourceLayerId":2,"sourceObjectId":126130,"sourceURL":"https://maps8.stlouis-mo.gov/arcgis/rest/services/STREETS/Streets_Permitting/MapServer/2","title":"Street light L018858"},"type":"Feature"},{"geometry":{"coordinates":[-90.22485161162072,38.70591586352562],"type":"Point"},"id":"stl-city-public-streetlights:2:126131","properties":{"address":null,"attributes":{"Date_Installed":null,"LED_Powered":1,"LightID":"L018859","Light_Source":"LED","Light_Type":"Cobra","Lighting_Type":"LED-Powered Lamp","Verification_Date":null},"id":"stl-city-public-streetlights:2:126131","sourceLayerId":2,"sourceObjectId":126131,"sourceURL":"https://maps8.stlouis-mo.gov/arcgis/rest/services/STREETS/Streets_Permitting/MapServer/2","title":"Street light L018859"},"type":"Feature"},{"geometry":{"coordinates":[-90.22446393773677,38.70547398945903],"type":"Point"},"id":"stl-city-public-streetlights:2:126132","properties":{"address":null,"attributes":{"Date_Installed":null,"LED_Powered":1,"LightID":"L018860","Light_Source":"LED","Light_Type":"Cobra","Lighting_Type":"LED-Powered Lamp","Verification_Date":null},"id":"stl-city-public-streetlights:2:126132","sourceLayerId":2,"sourceObjectId":126132,"sourceURL":"https://maps8.stlouis-mo.gov/arcgis/rest/services/STREETS/Streets_Permitting/MapServer/2","title":"Street light L018860"},"type":"Feature"},{"geometry":{"coordinates":[-90.2240724498822,38.70503615543151],"type":"Point"},"id":"stl-city-public-streetlights:2:126133","properties":{"address":null,"attributes":{"Date_Installed":null,"LED_Powered":1,"LightID":"L018861","Light_Source":"LED","Light_Type":"Cobra","Lighting_Type":"LED-Powered Lamp","Verification_Date":null},"id":"stl-city-public-streetlights:2:126133","sourceLayerId":2,"sourceObjectId":126133,"sourceURL":"https://maps8.stlouis-mo.gov/arcgis/rest/services/STREETS/Streets_Permitting/MapServer/2","title":"Street light L018861"},"type":"Feature"},{"geometry":{"coordinates":[-90.2236870820917,38.704590231123106],"type":"Point"},"id":"stl-city-public-streetlights:2:126134","properties":{"address":null,"attributes":{"Date_Installed":null,"LED_Powered":1,"LightID":"L018862","Light_Source":"LED","Light_Type":"Cobra","Lighting_Type":"LED-Powered Lamp","Verification_Date":null},"id":"stl-city-public-streetlights:2:126134","sourceLayerId":2,"sourceObjectId":126134,"sourceURL":"https://maps8.stlouis-mo.gov/arcgis/rest/services/STREETS/Streets_Permitting/MapServer/2","title":"Street light L018862"},"type":"Feature"},{"geometry":{"coordinates":[-90.22329940873081,38.70415192780333],"type":"Point"},"id":"stl-city-public-streetlights:2:126135","properties":{"address":null,"attributes":{"Date_Installed":null,"LED_Powered":1,"LightID":"L018863","Light_Source":"LED","Light_Type":"Cobra","Lighting_Type":"LED-Powered Lamp","Verification_Date":null},"id":"stl-city-public-streetlights:2:126135","sourceLayerId":2,"sourceObjectId":126135,"sourceURL":"https://maps8.stlouis-mo.gov/arcgis/rest/services/STREETS/Streets_Permitting/MapServer/2","title":"Street light L018863"},"type":"Feature"},{"geometry":{"coordinates":[-90.22290626561559,38.703706697766016],"type":"Point"},"id":"stl-city-public-streetlights:2:126136","properties":{"address":null,"attributes":{"Date_Installed":null,"LED_Powered":1,"LightID":"L018864","Light_Source":"LED","Light_Type":"Cobra","Lighting_Type":"LED-Powered Lamp","Verification_Date":null},"id":"stl-city-public-streetlights:2:126136","sourceLayerId":2,"sourceObjectId":126136,"sourceURL":"https://maps8.stlouis-mo.gov/arcgis/rest/services/STREETS/Streets_Permitting/MapServer/2","title":"Street light L018864"},"type":"Feature"},{"geometry":{"coordinates":[-90.22252315902175,38.70326959360272],"type":"Point"},"id":"stl-city-public-streetlights:2:126137","properties":{"address":null,"attributes":{"Date_Installed":null,"LED_Powered":0,"LightID":"L018865","Light_Source":"LED","Light_Type":"Cobra","Lighting_Type":"LED-Powered Lamp","Verification_Date":null},"id":"stl-city-public-streetlights:2:126137","sourceLayerId":2,"sourceObjectId":126137,"sourceURL":"https://maps8.stlouis-mo.gov/arcgis/rest/services/STREETS/Streets_Permitting/MapServer/2","title":"Street light L018865"},"type":"Feature"},{"geometry":{"coordinates":[-90.22211238334619,38.70281530930834],"type":"Point"},"id":"stl-city-public-streetlights:2:126138","properties":{"address":null,"attributes":{"Date_Installed":null,"LED_Powered":0,"LightID":"L018866","Light_Source":"LED","Light_Type":"Cobra","Lighting_Type":"LED-Powered Lamp","Verification_Date":null},"id":"stl-city-public-streetlights:2:126138","sourceLayerId":2,"sourceObjectId":126138,"sourceURL":"https://maps8.stlouis-mo.gov/arcgis/rest/services/STREETS/Streets_Permitting/MapServer/2","title":"Street light L018866"},"type":"Feature"},{"geometry":{"coordinates":[-90.22172722258004,38.70236132233317],"type":"Point"},"id":"stl-city-public-streetlights:2:126139","properties":{"address":null,"attributes":{"Date_Installed":null,"LED_Powered":0,"LightID":"L018867","Light_Source":"LED","Light_Type":"Cobra","Lighting_Type":"LED-Powered Lamp","Verification_Date":null},"id":"stl-city-public-streetlights:2:126139","sourceLayerId":2,"sourceObjectId":126139,"sourceURL":"https://maps8.stlouis-mo.gov/arcgis/rest/services/STREETS/Streets_Permitting/MapServer/2","title":"Street light L018867"},"type":"Feature"},{"geometry":{"coordinates":[-90.22132381025676,38.70190881575464],"type":"Point"},"id":"stl-city-public-streetlights:2:126140","properties":{"address":null,"attributes":{"Date_Installed":null,"LED_Powered":0,"LightID":"L018868","Light_Source":"LED","Light_Type":"Cobra","Lighting_Type":"LED-Powered Lamp","Verification_Date":null},"id":"stl-city-public-streetlights:2:126140","sourceLayerId":2,"sourceObjectId":126140,"sourceURL":"https://maps8.stlouis-mo.gov/arcgis/rest/services/STREETS/Streets_Permitting/MapServer/2","title":"Street light L018868"},"type":"Feature"},{"geometry":{"coordinates":[-90.220104972602,38.70088922371536],"type":"Point"},"id":"stl-city-public-streetlights:2:126143","properties":{"address":null,"attributes":{"Date_Installed":null,"LED_Powered":0,"LightID":"L018871","Light_Source":"High Pressure Sodium","Light_Type":"Cobra","Lighting_Type":"150-W High Pressure Sodium Vapor Lamp","Verification_Date":null},"id":"stl-city-public-streetlights:2:126143","sourceLayerId":2,"sourceObjectId":126143,"sourceURL":"https://maps8.stlouis-mo.gov/arcgis/rest/services/STREETS/Streets_Permitting/MapServer/2","title":"Street light L018871"},"type":"Feature"},{"geometry":{"coordinates":[-90.22049381314397,38.701334775572256],"type":"Point"},"id":"stl-city-public-streetlights:2:126144","properties":{"address":null,"attributes":{"Date_Installed":null,"LED_Powered":0,"LightID":"L018872","Light_Source":"LED","Light_Type":"Cobra","Lighting_Type":"LED-Powered Lamp","Verification_Date":null},"id":"stl-city-public-streetlights:2:126144","sourceLayerId":2,"sourceObjectId":126144,"sourceURL":"https://maps8.stlouis-mo.gov/arcgis/rest/services/STREETS/Streets_Permitting/MapServer/2","title":"Street light L018872"},"type":"Feature"},{"geometry":{"coordinates":[-90.22090205971165,38.701793397339756],"type":"Point"},"id":"stl-city-public-streetlights:2:126145","properties":{"address":null,"attributes":{"Date_Installed":null,"LED_Powered":0,"LightID":"L018873","Light_Source":"LED","Light_Type":"Cobra","Lighting_Type":"LED-Powered Lamp","Verification_Date":null},"id":"stl-city-public-streetlights:2:126145","sourceLayerId":2,"sourceObjectId":126145,"sourceURL":"https://maps8.stlouis-mo.gov/arcgis/rest/services/STREETS/Streets_Permitting/MapServer/2","title":"Street light L018873"},"type":"Feature"},{"geometry":{"coordinates":[-90.22169467470998,38.70269500528659],"type":"Point"},"id":"stl-city-public-streetlights:2:126146","properties":{"address":null,"attributes":{"Date_Installed":null,"LED_Powered":0,"LightID":"L018874","Light_Source":"LED","Light_Type":"Cobra","Lighting_Type":"LED-Powered Lamp","Verification_Date":null},"id":"stl-city-public-streetlights:2:126146","sourceLayerId":2,"sourceObjectId":126146,"sourceURL":"https://maps8.stlouis-mo.gov/arcgis/rest/services/STREETS/Streets_Permitting/MapServer/2","title":"Street light L018874"},"type":"Feature"},{"geometry":{"coordinates":[-90.22209649121794,38.70314897247157],"type":"Point"},"id":"stl-city-public-streetlights:2:126147","properties":{"address":null,"attributes":{"Date_Installed":null,"LED_Powered":0,"LightID":"L018875","Light_Source":"LED","Light_Type":"Cobra","Lighting_Type":"LED-Powered Lamp","Verification_Date":null},"id":"stl-city-public-streetlights:2:126147","sourceLayerId":2,"sourceObjectId":126147,"sourceURL":"https://maps8.stlouis-mo.gov/arcgis/rest/services/STREETS/Streets_Permitting/MapServer/2","title":"Street light L018875"},"type":"Feature"},{"geometry":{"coordinates":[-90.22287306726936,38.70403293096864],"type":"Point"},"id":"stl-city-public-streetlights:2:126148","properties":{"address":null,"attributes":{"Date_Installed":null,"LED_Powered":0,"LightID":"L018876","Light_Source":"LED","Light_Type":"Cobra","Lighting_Type":"LED-Powered Lamp","Verification_Date":null},"id":"stl-city-public-streetlights:2:126148","sourceLayerId":2,"sourceObjectId":126148,"sourceURL":"https://maps8.stlouis-mo.gov/arcgis/rest/services/STREETS/Streets_Permitting/MapServer/2","title":"Street light L018876"},"type":"Feature"},{"geometry":{"coordinates":[-90.22326316438738,38.704479584481895],"type":"Point"},"id":"stl-city-public-streetlights:2:126149","properties":{"address":null,"attributes":{"Date_Installed":null,"LED_Powered":0,"LightID":"L018877","Light_Source":"LED","Light_Type":"Cobra","Lighting_Type":"LED-Powered Lamp","Verification_Date":null},"id":"stl-city-public-streetlights:2:126149","sourceLayerId":2,"sourceObjectId":126149,"sourceURL":"https://maps8.stlouis-mo.gov/arcgis/rest/services/STREETS/Streets_Permitting/MapServer/2","title":"Street light L018877"},"type":"Feature"},{"geometry":{"coordinates":[-90.22365083607257,38.704918722109156],"type":"Point"},"id":"stl-city-public-streetlights:2:126150","properties":{"address":null,"attributes":{"Date_Installed":null,"LED_Powered":0,"LightID":"L018878","Light_Source":"LED","Light_Type":"Cobra","Lighting_Type":"LED-Powered Lamp","Verification_Date":null},"id":"stl-city-public-streetlights:2:126150","sourceLayerId":2,"sourceObjectId":126150,"sourceURL":"https://maps8.stlouis-mo.gov/arcgis/rest/services/STREETS/Streets_Permitting/MapServer/2","title":"Street light L018878"},"type":"Feature"},{"geometry":{"coordinates":[-90.22404533944112,38.705362641997304],"type":"Point"},"id":"stl-city-public-streetlights:2:126151","properties":{"address":null,"attributes":{"Date_Installed":null,"LED_Powered":0,"LightID":"L018879","Light_Source":"LED","Light_Type":"Cobra","Lighting_Type":"LED-Powered Lamp","Verification_Date":null},"id":"stl-city-public-streetlights:2:126151","sourceLayerId":2,"sourceObjectId":126151,"sourceURL":"https://maps8.stlouis-mo.gov/arcgis/rest/services/STREETS/Streets_Permitting/MapServer/2","title":"Street light L018879"},"type":"Feature"},{"geometry":{"coordinates":[-90.22439587597597,38.70577058481965],"type":"Point"},"id":"stl-city-public-streetlights:2:126152","properties":{"address":null,"attributes":{"Date_Installed":null,"LED_Powered":0,"LightID":"L018880","Light_Source":"LED","Light_Type":"Cobra","Lighting_Type":"LED-Powered Lamp","Verification_Date":null},"id":"stl-city-public-streetlights:2:126152","sourceLayerId":2,"sourceObjectId":126152,"sourceURL":"https://maps8.stlouis-mo.gov/arcgis/rest/services/STREETS/Streets_Permitting/MapServer/2","title":"Street light L018880"},"type":"Feature"},{"geometry":{"coordinates":[-90.22469784665402,38.70611257692586],"type":"Point"},"id":"stl-city-public-streetlights:2:126153","properties":{"address":null,"attributes":{"Date_Installed":null,"LED_Powered":0,"LightID":"L018881","Light_Source":"LED","Light_Type":"Cobra","Lighting_Type":"LED-Powered Lamp","Verification_Date":null},"id":"stl-city-public-streetlights:2:126153","sourceLayerId":2,"sourceObjectId":126153,"sourceURL":"https://maps8.stlouis-mo.gov/arcgis/rest/services/STREETS/Streets_Permitting/MapServer/2","title":"Street light L018881"},"type":"Feature"},{"geometry":{"coordinates":[-90.22517276237045,38.70665190599675],"type":"Point"},"id":"stl-city-public-streetlights:2:126154","properties":{"address":null,"attributes":{"Date_Installed":null,"LED_Powered":0,"LightID":"L018882","Light_Source":"LED","Light_Type":"Cobra","Lighting_Type":"LED-Powered Lamp","Verification_Date":null},"id":"stl-city-public-streetlights:2:126154","sourceLayerId":2,"sourceObjectId":126154,"sourceURL":"https://maps8.stlouis-mo.gov/arcgis/rest/services/STREETS/Streets_Permitting/MapServer/2","title":"Street light L018882"},"type":"Feature"},{"geometry":{"coordinates":[-90.22557408337474,38.70710775436595],"type":"Point"},"id":"stl-city-public-streetlights:2:126155","properties":{"address":null,"attributes":{"Date_Installed":null,"LED_Powered":0,"LightID":"L018883","Light_Source":"LED","Light_Type":"Cobra","Lighting_Type":"LED-Powered Lamp","Verification_Date":null},"id":"stl-city-public-streetlights:2:126155","sourceLayerId":2,"sourceObjectId":126155,"sourceURL":"https://maps8.stlouis-mo.gov/arcgis/rest/services/STREETS/Streets_Permitting/MapServer/2","title":"Street light L018883"},"type":"Feature"},{"geometry":{"coordinates":[-90.22594117931293,38.70752538423134],"type":"Point"},"id":"stl-city-public-streetlights:2:126156","properties":{"address":null,"attributes":{"Date_Installed":null,"LED_Powered":0,"LightID":"L018884","Light_Source":"LED","Light_Type":"Cobra","Lighting_Type":"LED-Powered Lamp","Verification_Date":null},"id":"stl-city-public-streetlights:2:126156","sourceLayerId":2,"sourceObjectId":126156,"sourceURL":"https://maps8.stlouis-mo.gov/arcgis/rest/services/STREETS/Streets_Permitting/MapServer/2","title":"Street light L018884"},"type":"Feature"},{"geometry":{"coordinates":[-90.22997133732756,38.705533744970275],"type":"Point"},"id":"stl-city-public-streetlights:2:126188","properties":{"address":null,"attributes":{"Date_Installed":null,"LED_Powered":0,"LightID":"L018916","Light_Source":"LED","Light_Type":"Cobra","Lighting_Type":"LED-Powered Lamp","Verification_Date":null},"id":"stl-city-public-streetlights:2:126188","sourceLayerId":2,"sourceObjectId":126188,"sourceURL":"https://maps8.stlouis-mo.gov/arcgis/rest/services/STREETS/Streets_Permitting/MapServer/2","title":"Street light L018916"},"type":"Feature"},{"geometry":{"coordinates":[-90.22977724182749,38.703152810296565],"type":"Point"},"id":"stl-city-public-streetlights:2:126198","properties":{"address":null,"attributes":{"Date_Installed":"8/1/2016","LED_Powered":1,"LightID":"L018926","Light_Source":"LED","Light_Type":"Cobra","Lighting_Type":"LED-Powered Lamp","Verification_Date":null},"id":"stl-city-public-streetlights:2:126198","sourceLayerId":2,"sourceObjectId":126198,"sourceURL":"https://maps8.stlouis-mo.gov/arcgis/rest/services/STREETS/Streets_Permitting/MapServer/2","title":"Street light L018926"},"type":"Feature"},{"geometry":{"coordinates":[-90.22956913782828,38.70267942617427],"type":"Point"},"id":"stl-city-public-streetlights:2:126199","properties":{"address":null,"attributes":{"Date_Installed":"8/1/2016","LED_Powered":1,"LightID":"L018927","Light_Source":"LED","Light_Type":"Cobra","Lighting_Type":"LED-Powered Lamp","Verification_Date":null},"id":"stl-city-public-streetlights:2:126199","sourceLayerId":2,"sourceObjectId":126199,"sourceURL":"https://maps8.stlouis-mo.gov/arcgis/rest/services/STREETS/Streets_Permitting/MapServer/2","title":"Street light L018927"},"type":"Feature"},{"geometry":{"coordinates":[-90.22938071637728,38.702230735257125],"type":"Point"},"id":"stl-city-public-streetlights:2:126200","properties":{"address":null,"attributes":{"Date_Installed":"8/1/2016","LED_Powered":1,"LightID":"L018928","Light_Source":"LED","Light_Type":"Cobra","Lighting_Type":"LED-Powered Lamp","Verification_Date":null},"id":"stl-city-public-streetlights:2:126200","sourceLayerId":2,"sourceObjectId":126200,"sourceURL":"https://maps8.stlouis-mo.gov/arcgis/rest/services/STREETS/Streets_Permitting/MapServer/2","title":"Street light L018928"},"type":"Feature"},{"geometry":{"coordinates":[-90.22917431646903,38.70175835518502],"type":"Point"},"id":"stl-city-public-streetlights:2:126201","properties":{"address":null,"attributes":{"Date_Installed":"8/1/2016","LED_Powered":1,"LightID":"L018929","Light_Source":"LED","Light_Type":"Cobra","Lighting_Type":"LED-Powered Lamp","Verification_Date":null},"id":"stl-city-public-streetlights:2:126201","sourceLayerId":2,"sourceObjectId":126201,"sourceURL":"https://maps8.stlouis-mo.gov/arcgis/rest/services/STREETS/Streets_Permitting/MapServer/2","title":"Street light L018929"},"type":"Feature"},{"geometry":{"coordinates":[-90.22897120291616,38.70128650754366],"type":"Point"},"id":"stl-city-public-streetlights:2:126202","properties":{"address":null,"attributes":{"Date_Installed":"8/1/2016","LED_Powered":1,"LightID":"L018930","Light_Source":"LED","Light_Type":"Cobra","Lighting_Type":"LED-Powered Lamp","Verification_Date":null},"id":"stl-city-public-streetlights:2:126202","sourceLayerId":2,"sourceObjectId":126202,"sourceURL":"https://maps8.stlouis-mo.gov/arcgis/rest/services/STREETS/Streets_Permitting/MapServer/2","title":"Street light L018930"},"type":"Feature"},{"geometry":{"coordinates":[-90.22876824473539,38.700806794296],"type":"Point"},"id":"stl-city-public-streetlights:2:126203","properties":{"address":null,"attributes":{"Date_Installed":"8/1/2016","LED_Powered":1,"LightID":"L018931","Light_Source":"LED","Light_Type":"Cobra","Lighting_Type":"LED-Powered Lamp","Verification_Date":null},"id":"stl-city-public-streetlights:2:126203","sourceLayerId":2,"sourceObjectId":126203,"sourceURL":"https://maps8.stlouis-mo.gov/arcgis/rest/services/STREETS/Streets_Permitting/MapServer/2","title":"Street light L018931"},"type":"Feature"},{"geometry":{"coordinates":[-90.22856199860863,38.70032840813187],"type":"Point"},"id":"stl-city-public-streetlights:2:126204","properties":{"address":null,"attributes":{"Date_Installed":"8/1/2016","LED_Powered":1,"LightID":"L018932","Light_Source":"LED","Light_Type":"Cobra","Lighting_Type":"LED-Powered Lamp","Verification_Date":null},"id":"stl-city-public-streetlights:2:126204","sourceLayerId":2,"sourceObjectId":126204,"sourceURL":"https://maps8.stlouis-mo.gov/arcgis/rest/services/STREETS/Streets_Permitting/MapServer/2","title":"Street light L018932"},"type":"Feature"},{"geometry":{"coordinates":[-90.22948244364576,38.702282873895854],"type":"Point"},"id":"stl-city-public-streetlights:2:126213","properties":{"address":null,"attributes":{"Date_Installed":null,"LED_Powered":0,"LightID":"L018941","Light_Source":"LED","Light_Type":"Cobra","Lighting_Type":"LED-Powered Lamp","Verification_Date":null},"id":"stl-city-public-streetlights:2:126213","sourceLayerId":2,"sourceObjectId":126213,"sourceURL":"https://maps8.stlouis-mo.gov/arcgis/rest/services/STREETS/Streets_Permitting/MapServer/2","title":"Street light L018941"},"type":"Feature"},{"geometry":{"coordinates":[-90.22949467584917,38.70194233646658],"type":"Point"},"id":"stl-city-public-streetlights:2:126214","properties":{"address":null,"attributes":{"Date_Installed":null,"LED_Powered":0,"LightID":"L018942","Light_Source":"LED","Light_Type":"Cobra","Lighting_Type":"LED-Powered Lamp","Verification_Date":null},"id":"stl-city-public-streetlights:2:126214","sourceLayerId":2,"sourceObjectId":126214,"sourceURL":"https://maps8.stlouis-mo.gov/arcgis/rest/services/STREETS/Streets_Permitting/MapServer/2","title":"Street light L018942"},"type":"Feature"},{"geometry":{"coordinates":[-90.22944842550169,38.70162378211407],"type":"Point"},"id":"stl-city-public-streetlights:2:126215","properties":{"address":null,"attributes":{"Date_Installed":null,"LED_Powered":0,"LightID":"L018943","Light_Source":"LED","Light_Type":"Cobra","Lighting_Type":"LED-Powered Lamp","Verification_Date":null},"id":"stl-city-public-streetlights:2:126215","sourceLayerId":2,"sourceObjectId":126215,"sourceURL":"https://maps8.stlouis-mo.gov/arcgis/rest/services/STREETS/Streets_Permitting/MapServer/2","title":"Street light L018943"},"type":"Feature"},{"geometry":{"coordinates":[-90.22930727972847,38.701303102735885],"type":"Point"},"id":"stl-city-public-streetlights:2:126216","properties":{"address":null,"attributes":{"Date_Installed":null,"LED_Powered":0,"LightID":"L018944","Light_Source":"LED","Light_Type":"Cobra","Lighting_Type":"LED-Powered Lamp","Verification_Date":null},"id":"stl-city-public-streetlights:2:126216","sourceLayerId":2,"sourceObjectId":126216,"sourceURL":"https://maps8.stlouis-mo.gov/arcgis/rest/services/STREETS/Streets_Permitting/MapServer/2","title":"Street light L018944"},"type":"Feature"},{"geometry":{"coordinates":[-90.22928850026591,38.70095915572194],"type":"Point"},"id":"stl-city-public-streetlights:2:126217","properties":{"address":null,"attributes":{"Date_Installed":null,"LED_Powered":0,"LightID":"L018945","Light_Source":"LED","Light_Type":"Cobra","Lighting_Type":"LED-Powered Lamp","Verification_Date":null},"id":"stl-city-public-streetlights:2:126217","sourceLayerId":2,"sourceObjectId":126217,"sourceURL":"https://maps8.stlouis-mo.gov/arcgis/rest/services/STREETS/Streets_Permitting/MapServer/2","title":"Street light L018945"},"type":"Feature"},{"geometry":{"coordinates":[-90.2292922024511,38.700622698393246],"type":"Point"},"id":"stl-city-public-streetlights:2:126218","properties":{"address":null,"attributes":{"Date_Installed":null,"LED_Powered":0,"LightID":"L018946","Light_Source":"LED","Light_Type":"Cobra","Lighting_Type":"LED-Powered Lamp","Verification_Date":null},"id":"stl-city-public-streetlights:2:126218","sourceLayerId":2,"sourceObjectId":126218,"sourceURL":"https://maps8.stlouis-mo.gov/arcgis/rest/services/STREETS/Streets_Permitting/MapServer/2","title":"Street light L018946"},"type":"Feature"},{"geometry":{"coordinates":[-90.22929531298284,38.70028185329251],"type":"Point"},"id":"stl-city-public-streetlights:2:126219","properties":{"address":null,"attributes":{"Date_Installed":null,"LED_Powered":0,"LightID":"L018947","Light_Source":"LED","Light_Type":"Cobra","Lighting_Type":"LED-Powered Lamp","Verification_Date":null},"id":"stl-city-public-streetlights:2:126219","sourceLayerId":2,"sourceObjectId":126219,"sourceURL":"https://maps8.stlouis-mo.gov/arcgis/rest/services/STREETS/Streets_Permitting/MapServer/2","title":"Street light L018947"},"type":"Feature"},{"geometry":{"coordinates":[-90.22668767592812,38.70126958122033],"type":"Point"},"id":"stl-city-public-streetlights:2:126262","properties":{"address":null,"attributes":{"Date_Installed":"6/25/2018","LED_Powered":1,"LightID":"L018990","Light_Source":"LED","Light_Type":"Cobra","Lighting_Type":"LED-Powered Lamp","Verification_Date":null},"id":"stl-city-public-streetlights:2:126262","sourceLayerId":2,"sourceObjectId":126262,"sourceURL":"https://maps8.stlouis-mo.gov/arcgis/rest/services/STREETS/Streets_Permitting/MapServer/2","title":"Street light L018990"},"type":"Feature"},{"geometry":{"coordinates":[-90.22707955309234,38.70104363881756],"type":"Point"},"id":"stl-city-public-streetlights:2:126263","properties":{"address":null,"attributes":{"Date_Installed":"6/25/2018","LED_Powered":1,"LightID":"L018991","Light_Source":"LED","Light_Type":"Cobra","Lighting_Type":"LED-Powered Lamp","Verification_Date":null},"id":"stl-city-public-streetlights:2:126263","sourceLayerId":2,"sourceObjectId":126263,"sourceURL":"https://maps8.stlouis-mo.gov/arcgis/rest/services/STREETS/Streets_Permitting/MapServer/2","title":"Street light L018991"},"type":"Feature"},{"geometry":{"coordinates":[-90.22742597100725,38.70085292613477],"type":"Point"},"id":"stl-city-public-streetlights:2:126264","properties":{"address":null,"attributes":{"Date_Installed":"6/25/2018","LED_Powered":1,"LightID":"L018992","Light_Source":"LED","Light_Type":"Cobra","Lighting_Type":"LED-Powered Lamp","Verification_Date":null},"id":"stl-city-public-streetlights:2:126264","sourceLayerId":2,"sourceObjectId":126264,"sourceURL":"https://maps8.stlouis-mo.gov/arcgis/rest/services/STREETS/Streets_Permitting/MapServer/2","title":"Street light L018992"},"type":"Feature"},{"geometry":{"coordinates":[-90.22781334508426,38.70065003236985],"type":"Point"},"id":"stl-city-public-streetlights:2:126265","properties":{"address":null,"attributes":{"Date_Installed":"6/25/2018","LED_Powered":1,"LightID":"L018993","Light_Source":"LED","Light_Type":"Cobra","Lighting_Type":"LED-Powered Lamp","Verification_Date":null},"id":"stl-city-public-streetlights:2:126265","sourceLayerId":2,"sourceObjectId":126265,"sourceURL":"https://maps8.stlouis-mo.gov/arcgis/rest/services/STREETS/Streets_Permitting/MapServer/2","title":"Street light L018993"},"type":"Feature"},{"geometry":{"coordinates":[-90.22816781981686,38.700459756935075],"type":"Point"},"id":"stl-city-public-streetlights:2:126266","properties":{"address":null,"attributes":{"Date_Installed":"6/25/2018","LED_Powered":1,"LightID":"L018994","Light_Source":"LED","Light_Type":"Cobra","Lighting_Type":"LED-Powered Lamp","Verification_Date":null},"id":"stl-city-public-streetlights:2:126266","sourceLayerId":2,"sourceObjectId":126266,"sourceURL":"https://maps8.stlouis-mo.gov/arcgis/rest/services/STREETS/Streets_Permitting/MapServer/2","title":"Street light L018994"},"type":"Feature"},{"geometry":{"coordinates":[-90.22762562077607,38.70088077086473],"type":"Point"},"id":"stl-city-public-streetlights:2:126267","properties":{"address":null,"attributes":{"Date_Installed":"6/25/2018","LED_Powered":1,"LightID":"L018995","Light_Source":"LED","Light_Type":"Cobra","Lighting_Type":"LED-Powered Lamp","Verification_Date":null},"id":"stl-city-public-streetlights:2:126267","sourceLayerId":2,"sourceObjectId":126267,"sourceURL":"https://maps8.stlouis-mo.gov/arcgis/rest/services/STREETS/Streets_Permitting/MapServer/2","title":"Street light L018995"},"type":"Feature"},{"geometry":{"coordinates":[-90.22785018039282,38.7012211919256],"type":"Point"},"id":"stl-city-public-streetlights:2:126268","properties":{"address":null,"attributes":{"Date_Installed":"6/25/2018","LED_Powered":1,"LightID":"L018996","Light_Source":"LED","Light_Type":"Cobra","Lighting_Type":"LED-Powered Lamp","Verification_Date":null},"id":"stl-city-public-streetlights:2:126268","sourceLayerId":2,"sourceObjectId":126268,"sourceURL":"https://maps8.stlouis-mo.gov/arcgis/rest/services/STREETS/Streets_Permitting/MapServer/2","title":"Street light L018996"},"type":"Feature"},{"geometry":{"coordinates":[-90.22822173151289,38.700180907758764],"type":"Point"},"id":"stl-city-public-streetlights:2:126283","properties":{"address":null,"attributes":{"Date_Installed":"8/1/2016","LED_Powered":1,"LightID":"L019011","Light_Source":"LED","Light_Type":"Cobra","Lighting_Type":"LED-Powered Lamp","Verification_Date":null},"id":"stl-city-public-streetlights:2:126283","sourceLayerId":2,"sourceObjectId":126283,"sourceURL":"https://maps8.stlouis-mo.gov/arcgis/rest/services/STREETS/Streets_Permitting/MapServer/2","title":"Street light L019011"},"type":"Feature"},{"geometry":{"coordinates":[-90.22842204091164,38.70066011585956],"type":"Point"},"id":"stl-city-public-streetlights:2:126284","properties":{"address":null,"attributes":{"Date_Installed":"8/1/2016","LED_Powered":1,"LightID":"L019012","Light_Source":"LED","Light_Type":"Cobra","Lighting_Type":"LED-Powered Lamp","Verification_Date":null},"id":"stl-city-public-streetlights:2:126284","sourceLayerId":2,"sourceObjectId":126284,"sourceURL":"https://maps8.stlouis-mo.gov/arcgis/rest/services/STREETS/Streets_Permitting/MapServer/2","title":"Street light L019012"},"type":"Feature"},{"geometry":{"coordinates":[-90.2286207942494,38.70112528066438],"type":"Point"},"id":"stl-city-public-streetlights:2:126285","properties":{"address":null,"attributes":{"Date_Installed":"8/1/2016","LED_Powered":1,"LightID":"L019013","Light_Source":"LED","Light_Type":"Cobra","Lighting_Type":"LED-Powered Lamp","Verification_Date":null},"id":"stl-city-public-streetlights:2:126285","sourceLayerId":2,"sourceObjectId":126285,"sourceURL":"https://maps8.stlouis-mo.gov/arcgis/rest/services/STREETS/Streets_Permitting/MapServer/2","title":"Street light L019013"},"type":"Feature"},{"geometry":{"coordinates":[-90.22886205171967,38.70167680466377],"type":"Point"},"id":"stl-city-public-streetlights:2:126286","properties":{"address":null,"attributes":{"Date_Installed":"8/1/2016","LED_Powered":1,"LightID":"L019014","Light_Source":"LED","Light_Type":"Cobra","Lighting_Type":"LED-Powered Lamp","Verification_Date":null},"id":"stl-city-public-streetlights:2:126286","sourceLayerId":2,"sourceObjectId":126286,"sourceURL":"https://maps8.stlouis-mo.gov/arcgis/rest/services/STREETS/Streets_Permitting/MapServer/2","title":"Street light L019014"},"type":"Feature"},{"geometry":{"coordinates":[-90.22901879202463,38.70205637244155],"type":"Point"},"id":"stl-city-public-streetlights:2:126287","properties":{"address":null,"attributes":{"Date_Installed":"8/1/2016","LED_Powered":1,"LightID":"L019015","Light_Source":"LED","Light_Type":"Cobra","Lighting_Type":"LED-Powered Lamp","Verification_Date":null},"id":"stl-city-public-streetlights:2:126287","sourceLayerId":2,"sourceObjectId":126287,"sourceURL":"https://maps8.stlouis-mo.gov/arcgis/rest/services/STREETS/Streets_Permitting/MapServer/2","title":"Street light L019015"},"type":"Feature"},{"geometry":{"coordinates":[-90.2292135785161,38.70251029928669],"type":"Point"},"id":"stl-city-public-streetlights:2:126288","properties":{"address":null,"attributes":{"Date_Installed":"8/1/2016","LED_Powered":1,"LightID":"L019016","Light_Source":"LED","Light_Type":"Cobra","Lighting_Type":"LED-Powered Lamp","Verification_Date":null},"id":"stl-city-public-streetlights:2:126288","sourceLayerId":2,"sourceObjectId":126288,"sourceURL":"https://maps8.stlouis-mo.gov/arcgis/rest/services/STREETS/Streets_Permitting/MapServer/2","title":"Street light L019016"},"type":"Feature"},{"geometry":{"coordinates":[-90.22941382525835,38.70296962656889],"type":"Point"},"id":"stl-city-public-streetlights:2:126289","properties":{"address":null,"attributes":{"Date_Installed":"8/1/2016","LED_Powered":1,"LightID":"L019017","Light_Source":"LED","Light_Type":"Cobra","Lighting_Type":"LED-Powered Lamp","Verification_Date":null},"id":"stl-city-public-streetlights:2:126289","sourceLayerId":2,"sourceObjectId":126289,"sourceURL":"https://maps8.stlouis-mo.gov/arcgis/rest/services/STREETS/Streets_Permitting/MapServer/2","title":"Street light L019017"},"type":"Feature"},{"geometry":{"coordinates":[-90.22966395185668,38.7034955464741],"type":"Point"},"id":"stl-city-public-streetlights:2:126290","properties":{"address":null,"attributes":{"Date_Installed":"8/1/2016","LED_Powered":1,"LightID":"L019018","Light_Source":"LED","Light_Type":"Cobra","Lighting_Type":"LED-Powered Lamp","Verification_Date":null},"id":"stl-city-public-streetlights:2:126290","sourceLayerId":2,"sourceObjectId":126290,"sourceURL":"https://maps8.stlouis-mo.gov/arcgis/rest/services/STREETS/Streets_Permitting/MapServer/2","title":"Street light L019018"},"type":"Feature"},{"geometry":{"coordinates":[-90.22980895833676,38.703939656465735],"type":"Point"},"id":"stl-city-public-streetlights:2:126291","properties":{"address":null,"attributes":{"Date_Installed":"8/1/2016","LED_Powered":1,"LightID":"L019019","Light_Source":"LED","Light_Type":"Cobra","Lighting_Type":"LED-Powered Lamp","Verification_Date":null},"id":"stl-city-public-streetlights:2:126291","sourceLayerId":2,"sourceObjectId":126291,"sourceURL":"https://maps8.stlouis-mo.gov/arcgis/rest/services/STREETS/Streets_Permitting/MapServer/2","title":"Street light L019019"},"type":"Feature"},{"geometry":{"coordinates":[-90.22991237828501,38.70434237120336],"type":"Point"},"id":"stl-city-public-streetlights:2:126292","properties":{"address":null,"attributes":{"Date_Installed":"8/1/2016","LED_Powered":1,"LightID":"L019020","Light_Source":"LED","Light_Type":"Cobra","Lighting_Type":"LED-Powered Lamp","Verification_Date":null},"id":"stl-city-public-streetlights:2:126292","sourceLayerId":2,"sourceObjectId":126292,"sourceURL":"https://maps8.stlouis-mo.gov/arcgis/rest/services/STREETS/Streets_Permitting/MapServer/2","title":"Street light L019020"},"type":"Feature"},{"geometry":{"coordinates":[-90.22997191123461,38.70485078280842],"type":"Point"},"id":"stl-city-public-streetlights:2:126293","properties":{"address":null,"attributes":{"Date_Installed":"8/1/2016","LED_Powered":1,"LightID":"L019021","Light_Source":"LED","Light_Type":"Cobra","Lighting_Type":"LED-Powered Lamp","Verification_Date":null},"id":"stl-city-public-streetlights:2:126293","sourceLayerId":2,"sourceObjectId":126293,"sourceURL":"https://maps8.stlouis-mo.gov/arcgis/rest/services/STREETS/Streets_Permitting/MapServer/2","title":"Street light L019021"},"type":"Feature"},{"geometry":{"coordinates":[-90.22974886482179,38.70947297638804],"type":"Point"},"id":"stl-city-public-streetlights:2:152070","properties":{"address":null,"attributes":{"Date_Installed":"8/1/2016","LED_Powered":1,"LightID":"L044924","Light_Source":"LED","Light_Type":"Cobra","Lighting_Type":"LED-Powered Lamp","Verification_Date":null},"id":"stl-city-public-streetlights:2:152070","sourceLayerId":2,"sourceObjectId":152070,"sourceURL":"https://maps8.stlouis-mo.gov/arcgis/rest/services/STREETS/Streets_Permitting/MapServer/2","title":"Street light L044924"},"type":"Feature"},{"geometry":{"coordinates":[-90.22933751546871,38.709689407754105],"type":"Point"},"id":"stl-city-public-streetlights:2:152071","properties":{"address":null,"attributes":{"Date_Installed":"8/1/2016","LED_Powered":1,"LightID":"L044925","Light_Source":"LED","Light_Type":"Cobra","Lighting_Type":"LED-Powered Lamp","Verification_Date":null},"id":"stl-city-public-streetlights:2:152071","sourceLayerId":2,"sourceObjectId":152071,"sourceURL":"https://maps8.stlouis-mo.gov/arcgis/rest/services/STREETS/Streets_Permitting/MapServer/2","title":"Street light L044925"},"type":"Feature"},{"geometry":{"coordinates":[-90.22895207355549,38.7098922142812],"type":"Point"},"id":"stl-city-public-streetlights:2:152072","properties":{"address":null,"attributes":{"Date_Installed":"8/1/2016","LED_Powered":1,"LightID":"L044926","Light_Source":"LED","Light_Type":"Cobra","Lighting_Type":"LED-Powered Lamp","Verification_Date":null},"id":"stl-city-public-streetlights:2:152072","sourceLayerId":2,"sourceObjectId":152072,"sourceURL":"https://maps8.stlouis-mo.gov/arcgis/rest/services/STREETS/Streets_Permitting/MapServer/2","title":"Street light L044926"},"type":"Feature"},{"geometry":{"coordinates":[-90.2295646362853,38.708611029738776],"type":"Point"},"id":"stl-city-public-streetlights:2:152076","properties":{"address":null,"attributes":{"Date_Installed":"8/1/2016","LED_Powered":1,"LightID":"L044930","Light_Source":"LED","Light_Type":"Cobra","Lighting_Type":"LED-Powered Lamp","Verification_Date":null},"id":"stl-city-public-streetlights:2:152076","sourceLayerId":2,"sourceObjectId":152076,"sourceURL":"https://maps8.stlouis-mo.gov/arcgis/rest/services/STREETS/Streets_Permitting/MapServer/2","title":"Street light L044930"},"type":"Feature"},{"geometry":{"coordinates":[-90.22917446400061,38.708819881808324],"type":"Point"},"id":"stl-city-public-streetlights:2:152077","properties":{"address":null,"attributes":{"Date_Installed":"8/1/2016","LED_Powered":1,"LightID":"L044931","Light_Source":"LED","Light_Type":"Cobra","Lighting_Type":"LED-Powered Lamp","Verification_Date":null},"id":"stl-city-public-streetlights:2:152077","sourceLayerId":2,"sourceObjectId":152077,"sourceURL":"https://maps8.stlouis-mo.gov/arcgis/rest/services/STREETS/Streets_Permitting/MapServer/2","title":"Street light L044931"},"type":"Feature"},{"geometry":{"coordinates":[-90.22876648745232,38.709038225262525],"type":"Point"},"id":"stl-city-public-streetlights:2:152078","properties":{"address":null,"attributes":{"Date_Installed":"8/1/2016","LED_Powered":1,"LightID":"L044932","Light_Source":"LED","Light_Type":"Cobra","Lighting_Type":"LED-Powered Lamp","Verification_Date":null},"id":"stl-city-public-streetlights:2:152078","sourceLayerId":2,"sourceObjectId":152078,"sourceURL":"https://maps8.stlouis-mo.gov/arcgis/rest/services/STREETS/Streets_Permitting/MapServer/2","title":"Street light L044932"},"type":"Feature"},{"geometry":{"coordinates":[-90.22836267232475,38.70925337162449],"type":"Point"},"id":"stl-city-public-streetlights:2:152079","properties":{"address":null,"attributes":{"Date_Installed":"8/1/2016","LED_Powered":1,"LightID":"L044933","Light_Source":"LED","Light_Type":"Cobra","Lighting_Type":"LED-Powered Lamp","Verification_Date":null},"id":"stl-city-public-streetlights:2:152079","sourceLayerId":2,"sourceObjectId":152079,"sourceURL":"https://maps8.stlouis-mo.gov/arcgis/rest/services/STREETS/Streets_Permitting/MapServer/2","title":"Street light L044933"},"type":"Feature"},{"geometry":{"coordinates":[-90.22796903929807,38.70947037445729],"type":"Point"},"id":"stl-city-public-streetlights:2:152080","properties":{"address":null,"attributes":{"Date_Installed":"8/1/2016","LED_Powered":1,"LightID":"L044934","Light_Source":"LED","Light_Type":"Cobra","Lighting_Type":"LED-Powered Lamp","Verification_Date":null},"id":"stl-city-public-streetlights:2:152080","sourceLayerId":2,"sourceObjectId":152080,"sourceURL":"https://maps8.stlouis-mo.gov/arcgis/rest/services/STREETS/Streets_Permitting/MapServer/2","title":"Street light L044934"},"type":"Feature"},{"geometry":{"coordinates":[-90.22962498405154,38.70766514244967],"type":"Point"},"id":"stl-city-public-streetlights:2:152082","properties":{"address":null,"attributes":{"Date_Installed":"8/1/2016","LED_Powered":1,"LightID":"L044936","Light_Source":"LED","Light_Type":"Cobra","Lighting_Type":"LED-Powered Lamp","Verification_Date":null},"id":"stl-city-public-streetlights:2:152082","sourceLayerId":2,"sourceObjectId":152082,"sourceURL":"https://maps8.stlouis-mo.gov/arcgis/rest/services/STREETS/Streets_Permitting/MapServer/2","title":"Street light L044936"},"type":"Feature"},{"geometry":{"coordinates":[-90.22933480295418,38.70781892763452],"type":"Point"},"id":"stl-city-public-streetlights:2:152083","properties":{"address":null,"attributes":{"Date_Installed":"8/1/2016","LED_Powered":1,"LightID":"L044937","Light_Source":"LED","Light_Type":"Cobra","Lighting_Type":"LED-Powered Lamp","Verification_Date":null},"id":"stl-city-public-streetlights:2:152083","sourceLayerId":2,"sourceObjectId":152083,"sourceURL":"https://maps8.stlouis-mo.gov/arcgis/rest/services/STREETS/Streets_Permitting/MapServer/2","title":"Street light L044937"},"type":"Feature"},{"geometry":{"coordinates":[-90.22897557249567,38.708019650896105],"type":"Point"},"id":"stl-city-public-streetlights:2:152084","properties":{"address":null,"attributes":{"Date_Installed":"8/1/2016","LED_Powered":1,"LightID":"L044938","Light_Source":"LED","Light_Type":"Cobra","Lighting_Type":"LED-Powered Lamp","Verification_Date":null},"id":"stl-city-public-streetlights:2:152084","sourceLayerId":2,"sourceObjectId":152084,"sourceURL":"https://maps8.stlouis-mo.gov/arcgis/rest/services/STREETS/Streets_Permitting/MapServer/2","title":"Street light L044938"},"type":"Feature"},{"geometry":{"coordinates":[-90.22858296773435,38.708228495376986],"type":"Point"},"id":"stl-city-public-streetlights:2:152085","properties":{"address":null,"attributes":{"Date_Installed":"8/1/2016","LED_Powered":1,"LightID":"L044939","Light_Source":"LED","Light_Type":"Cobra","Lighting_Type":"LED-Powered Lamp","Verification_Date":null},"id":"stl-city-public-streetlights:2:152085","sourceLayerId":2,"sourceObjectId":152085,"sourceURL":"https://maps8.stlouis-mo.gov/arcgis/rest/services/STREETS/Streets_Permitting/MapServer/2","title":"Street light L044939"},"type":"Feature"},{"geometry":{"coordinates":[-90.228224517656,38.70841453470676],"type":"Point"},"id":"stl-city-public-streetlights:2:152086","properties":{"address":null,"attributes":{"Date_Installed":"8/1/2016","LED_Powered":1,"LightID":"L044940","Light_Source":"LED","Light_Type":"Cobra","Lighting_Type":"LED-Powered Lamp","Verification_Date":null},"id":"stl-city-public-streetlights:2:152086","sourceLayerId":2,"sourceObjectId":152086,"sourceURL":"https://maps8.stlouis-mo.gov/arcgis/rest/services/STREETS/Streets_Permitting/MapServer/2","title":"Street light L044940"},"type":"Feature"},{"geometry":{"coordinates":[-90.2278511852336,38.70862735473753],"type":"Point"},"id":"stl-city-public-streetlights:2:152087","properties":{"address":null,"attributes":{"Date_Installed":"8/1/2016","LED_Powered":1,"LightID":"L044941","Light_Source":"LED","Light_Type":"Cobra","Lighting_Type":"LED-Powered Lamp","Verification_Date":null},"id":"stl-city-public-streetlights:2:152087","sourceLayerId":2,"sourceObjectId":152087,"sourceURL":"https://maps8.stlouis-mo.gov/arcgis/rest/services/STREETS/Streets_Permitting/MapServer/2","title":"Street light L044941"},"type":"Feature"},{"geometry":{"coordinates":[-90.22747549277545,38.708826760293825],"type":"Point"},"id":"stl-city-public-streetlights:2:152088","properties":{"address":null,"attributes":{"Date_Installed":"8/1/2016","LED_Powered":1,"LightID":"L044942","Light_Source":"LED","Light_Type":"Cobra","Lighting_Type":"LED-Powered Lamp","Verification_Date":null},"id":"stl-city-public-streetlights:2:152088","sourceLayerId":2,"sourceObjectId":152088,"sourceURL":"https://maps8.stlouis-mo.gov/arcgis/rest/services/STREETS/Streets_Permitting/MapServer/2","title":"Street light L044942"},"type":"Feature"},{"geometry":{"coordinates":[-90.22989073180766,38.70663804064693],"type":"Point"},"id":"stl-city-public-streetlights:2:152089","properties":{"address":null,"attributes":{"Date_Installed":"8/1/2016","LED_Powered":1,"LightID":"L044943","Light_Source":"LED","Light_Type":"Cobra","Lighting_Type":"LED-Powered Lamp","Verification_Date":null},"id":"stl-city-public-streetlights:2:152089","sourceLayerId":2,"sourceObjectId":152089,"sourceURL":"https://maps8.stlouis-mo.gov/arcgis/rest/services/STREETS/Streets_Permitting/MapServer/2","title":"Street light L044943"},"type":"Feature"},{"geometry":{"coordinates":[-90.22953588773592,38.706838871305656],"type":"Point"},"id":"stl-city-public-streetlights:2:152090","properties":{"address":null,"attributes":{"Date_Installed":"8/1/2016","LED_Powered":1,"LightID":"L044944","Light_Source":"LED","Light_Type":"Cobra","Lighting_Type":"LED-Powered Lamp","Verification_Date":null},"id":"stl-city-public-streetlights:2:152090","sourceLayerId":2,"sourceObjectId":152090,"sourceURL":"https://maps8.stlouis-mo.gov/arcgis/rest/services/STREETS/Streets_Permitting/MapServer/2","title":"Street light L044944"},"type":"Feature"},{"geometry":{"coordinates":[-90.22917652544498,38.707027534858874],"type":"Point"},"id":"stl-city-public-streetlights:2:152091","properties":{"address":null,"attributes":{"Date_Installed":"8/1/2016","LED_Powered":1,"LightID":"L044945","Light_Source":"LED","Light_Type":"Cobra","Lighting_Type":"LED-Powered Lamp","Verification_Date":null},"id":"stl-city-public-streetlights:2:152091","sourceLayerId":2,"sourceObjectId":152091,"sourceURL":"https://maps8.stlouis-mo.gov/arcgis/rest/services/STREETS/Streets_Permitting/MapServer/2","title":"Street light L044945"},"type":"Feature"},{"geometry":{"coordinates":[-90.22882718600194,38.70721979522923],"type":"Point"},"id":"stl-city-public-streetlights:2:152092","properties":{"address":null,"attributes":{"Date_Installed":"8/1/2016","LED_Powered":1,"LightID":"L044946","Light_Source":"LED","Light_Type":"Cobra","Lighting_Type":"LED-Powered Lamp","Verification_Date":null},"id":"stl-city-public-streetlights:2:152092","sourceLayerId":2,"sourceObjectId":152092,"sourceURL":"https://maps8.stlouis-mo.gov/arcgis/rest/services/STREETS/Streets_Permitting/MapServer/2","title":"Street light L044946"},"type":"Feature"},{"geometry":{"coordinates":[-90.22846456919457,38.70739915196338],"type":"Point"},"id":"stl-city-public-streetlights:2:152093","properties":{"address":null,"attributes":{"Date_Installed":"8/1/2016","LED_Powered":1,"LightID":"L044947","Light_Source":"LED","Light_Type":"Cobra","Lighting_Type":"LED-Powered Lamp","Verification_Date":null},"id":"stl-city-public-streetlights:2:152093","sourceLayerId":2,"sourceObjectId":152093,"sourceURL":"https://maps8.stlouis-mo.gov/arcgis/rest/services/STREETS/Streets_Permitting/MapServer/2","title":"Street light L044947"},"type":"Feature"},{"geometry":{"coordinates":[-90.22800916640193,38.707643506368505],"type":"Point"},"id":"stl-city-public-streetlights:2:152094","properties":{"address":null,"attributes":{"Date_Installed":"8/1/2016","LED_Powered":1,"LightID":"L044948","Light_Source":"LED","Light_Type":"Cobra","Lighting_Type":"LED-Powered Lamp","Verification_Date":null},"id":"stl-city-public-streetlights:2:152094","sourceLayerId":2,"sourceObjectId":152094,"sourceURL":"https://maps8.stlouis-mo.gov/arcgis/rest/services/STREETS/Streets_Permitting/MapServer/2","title":"Street light L044948"},"type":"Feature"},{"geometry":{"coordinates":[-90.22754404648249,38.707898420765304],"type":"Point"},"id":"stl-city-public-streetlights:2:152095","properties":{"address":null,"attributes":{"Date_Installed":"8/1/2016","LED_Powered":1,"LightID":"L044949","Light_Source":"LED","Light_Type":"Cobra","Lighting_Type":"LED-Powered Lamp","Verification_Date":null},"id":"stl-city-public-streetlights:2:152095","sourceLayerId":2,"sourceObjectId":152095,"sourceURL":"https://maps8.stlouis-mo.gov/arcgis/rest/services/STREETS/Streets_Permitting/MapServer/2","title":"Street light L044949"},"type":"Feature"},{"geometry":{"coordinates":[-90.22707948413756,38.708149758110764],"type":"Point"},"id":"stl-city-public-streetlights:2:152096","properties":{"address":null,"attributes":{"Date_Installed":"8/1/2016","LED_Powered":1,"LightID":"L044950","Light_Source":"LED","Light_Type":"Cobra","Lighting_Type":"LED-Powered Lamp","Verification_Date":null},"id":"stl-city-public-streetlights:2:152096","sourceLayerId":2,"sourceObjectId":152096,"sourceURL":"https://maps8.stlouis-mo.gov/arcgis/rest/services/STREETS/Streets_Permitting/MapServer/2","title":"Street light L044950"},"type":"Feature"},{"geometry":{"coordinates":[-90.22970562859605,38.705546887500276],"type":"Point"},"id":"stl-city-public-streetlights:2:152097","properties":{"address":null,"attributes":{"Date_Installed":"6/25/2018","LED_Powered":1,"LightID":"L044951","Light_Source":"LED","Light_Type":"Cobra","Lighting_Type":"LED-Powered Lamp","Verification_Date":null},"id":"stl-city-public-streetlights:2:152097","sourceLayerId":2,"sourceObjectId":152097,"sourceURL":"https://maps8.stlouis-mo.gov/arcgis/rest/services/STREETS/Streets_Permitting/MapServer/2","title":"Street light L044951"},"type":"Feature"},{"geometry":{"coordinates":[-90.22940993802068,38.70571186263109],"type":"Point"},"id":"stl-city-public-streetlights:2:152098","properties":{"address":null,"attributes":{"Date_Installed":"6/25/2018","LED_Powered":1,"LightID":"L044952","Light_Source":"LED","Light_Type":"Cobra","Lighting_Type":"LED-Powered Lamp","Verification_Date":null},"id":"stl-city-public-streetlights:2:152098","sourceLayerId":2,"sourceObjectId":152098,"sourceURL":"https://maps8.stlouis-mo.gov/arcgis/rest/services/STREETS/Streets_Permitting/MapServer/2","title":"Street light L044952"},"type":"Feature"},{"geometry":{"coordinates":[-90.22900016437735,38.70593572346714],"type":"Point"},"id":"stl-city-public-streetlights:2:152099","properties":{"address":null,"attributes":{"Date_Installed":"6/25/2018","LED_Powered":1,"LightID":"L044953","Light_Source":"LED","Light_Type":"Cobra","Lighting_Type":"LED-Powered Lamp","Verification_Date":null},"id":"stl-city-public-streetlights:2:152099","sourceLayerId":2,"sourceObjectId":152099,"sourceURL":"https://maps8.stlouis-mo.gov/arcgis/rest/services/STREETS/Streets_Permitting/MapServer/2","title":"Street light L044953"},"type":"Feature"},{"geometry":{"coordinates":[-90.2286359283617,38.70612675692109],"type":"Point"},"id":"stl-city-public-streetlights:2:152100","properties":{"address":null,"attributes":{"Date_Installed":"6/25/2018","LED_Powered":1,"LightID":"L044954","Light_Source":"LED","Light_Type":"Cobra","Lighting_Type":"LED-Powered Lamp","Verification_Date":null},"id":"stl-city-public-streetlights:2:152100","sourceLayerId":2,"sourceObjectId":152100,"sourceURL":"https://maps8.stlouis-mo.gov/arcgis/rest/services/STREETS/Streets_Permitting/MapServer/2","title":"Street light L044954"},"type":"Feature"},{"geometry":{"coordinates":[-90.22827009381221,38.70633804627847],"type":"Point"},"id":"stl-city-public-streetlights:2:152101","properties":{"address":null,"attributes":{"Date_Installed":"6/25/2018","LED_Powered":1,"LightID":"L044955","Light_Source":"LED","Light_Type":"Cobra","Lighting_Type":"LED-Powered Lamp","Verification_Date":null},"id":"stl-city-public-streetlights:2:152101","sourceLayerId":2,"sourceObjectId":152101,"sourceURL":"https://maps8.stlouis-mo.gov/arcgis/rest/services/STREETS/Streets_Permitting/MapServer/2","title":"Street light L044955"},"type":"Feature"},{"geometry":{"coordinates":[-90.22833319731532,38.704280719870184],"type":"Point"},"id":"stl-city-public-streetlights:2:152102","properties":{"address":null,"attributes":{"Date_Installed":"6/25/2018","LED_Powered":1,"LightID":"L044956","Light_Source":"LED","Light_Type":"Cobra","Lighting_Type":"LED-Powered Lamp","Verification_Date":null},"id":"stl-city-public-streetlights:2:152102","sourceLayerId":2,"sourceObjectId":152102,"sourceURL":"https://maps8.stlouis-mo.gov/arcgis/rest/services/STREETS/Streets_Permitting/MapServer/2","title":"Street light L044956"},"type":"Feature"},{"geometry":{"coordinates":[-90.22793079557958,38.704510992188666],"type":"Point"},"id":"stl-city-public-streetlights:2:152103","properties":{"address":null,"attributes":{"Date_Installed":"6/25/2018","LED_Powered":1,"LightID":"L044957","Light_Source":"LED","Light_Type":"Cobra","Lighting_Type":"LED-Powered Lamp","Verification_Date":null},"id":"stl-city-public-streetlights:2:152103","sourceLayerId":2,"sourceObjectId":152103,"sourceURL":"https://maps8.stlouis-mo.gov/arcgis/rest/services/STREETS/Streets_Permitting/MapServer/2","title":"Street light L044957"},"type":"Feature"},{"geometry":{"coordinates":[-90.22752845458947,38.70472457717226],"type":"Point"},"id":"stl-city-public-streetlights:2:152104","properties":{"address":null,"attributes":{"Date_Installed":"6/25/2018","LED_Powered":1,"LightID":"L044958","Light_Source":"LED","Light_Type":"Cobra","Lighting_Type":"LED-Powered Lamp","Verification_Date":null},"id":"stl-city-public-streetlights:2:152104","sourceLayerId":2,"sourceObjectId":152104,"sourceURL":"https://maps8.stlouis-mo.gov/arcgis/rest/services/STREETS/Streets_Permitting/MapServer/2","title":"Street light L044958"},"type":"Feature"},{"geometry":{"coordinates":[-90.22710168633887,38.70496194010926],"type":"Point"},"id":"stl-city-public-streetlights:2:152105","properties":{"address":null,"attributes":{"Date_Installed":"6/25/2018","LED_Powered":1,"LightID":"L044959","Light_Source":"LED","Light_Type":"Cobra","Lighting_Type":"LED-Powered Lamp","Verification_Date":null},"id":"stl-city-public-streetlights:2:152105","sourceLayerId":2,"sourceObjectId":152105,"sourceURL":"https://maps8.stlouis-mo.gov/arcgis/rest/services/STREETS/Streets_Permitting/MapServer/2","title":"Street light L044959"},"type":"Feature"},{"geometry":{"coordinates":[-90.22669753125041,38.70518776992908],"type":"Point"},"id":"stl-city-public-streetlights:2:152106","properties":{"address":null,"attributes":{"Date_Installed":"6/25/2018","LED_Powered":1,"LightID":"L044960","Light_Source":"LED","Light_Type":"Cobra","Lighting_Type":"LED-Powered Lamp","Verification_Date":null},"id":"stl-city-public-streetlights:2:152106","sourceLayerId":2,"sourceObjectId":152106,"sourceURL":"https://maps8.stlouis-mo.gov/arcgis/rest/services/STREETS/Streets_Permitting/MapServer/2","title":"Street light L044960"},"type":"Feature"},{"geometry":{"coordinates":[-90.22627587232603,38.70542337784701],"type":"Point"},"id":"stl-city-public-streetlights:2:152107","properties":{"address":null,"attributes":{"Date_Installed":"6/25/2018","LED_Powered":1,"LightID":"L044961","Light_Source":"LED","Light_Type":"Cobra","Lighting_Type":"LED-Powered Lamp","Verification_Date":null},"id":"stl-city-public-streetlights:2:152107","sourceLayerId":2,"sourceObjectId":152107,"sourceURL":"https://maps8.stlouis-mo.gov/arcgis/rest/services/STREETS/Streets_Permitting/MapServer/2","title":"Street light L044961"},"type":"Feature"},{"geometry":{"coordinates":[-90.22580879704763,38.70566683881099],"type":"Point"},"id":"stl-city-public-streetlights:2:152108","properties":{"address":null,"attributes":{"Date_Installed":"6/25/2018","LED_Powered":1,"LightID":"L044962","Light_Source":"LED","Light_Type":"Cobra","Lighting_Type":"LED-Powered Lamp","Verification_Date":null},"id":"stl-city-public-streetlights:2:152108","sourceLayerId":2,"sourceObjectId":152108,"sourceURL":"https://maps8.stlouis-mo.gov/arcgis/rest/services/STREETS/Streets_Permitting/MapServer/2","title":"Street light L044962"},"type":"Feature"},{"geometry":{"coordinates":[-90.22540022371652,38.70587611181411],"type":"Point"},"id":"stl-city-public-streetlights:2:152109","properties":{"address":null,"attributes":{"Date_Installed":"6/25/2018","LED_Powered":1,"LightID":"L044963","Light_Source":"LED","Light_Type":"Cobra","Lighting_Type":"LED-Powered Lamp","Verification_Date":null},"id":"stl-city-public-streetlights:2:152109","sourceLayerId":2,"sourceObjectId":152109,"sourceURL":"https://maps8.stlouis-mo.gov/arcgis/rest/services/STREETS/Streets_Permitting/MapServer/2","title":"Street light L044963"},"type":"Feature"},{"geometry":{"coordinates":[-90.22505228182605,38.70605983109781],"type":"Point"},"id":"stl-city-public-streetlights:2:152110","properties":{"address":null,"attributes":{"Date_Installed":"6/25/2018","LED_Powered":1,"LightID":"L044964","Light_Source":"LED","Light_Type":"Cobra","Lighting_Type":"LED-Powered Lamp","Verification_Date":null},"id":"stl-city-public-streetlights:2:152110","sourceLayerId":2,"sourceObjectId":152110,"sourceURL":"https://maps8.stlouis-mo.gov/arcgis/rest/services/STREETS/Streets_Permitting/MapServer/2","title":"Street light L044964"},"type":"Feature"},{"geometry":{"coordinates":[-90.22775598992192,38.70488480684134],"type":"Point"},"id":"stl-city-public-streetlights:2:152111","properties":{"address":null,"attributes":{"Date_Installed":"6/25/2018","LED_Powered":1,"LightID":"L044965","Light_Source":"LED","Light_Type":"Cobra","Lighting_Type":"LED-Powered Lamp","Verification_Date":null},"id":"stl-city-public-streetlights:2:152111","sourceLayerId":2,"sourceObjectId":152111,"sourceURL":"https://maps8.stlouis-mo.gov/arcgis/rest/services/STREETS/Streets_Permitting/MapServer/2","title":"Street light L044965"},"type":"Feature"},{"geometry":{"coordinates":[-90.22803577119399,38.70519913760614],"type":"Point"},"id":"stl-city-public-streetlights:2:152112","properties":{"address":null,"attributes":{"Date_Installed":"6/25/2018","LED_Powered":1,"LightID":"L044966","Light_Source":"LED","Light_Type":"Cobra","Lighting_Type":"LED-Powered Lamp","Verification_Date":null},"id":"stl-city-public-streetlights:2:152112","sourceLayerId":2,"sourceObjectId":152112,"sourceURL":"https://maps8.stlouis-mo.gov/arcgis/rest/services/STREETS/Streets_Permitting/MapServer/2","title":"Street light L044966"},"type":"Feature"},{"geometry":{"coordinates":[-90.2283083334432,38.70551897960811],"type":"Point"},"id":"stl-city-public-streetlights:2:152113","properties":{"address":null,"attributes":{"Date_Installed":"6/25/2018","LED_Powered":1,"LightID":"L044967","Light_Source":"LED","Light_Type":"Cobra","Lighting_Type":"LED-Powered Lamp","Verification_Date":null},"id":"stl-city-public-streetlights:2:152113","sourceLayerId":2,"sourceObjectId":152113,"sourceURL":"https://maps8.stlouis-mo.gov/arcgis/rest/services/STREETS/Streets_Permitting/MapServer/2","title":"Street light L044967"},"type":"Feature"},{"geometry":{"coordinates":[-90.22858093458672,38.70582947803709],"type":"Point"},"id":"stl-city-public-streetlights:2:152114","properties":{"address":null,"attributes":{"Date_Installed":"6/25/2018","LED_Powered":1,"LightID":"L044968","Light_Source":"LED","Light_Type":"Cobra","Lighting_Type":"LED-Powered Lamp","Verification_Date":null},"id":"stl-city-public-streetlights:2:152114","sourceLayerId":2,"sourceObjectId":152114,"sourceURL":"https://maps8.stlouis-mo.gov/arcgis/rest/services/STREETS/Streets_Permitting/MapServer/2","title":"Street light L044968"},"type":"Feature"},{"geometry":{"coordinates":[-90.22872158028198,38.70421608618644],"type":"Point"},"id":"stl-city-public-streetlights:2:152115","properties":{"address":null,"attributes":{"Date_Installed":"6/25/2018","LED_Powered":1,"LightID":"L044969","Light_Source":"LED","Light_Type":"Cobra","Lighting_Type":"LED-Powered Lamp","Verification_Date":null},"id":"stl-city-public-streetlights:2:152115","sourceLayerId":2,"sourceObjectId":152115,"sourceURL":"https://maps8.stlouis-mo.gov/arcgis/rest/services/STREETS/Streets_Permitting/MapServer/2","title":"Street light L044969"},"type":"Feature"},{"geometry":{"coordinates":[-90.22897563079748,38.70445519561261],"type":"Point"},"id":"stl-city-public-streetlights:2:152116","properties":{"address":null,"attributes":{"Date_Installed":"6/25/2018","LED_Powered":1,"LightID":"L044970","Light_Source":"LED","Light_Type":"Cobra","Lighting_Type":"LED-Powered Lamp","Verification_Date":null},"id":"stl-city-public-streetlights:2:152116","sourceLayerId":2,"sourceObjectId":152116,"sourceURL":"https://maps8.stlouis-mo.gov/arcgis/rest/services/STREETS/Streets_Permitting/MapServer/2","title":"Street light L044970"},"type":"Feature"},{"geometry":{"coordinates":[-90.22927200898711,38.7047519227042],"type":"Point"},"id":"stl-city-public-streetlights:2:152117","properties":{"address":null,"attributes":{"Date_Installed":"6/25/2018","LED_Powered":1,"LightID":"L044971","Light_Source":"LED","Light_Type":"Cobra","Lighting_Type":"LED-Powered Lamp","Verification_Date":null},"id":"stl-city-public-streetlights:2:152117","sourceLayerId":2,"sourceObjectId":152117,"sourceURL":"https://maps8.stlouis-mo.gov/arcgis/rest/services/STREETS/Streets_Permitting/MapServer/2","title":"Street light L044971"},"type":"Feature"},{"geometry":{"coordinates":[-90.22955133248011,38.70502215167689],"type":"Point"},"id":"stl-city-public-streetlights:2:152118","properties":{"address":null,"attributes":{"Date_Installed":"6/25/2018","LED_Powered":1,"LightID":"L044972","Light_Source":"LED","Light_Type":"Cobra","Lighting_Type":"LED-Powered Lamp","Verification_Date":null},"id":"stl-city-public-streetlights:2:152118","sourceLayerId":2,"sourceObjectId":152118,"sourceURL":"https://maps8.stlouis-mo.gov/arcgis/rest/services/STREETS/Streets_Permitting/MapServer/2","title":"Street light L044972"},"type":"Feature"},{"geometry":{"coordinates":[-90.22984540491244,38.705302568754874],"type":"Point"},"id":"stl-city-public-streetlights:2:152119","properties":{"address":null,"attributes":{"Date_Installed":"6/25/2018","LED_Powered":1,"LightID":"L044973","Light_Source":"LED","Light_Type":"Cobra","Lighting_Type":"LED-Powered Lamp","Verification_Date":null},"id":"stl-city-public-streetlights:2:152119","sourceLayerId":2,"sourceObjectId":152119,"sourceURL":"https://maps8.stlouis-mo.gov/arcgis/rest/services/STREETS/Streets_Permitting/MapServer/2","title":"Street light L044973"},"type":"Feature"},{"geometry":{"coordinates":[-90.22779648901303,38.70887206091945],"type":"Point"},"id":"stl-city-public-streetlights:2:152120","properties":{"address":null,"attributes":{"Date_Installed":"2/14/2018","LED_Powered":1,"LightID":"L044974","Light_Source":"LED","Light_Type":"Cobra","Lighting_Type":"LED-Powered Lamp","Verification_Date":null},"id":"stl-city-public-streetlights:2:152120","sourceLayerId":2,"sourceObjectId":152120,"sourceURL":"https://maps8.stlouis-mo.gov/arcgis/rest/services/STREETS/Streets_Permitting/MapServer/2","title":"Street light L044974"},"type":"Feature"},{"geometry":{"coordinates":[-90.22807017473883,38.709180059358985],"type":"Point"},"id":"stl-city-public-streetlights:2:152121","properties":{"address":null,"attributes":{"Date_Installed":"2/14/2018","LED_Powered":1,"LightID":"L044975","Light_Source":"LED","Light_Type":"Cobra","Lighting_Type":"LED-Powered Lamp","Verification_Date":null},"id":"stl-city-public-streetlights:2:152121","sourceLayerId":2,"sourceObjectId":152121,"sourceURL":"https://maps8.stlouis-mo.gov/arcgis/rest/services/STREETS/Streets_Permitting/MapServer/2","title":"Street light L044975"},"type":"Feature"},{"geometry":{"coordinates":[-90.22092163676979,38.701452116218725],"type":"Point"},"id":"stl-city-public-streetlights:2:152199","properties":{"address":null,"attributes":{"Date_Installed":null,"LED_Powered":0,"LightID":"L045053","Light_Source":"High Pressure Sodium","Light_Type":"Cobra","Lighting_Type":"400-W High Pressure Sodium Vapor Lamp","Verification_Date":null},"id":"stl-city-public-streetlights:2:152199","sourceLayerId":2,"sourceObjectId":152199,"sourceURL":"https://maps8.stlouis-mo.gov/arcgis/rest/services/STREETS/Streets_Permitting/MapServer/2","title":"Street light L045053"},"type":"Feature"},{"geometry":{"coordinates":[-90.22053741334061,38.7010112848188],"type":"Point"},"id":"stl-city-public-streetlights:2:152200","properties":{"address":null,"attributes":{"Date_Installed":null,"LED_Powered":0,"LightID":"L045054","Light_Source":"LED","Light_Type":"Cobra","Lighting_Type":"LED-Powered Lamp","Verification_Date":null},"id":"stl-city-public-streetlights:2:152200","sourceLayerId":2,"sourceObjectId":152200,"sourceURL":"https://maps8.stlouis-mo.gov/arcgis/rest/services/STREETS/Streets_Permitting/MapServer/2","title":"Street light L045054"},"type":"Feature"},{"geometry":{"coordinates":[-90.22013162584683,38.70054789925652],"type":"Point"},"id":"stl-city-public-streetlights:2:152201","properties":{"address":null,"attributes":{"Date_Installed":null,"LED_Powered":0,"LightID":"L045055","Light_Source":"High Pressure Sodium","Light_Type":"Cobra","Lighting_Type":"400-W High Pressure Sodium Vapor Lamp","Verification_Date":null},"id":"stl-city-public-streetlights:2:152201","sourceLayerId":2,"sourceObjectId":152201,"sourceURL":"https://maps8.stlouis-mo.gov/arcgis/rest/services/STREETS/Streets_Permitting/MapServer/2","title":"Street light L045055"},"type":"Feature"},{"geometry":{"coordinates":[-90.22621972818979,38.70800006005685],"type":"Point"},"id":"stl-city-public-streetlights:2:154405","properties":{"address":null,"attributes":{"Date_Installed":null,"LED_Powered":0,"LightID":"L052389","Light_Source":"High Pressure Sodium","Light_Type":"Cobra","Lighting_Type":"400-W High Pressure Sodium Vapor Lamp","Verification_Date":null},"id":"stl-city-public-streetlights:2:154405","sourceLayerId":2,"sourceObjectId":154405,"sourceURL":"https://maps8.stlouis-mo.gov/arcgis/rest/services/STREETS/Streets_Permitting/MapServer/2","title":"Street light L052389"},"type":"Feature"}],"layerId":"city-streetlights","retrievedAt":"2026-09-13T21:56:18.173251+00:00","schema":"property-infrastructure-geojson-v1","sourceId":"stl-city-public-streetlights","tileId":"-9023_3870","type":"FeatureCollection"}