{"features":[{"geometry":{"coordinates":[-90.21991516431,38.582845918596256],"type":"Point"},"id":"stl-city-public-streetlights:2:117444","properties":{"address":null,"attributes":{"Date_Installed":null,"LED_Powered":0,"LightID":"L010169","Light_Source":"High Pressure Sodium","Light_Type":"Cobra","Lighting_Type":"200-W High Pressure Sodium Vapor Lamp","Verification_Date":null},"id":"stl-city-public-streetlights:2:117444","sourceLayerId":2,"sourceObjectId":117444,"sourceURL":"https://maps8.stlouis-mo.gov/arcgis/rest/services/STREETS/Streets_Permitting/MapServer/2","title":"Street light L010169"},"type":"Feature"},{"geometry":{"coordinates":[-90.21942590283574,38.58315290238921],"type":"Point"},"id":"stl-city-public-streetlights:2:117445","properties":{"address":null,"attributes":{"Date_Installed":null,"LED_Powered":0,"LightID":"L010170","Light_Source":"High Pressure Sodium","Light_Type":"Cobra","Lighting_Type":"200-W High Pressure Sodium Vapor Lamp","Verification_Date":null},"id":"stl-city-public-streetlights:2:117445","sourceLayerId":2,"sourceObjectId":117445,"sourceURL":"https://maps8.stlouis-mo.gov/arcgis/rest/services/STREETS/Streets_Permitting/MapServer/2","title":"Street light L010170"},"type":"Feature"},{"geometry":{"coordinates":[-90.21898257955782,38.58345312958084],"type":"Point"},"id":"stl-city-public-streetlights:2:117446","properties":{"address":null,"attributes":{"Date_Installed":null,"LED_Powered":0,"LightID":"L010171","Light_Source":"High Pressure Sodium","Light_Type":"Cobra","Lighting_Type":"200-W High Pressure Sodium Vapor Lamp","Verification_Date":null},"id":"stl-city-public-streetlights:2:117446","sourceLayerId":2,"sourceObjectId":117446,"sourceURL":"https://maps8.stlouis-mo.gov/arcgis/rest/services/STREETS/Streets_Permitting/MapServer/2","title":"Street light L010171"},"type":"Feature"},{"geometry":{"coordinates":[-90.21850574228414,38.58377252935545],"type":"Point"},"id":"stl-city-public-streetlights:2:117447","properties":{"address":null,"attributes":{"Date_Installed":null,"LED_Powered":0,"LightID":"L010172","Light_Source":"High Pressure Sodium","Light_Type":"Cobra","Lighting_Type":"200-W High Pressure Sodium Vapor Lamp","Verification_Date":null},"id":"stl-city-public-streetlights:2:117447","sourceLayerId":2,"sourceObjectId":117447,"sourceURL":"https://maps8.stlouis-mo.gov/arcgis/rest/services/STREETS/Streets_Permitting/MapServer/2","title":"Street light L010172"},"type":"Feature"},{"geometry":{"coordinates":[-90.21805205134797,38.584095133361835],"type":"Point"},"id":"stl-city-public-streetlights:2:117448","properties":{"address":null,"attributes":{"Date_Installed":null,"LED_Powered":0,"LightID":"L010173","Light_Source":"High Pressure Sodium","Light_Type":"Cobra","Lighting_Type":"200-W High Pressure Sodium Vapor Lamp","Verification_Date":null},"id":"stl-city-public-streetlights:2:117448","sourceLayerId":2,"sourceObjectId":117448,"sourceURL":"https://maps8.stlouis-mo.gov/arcgis/rest/services/STREETS/Streets_Permitting/MapServer/2","title":"Street light L010173"},"type":"Feature"},{"geometry":{"coordinates":[-90.2175818623771,38.58440730933386],"type":"Point"},"id":"stl-city-public-streetlights:2:117449","properties":{"address":null,"attributes":{"Date_Installed":null,"LED_Powered":0,"LightID":"L010174","Light_Source":"High Pressure Sodium","Light_Type":"Cobra","Lighting_Type":"200-W High Pressure Sodium Vapor Lamp","Verification_Date":null},"id":"stl-city-public-streetlights:2:117449","sourceLayerId":2,"sourceObjectId":117449,"sourceURL":"https://maps8.stlouis-mo.gov/arcgis/rest/services/STREETS/Streets_Permitting/MapServer/2","title":"Street light L010174"},"type":"Feature"},{"geometry":{"coordinates":[-90.21715757499906,38.58476680945044],"type":"Point"},"id":"stl-city-public-streetlights:2:117450","properties":{"address":null,"attributes":{"Date_Installed":null,"LED_Powered":0,"LightID":"L010175","Light_Source":"High Pressure Sodium","Light_Type":"Cobra","Lighting_Type":"200-W High Pressure Sodium Vapor Lamp","Verification_Date":null},"id":"stl-city-public-streetlights:2:117450","sourceLayerId":2,"sourceObjectId":117450,"sourceURL":"https://maps8.stlouis-mo.gov/arcgis/rest/services/STREETS/Streets_Permitting/MapServer/2","title":"Street light L010175"},"type":"Feature"},{"geometry":{"coordinates":[-90.21674165565958,38.58512096341041],"type":"Point"},"id":"stl-city-public-streetlights:2:117451","properties":{"address":null,"attributes":{"Date_Installed":null,"LED_Powered":0,"LightID":"L010176","Light_Source":"High Pressure Sodium","Light_Type":"Cobra","Lighting_Type":"200-W High Pressure Sodium Vapor Lamp","Verification_Date":null},"id":"stl-city-public-streetlights:2:117451","sourceLayerId":2,"sourceObjectId":117451,"sourceURL":"https://maps8.stlouis-mo.gov/arcgis/rest/services/STREETS/Streets_Permitting/MapServer/2","title":"Street light L010176"},"type":"Feature"},{"geometry":{"coordinates":[-90.21629786896939,38.585455742095334],"type":"Point"},"id":"stl-city-public-streetlights:2:117452","properties":{"address":null,"attributes":{"Date_Installed":null,"LED_Powered":0,"LightID":"L010177","Light_Source":"High Pressure Sodium","Light_Type":"Cobra","Lighting_Type":"200-W High Pressure Sodium Vapor Lamp","Verification_Date":null},"id":"stl-city-public-streetlights:2:117452","sourceLayerId":2,"sourceObjectId":117452,"sourceURL":"https://maps8.stlouis-mo.gov/arcgis/rest/services/STREETS/Streets_Permitting/MapServer/2","title":"Street light L010177"},"type":"Feature"},{"geometry":{"coordinates":[-90.21581301185535,38.585769681608795],"type":"Point"},"id":"stl-city-public-streetlights:2:117453","properties":{"address":null,"attributes":{"Date_Installed":null,"LED_Powered":0,"LightID":"L010178","Light_Source":"High Pressure Sodium","Light_Type":"Cobra","Lighting_Type":"200-W High Pressure Sodium Vapor Lamp","Verification_Date":null},"id":"stl-city-public-streetlights:2:117453","sourceLayerId":2,"sourceObjectId":117453,"sourceURL":"https://maps8.stlouis-mo.gov/arcgis/rest/services/STREETS/Streets_Permitting/MapServer/2","title":"Street light L010178"},"type":"Feature"},{"geometry":{"coordinates":[-90.215320731321,38.58607776142101],"type":"Point"},"id":"stl-city-public-streetlights:2:117454","properties":{"address":null,"attributes":{"Date_Installed":null,"LED_Powered":0,"LightID":"L010179","Light_Source":"High Pressure Sodium","Light_Type":"Cobra","Lighting_Type":"200-W High Pressure Sodium Vapor Lamp","Verification_Date":null},"id":"stl-city-public-streetlights:2:117454","sourceLayerId":2,"sourceObjectId":117454,"sourceURL":"https://maps8.stlouis-mo.gov/arcgis/rest/services/STREETS/Streets_Permitting/MapServer/2","title":"Street light L010179"},"type":"Feature"},{"geometry":{"coordinates":[-90.2147785377977,38.586450829842015],"type":"Point"},"id":"stl-city-public-streetlights:2:117455","properties":{"address":null,"attributes":{"Date_Installed":null,"LED_Powered":0,"LightID":"L010180","Light_Source":"High Pressure Sodium","Light_Type":"Cobra","Lighting_Type":"200-W High Pressure Sodium Vapor Lamp","Verification_Date":null},"id":"stl-city-public-streetlights:2:117455","sourceLayerId":2,"sourceObjectId":117455,"sourceURL":"https://maps8.stlouis-mo.gov/arcgis/rest/services/STREETS/Streets_Permitting/MapServer/2","title":"Street light L010180"},"type":"Feature"},{"geometry":{"coordinates":[-90.21447041655635,38.586649349754225],"type":"Point"},"id":"stl-city-public-streetlights:2:117456","properties":{"address":null,"attributes":{"Date_Installed":null,"LED_Powered":0,"LightID":"L010181","Light_Source":"High Pressure Sodium","Light_Type":"Cobra","Lighting_Type":"200-W High Pressure Sodium Vapor Lamp","Verification_Date":null},"id":"stl-city-public-streetlights:2:117456","sourceLayerId":2,"sourceObjectId":117456,"sourceURL":"https://maps8.stlouis-mo.gov/arcgis/rest/services/STREETS/Streets_Permitting/MapServer/2","title":"Street light L010181"},"type":"Feature"},{"geometry":{"coordinates":[-90.21406364890467,38.586910555534644],"type":"Point"},"id":"stl-city-public-streetlights:2:117457","properties":{"address":null,"attributes":{"Date_Installed":null,"LED_Powered":0,"LightID":"L010182","Light_Source":"High Pressure Sodium","Light_Type":"Cobra","Lighting_Type":"200-W High Pressure Sodium Vapor Lamp","Verification_Date":null},"id":"stl-city-public-streetlights:2:117457","sourceLayerId":2,"sourceObjectId":117457,"sourceURL":"https://maps8.stlouis-mo.gov/arcgis/rest/services/STREETS/Streets_Permitting/MapServer/2","title":"Street light L010182"},"type":"Feature"},{"geometry":{"coordinates":[-90.21366319392233,38.587171966319566],"type":"Point"},"id":"stl-city-public-streetlights:2:117458","properties":{"address":null,"attributes":{"Date_Installed":null,"LED_Powered":0,"LightID":"L010183","Light_Source":"High Pressure Sodium","Light_Type":"Cobra","Lighting_Type":"200-W High Pressure Sodium Vapor Lamp","Verification_Date":null},"id":"stl-city-public-streetlights:2:117458","sourceLayerId":2,"sourceObjectId":117458,"sourceURL":"https://maps8.stlouis-mo.gov/arcgis/rest/services/STREETS/Streets_Permitting/MapServer/2","title":"Street light L010183"},"type":"Feature"},{"geometry":{"coordinates":[-90.21349598045386,38.58748844755278],"type":"Point"},"id":"stl-city-public-streetlights:2:117459","properties":{"address":null,"attributes":{"Date_Installed":"4/10/2020","LED_Powered":1,"LightID":"L010184","Light_Source":"LED","Light_Type":"Cobra","Lighting_Type":"LED-Powered Lamp","Verification_Date":null},"id":"stl-city-public-streetlights:2:117459","sourceLayerId":2,"sourceObjectId":117459,"sourceURL":"https://maps8.stlouis-mo.gov/arcgis/rest/services/STREETS/Streets_Permitting/MapServer/2","title":"Street light L010184"},"type":"Feature"},{"geometry":{"coordinates":[-90.21380688476526,38.587784062690815],"type":"Point"},"id":"stl-city-public-streetlights:2:117460","properties":{"address":null,"attributes":{"Date_Installed":"4/10/2020","LED_Powered":1,"LightID":"L010185","Light_Source":"LED","Light_Type":"Cobra","Lighting_Type":"LED-Powered Lamp","Verification_Date":null},"id":"stl-city-public-streetlights:2:117460","sourceLayerId":2,"sourceObjectId":117460,"sourceURL":"https://maps8.stlouis-mo.gov/arcgis/rest/services/STREETS/Streets_Permitting/MapServer/2","title":"Street light L010185"},"type":"Feature"},{"geometry":{"coordinates":[-90.21413606290174,38.58809759901911],"type":"Point"},"id":"stl-city-public-streetlights:2:117461","properties":{"address":null,"attributes":{"Date_Installed":"4/10/2020","LED_Powered":1,"LightID":"L010186","Light_Source":"LED","Light_Type":"Cobra","Lighting_Type":"LED-Powered Lamp","Verification_Date":null},"id":"stl-city-public-streetlights:2:117461","sourceLayerId":2,"sourceObjectId":117461,"sourceURL":"https://maps8.stlouis-mo.gov/arcgis/rest/services/STREETS/Streets_Permitting/MapServer/2","title":"Street light L010186"},"type":"Feature"},{"geometry":{"coordinates":[-90.21477470359301,38.588500592158056],"type":"Point"},"id":"stl-city-public-streetlights:2:117462","properties":{"address":null,"attributes":{"Date_Installed":"4/10/2020","LED_Powered":1,"LightID":"L010187","Light_Source":"LED","Light_Type":"Cobra","Lighting_Type":"LED-Powered Lamp","Verification_Date":null},"id":"stl-city-public-streetlights:2:117462","sourceLayerId":2,"sourceObjectId":117462,"sourceURL":"https://maps8.stlouis-mo.gov/arcgis/rest/services/STREETS/Streets_Permitting/MapServer/2","title":"Street light L010187"},"type":"Feature"},{"geometry":{"coordinates":[-90.21514688819079,38.58884617080102],"type":"Point"},"id":"stl-city-public-streetlights:2:117463","properties":{"address":null,"attributes":{"Date_Installed":"4/10/2020","LED_Powered":1,"LightID":"L010188","Light_Source":"LED","Light_Type":"Cobra","Lighting_Type":"LED-Powered Lamp","Verification_Date":null},"id":"stl-city-public-streetlights:2:117463","sourceLayerId":2,"sourceObjectId":117463,"sourceURL":"https://maps8.stlouis-mo.gov/arcgis/rest/services/STREETS/Streets_Permitting/MapServer/2","title":"Street light L010188"},"type":"Feature"},{"geometry":{"coordinates":[-90.21552312506438,38.589200994085594],"type":"Point"},"id":"stl-city-public-streetlights:2:117464","properties":{"address":null,"attributes":{"Date_Installed":"4/10/2020","LED_Powered":1,"LightID":"L010189","Light_Source":"LED","Light_Type":"Cobra","Lighting_Type":"LED-Powered Lamp","Verification_Date":null},"id":"stl-city-public-streetlights:2:117464","sourceLayerId":2,"sourceObjectId":117464,"sourceURL":"https://maps8.stlouis-mo.gov/arcgis/rest/services/STREETS/Streets_Permitting/MapServer/2","title":"Street light L010189"},"type":"Feature"},{"geometry":{"coordinates":[-90.21589946710988,38.58955307767442],"type":"Point"},"id":"stl-city-public-streetlights:2:117465","properties":{"address":null,"attributes":{"Date_Installed":"4/10/2020","LED_Powered":1,"LightID":"L010190","Light_Source":"LED","Light_Type":"Cobra","Lighting_Type":"LED-Powered Lamp","Verification_Date":null},"id":"stl-city-public-streetlights:2:117465","sourceLayerId":2,"sourceObjectId":117465,"sourceURL":"https://maps8.stlouis-mo.gov/arcgis/rest/services/STREETS/Streets_Permitting/MapServer/2","title":"Street light L010190"},"type":"Feature"},{"geometry":{"coordinates":[-90.216316248423,38.5899600190511],"type":"Point"},"id":"stl-city-public-streetlights:2:117466","properties":{"address":null,"attributes":{"Date_Installed":"4/10/2020","LED_Powered":1,"LightID":"L010191","Light_Source":"LED","Light_Type":"Cobra","Lighting_Type":"LED-Powered Lamp","Verification_Date":null},"id":"stl-city-public-streetlights:2:117466","sourceLayerId":2,"sourceObjectId":117466,"sourceURL":"https://maps8.stlouis-mo.gov/arcgis/rest/services/STREETS/Streets_Permitting/MapServer/2","title":"Street light L010191"},"type":"Feature"},{"geometry":{"coordinates":[-90.21991837984918,38.58444678320297],"type":"Point"},"id":"stl-city-public-streetlights:2:117483","properties":{"address":null,"attributes":{"Date_Installed":"8/1/2017","LED_Powered":1,"LightID":"L010208","Light_Source":"LED","Light_Type":"Cobra","Lighting_Type":"LED-Powered Lamp","Verification_Date":null},"id":"stl-city-public-streetlights:2:117483","sourceLayerId":2,"sourceObjectId":117483,"sourceURL":"https://maps8.stlouis-mo.gov/arcgis/rest/services/STREETS/Streets_Permitting/MapServer/2","title":"Street light L010208"},"type":"Feature"},{"geometry":{"coordinates":[-90.21965476093841,38.58480417315828],"type":"Point"},"id":"stl-city-public-streetlights:2:117484","properties":{"address":null,"attributes":{"Date_Installed":"8/1/2017","LED_Powered":1,"LightID":"L010209","Light_Source":"LED","Light_Type":"Cobra","Lighting_Type":"LED-Powered Lamp","Verification_Date":null},"id":"stl-city-public-streetlights:2:117484","sourceLayerId":2,"sourceObjectId":117484,"sourceURL":"https://maps8.stlouis-mo.gov/arcgis/rest/services/STREETS/Streets_Permitting/MapServer/2","title":"Street light L010209"},"type":"Feature"},{"geometry":{"coordinates":[-90.21944679835835,38.58506170263316],"type":"Point"},"id":"stl-city-public-streetlights:2:117485","properties":{"address":null,"attributes":{"Date_Installed":"8/1/2017","LED_Powered":1,"LightID":"L010210","Light_Source":"LED","Light_Type":"Cobra","Lighting_Type":"LED-Powered Lamp","Verification_Date":null},"id":"stl-city-public-streetlights:2:117485","sourceLayerId":2,"sourceObjectId":117485,"sourceURL":"https://maps8.stlouis-mo.gov/arcgis/rest/services/STREETS/Streets_Permitting/MapServer/2","title":"Street light L010210"},"type":"Feature"},{"geometry":{"coordinates":[-90.21921330243295,38.5853638630806],"type":"Point"},"id":"stl-city-public-streetlights:2:117486","properties":{"address":null,"attributes":{"Date_Installed":"8/1/2017","LED_Powered":1,"LightID":"L010211","Light_Source":"LED","Light_Type":"Cobra","Lighting_Type":"LED-Powered Lamp","Verification_Date":null},"id":"stl-city-public-streetlights:2:117486","sourceLayerId":2,"sourceObjectId":117486,"sourceURL":"https://maps8.stlouis-mo.gov/arcgis/rest/services/STREETS/Streets_Permitting/MapServer/2","title":"Street light L010211"},"type":"Feature"},{"geometry":{"coordinates":[-90.2189904522658,38.58566140087582],"type":"Point"},"id":"stl-city-public-streetlights:2:117487","properties":{"address":null,"attributes":{"Date_Installed":"8/1/2017","LED_Powered":1,"LightID":"L010212","Light_Source":"LED","Light_Type":"Cobra","Lighting_Type":"LED-Powered Lamp","Verification_Date":null},"id":"stl-city-public-streetlights:2:117487","sourceLayerId":2,"sourceObjectId":117487,"sourceURL":"https://maps8.stlouis-mo.gov/arcgis/rest/services/STREETS/Streets_Permitting/MapServer/2","title":"Street light L010212"},"type":"Feature"},{"geometry":{"coordinates":[-90.21867318946842,38.585871828819855],"type":"Point"},"id":"stl-city-public-streetlights:2:117488","properties":{"address":null,"attributes":{"Date_Installed":"8/1/2017","LED_Powered":1,"LightID":"L010213","Light_Source":"LED","Light_Type":"Cobra","Lighting_Type":"LED-Powered Lamp","Verification_Date":null},"id":"stl-city-public-streetlights:2:117488","sourceLayerId":2,"sourceObjectId":117488,"sourceURL":"https://maps8.stlouis-mo.gov/arcgis/rest/services/STREETS/Streets_Permitting/MapServer/2","title":"Street light L010213"},"type":"Feature"},{"geometry":{"coordinates":[-90.21833228425706,38.58607004139377],"type":"Point"},"id":"stl-city-public-streetlights:2:117489","properties":{"address":null,"attributes":{"Date_Installed":"8/1/2017","LED_Powered":1,"LightID":"L010214","Light_Source":"LED","Light_Type":"Cobra","Lighting_Type":"LED-Powered Lamp","Verification_Date":null},"id":"stl-city-public-streetlights:2:117489","sourceLayerId":2,"sourceObjectId":117489,"sourceURL":"https://maps8.stlouis-mo.gov/arcgis/rest/services/STREETS/Streets_Permitting/MapServer/2","title":"Street light L010214"},"type":"Feature"},{"geometry":{"coordinates":[-90.21798813453393,38.58628207121411],"type":"Point"},"id":"stl-city-public-streetlights:2:117490","properties":{"address":null,"attributes":{"Date_Installed":"8/1/2017","LED_Powered":1,"LightID":"L010215","Light_Source":"LED","Light_Type":"Cobra","Lighting_Type":"LED-Powered Lamp","Verification_Date":null},"id":"stl-city-public-streetlights:2:117490","sourceLayerId":2,"sourceObjectId":117490,"sourceURL":"https://maps8.stlouis-mo.gov/arcgis/rest/services/STREETS/Streets_Permitting/MapServer/2","title":"Street light L010215"},"type":"Feature"},{"geometry":{"coordinates":[-90.21765025323499,38.586482672841704],"type":"Point"},"id":"stl-city-public-streetlights:2:117491","properties":{"address":null,"attributes":{"Date_Installed":"8/1/2017","LED_Powered":1,"LightID":"L010216","Light_Source":"LED","Light_Type":"Cobra","Lighting_Type":"LED-Powered Lamp","Verification_Date":null},"id":"stl-city-public-streetlights:2:117491","sourceLayerId":2,"sourceObjectId":117491,"sourceURL":"https://maps8.stlouis-mo.gov/arcgis/rest/services/STREETS/Streets_Permitting/MapServer/2","title":"Street light L010216"},"type":"Feature"},{"geometry":{"coordinates":[-90.21730992593643,38.58668660539966],"type":"Point"},"id":"stl-city-public-streetlights:2:117492","properties":{"address":null,"attributes":{"Date_Installed":"8/1/2017","LED_Powered":1,"LightID":"L010217","Light_Source":"LED","Light_Type":"Cobra","Lighting_Type":"LED-Powered Lamp","Verification_Date":null},"id":"stl-city-public-streetlights:2:117492","sourceLayerId":2,"sourceObjectId":117492,"sourceURL":"https://maps8.stlouis-mo.gov/arcgis/rest/services/STREETS/Streets_Permitting/MapServer/2","title":"Street light L010217"},"type":"Feature"},{"geometry":{"coordinates":[-90.21697232163802,38.58689316425207],"type":"Point"},"id":"stl-city-public-streetlights:2:117493","properties":{"address":null,"attributes":{"Date_Installed":"8/1/2017","LED_Powered":1,"LightID":"L010218","Light_Source":"LED","Light_Type":"Cobra","Lighting_Type":"LED-Powered Lamp","Verification_Date":null},"id":"stl-city-public-streetlights:2:117493","sourceLayerId":2,"sourceObjectId":117493,"sourceURL":"https://maps8.stlouis-mo.gov/arcgis/rest/services/STREETS/Streets_Permitting/MapServer/2","title":"Street light L010218"},"type":"Feature"},{"geometry":{"coordinates":[-90.21662835225236,38.58709613285226],"type":"Point"},"id":"stl-city-public-streetlights:2:117494","properties":{"address":null,"attributes":{"Date_Installed":"8/1/2017","LED_Powered":1,"LightID":"L010219","Light_Source":"LED","Light_Type":"Cobra","Lighting_Type":"LED-Powered Lamp","Verification_Date":null},"id":"stl-city-public-streetlights:2:117494","sourceLayerId":2,"sourceObjectId":117494,"sourceURL":"https://maps8.stlouis-mo.gov/arcgis/rest/services/STREETS/Streets_Permitting/MapServer/2","title":"Street light L010219"},"type":"Feature"},{"geometry":{"coordinates":[-90.2193932116709,38.58487445151259],"type":"Point"},"id":"stl-city-public-streetlights:2:117495","properties":{"address":null,"attributes":{"Date_Installed":null,"LED_Powered":0,"LightID":"L010220","Light_Source":"LED","Light_Type":"Cobra","Lighting_Type":"LED-Powered Lamp","Verification_Date":null},"id":"stl-city-public-streetlights:2:117495","sourceLayerId":2,"sourceObjectId":117495,"sourceURL":"https://maps8.stlouis-mo.gov/arcgis/rest/services/STREETS/Streets_Permitting/MapServer/2","title":"Street light L010220"},"type":"Feature"},{"geometry":{"coordinates":[-90.21901851211415,38.58489357502351],"type":"Point"},"id":"stl-city-public-streetlights:2:117496","properties":{"address":null,"attributes":{"Date_Installed":null,"LED_Powered":0,"LightID":"L010221","Light_Source":"LED","Light_Type":"Cobra","Lighting_Type":"LED-Powered Lamp","Verification_Date":null},"id":"stl-city-public-streetlights:2:117496","sourceLayerId":2,"sourceObjectId":117496,"sourceURL":"https://maps8.stlouis-mo.gov/arcgis/rest/services/STREETS/Streets_Permitting/MapServer/2","title":"Street light L010221"},"type":"Feature"},{"geometry":{"coordinates":[-90.21863664683636,38.5851615313396],"type":"Point"},"id":"stl-city-public-streetlights:2:117497","properties":{"address":null,"attributes":{"Date_Installed":null,"LED_Powered":0,"LightID":"L010222","Light_Source":"LED","Light_Type":"Cobra","Lighting_Type":"LED-Powered Lamp","Verification_Date":null},"id":"stl-city-public-streetlights:2:117497","sourceLayerId":2,"sourceObjectId":117497,"sourceURL":"https://maps8.stlouis-mo.gov/arcgis/rest/services/STREETS/Streets_Permitting/MapServer/2","title":"Street light L010222"},"type":"Feature"},{"geometry":{"coordinates":[-90.21830808156035,38.58995895436878],"type":"Point"},"id":"stl-city-public-streetlights:2:118340","properties":{"address":null,"attributes":{"Date_Installed":"6/15/2017","LED_Powered":1,"LightID":"L011065","Light_Source":"LED","Light_Type":"Cobra","Lighting_Type":"LED-Powered Lamp","Verification_Date":null},"id":"stl-city-public-streetlights:2:118340","sourceLayerId":2,"sourceObjectId":118340,"sourceURL":"https://maps8.stlouis-mo.gov/arcgis/rest/services/STREETS/Streets_Permitting/MapServer/2","title":"Street light L011065"},"type":"Feature"},{"geometry":{"coordinates":[-90.21883896019443,38.589828892811184],"type":"Point"},"id":"stl-city-public-streetlights:2:118341","properties":{"address":null,"attributes":{"Date_Installed":"6/15/2017","LED_Powered":1,"LightID":"L011066","Light_Source":"LED","Light_Type":"Cobra","Lighting_Type":"LED-Powered Lamp","Verification_Date":null},"id":"stl-city-public-streetlights:2:118341","sourceLayerId":2,"sourceObjectId":118341,"sourceURL":"https://maps8.stlouis-mo.gov/arcgis/rest/services/STREETS/Streets_Permitting/MapServer/2","title":"Street light L011066"},"type":"Feature"},{"geometry":{"coordinates":[-90.21934155576842,38.58971747264082],"type":"Point"},"id":"stl-city-public-streetlights:2:118342","properties":{"address":null,"attributes":{"Date_Installed":"6/15/2017","LED_Powered":1,"LightID":"L011067","Light_Source":"LED","Light_Type":"Cobra","Lighting_Type":"LED-Powered Lamp","Verification_Date":null},"id":"stl-city-public-streetlights:2:118342","sourceLayerId":2,"sourceObjectId":118342,"sourceURL":"https://maps8.stlouis-mo.gov/arcgis/rest/services/STREETS/Streets_Permitting/MapServer/2","title":"Street light L011067"},"type":"Feature"},{"geometry":{"coordinates":[-90.21996528885795,38.58963113018208],"type":"Point"},"id":"stl-city-public-streetlights:2:118343","properties":{"address":null,"attributes":{"Date_Installed":"6/15/2017","LED_Powered":1,"LightID":"L011068","Light_Source":"LED","Light_Type":"Cobra","Lighting_Type":"LED-Powered Lamp","Verification_Date":null},"id":"stl-city-public-streetlights:2:118343","sourceLayerId":2,"sourceObjectId":118343,"sourceURL":"https://maps8.stlouis-mo.gov/arcgis/rest/services/STREETS/Streets_Permitting/MapServer/2","title":"Street light L011068"},"type":"Feature"},{"geometry":{"coordinates":[-90.21991788329281,38.588987672994435],"type":"Point"},"id":"stl-city-public-streetlights:2:118362","properties":{"address":null,"attributes":{"Date_Installed":"4/10/2020","LED_Powered":1,"LightID":"L011087","Light_Source":"LED","Light_Type":"Cobra","Lighting_Type":"LED-Powered Lamp","Verification_Date":null},"id":"stl-city-public-streetlights:2:118362","sourceLayerId":2,"sourceObjectId":118362,"sourceURL":"https://maps8.stlouis-mo.gov/arcgis/rest/services/STREETS/Streets_Permitting/MapServer/2","title":"Street light L011087"},"type":"Feature"},{"geometry":{"coordinates":[-90.2194980595407,38.588932025494636],"type":"Point"},"id":"stl-city-public-streetlights:2:118363","properties":{"address":null,"attributes":{"Date_Installed":"4/10/2020","LED_Powered":1,"LightID":"L011088","Light_Source":"LED","Light_Type":"Cobra","Lighting_Type":"LED-Powered Lamp","Verification_Date":null},"id":"stl-city-public-streetlights:2:118363","sourceLayerId":2,"sourceObjectId":118363,"sourceURL":"https://maps8.stlouis-mo.gov/arcgis/rest/services/STREETS/Streets_Permitting/MapServer/2","title":"Street light L011088"},"type":"Feature"},{"geometry":{"coordinates":[-90.21924567916203,38.588950687831286],"type":"Point"},"id":"stl-city-public-streetlights:2:118364","properties":{"address":null,"attributes":{"Date_Installed":"4/10/2020","LED_Powered":1,"LightID":"L011089","Light_Source":"LED","Light_Type":"Cobra","Lighting_Type":"LED-Powered Lamp","Verification_Date":null},"id":"stl-city-public-streetlights:2:118364","sourceLayerId":2,"sourceObjectId":118364,"sourceURL":"https://maps8.stlouis-mo.gov/arcgis/rest/services/STREETS/Streets_Permitting/MapServer/2","title":"Street light L011089"},"type":"Feature"},{"geometry":{"coordinates":[-90.21895412766013,38.58912767282862],"type":"Point"},"id":"stl-city-public-streetlights:2:118365","properties":{"address":null,"attributes":{"Date_Installed":"4/10/2020","LED_Powered":1,"LightID":"L011090","Light_Source":"LED","Light_Type":"Cobra","Lighting_Type":"LED-Powered Lamp","Verification_Date":null},"id":"stl-city-public-streetlights:2:118365","sourceLayerId":2,"sourceObjectId":118365,"sourceURL":"https://maps8.stlouis-mo.gov/arcgis/rest/services/STREETS/Streets_Permitting/MapServer/2","title":"Street light L011090"},"type":"Feature"},{"geometry":{"coordinates":[-90.21853222778039,38.58938269736368],"type":"Point"},"id":"stl-city-public-streetlights:2:118366","properties":{"address":null,"attributes":{"Date_Installed":"4/10/2020","LED_Powered":1,"LightID":"L011091","Light_Source":"LED","Light_Type":"Cobra","Lighting_Type":"LED-Powered Lamp","Verification_Date":null},"id":"stl-city-public-streetlights:2:118366","sourceLayerId":2,"sourceObjectId":118366,"sourceURL":"https://maps8.stlouis-mo.gov/arcgis/rest/services/STREETS/Streets_Permitting/MapServer/2","title":"Street light L011091"},"type":"Feature"},{"geometry":{"coordinates":[-90.21859502860653,38.589547198028455],"type":"Point"},"id":"stl-city-public-streetlights:2:118367","properties":{"address":null,"attributes":{"Date_Installed":"4/10/2020","LED_Powered":1,"LightID":"L011092","Light_Source":"LED","Light_Type":"Cobra","Lighting_Type":"LED-Powered Lamp","Verification_Date":null},"id":"stl-city-public-streetlights:2:118367","sourceLayerId":2,"sourceObjectId":118367,"sourceURL":"https://maps8.stlouis-mo.gov/arcgis/rest/services/STREETS/Streets_Permitting/MapServer/2","title":"Street light L011092"},"type":"Feature"},{"geometry":{"coordinates":[-90.21843868410313,38.589304095264445],"type":"Point"},"id":"stl-city-public-streetlights:2:118368","properties":{"address":null,"attributes":{"Date_Installed":"4/10/2020","LED_Powered":1,"LightID":"L011093","Light_Source":"LED","Light_Type":"Cobra","Lighting_Type":"LED-Powered Lamp","Verification_Date":null},"id":"stl-city-public-streetlights:2:118368","sourceLayerId":2,"sourceObjectId":118368,"sourceURL":"https://maps8.stlouis-mo.gov/arcgis/rest/services/STREETS/Streets_Permitting/MapServer/2","title":"Street light L011093"},"type":"Feature"},{"geometry":{"coordinates":[-90.21826964899543,38.5892457329178],"type":"Point"},"id":"stl-city-public-streetlights:2:118369","properties":{"address":null,"attributes":{"Date_Installed":"4/10/2020","LED_Powered":1,"LightID":"L011094","Light_Source":"LED","Light_Type":"Cobra","Lighting_Type":"LED-Powered Lamp","Verification_Date":null},"id":"stl-city-public-streetlights:2:118369","sourceLayerId":2,"sourceObjectId":118369,"sourceURL":"https://maps8.stlouis-mo.gov/arcgis/rest/services/STREETS/Streets_Permitting/MapServer/2","title":"Street light L011094"},"type":"Feature"},{"geometry":{"coordinates":[-90.21796609386338,38.58895568879908],"type":"Point"},"id":"stl-city-public-streetlights:2:118370","properties":{"address":null,"attributes":{"Date_Installed":"4/10/2020","LED_Powered":1,"LightID":"L011095","Light_Source":"LED","Light_Type":"Cobra","Lighting_Type":"LED-Powered Lamp","Verification_Date":null},"id":"stl-city-public-streetlights:2:118370","sourceLayerId":2,"sourceObjectId":118370,"sourceURL":"https://maps8.stlouis-mo.gov/arcgis/rest/services/STREETS/Streets_Permitting/MapServer/2","title":"Street light L011095"},"type":"Feature"},{"geometry":{"coordinates":[-90.21763876843318,38.58864830553876],"type":"Point"},"id":"stl-city-public-streetlights:2:118371","properties":{"address":null,"attributes":{"Date_Installed":"4/10/2020","LED_Powered":1,"LightID":"L011096","Light_Source":"LED","Light_Type":"Cobra","Lighting_Type":"LED-Powered Lamp","Verification_Date":null},"id":"stl-city-public-streetlights:2:118371","sourceLayerId":2,"sourceObjectId":118371,"sourceURL":"https://maps8.stlouis-mo.gov/arcgis/rest/services/STREETS/Streets_Permitting/MapServer/2","title":"Street light L011096"},"type":"Feature"},{"geometry":{"coordinates":[-90.21733108904964,38.58836981461101],"type":"Point"},"id":"stl-city-public-streetlights:2:118372","properties":{"address":null,"attributes":{"Date_Installed":"4/10/2020","LED_Powered":1,"LightID":"L011097","Light_Source":"LED","Light_Type":"Cobra","Lighting_Type":"LED-Powered Lamp","Verification_Date":null},"id":"stl-city-public-streetlights:2:118372","sourceLayerId":2,"sourceObjectId":118372,"sourceURL":"https://maps8.stlouis-mo.gov/arcgis/rest/services/STREETS/Streets_Permitting/MapServer/2","title":"Street light L011097"},"type":"Feature"},{"geometry":{"coordinates":[-90.21704731454153,38.58809072120231],"type":"Point"},"id":"stl-city-public-streetlights:2:118373","properties":{"address":null,"attributes":{"Date_Installed":"4/10/2020","LED_Powered":1,"LightID":"L011098","Light_Source":"LED","Light_Type":"Cobra","Lighting_Type":"LED-Powered Lamp","Verification_Date":null},"id":"stl-city-public-streetlights:2:118373","sourceLayerId":2,"sourceObjectId":118373,"sourceURL":"https://maps8.stlouis-mo.gov/arcgis/rest/services/STREETS/Streets_Permitting/MapServer/2","title":"Street light L011098"},"type":"Feature"},{"geometry":{"coordinates":[-90.2167296020491,38.58779295315464],"type":"Point"},"id":"stl-city-public-streetlights:2:118374","properties":{"address":null,"attributes":{"Date_Installed":"4/10/2020","LED_Powered":1,"LightID":"L011099","Light_Source":"LED","Light_Type":"Cobra","Lighting_Type":"LED-Powered Lamp","Verification_Date":null},"id":"stl-city-public-streetlights:2:118374","sourceLayerId":2,"sourceObjectId":118374,"sourceURL":"https://maps8.stlouis-mo.gov/arcgis/rest/services/STREETS/Streets_Permitting/MapServer/2","title":"Street light L011099"},"type":"Feature"},{"geometry":{"coordinates":[-90.21641061954405,38.58749073072562],"type":"Point"},"id":"stl-city-public-streetlights:2:118375","properties":{"address":null,"attributes":{"Date_Installed":"4/10/2020","LED_Powered":1,"LightID":"L011100","Light_Source":"LED","Light_Type":"Cobra","Lighting_Type":"LED-Powered Lamp","Verification_Date":null},"id":"stl-city-public-streetlights:2:118375","sourceLayerId":2,"sourceObjectId":118375,"sourceURL":"https://maps8.stlouis-mo.gov/arcgis/rest/services/STREETS/Streets_Permitting/MapServer/2","title":"Street light L011100"},"type":"Feature"},{"geometry":{"coordinates":[-90.21747867216558,38.588910504427105],"type":"Point"},"id":"stl-city-public-streetlights:2:118376","properties":{"address":null,"attributes":{"Date_Installed":"4/10/2020","LED_Powered":1,"LightID":"L011101","Light_Source":"LED","Light_Type":"Cobra","Lighting_Type":"LED-Powered Lamp","Verification_Date":null},"id":"stl-city-public-streetlights:2:118376","sourceLayerId":2,"sourceObjectId":118376,"sourceURL":"https://maps8.stlouis-mo.gov/arcgis/rest/services/STREETS/Streets_Permitting/MapServer/2","title":"Street light L011101"},"type":"Feature"},{"geometry":{"coordinates":[-90.21691375909424,38.58909449258021],"type":"Point"},"id":"stl-city-public-streetlights:2:118377","properties":{"address":null,"attributes":{"Date_Installed":"4/10/2020","LED_Powered":1,"LightID":"L011102","Light_Source":"LED","Light_Type":"Cobra","Lighting_Type":"LED-Powered Lamp","Verification_Date":null},"id":"stl-city-public-streetlights:2:118377","sourceLayerId":2,"sourceObjectId":118377,"sourceURL":"https://maps8.stlouis-mo.gov/arcgis/rest/services/STREETS/Streets_Permitting/MapServer/2","title":"Street light L011102"},"type":"Feature"},{"geometry":{"coordinates":[-90.21657108527154,38.58930475681172],"type":"Point"},"id":"stl-city-public-streetlights:2:118378","properties":{"address":null,"attributes":{"Date_Installed":"4/10/2020","LED_Powered":1,"LightID":"L011103","Light_Source":"LED","Light_Type":"Cobra","Lighting_Type":"LED-Powered Lamp","Verification_Date":null},"id":"stl-city-public-streetlights:2:118378","sourceLayerId":2,"sourceObjectId":118378,"sourceURL":"https://maps8.stlouis-mo.gov/arcgis/rest/services/STREETS/Streets_Permitting/MapServer/2","title":"Street light L011103"},"type":"Feature"},{"geometry":{"coordinates":[-90.21618934512216,38.58953266035085],"type":"Point"},"id":"stl-city-public-streetlights:2:118379","properties":{"address":null,"attributes":{"Date_Installed":"4/10/2020","LED_Powered":1,"LightID":"L011104","Light_Source":"LED","Light_Type":"Cobra","Lighting_Type":"LED-Powered Lamp","Verification_Date":null},"id":"stl-city-public-streetlights:2:118379","sourceLayerId":2,"sourceObjectId":118379,"sourceURL":"https://maps8.stlouis-mo.gov/arcgis/rest/services/STREETS/Streets_Permitting/MapServer/2","title":"Street light L011104"},"type":"Feature"},{"geometry":{"coordinates":[-90.21219508054362,38.58768812246537],"type":"Point"},"id":"stl-city-public-streetlights:2:127943","properties":{"address":null,"attributes":{"Date_Installed":null,"LED_Powered":0,"LightID":"L020659","Light_Source":"High Pressure Sodium","Light_Type":"Cobra","Lighting_Type":"Wood Pole Utility","Verification_Date":null},"id":"stl-city-public-streetlights:2:127943","sourceLayerId":2,"sourceObjectId":127943,"sourceURL":"https://maps8.stlouis-mo.gov/arcgis/rest/services/STREETS/Streets_Permitting/MapServer/2","title":"Street light L020659"},"type":"Feature"},{"geometry":{"coordinates":[-90.21251631449684,38.58801189330975],"type":"Point"},"id":"stl-city-public-streetlights:2:127944","properties":{"address":null,"attributes":{"Date_Installed":null,"LED_Powered":0,"LightID":"L020660","Light_Source":null,"Light_Type":"Cobra","Lighting_Type":"Wood Pole Utility","Verification_Date":null},"id":"stl-city-public-streetlights:2:127944","sourceLayerId":2,"sourceObjectId":127944,"sourceURL":"https://maps8.stlouis-mo.gov/arcgis/rest/services/STREETS/Streets_Permitting/MapServer/2","title":"Street light L020660"},"type":"Feature"},{"geometry":{"coordinates":[-90.21279422828069,38.58827148699831],"type":"Point"},"id":"stl-city-public-streetlights:2:127945","properties":{"address":null,"attributes":{"Date_Installed":null,"LED_Powered":0,"LightID":"L020661","Light_Source":null,"Light_Type":"Cobra","Lighting_Type":"Wood Pole Utility","Verification_Date":null},"id":"stl-city-public-streetlights:2:127945","sourceLayerId":2,"sourceObjectId":127945,"sourceURL":"https://maps8.stlouis-mo.gov/arcgis/rest/services/STREETS/Streets_Permitting/MapServer/2","title":"Street light L020661"},"type":"Feature"},{"geometry":{"coordinates":[-90.21343783359289,38.58885399241898],"type":"Point"},"id":"stl-city-public-streetlights:2:127946","properties":{"address":null,"attributes":{"Date_Installed":null,"LED_Powered":0,"LightID":"L020662","Light_Source":"High Pressure Sodium","Light_Type":"Cobra","Lighting_Type":"250-W High Pressure Sodium Vapor Lamp","Verification_Date":null},"id":"stl-city-public-streetlights:2:127946","sourceLayerId":2,"sourceObjectId":127946,"sourceURL":"https://maps8.stlouis-mo.gov/arcgis/rest/services/STREETS/Streets_Permitting/MapServer/2","title":"Street light L020662"},"type":"Feature"},{"geometry":{"coordinates":[-90.21310822031701,38.58908037660391],"type":"Point"},"id":"stl-city-public-streetlights:2:127947","properties":{"address":null,"attributes":{"Date_Installed":null,"LED_Powered":0,"LightID":"L020663","Light_Source":"High Pressure Sodium","Light_Type":"Cobra","Lighting_Type":"250-W High Pressure Sodium Vapor Lamp","Verification_Date":null},"id":"stl-city-public-streetlights:2:127947","sourceLayerId":2,"sourceObjectId":127947,"sourceURL":"https://maps8.stlouis-mo.gov/arcgis/rest/services/STREETS/Streets_Permitting/MapServer/2","title":"Street light L020663"},"type":"Feature"},{"geometry":{"coordinates":[-90.21279773605373,38.589258387210776],"type":"Point"},"id":"stl-city-public-streetlights:2:127948","properties":{"address":null,"attributes":{"Date_Installed":null,"LED_Powered":0,"LightID":"L020664","Light_Source":"High Pressure Sodium","Light_Type":"Cobra","Lighting_Type":"250-W High Pressure Sodium Vapor Lamp","Verification_Date":null},"id":"stl-city-public-streetlights:2:127948","sourceLayerId":2,"sourceObjectId":127948,"sourceURL":"https://maps8.stlouis-mo.gov/arcgis/rest/services/STREETS/Streets_Permitting/MapServer/2","title":"Street light L020664"},"type":"Feature"},{"geometry":{"coordinates":[-90.21245165949989,38.58945061127693],"type":"Point"},"id":"stl-city-public-streetlights:2:127949","properties":{"address":null,"attributes":{"Date_Installed":null,"LED_Powered":0,"LightID":"L020665","Light_Source":"High Pressure Sodium","Light_Type":"Cobra","Lighting_Type":"250-W High Pressure Sodium Vapor Lamp","Verification_Date":null},"id":"stl-city-public-streetlights:2:127949","sourceLayerId":2,"sourceObjectId":127949,"sourceURL":"https://maps8.stlouis-mo.gov/arcgis/rest/services/STREETS/Streets_Permitting/MapServer/2","title":"Street light L020665"},"type":"Feature"},{"geometry":{"coordinates":[-90.21213382902874,38.58948981086042],"type":"Point"},"id":"stl-city-public-streetlights:2:127950","properties":{"address":null,"attributes":{"Date_Installed":null,"LED_Powered":0,"LightID":"L020666","Light_Source":"High Pressure Sodium","Light_Type":"Cobra","Lighting_Type":"250-W High Pressure Sodium Vapor Lamp","Verification_Date":null},"id":"stl-city-public-streetlights:2:127950","sourceLayerId":2,"sourceObjectId":127950,"sourceURL":"https://maps8.stlouis-mo.gov/arcgis/rest/services/STREETS/Streets_Permitting/MapServer/2","title":"Street light L020666"},"type":"Feature"},{"geometry":{"coordinates":[-90.2123799551021,38.58972460758883],"type":"Point"},"id":"stl-city-public-streetlights:2:127951","properties":{"address":null,"attributes":{"Date_Installed":null,"LED_Powered":0,"LightID":"L020667","Light_Source":"High Pressure Sodium","Light_Type":"Cobra","Lighting_Type":"250-W High Pressure Sodium Vapor Lamp","Verification_Date":null},"id":"stl-city-public-streetlights:2:127951","sourceLayerId":2,"sourceObjectId":127951,"sourceURL":"https://maps8.stlouis-mo.gov/arcgis/rest/services/STREETS/Streets_Permitting/MapServer/2","title":"Street light L020667"},"type":"Feature"},{"geometry":{"coordinates":[-90.21261882746792,38.58995068512474],"type":"Point"},"id":"stl-city-public-streetlights:2:127952","properties":{"address":null,"attributes":{"Date_Installed":null,"LED_Powered":0,"LightID":"L020668","Light_Source":"High Pressure Sodium","Light_Type":"Cobra","Lighting_Type":"250-W High Pressure Sodium Vapor Lamp","Verification_Date":null},"id":"stl-city-public-streetlights:2:127952","sourceLayerId":2,"sourceObjectId":127952,"sourceURL":"https://maps8.stlouis-mo.gov/arcgis/rest/services/STREETS/Streets_Permitting/MapServer/2","title":"Street light L020668"},"type":"Feature"},{"geometry":{"coordinates":[-90.215792407861,38.58976273022357],"type":"Point"},"id":"stl-city-public-streetlights:2:127957","properties":{"address":null,"attributes":{"Date_Installed":null,"LED_Powered":0,"LightID":"L020673","Light_Source":"High Pressure Sodium","Light_Type":"Cobra","Lighting_Type":"400-W High Pressure Sodium Vapor Lamp","Verification_Date":null},"id":"stl-city-public-streetlights:2:127957","sourceLayerId":2,"sourceObjectId":127957,"sourceURL":"https://maps8.stlouis-mo.gov/arcgis/rest/services/STREETS/Streets_Permitting/MapServer/2","title":"Street light L020673"},"type":"Feature"},{"geometry":{"coordinates":[-90.21549253373925,38.5899270071305],"type":"Point"},"id":"stl-city-public-streetlights:2:127958","properties":{"address":null,"attributes":{"Date_Installed":null,"LED_Powered":0,"LightID":"L020674","Light_Source":"High Pressure Sodium","Light_Type":"Cobra","Lighting_Type":"400-W High Pressure Sodium Vapor Lamp","Verification_Date":null},"id":"stl-city-public-streetlights:2:127958","sourceLayerId":2,"sourceObjectId":127958,"sourceURL":"https://maps8.stlouis-mo.gov/arcgis/rest/services/STREETS/Streets_Permitting/MapServer/2","title":"Street light L020674"},"type":"Feature"},{"geometry":{"coordinates":[-90.21933853265419,38.58581687956582],"type":"Point"},"id":"stl-city-public-streetlights:2:130401","properties":{"address":null,"attributes":{"Date_Installed":"4/10/2020","LED_Powered":1,"LightID":"L023117","Light_Source":"LED","Light_Type":"Cobra","Lighting_Type":"LED-Powered Lamp","Verification_Date":null},"id":"stl-city-public-streetlights:2:130401","sourceLayerId":2,"sourceObjectId":130401,"sourceURL":"https://maps8.stlouis-mo.gov/arcgis/rest/services/STREETS/Streets_Permitting/MapServer/2","title":"Street light L023117"},"type":"Feature"},{"geometry":{"coordinates":[-90.21973067303607,38.585999450906804],"type":"Point"},"id":"stl-city-public-streetlights:2:130402","properties":{"address":null,"attributes":{"Date_Installed":"4/10/2020","LED_Powered":1,"LightID":"L023118","Light_Source":"LED","Light_Type":"Cobra","Lighting_Type":"LED-Powered Lamp","Verification_Date":null},"id":"stl-city-public-streetlights:2:130402","sourceLayerId":2,"sourceObjectId":130402,"sourceURL":"https://maps8.stlouis-mo.gov/arcgis/rest/services/STREETS/Streets_Permitting/MapServer/2","title":"Street light L023118"},"type":"Feature"},{"geometry":{"coordinates":[-90.21967914928804,38.589487903544914],"type":"Point"},"id":"stl-city-public-streetlights:2:130432","properties":{"address":null,"attributes":{"Date_Installed":"6/15/2017","LED_Powered":1,"LightID":"L023148","Light_Source":"LED","Light_Type":"Cobra","Lighting_Type":"LED-Powered Lamp","Verification_Date":null},"id":"stl-city-public-streetlights:2:130432","sourceLayerId":2,"sourceObjectId":130432,"sourceURL":"https://maps8.stlouis-mo.gov/arcgis/rest/services/STREETS/Streets_Permitting/MapServer/2","title":"Street light L023148"},"type":"Feature"},{"geometry":{"coordinates":[-90.21909433370408,38.58958256217907],"type":"Point"},"id":"stl-city-public-streetlights:2:130433","properties":{"address":null,"attributes":{"Date_Installed":"6/15/2017","LED_Powered":1,"LightID":"L023149","Light_Source":"LED","Light_Type":"Cobra","Lighting_Type":"LED-Powered Lamp","Verification_Date":null},"id":"stl-city-public-streetlights:2:130433","sourceLayerId":2,"sourceObjectId":130433,"sourceURL":"https://maps8.stlouis-mo.gov/arcgis/rest/services/STREETS/Streets_Permitting/MapServer/2","title":"Street light L023149"},"type":"Feature"},{"geometry":{"coordinates":[-90.21848168893867,38.58971547869176],"type":"Point"},"id":"stl-city-public-streetlights:2:130434","properties":{"address":null,"attributes":{"Date_Installed":"6/15/2017","LED_Powered":1,"LightID":"L023150","Light_Source":"LED","Light_Type":"Cobra","Lighting_Type":"LED-Powered Lamp","Verification_Date":null},"id":"stl-city-public-streetlights:2:130434","sourceLayerId":2,"sourceObjectId":130434,"sourceURL":"https://maps8.stlouis-mo.gov/arcgis/rest/services/STREETS/Streets_Permitting/MapServer/2","title":"Street light L023150"},"type":"Feature"},{"geometry":{"coordinates":[-90.21794007336611,38.58989895303257],"type":"Point"},"id":"stl-city-public-streetlights:2:130435","properties":{"address":null,"attributes":{"Date_Installed":"6/15/2017","LED_Powered":1,"LightID":"L023151","Light_Source":"LED","Light_Type":"Cobra","Lighting_Type":"LED-Powered Lamp","Verification_Date":null},"id":"stl-city-public-streetlights:2:130435","sourceLayerId":2,"sourceObjectId":130435,"sourceURL":"https://maps8.stlouis-mo.gov/arcgis/rest/services/STREETS/Streets_Permitting/MapServer/2","title":"Street light L023151"},"type":"Feature"},{"geometry":{"coordinates":[-90.21923634028963,38.58990715088585],"type":"Point"},"id":"stl-city-public-streetlights:2:130464","properties":{"address":null,"attributes":{"Date_Installed":null,"LED_Powered":0,"LightID":"L023180","Light_Source":"LED","Light_Type":"Cobra","Lighting_Type":"LED-Powered Lamp","Verification_Date":null},"id":"stl-city-public-streetlights:2:130464","sourceLayerId":2,"sourceObjectId":130464,"sourceURL":"https://maps8.stlouis-mo.gov/arcgis/rest/services/STREETS/Streets_Permitting/MapServer/2","title":"Street light L023180"},"type":"Feature"},{"geometry":{"coordinates":[-90.21269363483789,38.58735884799456],"type":"Point"},"id":"stl-city-public-streetlights:2:159675","properties":{"address":null,"attributes":{"Date_Installed":null,"LED_Powered":0,"LightID":"L052606","Light_Source":"High Pressure Sodium","Light_Type":"5G Pole - 1A","Lighting_Type":"Wood Pole Utility","Verification_Date":null},"id":"stl-city-public-streetlights:2:159675","sourceLayerId":2,"sourceObjectId":159675,"sourceURL":"https://maps8.stlouis-mo.gov/arcgis/rest/services/STREETS/Streets_Permitting/MapServer/2","title":"Street light L052606"},"type":"Feature"}],"layerId":"city-streetlights","retrievedAt":"2026-09-13T21:56:18.173251+00:00","schema":"property-infrastructure-geojson-v1","sourceId":"stl-city-public-streetlights","tileId":"-9022_3858","type":"FeatureCollection"}