{"features":[{"geometry":{"coordinates":[-90.26880052410421,38.53774941793507],"type":"Point"},"id":"stl-city-public-streetlights:2:107257","properties":{"address":null,"attributes":{"Date_Installed":"6/15/2017","LED_Powered":1,"LightID":"L000001","Light_Source":"LED","Light_Type":"Cobra","Lighting_Type":"LED-Powered Lamp","Verification_Date":null},"id":"stl-city-public-streetlights:2:107257","sourceLayerId":2,"sourceObjectId":107257,"sourceURL":"https://maps8.stlouis-mo.gov/arcgis/rest/services/STREETS/Streets_Permitting/MapServer/2","title":"Street light L000001"},"type":"Feature"},{"geometry":{"coordinates":[-90.26841437625899,38.53809381503463],"type":"Point"},"id":"stl-city-public-streetlights:2:107258","properties":{"address":null,"attributes":{"Date_Installed":"6/15/2017","LED_Powered":1,"LightID":"L000002","Light_Source":"LED","Light_Type":"Cobra","Lighting_Type":"LED-Powered Lamp","Verification_Date":null},"id":"stl-city-public-streetlights:2:107258","sourceLayerId":2,"sourceObjectId":107258,"sourceURL":"https://maps8.stlouis-mo.gov/arcgis/rest/services/STREETS/Streets_Permitting/MapServer/2","title":"Street light L000002"},"type":"Feature"},{"geometry":{"coordinates":[-90.26793226513266,38.538491142546206],"type":"Point"},"id":"stl-city-public-streetlights:2:107259","properties":{"address":null,"attributes":{"Date_Installed":"6/15/2017","LED_Powered":1,"LightID":"L000003","Light_Source":"LED","Light_Type":"Cobra","Lighting_Type":"LED-Powered Lamp","Verification_Date":null},"id":"stl-city-public-streetlights:2:107259","sourceLayerId":2,"sourceObjectId":107259,"sourceURL":"https://maps8.stlouis-mo.gov/arcgis/rest/services/STREETS/Streets_Permitting/MapServer/2","title":"Street light L000003"},"type":"Feature"},{"geometry":{"coordinates":[-90.26752628299512,38.53887599033101],"type":"Point"},"id":"stl-city-public-streetlights:2:107260","properties":{"address":null,"attributes":{"Date_Installed":"6/15/2017","LED_Powered":1,"LightID":"L000004","Light_Source":"LED","Light_Type":"Cobra","Lighting_Type":"LED-Powered Lamp","Verification_Date":null},"id":"stl-city-public-streetlights:2:107260","sourceLayerId":2,"sourceObjectId":107260,"sourceURL":"https://maps8.stlouis-mo.gov/arcgis/rest/services/STREETS/Streets_Permitting/MapServer/2","title":"Street light L000004"},"type":"Feature"},{"geometry":{"coordinates":[-90.26697358350668,38.53935967765366],"type":"Point"},"id":"stl-city-public-streetlights:2:107261","properties":{"address":null,"attributes":{"Date_Installed":"6/15/2017","LED_Powered":1,"LightID":"L000005","Light_Source":"LED","Light_Type":"Cobra","Lighting_Type":"LED-Powered Lamp","Verification_Date":null},"id":"stl-city-public-streetlights:2:107261","sourceLayerId":2,"sourceObjectId":107261,"sourceURL":"https://maps8.stlouis-mo.gov/arcgis/rest/services/STREETS/Streets_Permitting/MapServer/2","title":"Street light L000005"},"type":"Feature"},{"geometry":{"coordinates":[-90.26646102723994,38.53981536389201],"type":"Point"},"id":"stl-city-public-streetlights:2:107262","properties":{"address":null,"attributes":{"Date_Installed":"6/15/2017","LED_Powered":1,"LightID":"L000006","Light_Source":"LED","Light_Type":"Cobra","Lighting_Type":"LED-Powered Lamp","Verification_Date":null},"id":"stl-city-public-streetlights:2:107262","sourceLayerId":2,"sourceObjectId":107262,"sourceURL":"https://maps8.stlouis-mo.gov/arcgis/rest/services/STREETS/Streets_Permitting/MapServer/2","title":"Street light L000006"},"type":"Feature"},{"geometry":{"coordinates":[-90.26691805641012,38.53963773956085],"type":"Point"},"id":"stl-city-public-streetlights:2:107288","properties":{"address":null,"attributes":{"Date_Installed":"6/15/2017","LED_Powered":1,"LightID":"L000032","Light_Source":"LED","Light_Type":"Cobra","Lighting_Type":"LED-Powered Lamp","Verification_Date":null},"id":"stl-city-public-streetlights:2:107288","sourceLayerId":2,"sourceObjectId":107288,"sourceURL":"https://maps8.stlouis-mo.gov/arcgis/rest/services/STREETS/Streets_Permitting/MapServer/2","title":"Street light L000032"},"type":"Feature"},{"geometry":{"coordinates":[-90.26738964962382,38.53922511427226],"type":"Point"},"id":"stl-city-public-streetlights:2:107289","properties":{"address":null,"attributes":{"Date_Installed":"6/15/2017","LED_Powered":1,"LightID":"L000033","Light_Source":"LED","Light_Type":"Cobra","Lighting_Type":"LED-Powered Lamp","Verification_Date":null},"id":"stl-city-public-streetlights:2:107289","sourceLayerId":2,"sourceObjectId":107289,"sourceURL":"https://maps8.stlouis-mo.gov/arcgis/rest/services/STREETS/Streets_Permitting/MapServer/2","title":"Street light L000033"},"type":"Feature"},{"geometry":{"coordinates":[-90.2679114680125,38.53876424585024],"type":"Point"},"id":"stl-city-public-streetlights:2:107290","properties":{"address":null,"attributes":{"Date_Installed":"6/15/2017","LED_Powered":1,"LightID":"L000034","Light_Source":"LED","Light_Type":"Cobra","Lighting_Type":"LED-Powered Lamp","Verification_Date":null},"id":"stl-city-public-streetlights:2:107290","sourceLayerId":2,"sourceObjectId":107290,"sourceURL":"https://maps8.stlouis-mo.gov/arcgis/rest/services/STREETS/Streets_Permitting/MapServer/2","title":"Street light L000034"},"type":"Feature"},{"geometry":{"coordinates":[-90.2682734746663,38.538450845169365],"type":"Point"},"id":"stl-city-public-streetlights:2:107291","properties":{"address":null,"attributes":{"Date_Installed":"6/15/2017","LED_Powered":1,"LightID":"L000035","Light_Source":"LED","Light_Type":"Cobra","Lighting_Type":"LED-Powered Lamp","Verification_Date":null},"id":"stl-city-public-streetlights:2:107291","sourceLayerId":2,"sourceObjectId":107291,"sourceURL":"https://maps8.stlouis-mo.gov/arcgis/rest/services/STREETS/Streets_Permitting/MapServer/2","title":"Street light L000035"},"type":"Feature"},{"geometry":{"coordinates":[-90.26882087720726,38.53795829787303],"type":"Point"},"id":"stl-city-public-streetlights:2:107292","properties":{"address":null,"attributes":{"Date_Installed":"6/15/2017","LED_Powered":1,"LightID":"L000036","Light_Source":"LED","Light_Type":"Cobra","Lighting_Type":"LED-Powered Lamp","Verification_Date":null},"id":"stl-city-public-streetlights:2:107292","sourceLayerId":2,"sourceObjectId":107292,"sourceURL":"https://maps8.stlouis-mo.gov/arcgis/rest/services/STREETS/Streets_Permitting/MapServer/2","title":"Street light L000036"},"type":"Feature"},{"geometry":{"coordinates":[-90.26523340977403,38.53981232324352],"type":"Point"},"id":"stl-city-public-streetlights:2:107302","properties":{"address":null,"attributes":{"Date_Installed":null,"LED_Powered":0,"LightID":"L000046","Light_Source":"LED","Light_Type":"Cobra","Lighting_Type":"LED-Powered Lamp","Verification_Date":null},"id":"stl-city-public-streetlights:2:107302","sourceLayerId":2,"sourceObjectId":107302,"sourceURL":"https://maps8.stlouis-mo.gov/arcgis/rest/services/STREETS/Streets_Permitting/MapServer/2","title":"Street light L000046"},"type":"Feature"},{"geometry":{"coordinates":[-90.26489936652153,38.539584960072474],"type":"Point"},"id":"stl-city-public-streetlights:2:107303","properties":{"address":null,"attributes":{"Date_Installed":null,"LED_Powered":0,"LightID":"L000047","Light_Source":"LED","Light_Type":"Cobra","Lighting_Type":"LED-Powered Lamp","Verification_Date":null},"id":"stl-city-public-streetlights:2:107303","sourceLayerId":2,"sourceObjectId":107303,"sourceURL":"https://maps8.stlouis-mo.gov/arcgis/rest/services/STREETS/Streets_Permitting/MapServer/2","title":"Street light L000047"},"type":"Feature"},{"geometry":{"coordinates":[-90.26456874959656,38.53936772179626],"type":"Point"},"id":"stl-city-public-streetlights:2:107304","properties":{"address":null,"attributes":{"Date_Installed":null,"LED_Powered":0,"LightID":"L000048","Light_Source":"LED","Light_Type":"Cobra","Lighting_Type":"LED-Powered Lamp","Verification_Date":null},"id":"stl-city-public-streetlights:2:107304","sourceLayerId":2,"sourceObjectId":107304,"sourceURL":"https://maps8.stlouis-mo.gov/arcgis/rest/services/STREETS/Streets_Permitting/MapServer/2","title":"Street light L000048"},"type":"Feature"},{"geometry":{"coordinates":[-90.26412251433639,38.539191451704724],"type":"Point"},"id":"stl-city-public-streetlights:2:107305","properties":{"address":null,"attributes":{"Date_Installed":null,"LED_Powered":0,"LightID":"L000049","Light_Source":"LED","Light_Type":"Cobra","Lighting_Type":"LED-Powered Lamp","Verification_Date":null},"id":"stl-city-public-streetlights:2:107305","sourceLayerId":2,"sourceObjectId":107305,"sourceURL":"https://maps8.stlouis-mo.gov/arcgis/rest/services/STREETS/Streets_Permitting/MapServer/2","title":"Street light L000049"},"type":"Feature"},{"geometry":{"coordinates":[-90.26381869036271,38.53919572574194],"type":"Point"},"id":"stl-city-public-streetlights:2:107306","properties":{"address":null,"attributes":{"Date_Installed":null,"LED_Powered":0,"LightID":"L000050","Light_Source":"LED","Light_Type":"Cobra","Lighting_Type":"LED-Powered Lamp","Verification_Date":null},"id":"stl-city-public-streetlights:2:107306","sourceLayerId":2,"sourceObjectId":107306,"sourceURL":"https://maps8.stlouis-mo.gov/arcgis/rest/services/STREETS/Streets_Permitting/MapServer/2","title":"Street light L000050"},"type":"Feature"},{"geometry":{"coordinates":[-90.26352164095952,38.53945256065876],"type":"Point"},"id":"stl-city-public-streetlights:2:107307","properties":{"address":null,"attributes":{"Date_Installed":null,"LED_Powered":0,"LightID":"L000051","Light_Source":"LED","Light_Type":"Cobra","Lighting_Type":"LED-Powered Lamp","Verification_Date":null},"id":"stl-city-public-streetlights:2:107307","sourceLayerId":2,"sourceObjectId":107307,"sourceURL":"https://maps8.stlouis-mo.gov/arcgis/rest/services/STREETS/Streets_Permitting/MapServer/2","title":"Street light L000051"},"type":"Feature"},{"geometry":{"coordinates":[-90.26323070342137,38.539696057558956],"type":"Point"},"id":"stl-city-public-streetlights:2:107308","properties":{"address":null,"attributes":{"Date_Installed":null,"LED_Powered":0,"LightID":"L000052","Light_Source":"LED","Light_Type":"Cobra","Lighting_Type":"LED-Powered Lamp","Verification_Date":null},"id":"stl-city-public-streetlights:2:107308","sourceLayerId":2,"sourceObjectId":107308,"sourceURL":"https://maps8.stlouis-mo.gov/arcgis/rest/services/STREETS/Streets_Permitting/MapServer/2","title":"Street light L000052"},"type":"Feature"},{"geometry":{"coordinates":[-90.26292753039185,38.53996822907607],"type":"Point"},"id":"stl-city-public-streetlights:2:107309","properties":{"address":null,"attributes":{"Date_Installed":null,"LED_Powered":0,"LightID":"L000053","Light_Source":"LED","Light_Type":"Cobra","Lighting_Type":"LED-Powered Lamp","Verification_Date":null},"id":"stl-city-public-streetlights:2:107309","sourceLayerId":2,"sourceObjectId":107309,"sourceURL":"https://maps8.stlouis-mo.gov/arcgis/rest/services/STREETS/Streets_Permitting/MapServer/2","title":"Street light L000053"},"type":"Feature"},{"geometry":{"coordinates":[-90.26486916232763,38.539915390082186],"type":"Point"},"id":"stl-city-public-streetlights:2:107311","properties":{"address":null,"attributes":{"Date_Installed":null,"LED_Powered":0,"LightID":"L000055","Light_Source":"LED","Light_Type":"Cobra","Lighting_Type":"LED-Powered Lamp","Verification_Date":null},"id":"stl-city-public-streetlights:2:107311","sourceLayerId":2,"sourceObjectId":107311,"sourceURL":"https://maps8.stlouis-mo.gov/arcgis/rest/services/STREETS/Streets_Permitting/MapServer/2","title":"Street light L000055"},"type":"Feature"},{"geometry":{"coordinates":[-90.26311376079761,38.53964382709416],"type":"Point"},"id":"stl-city-public-streetlights:2:107316","properties":{"address":null,"attributes":{"Date_Installed":null,"LED_Powered":0,"LightID":"L000060","Light_Source":"LED","Light_Type":"Cobra","Lighting_Type":"LED-Powered Lamp","Verification_Date":null},"id":"stl-city-public-streetlights:2:107316","sourceLayerId":2,"sourceObjectId":107316,"sourceURL":"https://maps8.stlouis-mo.gov/arcgis/rest/services/STREETS/Streets_Permitting/MapServer/2","title":"Street light L000060"},"type":"Feature"},{"geometry":{"coordinates":[-90.26274567588139,38.53939895999588],"type":"Point"},"id":"stl-city-public-streetlights:2:107317","properties":{"address":null,"attributes":{"Date_Installed":null,"LED_Powered":0,"LightID":"L000061","Light_Source":"LED","Light_Type":"Cobra","Lighting_Type":"LED-Powered Lamp","Verification_Date":null},"id":"stl-city-public-streetlights:2:107317","sourceLayerId":2,"sourceObjectId":107317,"sourceURL":"https://maps8.stlouis-mo.gov/arcgis/rest/services/STREETS/Streets_Permitting/MapServer/2","title":"Street light L000061"},"type":"Feature"},{"geometry":{"coordinates":[-90.26238391542729,38.53919297411315],"type":"Point"},"id":"stl-city-public-streetlights:2:107318","properties":{"address":null,"attributes":{"Date_Installed":null,"LED_Powered":0,"LightID":"L000062","Light_Source":"LED","Light_Type":"Cobra","Lighting_Type":"LED-Powered Lamp","Verification_Date":null},"id":"stl-city-public-streetlights:2:107318","sourceLayerId":2,"sourceObjectId":107318,"sourceURL":"https://maps8.stlouis-mo.gov/arcgis/rest/services/STREETS/Streets_Permitting/MapServer/2","title":"Street light L000062"},"type":"Feature"},{"geometry":{"coordinates":[-90.26209084588137,38.53897689602583],"type":"Point"},"id":"stl-city-public-streetlights:2:107319","properties":{"address":null,"attributes":{"Date_Installed":null,"LED_Powered":0,"LightID":"L000063","Light_Source":"LED","Light_Type":"Cobra","Lighting_Type":"LED-Powered Lamp","Verification_Date":null},"id":"stl-city-public-streetlights:2:107319","sourceLayerId":2,"sourceObjectId":107319,"sourceURL":"https://maps8.stlouis-mo.gov/arcgis/rest/services/STREETS/Streets_Permitting/MapServer/2","title":"Street light L000063"},"type":"Feature"},{"geometry":{"coordinates":[-90.26170250789691,38.53875347376135],"type":"Point"},"id":"stl-city-public-streetlights:2:107614","properties":{"address":null,"attributes":{"Date_Installed":null,"LED_Powered":0,"LightID":"L000358","Light_Source":"High Pressure Sodium","Light_Type":"Cobra","Lighting_Type":"150-W High Pressure Sodium Vapor Lamp","Verification_Date":null},"id":"stl-city-public-streetlights:2:107614","sourceLayerId":2,"sourceObjectId":107614,"sourceURL":"https://maps8.stlouis-mo.gov/arcgis/rest/services/STREETS/Streets_Permitting/MapServer/2","title":"Street light L000358"},"type":"Feature"},{"geometry":{"coordinates":[-90.26131791498345,38.538499546886186],"type":"Point"},"id":"stl-city-public-streetlights:2:107615","properties":{"address":null,"attributes":{"Date_Installed":null,"LED_Powered":0,"LightID":"L000359","Light_Source":"High Pressure Sodium","Light_Type":"Cobra","Lighting_Type":"150-W High Pressure Sodium Vapor Lamp","Verification_Date":null},"id":"stl-city-public-streetlights:2:107615","sourceLayerId":2,"sourceObjectId":107615,"sourceURL":"https://maps8.stlouis-mo.gov/arcgis/rest/services/STREETS/Streets_Permitting/MapServer/2","title":"Street light L000359"},"type":"Feature"},{"geometry":{"coordinates":[-90.26102951146744,38.538306121686574],"type":"Point"},"id":"stl-city-public-streetlights:2:107616","properties":{"address":null,"attributes":{"Date_Installed":null,"LED_Powered":0,"LightID":"L000360","Light_Source":"High Pressure Sodium","Light_Type":"Cobra","Lighting_Type":"150-W High Pressure Sodium Vapor Lamp","Verification_Date":null},"id":"stl-city-public-streetlights:2:107616","sourceLayerId":2,"sourceObjectId":107616,"sourceURL":"https://maps8.stlouis-mo.gov/arcgis/rest/services/STREETS/Streets_Permitting/MapServer/2","title":"Street light L000360"},"type":"Feature"},{"geometry":{"coordinates":[-90.26069761691777,38.53808614821039],"type":"Point"},"id":"stl-city-public-streetlights:2:107617","properties":{"address":null,"attributes":{"Date_Installed":null,"LED_Powered":0,"LightID":"L000361","Light_Source":"High Pressure Sodium","Light_Type":"Cobra","Lighting_Type":"150-W High Pressure Sodium Vapor Lamp","Verification_Date":null},"id":"stl-city-public-streetlights:2:107617","sourceLayerId":2,"sourceObjectId":107617,"sourceURL":"https://maps8.stlouis-mo.gov/arcgis/rest/services/STREETS/Streets_Permitting/MapServer/2","title":"Street light L000361"},"type":"Feature"},{"geometry":{"coordinates":[-90.26034878585575,38.5378489768804],"type":"Point"},"id":"stl-city-public-streetlights:2:107618","properties":{"address":null,"attributes":{"Date_Installed":null,"LED_Powered":0,"LightID":"L000362","Light_Source":"High Pressure Sodium","Light_Type":"Cobra","Lighting_Type":"150-W High Pressure Sodium Vapor Lamp","Verification_Date":null},"id":"stl-city-public-streetlights:2:107618","sourceLayerId":2,"sourceObjectId":107618,"sourceURL":"https://maps8.stlouis-mo.gov/arcgis/rest/services/STREETS/Streets_Permitting/MapServer/2","title":"Street light L000362"},"type":"Feature"},{"geometry":{"coordinates":[-90.26244885941941,38.53897079858054],"type":"Point"},"id":"stl-city-public-streetlights:2:107620","properties":{"address":null,"attributes":{"Date_Installed":null,"LED_Powered":0,"LightID":"L000364","Light_Source":"High Pressure Sodium","Light_Type":"Cobra","Lighting_Type":"150-W High Pressure Sodium Vapor Lamp","Verification_Date":null},"id":"stl-city-public-streetlights:2:107620","sourceLayerId":2,"sourceObjectId":107620,"sourceURL":"https://maps8.stlouis-mo.gov/arcgis/rest/services/STREETS/Streets_Permitting/MapServer/2","title":"Street light L000364"},"type":"Feature"},{"geometry":{"coordinates":[-90.26212997682323,38.53922091086821],"type":"Point"},"id":"stl-city-public-streetlights:2:107621","properties":{"address":null,"attributes":{"Date_Installed":null,"LED_Powered":0,"LightID":"L000365","Light_Source":"LED","Light_Type":"Cobra","Lighting_Type":"LED-Powered Lamp","Verification_Date":null},"id":"stl-city-public-streetlights:2:107621","sourceLayerId":2,"sourceObjectId":107621,"sourceURL":"https://maps8.stlouis-mo.gov/arcgis/rest/services/STREETS/Streets_Permitting/MapServer/2","title":"Street light L000365"},"type":"Feature"},{"geometry":{"coordinates":[-90.26183719988178,38.539468691584105],"type":"Point"},"id":"stl-city-public-streetlights:2:107622","properties":{"address":null,"attributes":{"Date_Installed":null,"LED_Powered":0,"LightID":"L000366","Light_Source":"LED","Light_Type":"Cobra","Lighting_Type":"LED-Powered Lamp","Verification_Date":null},"id":"stl-city-public-streetlights:2:107622","sourceLayerId":2,"sourceObjectId":107622,"sourceURL":"https://maps8.stlouis-mo.gov/arcgis/rest/services/STREETS/Streets_Permitting/MapServer/2","title":"Street light L000366"},"type":"Feature"},{"geometry":{"coordinates":[-90.26155716028099,38.53971888219047],"type":"Point"},"id":"stl-city-public-streetlights:2:107623","properties":{"address":null,"attributes":{"Date_Installed":null,"LED_Powered":0,"LightID":"L000367","Light_Source":"LED","Light_Type":"Cobra","Lighting_Type":"LED-Powered Lamp","Verification_Date":null},"id":"stl-city-public-streetlights:2:107623","sourceLayerId":2,"sourceObjectId":107623,"sourceURL":"https://maps8.stlouis-mo.gov/arcgis/rest/services/STREETS/Streets_Permitting/MapServer/2","title":"Street light L000367"},"type":"Feature"},{"geometry":{"coordinates":[-90.26127954469521,38.539790373571584],"type":"Point"},"id":"stl-city-public-streetlights:2:107682","properties":{"address":null,"attributes":{"Date_Installed":null,"LED_Powered":0,"LightID":"L000426","Light_Source":"LED","Light_Type":"Cobra","Lighting_Type":"LED-Powered Lamp","Verification_Date":null},"id":"stl-city-public-streetlights:2:107682","sourceLayerId":2,"sourceObjectId":107682,"sourceURL":"https://maps8.stlouis-mo.gov/arcgis/rest/services/STREETS/Streets_Permitting/MapServer/2","title":"Street light L000426"},"type":"Feature"},{"geometry":{"coordinates":[-90.26092491948974,38.539558912947534],"type":"Point"},"id":"stl-city-public-streetlights:2:107683","properties":{"address":null,"attributes":{"Date_Installed":null,"LED_Powered":0,"LightID":"L000427","Light_Source":"LED","Light_Type":"Cobra","Lighting_Type":"LED-Powered Lamp","Verification_Date":null},"id":"stl-city-public-streetlights:2:107683","sourceLayerId":2,"sourceObjectId":107683,"sourceURL":"https://maps8.stlouis-mo.gov/arcgis/rest/services/STREETS/Streets_Permitting/MapServer/2","title":"Street light L000427"},"type":"Feature"},{"geometry":{"coordinates":[-90.26058392847237,38.53933462960525],"type":"Point"},"id":"stl-city-public-streetlights:2:107684","properties":{"address":null,"attributes":{"Date_Installed":null,"LED_Powered":0,"LightID":"L000428","Light_Source":"LED","Light_Type":"Cobra","Lighting_Type":"LED-Powered Lamp","Verification_Date":null},"id":"stl-city-public-streetlights:2:107684","sourceLayerId":2,"sourceObjectId":107684,"sourceURL":"https://maps8.stlouis-mo.gov/arcgis/rest/services/STREETS/Streets_Permitting/MapServer/2","title":"Street light L000428"},"type":"Feature"},{"geometry":{"coordinates":[-90.2613081811345,38.539937192957105],"type":"Point"},"id":"stl-city-public-streetlights:2:107690","properties":{"address":null,"attributes":{"Date_Installed":null,"LED_Powered":0,"LightID":"L000434","Light_Source":"LED","Light_Type":"Cobra","Lighting_Type":"LED-Powered Lamp","Verification_Date":null},"id":"stl-city-public-streetlights:2:107690","sourceLayerId":2,"sourceObjectId":107690,"sourceURL":"https://maps8.stlouis-mo.gov/arcgis/rest/services/STREETS/Streets_Permitting/MapServer/2","title":"Street light L000434"},"type":"Feature"},{"geometry":{"coordinates":[-90.26050197916094,38.53935508101713],"type":"Point"},"id":"stl-city-public-streetlights:2:107703","properties":{"address":null,"attributes":{"Date_Installed":null,"LED_Powered":0,"LightID":"L000447","Light_Source":"LED","Light_Type":"Cobra","Lighting_Type":"LED-Powered Lamp","Verification_Date":null},"id":"stl-city-public-streetlights:2:107703","sourceLayerId":2,"sourceObjectId":107703,"sourceURL":"https://maps8.stlouis-mo.gov/arcgis/rest/services/STREETS/Streets_Permitting/MapServer/2","title":"Street light L000447"},"type":"Feature"},{"geometry":{"coordinates":[-90.26016808239947,38.5396459177622],"type":"Point"},"id":"stl-city-public-streetlights:2:107704","properties":{"address":null,"attributes":{"Date_Installed":null,"LED_Powered":0,"LightID":"L000448","Light_Source":"LED","Light_Type":"Cobra","Lighting_Type":"LED-Powered Lamp","Verification_Date":null},"id":"stl-city-public-streetlights:2:107704","sourceLayerId":2,"sourceObjectId":107704,"sourceURL":"https://maps8.stlouis-mo.gov/arcgis/rest/services/STREETS/Streets_Permitting/MapServer/2","title":"Street light L000448"},"type":"Feature"}],"layerId":"city-streetlights","retrievedAt":"2026-09-13T21:56:18.173251+00:00","schema":"property-infrastructure-geojson-v1","sourceId":"stl-city-public-streetlights","tileId":"-9027_3853","type":"FeatureCollection"}