{"features":[{"geometry":{"coordinates":[-90.24824719538216,38.709804609227334],"type":"Point"},"id":"stl-city-public-streetlights:2:125720","properties":{"address":null,"attributes":{"Date_Installed":"4/13/20","LED_Powered":1,"LightID":"L018448","Light_Source":"LED","Light_Type":"Cobra","Lighting_Type":"LED-Powered Lamp","Verification_Date":null},"id":"stl-city-public-streetlights:2:125720","sourceLayerId":2,"sourceObjectId":125720,"sourceURL":"https://maps8.stlouis-mo.gov/arcgis/rest/services/STREETS/Streets_Permitting/MapServer/2","title":"Street light L018448"},"type":"Feature"},{"geometry":{"coordinates":[-90.24854981436357,38.70953008344547],"type":"Point"},"id":"stl-city-public-streetlights:2:125721","properties":{"address":null,"attributes":{"Date_Installed":"4/13/20","LED_Powered":1,"LightID":"L018449","Light_Source":"LED","Light_Type":"Cobra","Lighting_Type":"LED-Powered Lamp","Verification_Date":null},"id":"stl-city-public-streetlights:2:125721","sourceLayerId":2,"sourceObjectId":125721,"sourceURL":"https://maps8.stlouis-mo.gov/arcgis/rest/services/STREETS/Streets_Permitting/MapServer/2","title":"Street light L018449"},"type":"Feature"},{"geometry":{"coordinates":[-90.24891158441886,38.70935543007024],"type":"Point"},"id":"stl-city-public-streetlights:2:125722","properties":{"address":null,"attributes":{"Date_Installed":"4/13/20","LED_Powered":1,"LightID":"L018450","Light_Source":"LED","Light_Type":"Cobra","Lighting_Type":"LED-Powered Lamp","Verification_Date":null},"id":"stl-city-public-streetlights:2:125722","sourceLayerId":2,"sourceObjectId":125722,"sourceURL":"https://maps8.stlouis-mo.gov/arcgis/rest/services/STREETS/Streets_Permitting/MapServer/2","title":"Street light L018450"},"type":"Feature"},{"geometry":{"coordinates":[-90.24928877813251,38.70915603808212],"type":"Point"},"id":"stl-city-public-streetlights:2:125723","properties":{"address":null,"attributes":{"Date_Installed":"4/13/20","LED_Powered":1,"LightID":"L018451","Light_Source":"LED","Light_Type":"Cobra","Lighting_Type":"LED-Powered Lamp","Verification_Date":null},"id":"stl-city-public-streetlights:2:125723","sourceLayerId":2,"sourceObjectId":125723,"sourceURL":"https://maps8.stlouis-mo.gov/arcgis/rest/services/STREETS/Streets_Permitting/MapServer/2","title":"Street light L018451"},"type":"Feature"},{"geometry":{"coordinates":[-90.24953860866727,38.70890580130861],"type":"Point"},"id":"stl-city-public-streetlights:2:125724","properties":{"address":null,"attributes":{"Date_Installed":"4/13/20","LED_Powered":1,"LightID":"L018452","Light_Source":"LED","Light_Type":"Cobra","Lighting_Type":"LED-Powered Lamp","Verification_Date":null},"id":"stl-city-public-streetlights:2:125724","sourceLayerId":2,"sourceObjectId":125724,"sourceURL":"https://maps8.stlouis-mo.gov/arcgis/rest/services/STREETS/Streets_Permitting/MapServer/2","title":"Street light L018452"},"type":"Feature"},{"geometry":{"coordinates":[-90.24963933361158,38.708602130829405],"type":"Point"},"id":"stl-city-public-streetlights:2:125725","properties":{"address":null,"attributes":{"Date_Installed":"4/13/20","LED_Powered":1,"LightID":"L018453","Light_Source":"LED","Light_Type":"Cobra","Lighting_Type":"LED-Powered Lamp","Verification_Date":null},"id":"stl-city-public-streetlights:2:125725","sourceLayerId":2,"sourceObjectId":125725,"sourceURL":"https://maps8.stlouis-mo.gov/arcgis/rest/services/STREETS/Streets_Permitting/MapServer/2","title":"Street light L018453"},"type":"Feature"},{"geometry":{"coordinates":[-90.24939705621388,38.70849761981],"type":"Point"},"id":"stl-city-public-streetlights:2:125726","properties":{"address":null,"attributes":{"Date_Installed":"4/13/20","LED_Powered":1,"LightID":"L018454","Light_Source":"LED","Light_Type":"Cobra","Lighting_Type":"LED-Powered Lamp","Verification_Date":null},"id":"stl-city-public-streetlights:2:125726","sourceLayerId":2,"sourceObjectId":125726,"sourceURL":"https://maps8.stlouis-mo.gov/arcgis/rest/services/STREETS/Streets_Permitting/MapServer/2","title":"Street light L018454"},"type":"Feature"},{"geometry":{"coordinates":[-90.2491270316785,38.708814151876055],"type":"Point"},"id":"stl-city-public-streetlights:2:125727","properties":{"address":null,"attributes":{"Date_Installed":"4/13/20","LED_Powered":1,"LightID":"L018455","Light_Source":"LED","Light_Type":"Cobra","Lighting_Type":"LED-Powered Lamp","Verification_Date":null},"id":"stl-city-public-streetlights:2:125727","sourceLayerId":2,"sourceObjectId":125727,"sourceURL":"https://maps8.stlouis-mo.gov/arcgis/rest/services/STREETS/Streets_Permitting/MapServer/2","title":"Street light L018455"},"type":"Feature"},{"geometry":{"coordinates":[-90.24875476485776,38.70903359578802],"type":"Point"},"id":"stl-city-public-streetlights:2:125728","properties":{"address":null,"attributes":{"Date_Installed":"4/13/20","LED_Powered":1,"LightID":"L018456","Light_Source":"LED","Light_Type":"Cobra","Lighting_Type":"LED-Powered Lamp","Verification_Date":null},"id":"stl-city-public-streetlights:2:125728","sourceLayerId":2,"sourceObjectId":125728,"sourceURL":"https://maps8.stlouis-mo.gov/arcgis/rest/services/STREETS/Streets_Permitting/MapServer/2","title":"Street light L018456"},"type":"Feature"},{"geometry":{"coordinates":[-90.24841342402844,38.70921248803777],"type":"Point"},"id":"stl-city-public-streetlights:2:125729","properties":{"address":null,"attributes":{"Date_Installed":"4/13/20","LED_Powered":1,"LightID":"L018457","Light_Source":"LED","Light_Type":"Cobra","Lighting_Type":"LED-Powered Lamp","Verification_Date":null},"id":"stl-city-public-streetlights:2:125729","sourceLayerId":2,"sourceObjectId":125729,"sourceURL":"https://maps8.stlouis-mo.gov/arcgis/rest/services/STREETS/Streets_Permitting/MapServer/2","title":"Street light L018457"},"type":"Feature"},{"geometry":{"coordinates":[-90.24839409627084,38.70951926135384],"type":"Point"},"id":"stl-city-public-streetlights:2:125730","properties":{"address":null,"attributes":{"Date_Installed":"4/13/20","LED_Powered":1,"LightID":"L018458","Light_Source":"LED","Light_Type":"Cobra","Lighting_Type":"LED-Powered Lamp","Verification_Date":null},"id":"stl-city-public-streetlights:2:125730","sourceLayerId":2,"sourceObjectId":125730,"sourceURL":"https://maps8.stlouis-mo.gov/arcgis/rest/services/STREETS/Streets_Permitting/MapServer/2","title":"Street light L018458"},"type":"Feature"},{"geometry":{"coordinates":[-90.24913555861544,38.70903384131084],"type":"Point"},"id":"stl-city-public-streetlights:2:125731","properties":{"address":null,"attributes":{"Date_Installed":"4/13/20","LED_Powered":1,"LightID":"L018459","Light_Source":"LED","Light_Type":"Cobra","Lighting_Type":"LED-Powered Lamp","Verification_Date":null},"id":"stl-city-public-streetlights:2:125731","sourceLayerId":2,"sourceObjectId":125731,"sourceURL":"https://maps8.stlouis-mo.gov/arcgis/rest/services/STREETS/Streets_Permitting/MapServer/2","title":"Street light L018459"},"type":"Feature"},{"geometry":{"coordinates":[-90.249564166522,38.70827899404443],"type":"Point"},"id":"stl-city-public-streetlights:2:125732","properties":{"address":null,"attributes":{"Date_Installed":"4/13/20","LED_Powered":1,"LightID":"L018460","Light_Source":"LED","Light_Type":"Cobra","Lighting_Type":"LED-Powered Lamp","Verification_Date":null},"id":"stl-city-public-streetlights:2:125732","sourceLayerId":2,"sourceObjectId":125732,"sourceURL":"https://maps8.stlouis-mo.gov/arcgis/rest/services/STREETS/Streets_Permitting/MapServer/2","title":"Street light L018460"},"type":"Feature"},{"geometry":{"coordinates":[-90.24949419020639,38.70793274906279],"type":"Point"},"id":"stl-city-public-streetlights:2:125733","properties":{"address":null,"attributes":{"Date_Installed":"4/13/20","LED_Powered":1,"LightID":"L018461","Light_Source":"LED","Light_Type":"Cobra","Lighting_Type":"LED-Powered Lamp","Verification_Date":null},"id":"stl-city-public-streetlights:2:125733","sourceLayerId":2,"sourceObjectId":125733,"sourceURL":"https://maps8.stlouis-mo.gov/arcgis/rest/services/STREETS/Streets_Permitting/MapServer/2","title":"Street light L018461"},"type":"Feature"},{"geometry":{"coordinates":[-90.24946798802962,38.70759589308365],"type":"Point"},"id":"stl-city-public-streetlights:2:125734","properties":{"address":null,"attributes":{"Date_Installed":"4/13/20","LED_Powered":1,"LightID":"L018462","Light_Source":"LED","Light_Type":"Cobra","Lighting_Type":"LED-Powered Lamp","Verification_Date":null},"id":"stl-city-public-streetlights:2:125734","sourceLayerId":2,"sourceObjectId":125734,"sourceURL":"https://maps8.stlouis-mo.gov/arcgis/rest/services/STREETS/Streets_Permitting/MapServer/2","title":"Street light L018462"},"type":"Feature"},{"geometry":{"coordinates":[-90.24943756379301,38.70724830126781],"type":"Point"},"id":"stl-city-public-streetlights:2:125735","properties":{"address":null,"attributes":{"Date_Installed":"4/13/20","LED_Powered":1,"LightID":"L018463","Light_Source":"LED","Light_Type":"Cobra","Lighting_Type":"LED-Powered Lamp","Verification_Date":null},"id":"stl-city-public-streetlights:2:125735","sourceLayerId":2,"sourceObjectId":125735,"sourceURL":"https://maps8.stlouis-mo.gov/arcgis/rest/services/STREETS/Streets_Permitting/MapServer/2","title":"Street light L018463"},"type":"Feature"},{"geometry":{"coordinates":[-90.24927242765007,38.70943378171856],"type":"Point"},"id":"stl-city-public-streetlights:2:125736","properties":{"address":null,"attributes":{"Date_Installed":"4/13/20","LED_Powered":1,"LightID":"L018464","Light_Source":"LED","Light_Type":"Cobra","Lighting_Type":"LED-Powered Lamp","Verification_Date":null},"id":"stl-city-public-streetlights:2:125736","sourceLayerId":2,"sourceObjectId":125736,"sourceURL":"https://maps8.stlouis-mo.gov/arcgis/rest/services/STREETS/Streets_Permitting/MapServer/2","title":"Street light L018464"},"type":"Feature"},{"geometry":{"coordinates":[-90.24928047221576,38.70974366423851],"type":"Point"},"id":"stl-city-public-streetlights:2:125737","properties":{"address":null,"attributes":{"Date_Installed":"4/13/20","LED_Powered":1,"LightID":"L018465","Light_Source":"LED","Light_Type":"Cobra","Lighting_Type":"LED-Powered Lamp","Verification_Date":null},"id":"stl-city-public-streetlights:2:125737","sourceLayerId":2,"sourceObjectId":125737,"sourceURL":"https://maps8.stlouis-mo.gov/arcgis/rest/services/STREETS/Streets_Permitting/MapServer/2","title":"Street light L018465"},"type":"Feature"},{"geometry":{"coordinates":[-90.24984253712782,38.70740006014924],"type":"Point"},"id":"stl-city-public-streetlights:2:125782","properties":{"address":null,"attributes":{"Date_Installed":"6/15/2017","LED_Powered":1,"LightID":"L018510","Light_Source":"LED","Light_Type":"Cobra","Lighting_Type":"LED-Powered Lamp","Verification_Date":null},"id":"stl-city-public-streetlights:2:125782","sourceLayerId":2,"sourceObjectId":125782,"sourceURL":"https://maps8.stlouis-mo.gov/arcgis/rest/services/STREETS/Streets_Permitting/MapServer/2","title":"Street light L018510"},"type":"Feature"},{"geometry":{"coordinates":[-90.24954194721191,38.70706237809165],"type":"Point"},"id":"stl-city-public-streetlights:2:125783","properties":{"address":null,"attributes":{"Date_Installed":"6/15/2017","LED_Powered":1,"LightID":"L018511","Light_Source":"LED","Light_Type":"Cobra","Lighting_Type":"LED-Powered Lamp","Verification_Date":null},"id":"stl-city-public-streetlights:2:125783","sourceLayerId":2,"sourceObjectId":125783,"sourceURL":"https://maps8.stlouis-mo.gov/arcgis/rest/services/STREETS/Streets_Permitting/MapServer/2","title":"Street light L018511"},"type":"Feature"},{"geometry":{"coordinates":[-90.24657613685882,38.709710580087986],"type":"Point"},"id":"stl-city-public-streetlights:2:125809","properties":{"address":null,"attributes":{"Date_Installed":null,"LED_Powered":0,"LightID":"L018537","Light_Source":"LED","Light_Type":"Cobra","Lighting_Type":"LED-Powered Lamp","Verification_Date":null},"id":"stl-city-public-streetlights:2:125809","sourceLayerId":2,"sourceObjectId":125809,"sourceURL":"https://maps8.stlouis-mo.gov/arcgis/rest/services/STREETS/Streets_Permitting/MapServer/2","title":"Street light L018537"},"type":"Feature"},{"geometry":{"coordinates":[-90.24653427163243,38.70967759557053],"type":"Point"},"id":"stl-city-public-streetlights:2:125810","properties":{"address":null,"attributes":{"Date_Installed":null,"LED_Powered":0,"LightID":"L018538","Light_Source":"LED","Light_Type":"Cobra","Lighting_Type":"LED-Powered Lamp","Verification_Date":null},"id":"stl-city-public-streetlights:2:125810","sourceLayerId":2,"sourceObjectId":125810,"sourceURL":"https://maps8.stlouis-mo.gov/arcgis/rest/services/STREETS/Streets_Permitting/MapServer/2","title":"Street light L018538"},"type":"Feature"},{"geometry":{"coordinates":[-90.2469223453355,38.709360944044064],"type":"Point"},"id":"stl-city-public-streetlights:2:125811","properties":{"address":null,"attributes":{"Date_Installed":null,"LED_Powered":0,"LightID":"L018539","Light_Source":"LED","Light_Type":"Cobra","Lighting_Type":"LED-Powered Lamp","Verification_Date":null},"id":"stl-city-public-streetlights:2:125811","sourceLayerId":2,"sourceObjectId":125811,"sourceURL":"https://maps8.stlouis-mo.gov/arcgis/rest/services/STREETS/Streets_Permitting/MapServer/2","title":"Street light L018539"},"type":"Feature"},{"geometry":{"coordinates":[-90.24686952869861,38.709327935941545],"type":"Point"},"id":"stl-city-public-streetlights:2:125812","properties":{"address":null,"attributes":{"Date_Installed":null,"LED_Powered":0,"LightID":"L018540","Light_Source":"LED","Light_Type":"Cobra","Lighting_Type":"LED-Powered Lamp","Verification_Date":null},"id":"stl-city-public-streetlights:2:125812","sourceLayerId":2,"sourceObjectId":125812,"sourceURL":"https://maps8.stlouis-mo.gov/arcgis/rest/services/STREETS/Streets_Permitting/MapServer/2","title":"Street light L018540"},"type":"Feature"},{"geometry":{"coordinates":[-90.24725938979034,38.7090209157328],"type":"Point"},"id":"stl-city-public-streetlights:2:125813","properties":{"address":null,"attributes":{"Date_Installed":null,"LED_Powered":0,"LightID":"L018541","Light_Source":"LED","Light_Type":"Cobra","Lighting_Type":"LED-Powered Lamp","Verification_Date":null},"id":"stl-city-public-streetlights:2:125813","sourceLayerId":2,"sourceObjectId":125813,"sourceURL":"https://maps8.stlouis-mo.gov/arcgis/rest/services/STREETS/Streets_Permitting/MapServer/2","title":"Street light L018541"},"type":"Feature"},{"geometry":{"coordinates":[-90.24721079782971,38.70899792837756],"type":"Point"},"id":"stl-city-public-streetlights:2:125814","properties":{"address":null,"attributes":{"Date_Installed":null,"LED_Powered":0,"LightID":"L018542","Light_Source":"LED","Light_Type":"Cobra","Lighting_Type":"LED-Powered Lamp","Verification_Date":null},"id":"stl-city-public-streetlights:2:125814","sourceLayerId":2,"sourceObjectId":125814,"sourceURL":"https://maps8.stlouis-mo.gov/arcgis/rest/services/STREETS/Streets_Permitting/MapServer/2","title":"Street light L018542"},"type":"Feature"},{"geometry":{"coordinates":[-90.24758001992846,38.70869381914146],"type":"Point"},"id":"stl-city-public-streetlights:2:125815","properties":{"address":null,"attributes":{"Date_Installed":null,"LED_Powered":0,"LightID":"L018543","Light_Source":"LED","Light_Type":"Cobra","Lighting_Type":"LED-Powered Lamp","Verification_Date":null},"id":"stl-city-public-streetlights:2:125815","sourceLayerId":2,"sourceObjectId":125815,"sourceURL":"https://maps8.stlouis-mo.gov/arcgis/rest/services/STREETS/Streets_Permitting/MapServer/2","title":"Street light L018543"},"type":"Feature"},{"geometry":{"coordinates":[-90.24753449546903,38.708663687366894],"type":"Point"},"id":"stl-city-public-streetlights:2:125816","properties":{"address":null,"attributes":{"Date_Installed":null,"LED_Powered":0,"LightID":"L018544","Light_Source":"LED","Light_Type":"Cobra","Lighting_Type":"LED-Powered Lamp","Verification_Date":null},"id":"stl-city-public-streetlights:2:125816","sourceLayerId":2,"sourceObjectId":125816,"sourceURL":"https://maps8.stlouis-mo.gov/arcgis/rest/services/STREETS/Streets_Permitting/MapServer/2","title":"Street light L018544"},"type":"Feature"},{"geometry":{"coordinates":[-90.24790423563809,38.708367014957894],"type":"Point"},"id":"stl-city-public-streetlights:2:125817","properties":{"address":null,"attributes":{"Date_Installed":null,"LED_Powered":0,"LightID":"L018545","Light_Source":"LED","Light_Type":"Cobra","Lighting_Type":"LED-Powered Lamp","Verification_Date":null},"id":"stl-city-public-streetlights:2:125817","sourceLayerId":2,"sourceObjectId":125817,"sourceURL":"https://maps8.stlouis-mo.gov/arcgis/rest/services/STREETS/Streets_Permitting/MapServer/2","title":"Street light L018545"},"type":"Feature"},{"geometry":{"coordinates":[-90.2478514204258,38.70833400729669],"type":"Point"},"id":"stl-city-public-streetlights:2:125818","properties":{"address":null,"attributes":{"Date_Installed":null,"LED_Powered":0,"LightID":"L018546","Light_Source":"LED","Light_Type":"Cobra","Lighting_Type":"LED-Powered Lamp","Verification_Date":null},"id":"stl-city-public-streetlights:2:125818","sourceLayerId":2,"sourceObjectId":125818,"sourceURL":"https://maps8.stlouis-mo.gov/arcgis/rest/services/STREETS/Streets_Permitting/MapServer/2","title":"Street light L018546"},"type":"Feature"},{"geometry":{"coordinates":[-90.24823119559676,38.7080377842906],"type":"Point"},"id":"stl-city-public-streetlights:2:125819","properties":{"address":null,"attributes":{"Date_Installed":null,"LED_Powered":0,"LightID":"L018547","Light_Source":"LED","Light_Type":"Cobra","Lighting_Type":"LED-Powered Lamp","Verification_Date":null},"id":"stl-city-public-streetlights:2:125819","sourceLayerId":2,"sourceObjectId":125819,"sourceURL":"https://maps8.stlouis-mo.gov/arcgis/rest/services/STREETS/Streets_Permitting/MapServer/2","title":"Street light L018547"},"type":"Feature"},{"geometry":{"coordinates":[-90.24818565006152,38.708013373300915],"type":"Point"},"id":"stl-city-public-streetlights:2:125820","properties":{"address":null,"attributes":{"Date_Installed":null,"LED_Powered":0,"LightID":"L018548","Light_Source":"LED","Light_Type":"Cobra","Lighting_Type":"LED-Powered Lamp","Verification_Date":null},"id":"stl-city-public-streetlights:2:125820","sourceLayerId":2,"sourceObjectId":125820,"sourceURL":"https://maps8.stlouis-mo.gov/arcgis/rest/services/STREETS/Streets_Permitting/MapServer/2","title":"Street light L018548"},"type":"Feature"},{"geometry":{"coordinates":[-90.24855724002046,38.70770812099893],"type":"Point"},"id":"stl-city-public-streetlights:2:125821","properties":{"address":null,"attributes":{"Date_Installed":null,"LED_Powered":0,"LightID":"L018549","Light_Source":"LED","Light_Type":"Cobra","Lighting_Type":"LED-Powered Lamp","Verification_Date":null},"id":"stl-city-public-streetlights:2:125821","sourceLayerId":2,"sourceObjectId":125821,"sourceURL":"https://maps8.stlouis-mo.gov/arcgis/rest/services/STREETS/Streets_Permitting/MapServer/2","title":"Street light L018549"},"type":"Feature"},{"geometry":{"coordinates":[-90.2485080753872,38.707675122381644],"type":"Point"},"id":"stl-city-public-streetlights:2:125822","properties":{"address":null,"attributes":{"Date_Installed":null,"LED_Powered":0,"LightID":"L018550","Light_Source":"High Pressure Sodium","Light_Type":"Cobra","Lighting_Type":"400-W High Pressure Sodium Vapor Lamp","Verification_Date":null},"id":"stl-city-public-streetlights:2:125822","sourceLayerId":2,"sourceObjectId":125822,"sourceURL":"https://maps8.stlouis-mo.gov/arcgis/rest/services/STREETS/Streets_Permitting/MapServer/2","title":"Street light L018550"},"type":"Feature"},{"geometry":{"coordinates":[-90.2488881333113,38.70736564407953],"type":"Point"},"id":"stl-city-public-streetlights:2:125823","properties":{"address":null,"attributes":{"Date_Installed":null,"LED_Powered":0,"LightID":"L018551","Light_Source":"LED","Light_Type":"Cobra","Lighting_Type":"LED-Powered Lamp","Verification_Date":null},"id":"stl-city-public-streetlights:2:125823","sourceLayerId":2,"sourceObjectId":125823,"sourceURL":"https://maps8.stlouis-mo.gov/arcgis/rest/services/STREETS/Streets_Permitting/MapServer/2","title":"Street light L018551"},"type":"Feature"},{"geometry":{"coordinates":[-90.24884563515646,38.70733981019383],"type":"Point"},"id":"stl-city-public-streetlights:2:125824","properties":{"address":null,"attributes":{"Date_Installed":null,"LED_Powered":0,"LightID":"L018552","Light_Source":"LED","Light_Type":"Cobra","Lighting_Type":"LED-Powered Lamp","Verification_Date":null},"id":"stl-city-public-streetlights:2:125824","sourceLayerId":2,"sourceObjectId":125824,"sourceURL":"https://maps8.stlouis-mo.gov/arcgis/rest/services/STREETS/Streets_Permitting/MapServer/2","title":"Street light L018552"},"type":"Feature"},{"geometry":{"coordinates":[-90.24909006362304,38.707121272728045],"type":"Point"},"id":"stl-city-public-streetlights:2:125825","properties":{"address":null,"attributes":{"Date_Installed":null,"LED_Powered":0,"LightID":"L018553","Light_Source":"LED","Light_Type":"Cobra","Lighting_Type":"LED-Powered Lamp","Verification_Date":null},"id":"stl-city-public-streetlights:2:125825","sourceLayerId":2,"sourceObjectId":125825,"sourceURL":"https://maps8.stlouis-mo.gov/arcgis/rest/services/STREETS/Streets_Permitting/MapServer/2","title":"Street light L018553"},"type":"Feature"},{"geometry":{"coordinates":[-90.24863264073262,38.705464826037236],"type":"Point"},"id":"stl-city-public-streetlights:2:126557","properties":{"address":null,"attributes":{"Date_Installed":null,"LED_Powered":0,"LightID":"L019273","Light_Source":"LED","Light_Type":"Cobra","Lighting_Type":"LED-Powered Lamp","Verification_Date":null},"id":"stl-city-public-streetlights:2:126557","sourceLayerId":2,"sourceObjectId":126557,"sourceURL":"https://maps8.stlouis-mo.gov/arcgis/rest/services/STREETS/Streets_Permitting/MapServer/2","title":"Street light L019273"},"type":"Feature"},{"geometry":{"coordinates":[-90.249009816423,38.70525409358577],"type":"Point"},"id":"stl-city-public-streetlights:2:126558","properties":{"address":null,"attributes":{"Date_Installed":null,"LED_Powered":0,"LightID":"L019274","Light_Source":"LED","Light_Type":"Cobra","Lighting_Type":"LED-Powered Lamp","Verification_Date":null},"id":"stl-city-public-streetlights:2:126558","sourceLayerId":2,"sourceObjectId":126558,"sourceURL":"https://maps8.stlouis-mo.gov/arcgis/rest/services/STREETS/Streets_Permitting/MapServer/2","title":"Street light L019274"},"type":"Feature"},{"geometry":{"coordinates":[-90.24935550059688,38.705067127872674],"type":"Point"},"id":"stl-city-public-streetlights:2:126559","properties":{"address":null,"attributes":{"Date_Installed":null,"LED_Powered":0,"LightID":"L019275","Light_Source":"LED","Light_Type":"Cobra","Lighting_Type":"LED-Powered Lamp","Verification_Date":null},"id":"stl-city-public-streetlights:2:126559","sourceLayerId":2,"sourceObjectId":126559,"sourceURL":"https://maps8.stlouis-mo.gov/arcgis/rest/services/STREETS/Streets_Permitting/MapServer/2","title":"Street light L019275"},"type":"Feature"},{"geometry":{"coordinates":[-90.24966537310301,38.70489903446355],"type":"Point"},"id":"stl-city-public-streetlights:2:126560","properties":{"address":null,"attributes":{"Date_Installed":null,"LED_Powered":0,"LightID":"L019276","Light_Source":"LED","Light_Type":"Cobra","Lighting_Type":"LED-Powered Lamp","Verification_Date":null},"id":"stl-city-public-streetlights:2:126560","sourceLayerId":2,"sourceObjectId":126560,"sourceURL":"https://maps8.stlouis-mo.gov/arcgis/rest/services/STREETS/Streets_Permitting/MapServer/2","title":"Street light L019276"},"type":"Feature"},{"geometry":{"coordinates":[-90.24786493528954,38.70469506380395],"type":"Point"},"id":"stl-city-public-streetlights:2:126569","properties":{"address":null,"attributes":{"Date_Installed":null,"LED_Powered":0,"LightID":"L019285","Light_Source":"LED","Light_Type":"Cobra","Lighting_Type":"LED-Powered Lamp","Verification_Date":null},"id":"stl-city-public-streetlights:2:126569","sourceLayerId":2,"sourceObjectId":126569,"sourceURL":"https://maps8.stlouis-mo.gov/arcgis/rest/services/STREETS/Streets_Permitting/MapServer/2","title":"Street light L019285"},"type":"Feature"},{"geometry":{"coordinates":[-90.24822863606691,38.70450134762102],"type":"Point"},"id":"stl-city-public-streetlights:2:126570","properties":{"address":null,"attributes":{"Date_Installed":null,"LED_Powered":0,"LightID":"L019286","Light_Source":"LED","Light_Type":"Cobra","Lighting_Type":"LED-Powered Lamp","Verification_Date":null},"id":"stl-city-public-streetlights:2:126570","sourceLayerId":2,"sourceObjectId":126570,"sourceURL":"https://maps8.stlouis-mo.gov/arcgis/rest/services/STREETS/Streets_Permitting/MapServer/2","title":"Street light L019286"},"type":"Feature"},{"geometry":{"coordinates":[-90.2486185891351,38.704288916015734],"type":"Point"},"id":"stl-city-public-streetlights:2:126571","properties":{"address":null,"attributes":{"Date_Installed":null,"LED_Powered":0,"LightID":"L019287","Light_Source":"LED","Light_Type":"Cobra","Lighting_Type":"LED-Powered Lamp","Verification_Date":null},"id":"stl-city-public-streetlights:2:126571","sourceLayerId":2,"sourceObjectId":126571,"sourceURL":"https://maps8.stlouis-mo.gov/arcgis/rest/services/STREETS/Streets_Permitting/MapServer/2","title":"Street light L019287"},"type":"Feature"},{"geometry":{"coordinates":[-90.24900138539752,38.70407879110559],"type":"Point"},"id":"stl-city-public-streetlights:2:126572","properties":{"address":null,"attributes":{"Date_Installed":null,"LED_Powered":0,"LightID":"L019288","Light_Source":"LED","Light_Type":"Cobra","Lighting_Type":"LED-Powered Lamp","Verification_Date":null},"id":"stl-city-public-streetlights:2:126572","sourceLayerId":2,"sourceObjectId":126572,"sourceURL":"https://maps8.stlouis-mo.gov/arcgis/rest/services/STREETS/Streets_Permitting/MapServer/2","title":"Street light L019288"},"type":"Feature"},{"geometry":{"coordinates":[-90.2493639102764,38.70387994373675],"type":"Point"},"id":"stl-city-public-streetlights:2:126573","properties":{"address":null,"attributes":{"Date_Installed":null,"LED_Powered":0,"LightID":"L019289","Light_Source":"LED","Light_Type":"Cobra","Lighting_Type":"LED-Powered Lamp","Verification_Date":null},"id":"stl-city-public-streetlights:2:126573","sourceLayerId":2,"sourceObjectId":126573,"sourceURL":"https://maps8.stlouis-mo.gov/arcgis/rest/services/STREETS/Streets_Permitting/MapServer/2","title":"Street light L019289"},"type":"Feature"},{"geometry":{"coordinates":[-90.24896855442465,38.70309969892016],"type":"Point"},"id":"stl-city-public-streetlights:2:126574","properties":{"address":null,"attributes":{"Date_Installed":null,"LED_Powered":0,"LightID":"L019290","Light_Source":"LED","Light_Type":"Cobra","Lighting_Type":"LED-Powered Lamp","Verification_Date":null},"id":"stl-city-public-streetlights:2:126574","sourceLayerId":2,"sourceObjectId":126574,"sourceURL":"https://maps8.stlouis-mo.gov/arcgis/rest/services/STREETS/Streets_Permitting/MapServer/2","title":"Street light L019290"},"type":"Feature"},{"geometry":{"coordinates":[-90.24919201813127,38.70334938241289],"type":"Point"},"id":"stl-city-public-streetlights:2:126575","properties":{"address":null,"attributes":{"Date_Installed":null,"LED_Powered":0,"LightID":"L019291","Light_Source":"LED","Light_Type":"Cobra","Lighting_Type":"LED-Powered Lamp","Verification_Date":null},"id":"stl-city-public-streetlights:2:126575","sourceLayerId":2,"sourceObjectId":126575,"sourceURL":"https://maps8.stlouis-mo.gov/arcgis/rest/services/STREETS/Streets_Permitting/MapServer/2","title":"Street light L019291"},"type":"Feature"},{"geometry":{"coordinates":[-90.24943084724994,38.70362422031962],"type":"Point"},"id":"stl-city-public-streetlights:2:126576","properties":{"address":null,"attributes":{"Date_Installed":null,"LED_Powered":0,"LightID":"L019292","Light_Source":"LED","Light_Type":"Cobra","Lighting_Type":"LED-Powered Lamp","Verification_Date":null},"id":"stl-city-public-streetlights:2:126576","sourceLayerId":2,"sourceObjectId":126576,"sourceURL":"https://maps8.stlouis-mo.gov/arcgis/rest/services/STREETS/Streets_Permitting/MapServer/2","title":"Street light L019292"},"type":"Feature"},{"geometry":{"coordinates":[-90.24966510328561,38.70389387598928],"type":"Point"},"id":"stl-city-public-streetlights:2:126577","properties":{"address":null,"attributes":{"Date_Installed":null,"LED_Powered":0,"LightID":"L019293","Light_Source":"LED","Light_Type":"Cobra","Lighting_Type":"LED-Powered Lamp","Verification_Date":null},"id":"stl-city-public-streetlights:2:126577","sourceLayerId":2,"sourceObjectId":126577,"sourceURL":"https://maps8.stlouis-mo.gov/arcgis/rest/services/STREETS/Streets_Permitting/MapServer/2","title":"Street light L019293"},"type":"Feature"},{"geometry":{"coordinates":[-90.249875669181,38.70413623611494],"type":"Point"},"id":"stl-city-public-streetlights:2:126578","properties":{"address":null,"attributes":{"Date_Installed":null,"LED_Powered":0,"LightID":"L019294","Light_Source":"LED","Light_Type":"Cobra","Lighting_Type":"LED-Powered Lamp","Verification_Date":null},"id":"stl-city-public-streetlights:2:126578","sourceLayerId":2,"sourceObjectId":126578,"sourceURL":"https://maps8.stlouis-mo.gov/arcgis/rest/services/STREETS/Streets_Permitting/MapServer/2","title":"Street light L019294"},"type":"Feature"},{"geometry":{"coordinates":[-90.24984502376729,38.70703585455111],"type":"Point"},"id":"stl-city-public-streetlights:2:126583","properties":{"address":null,"attributes":{"Date_Installed":"6/15/2017","LED_Powered":1,"LightID":"L019299","Light_Source":"LED","Light_Type":"Cobra","Lighting_Type":"LED-Powered Lamp","Verification_Date":null},"id":"stl-city-public-streetlights:2:126583","sourceLayerId":2,"sourceObjectId":126583,"sourceURL":"https://maps8.stlouis-mo.gov/arcgis/rest/services/STREETS/Streets_Permitting/MapServer/2","title":"Street light L019299"},"type":"Feature"},{"geometry":{"coordinates":[-90.24382764883973,38.700169441974694],"type":"Point"},"id":"stl-city-public-streetlights:2:129935","properties":{"address":null,"attributes":{"Date_Installed":"6/15/2017","LED_Powered":1,"LightID":"L022651","Light_Source":"LED","Light_Type":"Cobra","Lighting_Type":"LED-Powered Lamp","Verification_Date":null},"id":"stl-city-public-streetlights:2:129935","sourceLayerId":2,"sourceObjectId":129935,"sourceURL":"https://maps8.stlouis-mo.gov/arcgis/rest/services/STREETS/Streets_Permitting/MapServer/2","title":"Street light L022651"},"type":"Feature"},{"geometry":{"coordinates":[-90.24417479955724,38.700570643943294],"type":"Point"},"id":"stl-city-public-streetlights:2:129936","properties":{"address":null,"attributes":{"Date_Installed":"6/15/2017","LED_Powered":1,"LightID":"L022652","Light_Source":"LED","Light_Type":"Cobra","Lighting_Type":"LED-Powered Lamp","Verification_Date":null},"id":"stl-city-public-streetlights:2:129936","sourceLayerId":2,"sourceObjectId":129936,"sourceURL":"https://maps8.stlouis-mo.gov/arcgis/rest/services/STREETS/Streets_Permitting/MapServer/2","title":"Street light L022652"},"type":"Feature"},{"geometry":{"coordinates":[-90.24452981891807,38.70096728558],"type":"Point"},"id":"stl-city-public-streetlights:2:129937","properties":{"address":null,"attributes":{"Date_Installed":"6/15/2017","LED_Powered":1,"LightID":"L022653","Light_Source":"LED","Light_Type":"Cobra","Lighting_Type":"LED-Powered Lamp","Verification_Date":null},"id":"stl-city-public-streetlights:2:129937","sourceLayerId":2,"sourceObjectId":129937,"sourceURL":"https://maps8.stlouis-mo.gov/arcgis/rest/services/STREETS/Streets_Permitting/MapServer/2","title":"Street light L022653"},"type":"Feature"},{"geometry":{"coordinates":[-90.244876957078,38.7013742059776],"type":"Point"},"id":"stl-city-public-streetlights:2:129938","properties":{"address":null,"attributes":{"Date_Installed":"6/15/2017","LED_Powered":1,"LightID":"L022654","Light_Source":"LED","Light_Type":"Cobra","Lighting_Type":"LED-Powered Lamp","Verification_Date":null},"id":"stl-city-public-streetlights:2:129938","sourceLayerId":2,"sourceObjectId":129938,"sourceURL":"https://maps8.stlouis-mo.gov/arcgis/rest/services/STREETS/Streets_Permitting/MapServer/2","title":"Street light L022654"},"type":"Feature"},{"geometry":{"coordinates":[-90.24522656508539,38.701772073258326],"type":"Point"},"id":"stl-city-public-streetlights:2:129939","properties":{"address":null,"attributes":{"Date_Installed":"6/15/2017","LED_Powered":1,"LightID":"L022655","Light_Source":"LED","Light_Type":"Cobra","Lighting_Type":"LED-Powered Lamp","Verification_Date":null},"id":"stl-city-public-streetlights:2:129939","sourceLayerId":2,"sourceObjectId":129939,"sourceURL":"https://maps8.stlouis-mo.gov/arcgis/rest/services/STREETS/Streets_Permitting/MapServer/2","title":"Street light L022655"},"type":"Feature"},{"geometry":{"coordinates":[-90.24558339662354,38.70217550010168],"type":"Point"},"id":"stl-city-public-streetlights:2:129940","properties":{"address":null,"attributes":{"Date_Installed":"6/15/2017","LED_Powered":1,"LightID":"L022656","Light_Source":"LED","Light_Type":"Cobra","Lighting_Type":"LED-Powered Lamp","Verification_Date":null},"id":"stl-city-public-streetlights:2:129940","sourceLayerId":2,"sourceObjectId":129940,"sourceURL":"https://maps8.stlouis-mo.gov/arcgis/rest/services/STREETS/Streets_Permitting/MapServer/2","title":"Street light L022656"},"type":"Feature"},{"geometry":{"coordinates":[-90.24593176560198,38.70258165783209],"type":"Point"},"id":"stl-city-public-streetlights:2:129941","properties":{"address":null,"attributes":{"Date_Installed":"6/15/2017","LED_Powered":1,"LightID":"L022657","Light_Source":"LED","Light_Type":"Cobra","Lighting_Type":"LED-Powered Lamp","Verification_Date":null},"id":"stl-city-public-streetlights:2:129941","sourceLayerId":2,"sourceObjectId":129941,"sourceURL":"https://maps8.stlouis-mo.gov/arcgis/rest/services/STREETS/Streets_Permitting/MapServer/2","title":"Street light L022657"},"type":"Feature"},{"geometry":{"coordinates":[-90.24629495190241,38.70299661671167],"type":"Point"},"id":"stl-city-public-streetlights:2:129942","properties":{"address":null,"attributes":{"Date_Installed":"6/15/2017","LED_Powered":1,"LightID":"L022658","Light_Source":"LED","Light_Type":"Cobra","Lighting_Type":"LED-Powered Lamp","Verification_Date":null},"id":"stl-city-public-streetlights:2:129942","sourceLayerId":2,"sourceObjectId":129942,"sourceURL":"https://maps8.stlouis-mo.gov/arcgis/rest/services/STREETS/Streets_Permitting/MapServer/2","title":"Street light L022658"},"type":"Feature"},{"geometry":{"coordinates":[-90.24664077524459,38.70332919734194],"type":"Point"},"id":"stl-city-public-streetlights:2:129943","properties":{"address":null,"attributes":{"Date_Installed":"6/15/2017","LED_Powered":1,"LightID":"L022659","Light_Source":"LED","Light_Type":"Cobra","Lighting_Type":"LED-Powered Lamp","Verification_Date":null},"id":"stl-city-public-streetlights:2:129943","sourceLayerId":2,"sourceObjectId":129943,"sourceURL":"https://maps8.stlouis-mo.gov/arcgis/rest/services/STREETS/Streets_Permitting/MapServer/2","title":"Street light L022659"},"type":"Feature"},{"geometry":{"coordinates":[-90.24700189909102,38.70374897732627],"type":"Point"},"id":"stl-city-public-streetlights:2:129944","properties":{"address":null,"attributes":{"Date_Installed":"6/15/2017","LED_Powered":1,"LightID":"L022660","Light_Source":"LED","Light_Type":"Cobra","Lighting_Type":"LED-Powered Lamp","Verification_Date":null},"id":"stl-city-public-streetlights:2:129944","sourceLayerId":2,"sourceObjectId":129944,"sourceURL":"https://maps8.stlouis-mo.gov/arcgis/rest/services/STREETS/Streets_Permitting/MapServer/2","title":"Street light L022660"},"type":"Feature"},{"geometry":{"coordinates":[-90.24731434283467,38.70416868612144],"type":"Point"},"id":"stl-city-public-streetlights:2:129945","properties":{"address":null,"attributes":{"Date_Installed":"6/15/2017","LED_Powered":1,"LightID":"L022661","Light_Source":"LED","Light_Type":"Cobra","Lighting_Type":"LED-Powered Lamp","Verification_Date":null},"id":"stl-city-public-streetlights:2:129945","sourceLayerId":2,"sourceObjectId":129945,"sourceURL":"https://maps8.stlouis-mo.gov/arcgis/rest/services/STREETS/Streets_Permitting/MapServer/2","title":"Street light L022661"},"type":"Feature"},{"geometry":{"coordinates":[-90.24766336403165,38.704568165373246],"type":"Point"},"id":"stl-city-public-streetlights:2:129946","properties":{"address":null,"attributes":{"Date_Installed":"6/15/2017","LED_Powered":1,"LightID":"L022662","Light_Source":"LED","Light_Type":"Cobra","Lighting_Type":"LED-Powered Lamp","Verification_Date":null},"id":"stl-city-public-streetlights:2:129946","sourceLayerId":2,"sourceObjectId":129946,"sourceURL":"https://maps8.stlouis-mo.gov/arcgis/rest/services/STREETS/Streets_Permitting/MapServer/2","title":"Street light L022662"},"type":"Feature"},{"geometry":{"coordinates":[-90.24801096382828,38.704966234225225],"type":"Point"},"id":"stl-city-public-streetlights:2:129947","properties":{"address":null,"attributes":{"Date_Installed":"6/15/2017","LED_Powered":1,"LightID":"L022663","Light_Source":"LED","Light_Type":"Cobra","Lighting_Type":"LED-Powered Lamp","Verification_Date":null},"id":"stl-city-public-streetlights:2:129947","sourceLayerId":2,"sourceObjectId":129947,"sourceURL":"https://maps8.stlouis-mo.gov/arcgis/rest/services/STREETS/Streets_Permitting/MapServer/2","title":"Street light L022663"},"type":"Feature"},{"geometry":{"coordinates":[-90.24836332944088,38.705368268938614],"type":"Point"},"id":"stl-city-public-streetlights:2:129948","properties":{"address":null,"attributes":{"Date_Installed":"6/15/2017","LED_Powered":1,"LightID":"L022664","Light_Source":"LED","Light_Type":"Cobra","Lighting_Type":"LED-Powered Lamp","Verification_Date":null},"id":"stl-city-public-streetlights:2:129948","sourceLayerId":2,"sourceObjectId":129948,"sourceURL":"https://maps8.stlouis-mo.gov/arcgis/rest/services/STREETS/Streets_Permitting/MapServer/2","title":"Street light L022664"},"type":"Feature"},{"geometry":{"coordinates":[-90.24871721095569,38.70577290396016],"type":"Point"},"id":"stl-city-public-streetlights:2:129949","properties":{"address":null,"attributes":{"Date_Installed":"6/15/2017","LED_Powered":1,"LightID":"L022665","Light_Source":"LED","Light_Type":"Cobra","Lighting_Type":"LED-Powered Lamp","Verification_Date":null},"id":"stl-city-public-streetlights:2:129949","sourceLayerId":2,"sourceObjectId":129949,"sourceURL":"https://maps8.stlouis-mo.gov/arcgis/rest/services/STREETS/Streets_Permitting/MapServer/2","title":"Street light L022665"},"type":"Feature"},{"geometry":{"coordinates":[-90.24907229151889,38.70618364211427],"type":"Point"},"id":"stl-city-public-streetlights:2:129950","properties":{"address":null,"attributes":{"Date_Installed":"6/15/2017","LED_Powered":1,"LightID":"L022666","Light_Source":"LED","Light_Type":"Cobra","Lighting_Type":"LED-Powered Lamp","Verification_Date":null},"id":"stl-city-public-streetlights:2:129950","sourceLayerId":2,"sourceObjectId":129950,"sourceURL":"https://maps8.stlouis-mo.gov/arcgis/rest/services/STREETS/Streets_Permitting/MapServer/2","title":"Street light L022666"},"type":"Feature"},{"geometry":{"coordinates":[-90.24939104864882,38.7065438890372],"type":"Point"},"id":"stl-city-public-streetlights:2:129951","properties":{"address":null,"attributes":{"Date_Installed":"6/15/2017","LED_Powered":1,"LightID":"L022667","Light_Source":"LED","Light_Type":"Cobra","Lighting_Type":"LED-Powered Lamp","Verification_Date":null},"id":"stl-city-public-streetlights:2:129951","sourceLayerId":2,"sourceObjectId":129951,"sourceURL":"https://maps8.stlouis-mo.gov/arcgis/rest/services/STREETS/Streets_Permitting/MapServer/2","title":"Street light L022667"},"type":"Feature"},{"geometry":{"coordinates":[-90.24971693811345,38.703689298135515],"type":"Point"},"id":"stl-city-public-streetlights:2:129958","properties":{"address":null,"attributes":{"Date_Installed":"3/2/20","LED_Powered":1,"LightID":"L022674","Light_Source":"LED","Light_Type":"Cobra","Lighting_Type":"LED-Powered Lamp","Verification_Date":null},"id":"stl-city-public-streetlights:2:129958","sourceLayerId":2,"sourceObjectId":129958,"sourceURL":"https://maps8.stlouis-mo.gov/arcgis/rest/services/STREETS/Streets_Permitting/MapServer/2","title":"Street light L022674"},"type":"Feature"},{"geometry":{"coordinates":[-90.24982749840001,38.70254849063915],"type":"Point"},"id":"stl-city-public-streetlights:2:129972","properties":{"address":null,"attributes":{"Date_Installed":null,"LED_Powered":0,"LightID":"L022688","Light_Source":"LED","Light_Type":"Cobra","Lighting_Type":"LED-Powered Lamp","Verification_Date":null},"id":"stl-city-public-streetlights:2:129972","sourceLayerId":2,"sourceObjectId":129972,"sourceURL":"https://maps8.stlouis-mo.gov/arcgis/rest/services/STREETS/Streets_Permitting/MapServer/2","title":"Street light L022688"},"type":"Feature"},{"geometry":{"coordinates":[-90.24941301063656,38.70277809499495],"type":"Point"},"id":"stl-city-public-streetlights:2:129973","properties":{"address":null,"attributes":{"Date_Installed":null,"LED_Powered":0,"LightID":"L022689","Light_Source":"LED","Light_Type":"Cobra","Lighting_Type":"LED-Powered Lamp","Verification_Date":null},"id":"stl-city-public-streetlights:2:129973","sourceLayerId":2,"sourceObjectId":129973,"sourceURL":"https://maps8.stlouis-mo.gov/arcgis/rest/services/STREETS/Streets_Permitting/MapServer/2","title":"Street light L022689"},"type":"Feature"},{"geometry":{"coordinates":[-90.2490692201068,38.702970856782834],"type":"Point"},"id":"stl-city-public-streetlights:2:129974","properties":{"address":null,"attributes":{"Date_Installed":null,"LED_Powered":0,"LightID":"L022690","Light_Source":"LED","Light_Type":"Cobra","Lighting_Type":"LED-Powered Lamp","Verification_Date":null},"id":"stl-city-public-streetlights:2:129974","sourceLayerId":2,"sourceObjectId":129974,"sourceURL":"https://maps8.stlouis-mo.gov/arcgis/rest/services/STREETS/Streets_Permitting/MapServer/2","title":"Street light L022690"},"type":"Feature"},{"geometry":{"coordinates":[-90.2487452002149,38.70314606946042],"type":"Point"},"id":"stl-city-public-streetlights:2:129975","properties":{"address":null,"attributes":{"Date_Installed":null,"LED_Powered":0,"LightID":"L022691","Light_Source":"LED","Light_Type":"Cobra","Lighting_Type":"LED-Powered Lamp","Verification_Date":null},"id":"stl-city-public-streetlights:2:129975","sourceLayerId":2,"sourceObjectId":129975,"sourceURL":"https://maps8.stlouis-mo.gov/arcgis/rest/services/STREETS/Streets_Permitting/MapServer/2","title":"Street light L022691"},"type":"Feature"},{"geometry":{"coordinates":[-90.24836666018075,38.7033583477236],"type":"Point"},"id":"stl-city-public-streetlights:2:129976","properties":{"address":null,"attributes":{"Date_Installed":null,"LED_Powered":0,"LightID":"L022692","Light_Source":"LED","Light_Type":"Cobra","Lighting_Type":"LED-Powered Lamp","Verification_Date":null},"id":"stl-city-public-streetlights:2:129976","sourceLayerId":2,"sourceObjectId":129976,"sourceURL":"https://maps8.stlouis-mo.gov/arcgis/rest/services/STREETS/Streets_Permitting/MapServer/2","title":"Street light L022692"},"type":"Feature"},{"geometry":{"coordinates":[-90.24796087131551,38.70357664425617],"type":"Point"},"id":"stl-city-public-streetlights:2:129977","properties":{"address":null,"attributes":{"Date_Installed":null,"LED_Powered":0,"LightID":"L022693","Light_Source":"LED","Light_Type":"Cobra","Lighting_Type":"LED-Powered Lamp","Verification_Date":null},"id":"stl-city-public-streetlights:2:129977","sourceLayerId":2,"sourceObjectId":129977,"sourceURL":"https://maps8.stlouis-mo.gov/arcgis/rest/services/STREETS/Streets_Permitting/MapServer/2","title":"Street light L022693"},"type":"Feature"},{"geometry":{"coordinates":[-90.24759774525857,38.703772506776936],"type":"Point"},"id":"stl-city-public-streetlights:2:129978","properties":{"address":null,"attributes":{"Date_Installed":null,"LED_Powered":0,"LightID":"L022694","Light_Source":"LED","Light_Type":"Cobra","Lighting_Type":"LED-Powered Lamp","Verification_Date":null},"id":"stl-city-public-streetlights:2:129978","sourceLayerId":2,"sourceObjectId":129978,"sourceURL":"https://maps8.stlouis-mo.gov/arcgis/rest/services/STREETS/Streets_Permitting/MapServer/2","title":"Street light L022694"},"type":"Feature"},{"geometry":{"coordinates":[-90.24725031318849,38.703960059040334],"type":"Point"},"id":"stl-city-public-streetlights:2:129979","properties":{"address":null,"attributes":{"Date_Installed":null,"LED_Powered":0,"LightID":"L022695","Light_Source":"LED","Light_Type":"Cobra","Lighting_Type":"LED-Powered Lamp","Verification_Date":null},"id":"stl-city-public-streetlights:2:129979","sourceLayerId":2,"sourceObjectId":129979,"sourceURL":"https://maps8.stlouis-mo.gov/arcgis/rest/services/STREETS/Streets_Permitting/MapServer/2","title":"Street light L022695"},"type":"Feature"},{"geometry":{"coordinates":[-90.24988382731999,38.70135035195388],"type":"Point"},"id":"stl-city-public-streetlights:2:129989","properties":{"address":null,"attributes":{"Date_Installed":null,"LED_Powered":0,"LightID":"L022705","Light_Source":"LED","Light_Type":"Cobra","Lighting_Type":"LED-Powered Lamp","Verification_Date":null},"id":"stl-city-public-streetlights:2:129989","sourceLayerId":2,"sourceObjectId":129989,"sourceURL":"https://maps8.stlouis-mo.gov/arcgis/rest/services/STREETS/Streets_Permitting/MapServer/2","title":"Street light L022705"},"type":"Feature"},{"geometry":{"coordinates":[-90.2495244872681,38.70153836216834],"type":"Point"},"id":"stl-city-public-streetlights:2:129990","properties":{"address":null,"attributes":{"Date_Installed":null,"LED_Powered":0,"LightID":"L022706","Light_Source":"LED","Light_Type":"Cobra","Lighting_Type":"LED-Powered Lamp","Verification_Date":null},"id":"stl-city-public-streetlights:2:129990","sourceLayerId":2,"sourceObjectId":129990,"sourceURL":"https://maps8.stlouis-mo.gov/arcgis/rest/services/STREETS/Streets_Permitting/MapServer/2","title":"Street light L022706"},"type":"Feature"},{"geometry":{"coordinates":[-90.24913681054718,38.70175682147768],"type":"Point"},"id":"stl-city-public-streetlights:2:129991","properties":{"address":null,"attributes":{"Date_Installed":null,"LED_Powered":0,"LightID":"L022707","Light_Source":"LED","Light_Type":"Cobra","Lighting_Type":"LED-Powered Lamp","Verification_Date":null},"id":"stl-city-public-streetlights:2:129991","sourceLayerId":2,"sourceObjectId":129991,"sourceURL":"https://maps8.stlouis-mo.gov/arcgis/rest/services/STREETS/Streets_Permitting/MapServer/2","title":"Street light L022707"},"type":"Feature"},{"geometry":{"coordinates":[-90.2487845310131,38.70194255631262],"type":"Point"},"id":"stl-city-public-streetlights:2:129992","properties":{"address":null,"attributes":{"Date_Installed":null,"LED_Powered":0,"LightID":"L022708","Light_Source":"LED","Light_Type":"Cobra","Lighting_Type":"LED-Powered Lamp","Verification_Date":null},"id":"stl-city-public-streetlights:2:129992","sourceLayerId":2,"sourceObjectId":129992,"sourceURL":"https://maps8.stlouis-mo.gov/arcgis/rest/services/STREETS/Streets_Permitting/MapServer/2","title":"Street light L022708"},"type":"Feature"},{"geometry":{"coordinates":[-90.24842917511472,38.702137912962435],"type":"Point"},"id":"stl-city-public-streetlights:2:129993","properties":{"address":null,"attributes":{"Date_Installed":null,"LED_Powered":0,"LightID":"L022709","Light_Source":"LED","Light_Type":"Cobra","Lighting_Type":"LED-Powered Lamp","Verification_Date":null},"id":"stl-city-public-streetlights:2:129993","sourceLayerId":2,"sourceObjectId":129993,"sourceURL":"https://maps8.stlouis-mo.gov/arcgis/rest/services/STREETS/Streets_Permitting/MapServer/2","title":"Street light L022709"},"type":"Feature"},{"geometry":{"coordinates":[-90.24805869270295,38.70234334380333],"type":"Point"},"id":"stl-city-public-streetlights:2:129994","properties":{"address":null,"attributes":{"Date_Installed":null,"LED_Powered":0,"LightID":"L022710","Light_Source":"LED","Light_Type":"Cobra","Lighting_Type":"LED-Powered Lamp","Verification_Date":null},"id":"stl-city-public-streetlights:2:129994","sourceLayerId":2,"sourceObjectId":129994,"sourceURL":"https://maps8.stlouis-mo.gov/arcgis/rest/services/STREETS/Streets_Permitting/MapServer/2","title":"Street light L022710"},"type":"Feature"},{"geometry":{"coordinates":[-90.2477021265119,38.70253552542263],"type":"Point"},"id":"stl-city-public-streetlights:2:129995","properties":{"address":null,"attributes":{"Date_Installed":null,"LED_Powered":0,"LightID":"L022711","Light_Source":"LED","Light_Type":"Cobra","Lighting_Type":"LED-Powered Lamp","Verification_Date":null},"id":"stl-city-public-streetlights:2:129995","sourceLayerId":2,"sourceObjectId":129995,"sourceURL":"https://maps8.stlouis-mo.gov/arcgis/rest/services/STREETS/Streets_Permitting/MapServer/2","title":"Street light L022711"},"type":"Feature"},{"geometry":{"coordinates":[-90.24739129565734,38.70270508997704],"type":"Point"},"id":"stl-city-public-streetlights:2:129996","properties":{"address":null,"attributes":{"Date_Installed":null,"LED_Powered":0,"LightID":"L022712","Light_Source":"LED","Light_Type":"Cobra","Lighting_Type":"LED-Powered Lamp","Verification_Date":null},"id":"stl-city-public-streetlights:2:129996","sourceLayerId":2,"sourceObjectId":129996,"sourceURL":"https://maps8.stlouis-mo.gov/arcgis/rest/services/STREETS/Streets_Permitting/MapServer/2","title":"Street light L022712"},"type":"Feature"},{"geometry":{"coordinates":[-90.24700225529553,38.70291865193341],"type":"Point"},"id":"stl-city-public-streetlights:2:129997","properties":{"address":null,"attributes":{"Date_Installed":null,"LED_Powered":0,"LightID":"L022713","Light_Source":"LED","Light_Type":"Cobra","Lighting_Type":"LED-Powered Lamp","Verification_Date":null},"id":"stl-city-public-streetlights:2:129997","sourceLayerId":2,"sourceObjectId":129997,"sourceURL":"https://maps8.stlouis-mo.gov/arcgis/rest/services/STREETS/Streets_Permitting/MapServer/2","title":"Street light L022713"},"type":"Feature"},{"geometry":{"coordinates":[-90.24662166634761,38.703124007670006],"type":"Point"},"id":"stl-city-public-streetlights:2:129998","properties":{"address":null,"attributes":{"Date_Installed":null,"LED_Powered":0,"LightID":"L022714","Light_Source":"LED","Light_Type":"Cobra","Lighting_Type":"LED-Powered Lamp","Verification_Date":null},"id":"stl-city-public-streetlights:2:129998","sourceLayerId":2,"sourceObjectId":129998,"sourceURL":"https://maps8.stlouis-mo.gov/arcgis/rest/services/STREETS/Streets_Permitting/MapServer/2","title":"Street light L022714"},"type":"Feature"},{"geometry":{"coordinates":[-90.24981631906263,38.70009060359487],"type":"Point"},"id":"stl-city-public-streetlights:2:130011","properties":{"address":null,"attributes":{"Date_Installed":"5/1/2016","LED_Powered":1,"LightID":"L022727","Light_Source":"LED","Light_Type":"Cobra","Lighting_Type":"LED-Powered Lamp","Verification_Date":null},"id":"stl-city-public-streetlights:2:130011","sourceLayerId":2,"sourceObjectId":130011,"sourceURL":"https://maps8.stlouis-mo.gov/arcgis/rest/services/STREETS/Streets_Permitting/MapServer/2","title":"Street light L022727"},"type":"Feature"},{"geometry":{"coordinates":[-90.24943918332559,38.7002983597453],"type":"Point"},"id":"stl-city-public-streetlights:2:130012","properties":{"address":null,"attributes":{"Date_Installed":"5/1/2016","LED_Powered":1,"LightID":"L022728","Light_Source":"LED","Light_Type":"Cobra","Lighting_Type":"LED-Powered Lamp","Verification_Date":null},"id":"stl-city-public-streetlights:2:130012","sourceLayerId":2,"sourceObjectId":130012,"sourceURL":"https://maps8.stlouis-mo.gov/arcgis/rest/services/STREETS/Streets_Permitting/MapServer/2","title":"Street light L022728"},"type":"Feature"},{"geometry":{"coordinates":[-90.24906200261337,38.700518032313106],"type":"Point"},"id":"stl-city-public-streetlights:2:130013","properties":{"address":null,"attributes":{"Date_Installed":"5/1/2016","LED_Powered":1,"LightID":"L022729","Light_Source":"LED","Light_Type":"Cobra","Lighting_Type":"LED-Powered Lamp","Verification_Date":null},"id":"stl-city-public-streetlights:2:130013","sourceLayerId":2,"sourceObjectId":130013,"sourceURL":"https://maps8.stlouis-mo.gov/arcgis/rest/services/STREETS/Streets_Permitting/MapServer/2","title":"Street light L022729"},"type":"Feature"},{"geometry":{"coordinates":[-90.24873443638477,38.70068417909053],"type":"Point"},"id":"stl-city-public-streetlights:2:130014","properties":{"address":null,"attributes":{"Date_Installed":"5/1/2016","LED_Powered":1,"LightID":"L022730","Light_Source":"LED","Light_Type":"Cobra","Lighting_Type":"LED-Powered Lamp","Verification_Date":null},"id":"stl-city-public-streetlights:2:130014","sourceLayerId":2,"sourceObjectId":130014,"sourceURL":"https://maps8.stlouis-mo.gov/arcgis/rest/services/STREETS/Streets_Permitting/MapServer/2","title":"Street light L022730"},"type":"Feature"},{"geometry":{"coordinates":[-90.24836872070887,38.700885997878494],"type":"Point"},"id":"stl-city-public-streetlights:2:130015","properties":{"address":null,"attributes":{"Date_Installed":"5/1/2016","LED_Powered":1,"LightID":"L022731","Light_Source":"LED","Light_Type":"Cobra","Lighting_Type":"LED-Powered Lamp","Verification_Date":null},"id":"stl-city-public-streetlights:2:130015","sourceLayerId":2,"sourceObjectId":130015,"sourceURL":"https://maps8.stlouis-mo.gov/arcgis/rest/services/STREETS/Streets_Permitting/MapServer/2","title":"Street light L022731"},"type":"Feature"},{"geometry":{"coordinates":[-90.24803648559256,38.70105946219764],"type":"Point"},"id":"stl-city-public-streetlights:2:130016","properties":{"address":null,"attributes":{"Date_Installed":"5/1/2016","LED_Powered":1,"LightID":"L022732","Light_Source":"LED","Light_Type":"Cobra","Lighting_Type":"LED-Powered Lamp","Verification_Date":null},"id":"stl-city-public-streetlights:2:130016","sourceLayerId":2,"sourceObjectId":130016,"sourceURL":"https://maps8.stlouis-mo.gov/arcgis/rest/services/STREETS/Streets_Permitting/MapServer/2","title":"Street light L022732"},"type":"Feature"},{"geometry":{"coordinates":[-90.24767047050612,38.701259013327316],"type":"Point"},"id":"stl-city-public-streetlights:2:130017","properties":{"address":null,"attributes":{"Date_Installed":"5/1/2016","LED_Powered":1,"LightID":"L022733","Light_Source":"LED","Light_Type":"Cobra","Lighting_Type":"LED-Powered Lamp","Verification_Date":null},"id":"stl-city-public-streetlights:2:130017","sourceLayerId":2,"sourceObjectId":130017,"sourceURL":"https://maps8.stlouis-mo.gov/arcgis/rest/services/STREETS/Streets_Permitting/MapServer/2","title":"Street light L022733"},"type":"Feature"},{"geometry":{"coordinates":[-90.24735043845861,38.70144304951336],"type":"Point"},"id":"stl-city-public-streetlights:2:130018","properties":{"address":null,"attributes":{"Date_Installed":null,"LED_Powered":0,"LightID":"L022734","Light_Source":"LED","Light_Type":"Cobra","Lighting_Type":"LED-Powered Lamp","Verification_Date":null},"id":"stl-city-public-streetlights:2:130018","sourceLayerId":2,"sourceObjectId":130018,"sourceURL":"https://maps8.stlouis-mo.gov/arcgis/rest/services/STREETS/Streets_Permitting/MapServer/2","title":"Street light L022734"},"type":"Feature"},{"geometry":{"coordinates":[-90.24693903693988,38.701659662025115],"type":"Point"},"id":"stl-city-public-streetlights:2:130019","properties":{"address":null,"attributes":{"Date_Installed":null,"LED_Powered":0,"LightID":"L022735","Light_Source":"LED","Light_Type":"Cobra","Lighting_Type":"LED-Powered Lamp","Verification_Date":null},"id":"stl-city-public-streetlights:2:130019","sourceLayerId":2,"sourceObjectId":130019,"sourceURL":"https://maps8.stlouis-mo.gov/arcgis/rest/services/STREETS/Streets_Permitting/MapServer/2","title":"Street light L022735"},"type":"Feature"},{"geometry":{"coordinates":[-90.24658467081721,38.70185336570593],"type":"Point"},"id":"stl-city-public-streetlights:2:130020","properties":{"address":null,"attributes":{"Date_Installed":null,"LED_Powered":0,"LightID":"L022736","Light_Source":"LED","Light_Type":"Cobra","Lighting_Type":"LED-Powered Lamp","Verification_Date":null},"id":"stl-city-public-streetlights:2:130020","sourceLayerId":2,"sourceObjectId":130020,"sourceURL":"https://maps8.stlouis-mo.gov/arcgis/rest/services/STREETS/Streets_Permitting/MapServer/2","title":"Street light L022736"},"type":"Feature"},{"geometry":{"coordinates":[-90.2462536889005,38.70203570670582],"type":"Point"},"id":"stl-city-public-streetlights:2:130021","properties":{"address":null,"attributes":{"Date_Installed":null,"LED_Powered":0,"LightID":"L022737","Light_Source":"LED","Light_Type":"Cobra","Lighting_Type":"LED-Powered Lamp","Verification_Date":null},"id":"stl-city-public-streetlights:2:130021","sourceLayerId":2,"sourceObjectId":130021,"sourceURL":"https://maps8.stlouis-mo.gov/arcgis/rest/services/STREETS/Streets_Permitting/MapServer/2","title":"Street light L022737"},"type":"Feature"},{"geometry":{"coordinates":[-90.24582460658806,38.7022612154261],"type":"Point"},"id":"stl-city-public-streetlights:2:130022","properties":{"address":null,"attributes":{"Date_Installed":null,"LED_Powered":0,"LightID":"L022738","Light_Source":"LED","Light_Type":"Cobra","Lighting_Type":"LED-Powered Lamp","Verification_Date":null},"id":"stl-city-public-streetlights:2:130022","sourceLayerId":2,"sourceObjectId":130022,"sourceURL":"https://maps8.stlouis-mo.gov/arcgis/rest/services/STREETS/Streets_Permitting/MapServer/2","title":"Street light L022738"},"type":"Feature"},{"geometry":{"coordinates":[-90.24768855687817,38.7001847891661],"type":"Point"},"id":"stl-city-public-streetlights:2:130039","properties":{"address":null,"attributes":{"Date_Installed":"5/1/2016","LED_Powered":1,"LightID":"L022755","Light_Source":"LED","Light_Type":"Cobra","Lighting_Type":"LED-Powered Lamp","Verification_Date":null},"id":"stl-city-public-streetlights:2:130039","sourceLayerId":2,"sourceObjectId":130039,"sourceURL":"https://maps8.stlouis-mo.gov/arcgis/rest/services/STREETS/Streets_Permitting/MapServer/2","title":"Street light L022755"},"type":"Feature"},{"geometry":{"coordinates":[-90.2473300252062,38.70037637091206],"type":"Point"},"id":"stl-city-public-streetlights:2:130040","properties":{"address":null,"attributes":{"Date_Installed":"5/1/2016","LED_Powered":1,"LightID":"L022756","Light_Source":"LED","Light_Type":"Cobra","Lighting_Type":"LED-Powered Lamp","Verification_Date":null},"id":"stl-city-public-streetlights:2:130040","sourceLayerId":2,"sourceObjectId":130040,"sourceURL":"https://maps8.stlouis-mo.gov/arcgis/rest/services/STREETS/Streets_Permitting/MapServer/2","title":"Street light L022756"},"type":"Feature"},{"geometry":{"coordinates":[-90.24699333043851,38.70055965484908],"type":"Point"},"id":"stl-city-public-streetlights:2:130041","properties":{"address":null,"attributes":{"Date_Installed":"5/1/2016","LED_Powered":1,"LightID":"L022757","Light_Source":"LED","Light_Type":"Cobra","Lighting_Type":"LED-Powered Lamp","Verification_Date":null},"id":"stl-city-public-streetlights:2:130041","sourceLayerId":2,"sourceObjectId":130041,"sourceURL":"https://maps8.stlouis-mo.gov/arcgis/rest/services/STREETS/Streets_Permitting/MapServer/2","title":"Street light L022757"},"type":"Feature"},{"geometry":{"coordinates":[-90.24664714267708,38.70074291814297],"type":"Point"},"id":"stl-city-public-streetlights:2:130042","properties":{"address":null,"attributes":{"Date_Installed":null,"LED_Powered":0,"LightID":"L022758","Light_Source":"LED","Light_Type":"Cobra","Lighting_Type":"LED-Powered Lamp","Verification_Date":null},"id":"stl-city-public-streetlights:2:130042","sourceLayerId":2,"sourceObjectId":130042,"sourceURL":"https://maps8.stlouis-mo.gov/arcgis/rest/services/STREETS/Streets_Permitting/MapServer/2","title":"Street light L022758"},"type":"Feature"},{"geometry":{"coordinates":[-90.24628475412291,38.70094850328973],"type":"Point"},"id":"stl-city-public-streetlights:2:130043","properties":{"address":null,"attributes":{"Date_Installed":null,"LED_Powered":0,"LightID":"L022759","Light_Source":"LED","Light_Type":"Cobra","Lighting_Type":"LED-Powered Lamp","Verification_Date":null},"id":"stl-city-public-streetlights:2:130043","sourceLayerId":2,"sourceObjectId":130043,"sourceURL":"https://maps8.stlouis-mo.gov/arcgis/rest/services/STREETS/Streets_Permitting/MapServer/2","title":"Street light L022759"},"type":"Feature"},{"geometry":{"coordinates":[-90.24594266777636,38.70113248777759],"type":"Point"},"id":"stl-city-public-streetlights:2:130044","properties":{"address":null,"attributes":{"Date_Installed":null,"LED_Powered":0,"LightID":"L022760","Light_Source":"LED","Light_Type":"Cobra","Lighting_Type":"LED-Powered Lamp","Verification_Date":null},"id":"stl-city-public-streetlights:2:130044","sourceLayerId":2,"sourceObjectId":130044,"sourceURL":"https://maps8.stlouis-mo.gov/arcgis/rest/services/STREETS/Streets_Permitting/MapServer/2","title":"Street light L022760"},"type":"Feature"},{"geometry":{"coordinates":[-90.24562111937249,38.70131413310872],"type":"Point"},"id":"stl-city-public-streetlights:2:130045","properties":{"address":null,"attributes":{"Date_Installed":null,"LED_Powered":0,"LightID":"L022761","Light_Source":"LED","Light_Type":"Cobra","Lighting_Type":"LED-Powered Lamp","Verification_Date":null},"id":"stl-city-public-streetlights:2:130045","sourceLayerId":2,"sourceObjectId":130045,"sourceURL":"https://maps8.stlouis-mo.gov/arcgis/rest/services/STREETS/Streets_Permitting/MapServer/2","title":"Street light L022761"},"type":"Feature"},{"geometry":{"coordinates":[-90.24522980650286,38.701525658199856],"type":"Point"},"id":"stl-city-public-streetlights:2:130046","properties":{"address":null,"attributes":{"Date_Installed":null,"LED_Powered":0,"LightID":"L022762","Light_Source":"LED","Light_Type":"Cobra","Lighting_Type":"LED-Powered Lamp","Verification_Date":null},"id":"stl-city-public-streetlights:2:130046","sourceLayerId":2,"sourceObjectId":130046,"sourceURL":"https://maps8.stlouis-mo.gov/arcgis/rest/services/STREETS/Streets_Permitting/MapServer/2","title":"Street light L022762"},"type":"Feature"},{"geometry":{"coordinates":[-90.24548377239324,38.70009931492469],"type":"Point"},"id":"stl-city-public-streetlights:2:130062","properties":{"address":null,"attributes":{"Date_Installed":null,"LED_Powered":0,"LightID":"L022778","Light_Source":"LED","Light_Type":"Cobra","Lighting_Type":"LED-Powered Lamp","Verification_Date":null},"id":"stl-city-public-streetlights:2:130062","sourceLayerId":2,"sourceObjectId":130062,"sourceURL":"https://maps8.stlouis-mo.gov/arcgis/rest/services/STREETS/Streets_Permitting/MapServer/2","title":"Street light L022778"},"type":"Feature"},{"geometry":{"coordinates":[-90.24512020793426,38.700293500497885],"type":"Point"},"id":"stl-city-public-streetlights:2:130063","properties":{"address":null,"attributes":{"Date_Installed":null,"LED_Powered":0,"LightID":"L022779","Light_Source":"LED","Light_Type":"Cobra","Lighting_Type":"LED-Powered Lamp","Verification_Date":null},"id":"stl-city-public-streetlights:2:130063","sourceLayerId":2,"sourceObjectId":130063,"sourceURL":"https://maps8.stlouis-mo.gov/arcgis/rest/services/STREETS/Streets_Permitting/MapServer/2","title":"Street light L022779"},"type":"Feature"},{"geometry":{"coordinates":[-90.24473622551396,38.70049765094015],"type":"Point"},"id":"stl-city-public-streetlights:2:130064","properties":{"address":null,"attributes":{"Date_Installed":null,"LED_Powered":0,"LightID":"L022780","Light_Source":"LED","Light_Type":"Cobra","Lighting_Type":"LED-Powered Lamp","Verification_Date":null},"id":"stl-city-public-streetlights:2:130064","sourceLayerId":2,"sourceObjectId":130064,"sourceURL":"https://maps8.stlouis-mo.gov/arcgis/rest/services/STREETS/Streets_Permitting/MapServer/2","title":"Street light L022780"},"type":"Feature"},{"geometry":{"coordinates":[-90.2444009937925,38.70067807120158],"type":"Point"},"id":"stl-city-public-streetlights:2:130065","properties":{"address":null,"attributes":{"Date_Installed":null,"LED_Powered":0,"LightID":"L022781","Light_Source":"LED","Light_Type":"Cobra","Lighting_Type":"LED-Powered Lamp","Verification_Date":null},"id":"stl-city-public-streetlights:2:130065","sourceLayerId":2,"sourceObjectId":130065,"sourceURL":"https://maps8.stlouis-mo.gov/arcgis/rest/services/STREETS/Streets_Permitting/MapServer/2","title":"Street light L022781"},"type":"Feature"},{"geometry":{"coordinates":[-90.24968511674342,38.70634011487136],"type":"Point"},"id":"stl-city-public-streetlights:2:147645","properties":{"address":null,"attributes":{"Date_Installed":null,"LED_Powered":0,"LightID":"L040500","Light_Source":"High Pressure Sodium","Light_Type":"Decorative","Lighting_Type":"King Luminaire (Historic Light Fixtures)","Verification_Date":null},"id":"stl-city-public-streetlights:2:147645","sourceLayerId":2,"sourceObjectId":147645,"sourceURL":"https://maps8.stlouis-mo.gov/arcgis/rest/services/STREETS/Streets_Permitting/MapServer/2","title":"Street light L040500"},"type":"Feature"},{"geometry":{"coordinates":[-90.24650471174171,38.70993687186919],"type":"Point"},"id":"stl-city-public-streetlights:2:147703","properties":{"address":null,"attributes":{"Date_Installed":null,"LED_Powered":0,"LightID":"L040558","Light_Source":"High Pressure Sodium","Light_Type":"Decorative","Lighting_Type":"King Twin Fixtures (Historic Light Fixtures)","Verification_Date":null},"id":"stl-city-public-streetlights:2:147703","sourceLayerId":2,"sourceObjectId":147703,"sourceURL":"https://maps8.stlouis-mo.gov/arcgis/rest/services/STREETS/Streets_Permitting/MapServer/2","title":"Street light L040558"},"type":"Feature"},{"geometry":{"coordinates":[-90.24682712728108,38.709605776868614],"type":"Point"},"id":"stl-city-public-streetlights:2:147704","properties":{"address":null,"attributes":{"Date_Installed":null,"LED_Powered":0,"LightID":"L040559","Light_Source":"High Pressure Sodium","Light_Type":"Decorative","Lighting_Type":"King Luminaire (Historic Light Fixtures)","Verification_Date":null},"id":"stl-city-public-streetlights:2:147704","sourceLayerId":2,"sourceObjectId":147704,"sourceURL":"https://maps8.stlouis-mo.gov/arcgis/rest/services/STREETS/Streets_Permitting/MapServer/2","title":"Street light L040559"},"type":"Feature"},{"geometry":{"coordinates":[-90.24715284801857,38.70926839456638],"type":"Point"},"id":"stl-city-public-streetlights:2:147705","properties":{"address":null,"attributes":{"Date_Installed":null,"LED_Powered":0,"LightID":"L040560","Light_Source":"High Pressure Sodium","Light_Type":"Decorative","Lighting_Type":"King Luminaire (Historic Light Fixtures)","Verification_Date":null},"id":"stl-city-public-streetlights:2:147705","sourceLayerId":2,"sourceObjectId":147705,"sourceURL":"https://maps8.stlouis-mo.gov/arcgis/rest/services/STREETS/Streets_Permitting/MapServer/2","title":"Street light L040560"},"type":"Feature"},{"geometry":{"coordinates":[-90.24746052956539,38.70897344789916],"type":"Point"},"id":"stl-city-public-streetlights:2:147706","properties":{"address":null,"attributes":{"Date_Installed":null,"LED_Powered":0,"LightID":"L040561","Light_Source":"High Pressure Sodium","Light_Type":"Decorative","Lighting_Type":"King Luminaire (Historic Light Fixtures)","Verification_Date":null},"id":"stl-city-public-streetlights:2:147706","sourceLayerId":2,"sourceObjectId":147706,"sourceURL":"https://maps8.stlouis-mo.gov/arcgis/rest/services/STREETS/Streets_Permitting/MapServer/2","title":"Street light L040561"},"type":"Feature"},{"geometry":{"coordinates":[-90.24789924883001,38.70852590028425],"type":"Point"},"id":"stl-city-public-streetlights:2:147707","properties":{"address":null,"attributes":{"Date_Installed":null,"LED_Powered":0,"LightID":"L040562","Light_Source":"High Pressure Sodium","Light_Type":"Decorative","Lighting_Type":"King Luminaire (Historic Light Fixtures)","Verification_Date":null},"id":"stl-city-public-streetlights:2:147707","sourceLayerId":2,"sourceObjectId":147707,"sourceURL":"https://maps8.stlouis-mo.gov/arcgis/rest/services/STREETS/Streets_Permitting/MapServer/2","title":"Street light L040562"},"type":"Feature"},{"geometry":{"coordinates":[-90.24814838831111,38.70826758048201],"type":"Point"},"id":"stl-city-public-streetlights:2:147708","properties":{"address":null,"attributes":{"Date_Installed":null,"LED_Powered":0,"LightID":"L040563","Light_Source":"High Pressure Sodium","Light_Type":"Decorative","Lighting_Type":"King Luminaire (Historic Light Fixtures)","Verification_Date":null},"id":"stl-city-public-streetlights:2:147708","sourceLayerId":2,"sourceObjectId":147708,"sourceURL":"https://maps8.stlouis-mo.gov/arcgis/rest/services/STREETS/Streets_Permitting/MapServer/2","title":"Street light L040563"},"type":"Feature"},{"geometry":{"coordinates":[-90.24849825346982,38.70791165400478],"type":"Point"},"id":"stl-city-public-streetlights:2:147709","properties":{"address":null,"attributes":{"Date_Installed":null,"LED_Powered":0,"LightID":"L040564","Light_Source":"High Pressure Sodium","Light_Type":"Decorative","Lighting_Type":"King Luminaire (Historic Light Fixtures)","Verification_Date":null},"id":"stl-city-public-streetlights:2:147709","sourceLayerId":2,"sourceObjectId":147709,"sourceURL":"https://maps8.stlouis-mo.gov/arcgis/rest/services/STREETS/Streets_Permitting/MapServer/2","title":"Street light L040564"},"type":"Feature"},{"geometry":{"coordinates":[-90.24881476367459,38.70759412773919],"type":"Point"},"id":"stl-city-public-streetlights:2:147710","properties":{"address":null,"attributes":{"Date_Installed":null,"LED_Powered":0,"LightID":"L040565","Light_Source":"High Pressure Sodium","Light_Type":"Decorative","Lighting_Type":"King Luminaire (Historic Light Fixtures)","Verification_Date":null},"id":"stl-city-public-streetlights:2:147710","sourceLayerId":2,"sourceObjectId":147710,"sourceURL":"https://maps8.stlouis-mo.gov/arcgis/rest/services/STREETS/Streets_Permitting/MapServer/2","title":"Street light L040565"},"type":"Feature"},{"geometry":{"coordinates":[-90.24912981842597,38.7072744506793],"type":"Point"},"id":"stl-city-public-streetlights:2:147711","properties":{"address":null,"attributes":{"Date_Installed":null,"LED_Powered":0,"LightID":"L040566","Light_Source":"High Pressure Sodium","Light_Type":"Decorative","Lighting_Type":"King Luminaire (Historic Light Fixtures)","Verification_Date":null},"id":"stl-city-public-streetlights:2:147711","sourceLayerId":2,"sourceObjectId":147711,"sourceURL":"https://maps8.stlouis-mo.gov/arcgis/rest/services/STREETS/Streets_Permitting/MapServer/2","title":"Street light L040566"},"type":"Feature"},{"geometry":{"coordinates":[-90.24981278450251,38.706583436241175],"type":"Point"},"id":"stl-city-public-streetlights:2:147712","properties":{"address":null,"attributes":{"Date_Installed":null,"LED_Powered":0,"LightID":"L040567","Light_Source":"High Pressure Sodium","Light_Type":"Decorative","Lighting_Type":"King Luminaire (Historic Light Fixtures)","Verification_Date":null},"id":"stl-city-public-streetlights:2:147712","sourceLayerId":2,"sourceObjectId":147712,"sourceURL":"https://maps8.stlouis-mo.gov/arcgis/rest/services/STREETS/Streets_Permitting/MapServer/2","title":"Street light L040567"},"type":"Feature"},{"geometry":{"coordinates":[-90.24998309333165,38.70640871917869],"type":"Point"},"id":"stl-city-public-streetlights:2:152241","properties":{"address":null,"attributes":{"Date_Installed":"4/23/2018","LED_Powered":1,"LightID":"L045095","Light_Source":"LED","Light_Type":"Cobra","Lighting_Type":"LED-Powered Lamp","Verification_Date":null},"id":"stl-city-public-streetlights:2:152241","sourceLayerId":2,"sourceObjectId":152241,"sourceURL":"https://maps8.stlouis-mo.gov/arcgis/rest/services/STREETS/Streets_Permitting/MapServer/2","title":"Street light L045095"},"type":"Feature"},{"geometry":{"coordinates":[-90.24966622312544,38.70673685576274],"type":"Point"},"id":"stl-city-public-streetlights:2:152242","properties":{"address":null,"attributes":{"Date_Installed":"4/23/2018","LED_Powered":1,"LightID":"L045096","Light_Source":"LED","Light_Type":"Cobra","Lighting_Type":"LED-Powered Lamp","Verification_Date":null},"id":"stl-city-public-streetlights:2:152242","sourceLayerId":2,"sourceObjectId":152242,"sourceURL":"https://maps8.stlouis-mo.gov/arcgis/rest/services/STREETS/Streets_Permitting/MapServer/2","title":"Street light L045096"},"type":"Feature"},{"geometry":{"coordinates":[-90.2495141692463,38.70651878949623],"type":"Point"},"id":"stl-city-public-streetlights:2:152243","properties":{"address":null,"attributes":{"Date_Installed":null,"LED_Powered":0,"LightID":"L045097","Light_Source":"LED","Light_Type":"Cobra","Lighting_Type":"LED-Powered Lamp","Verification_Date":null},"id":"stl-city-public-streetlights:2:152243","sourceLayerId":2,"sourceObjectId":152243,"sourceURL":"https://maps8.stlouis-mo.gov/arcgis/rest/services/STREETS/Streets_Permitting/MapServer/2","title":"Street light L045097"},"type":"Feature"},{"geometry":{"coordinates":[-90.24984854538917,38.706173648834074],"type":"Point"},"id":"stl-city-public-streetlights:2:152244","properties":{"address":null,"attributes":{"Date_Installed":null,"LED_Powered":0,"LightID":"L045098","Light_Source":"LED","Light_Type":"Cobra","Lighting_Type":"LED-Powered Lamp","Verification_Date":null},"id":"stl-city-public-streetlights:2:152244","sourceLayerId":2,"sourceObjectId":152244,"sourceURL":"https://maps8.stlouis-mo.gov/arcgis/rest/services/STREETS/Streets_Permitting/MapServer/2","title":"Street light L045098"},"type":"Feature"},{"geometry":{"coordinates":[-90.24870952237391,38.7028011946728],"type":"Point"},"id":"stl-city-public-streetlights:2:152489","properties":{"address":null,"attributes":{"Date_Installed":null,"LED_Powered":0,"LightID":"L045343","Light_Source":"LED","Light_Type":"Cobra","Lighting_Type":"LED-Powered Lamp","Verification_Date":null},"id":"stl-city-public-streetlights:2:152489","sourceLayerId":2,"sourceObjectId":152489,"sourceURL":"https://maps8.stlouis-mo.gov/arcgis/rest/services/STREETS/Streets_Permitting/MapServer/2","title":"Street light L045343"},"type":"Feature"},{"geometry":{"coordinates":[-90.24847352154131,38.70252788653346],"type":"Point"},"id":"stl-city-public-streetlights:2:152490","properties":{"address":null,"attributes":{"Date_Installed":null,"LED_Powered":0,"LightID":"L045344","Light_Source":"LED","Light_Type":"Cobra","Lighting_Type":"LED-Powered Lamp","Verification_Date":null},"id":"stl-city-public-streetlights:2:152490","sourceLayerId":2,"sourceObjectId":152490,"sourceURL":"https://maps8.stlouis-mo.gov/arcgis/rest/services/STREETS/Streets_Permitting/MapServer/2","title":"Street light L045344"},"type":"Feature"},{"geometry":{"coordinates":[-90.2482693317074,38.70229147254858],"type":"Point"},"id":"stl-city-public-streetlights:2:152491","properties":{"address":null,"attributes":{"Date_Installed":null,"LED_Powered":0,"LightID":"L045345","Light_Source":"LED","Light_Type":"Cobra","Lighting_Type":"LED-Powered Lamp","Verification_Date":null},"id":"stl-city-public-streetlights:2:152491","sourceLayerId":2,"sourceObjectId":152491,"sourceURL":"https://maps8.stlouis-mo.gov/arcgis/rest/services/STREETS/Streets_Permitting/MapServer/2","title":"Street light L045345"},"type":"Feature"},{"geometry":{"coordinates":[-90.24800512057811,38.701996888798014],"type":"Point"},"id":"stl-city-public-streetlights:2:152492","properties":{"address":null,"attributes":{"Date_Installed":null,"LED_Powered":0,"LightID":"L045346","Light_Source":"LED","Light_Type":"Cobra","Lighting_Type":"LED-Powered Lamp","Verification_Date":null},"id":"stl-city-public-streetlights:2:152492","sourceLayerId":2,"sourceObjectId":152492,"sourceURL":"https://maps8.stlouis-mo.gov/arcgis/rest/services/STREETS/Streets_Permitting/MapServer/2","title":"Street light L045346"},"type":"Feature"},{"geometry":{"coordinates":[-90.24778700967714,38.70174137503244],"type":"Point"},"id":"stl-city-public-streetlights:2:152493","properties":{"address":null,"attributes":{"Date_Installed":null,"LED_Powered":0,"LightID":"L045347","Light_Source":"LED","Light_Type":"Cobra","Lighting_Type":"LED-Powered Lamp","Verification_Date":null},"id":"stl-city-public-streetlights:2:152493","sourceLayerId":2,"sourceObjectId":152493,"sourceURL":"https://maps8.stlouis-mo.gov/arcgis/rest/services/STREETS/Streets_Permitting/MapServer/2","title":"Street light L045347"},"type":"Feature"},{"geometry":{"coordinates":[-90.24758858269784,38.70151122887151],"type":"Point"},"id":"stl-city-public-streetlights:2:152494","properties":{"address":null,"attributes":{"Date_Installed":null,"LED_Powered":0,"LightID":"L045348","Light_Source":"LED","Light_Type":"Cobra","Lighting_Type":"LED-Powered Lamp","Verification_Date":null},"id":"stl-city-public-streetlights:2:152494","sourceLayerId":2,"sourceObjectId":152494,"sourceURL":"https://maps8.stlouis-mo.gov/arcgis/rest/services/STREETS/Streets_Permitting/MapServer/2","title":"Street light L045348"},"type":"Feature"},{"geometry":{"coordinates":[-90.24732723278159,38.70121178318028],"type":"Point"},"id":"stl-city-public-streetlights:2:152495","properties":{"address":null,"attributes":{"Date_Installed":null,"LED_Powered":0,"LightID":"L045349","Light_Source":"LED","Light_Type":"Cobra","Lighting_Type":"LED-Powered Lamp","Verification_Date":null},"id":"stl-city-public-streetlights:2:152495","sourceLayerId":2,"sourceObjectId":152495,"sourceURL":"https://maps8.stlouis-mo.gov/arcgis/rest/services/STREETS/Streets_Permitting/MapServer/2","title":"Street light L045349"},"type":"Feature"},{"geometry":{"coordinates":[-90.24709033255246,38.7009376360297],"type":"Point"},"id":"stl-city-public-streetlights:2:152496","properties":{"address":null,"attributes":{"Date_Installed":null,"LED_Powered":0,"LightID":"L045350","Light_Source":"LED","Light_Type":"Cobra","Lighting_Type":"LED-Powered Lamp","Verification_Date":null},"id":"stl-city-public-streetlights:2:152496","sourceLayerId":2,"sourceObjectId":152496,"sourceURL":"https://maps8.stlouis-mo.gov/arcgis/rest/services/STREETS/Streets_Permitting/MapServer/2","title":"Street light L045350"},"type":"Feature"},{"geometry":{"coordinates":[-90.24690286357419,38.70072807045597],"type":"Point"},"id":"stl-city-public-streetlights:2:152497","properties":{"address":null,"attributes":{"Date_Installed":null,"LED_Powered":0,"LightID":"L045351","Light_Source":"LED","Light_Type":"Cobra","Lighting_Type":"LED-Powered Lamp","Verification_Date":null},"id":"stl-city-public-streetlights:2:152497","sourceLayerId":2,"sourceObjectId":152497,"sourceURL":"https://maps8.stlouis-mo.gov/arcgis/rest/services/STREETS/Streets_Permitting/MapServer/2","title":"Street light L045351"},"type":"Feature"},{"geometry":{"coordinates":[-90.24662314731424,38.70041295133731],"type":"Point"},"id":"stl-city-public-streetlights:2:152498","properties":{"address":null,"attributes":{"Date_Installed":null,"LED_Powered":0,"LightID":"L045352","Light_Source":"LED","Light_Type":"Cobra","Lighting_Type":"LED-Powered Lamp","Verification_Date":null},"id":"stl-city-public-streetlights:2:152498","sourceLayerId":2,"sourceObjectId":152498,"sourceURL":"https://maps8.stlouis-mo.gov/arcgis/rest/services/STREETS/Streets_Permitting/MapServer/2","title":"Street light L045352"},"type":"Feature"},{"geometry":{"coordinates":[-90.2463867235265,38.700134632688574],"type":"Point"},"id":"stl-city-public-streetlights:2:152499","properties":{"address":null,"attributes":{"Date_Installed":null,"LED_Powered":0,"LightID":"L045353","Light_Source":"LED","Light_Type":"Cobra","Lighting_Type":"LED-Powered Lamp","Verification_Date":null},"id":"stl-city-public-streetlights:2:152499","sourceLayerId":2,"sourceObjectId":152499,"sourceURL":"https://maps8.stlouis-mo.gov/arcgis/rest/services/STREETS/Streets_Permitting/MapServer/2","title":"Street light L045353"},"type":"Feature"},{"geometry":{"coordinates":[-90.24341747112544,38.70008510230025],"type":"Point"},"id":"stl-city-public-streetlights:2:152613","properties":{"address":null,"attributes":{"Date_Installed":"6/15/2017","LED_Powered":1,"LightID":"L045467","Light_Source":"LED","Light_Type":"Cobra","Lighting_Type":"LED-Powered Lamp","Verification_Date":null},"id":"stl-city-public-streetlights:2:152613","sourceLayerId":2,"sourceObjectId":152613,"sourceURL":"https://maps8.stlouis-mo.gov/arcgis/rest/services/STREETS/Streets_Permitting/MapServer/2","title":"Street light L045467"},"type":"Feature"},{"geometry":{"coordinates":[-90.24377722602213,38.700491114976785],"type":"Point"},"id":"stl-city-public-streetlights:2:152614","properties":{"address":null,"attributes":{"Date_Installed":"6/15/2017","LED_Powered":1,"LightID":"L045468","Light_Source":"LED","Light_Type":"Cobra","Lighting_Type":"LED-Powered Lamp","Verification_Date":null},"id":"stl-city-public-streetlights:2:152614","sourceLayerId":2,"sourceObjectId":152614,"sourceURL":"https://maps8.stlouis-mo.gov/arcgis/rest/services/STREETS/Streets_Permitting/MapServer/2","title":"Street light L045468"},"type":"Feature"},{"geometry":{"coordinates":[-90.24411401684611,38.700880567653265],"type":"Point"},"id":"stl-city-public-streetlights:2:152615","properties":{"address":null,"attributes":{"Date_Installed":"6/15/2017","LED_Powered":1,"LightID":"L045469","Light_Source":"LED","Light_Type":"Cobra","Lighting_Type":"LED-Powered Lamp","Verification_Date":null},"id":"stl-city-public-streetlights:2:152615","sourceLayerId":2,"sourceObjectId":152615,"sourceURL":"https://maps8.stlouis-mo.gov/arcgis/rest/services/STREETS/Streets_Permitting/MapServer/2","title":"Street light L045469"},"type":"Feature"},{"geometry":{"coordinates":[-90.24447391534353,38.70129109186253],"type":"Point"},"id":"stl-city-public-streetlights:2:152616","properties":{"address":null,"attributes":{"Date_Installed":"6/15/2017","LED_Powered":1,"LightID":"L045470","Light_Source":"LED","Light_Type":"Cobra","Lighting_Type":"LED-Powered Lamp","Verification_Date":null},"id":"stl-city-public-streetlights:2:152616","sourceLayerId":2,"sourceObjectId":152616,"sourceURL":"https://maps8.stlouis-mo.gov/arcgis/rest/services/STREETS/Streets_Permitting/MapServer/2","title":"Street light L045470"},"type":"Feature"},{"geometry":{"coordinates":[-90.24482183951685,38.70169134040383],"type":"Point"},"id":"stl-city-public-streetlights:2:152617","properties":{"address":null,"attributes":{"Date_Installed":"6/15/2017","LED_Powered":1,"LightID":"L045471","Light_Source":"LED","Light_Type":"Cobra","Lighting_Type":"LED-Powered Lamp","Verification_Date":null},"id":"stl-city-public-streetlights:2:152617","sourceLayerId":2,"sourceObjectId":152617,"sourceURL":"https://maps8.stlouis-mo.gov/arcgis/rest/services/STREETS/Streets_Permitting/MapServer/2","title":"Street light L045471"},"type":"Feature"},{"geometry":{"coordinates":[-90.24517582613053,38.702098418054426],"type":"Point"},"id":"stl-city-public-streetlights:2:152618","properties":{"address":null,"attributes":{"Date_Installed":"6/15/2017","LED_Powered":1,"LightID":"L045472","Light_Source":"LED","Light_Type":"Cobra","Lighting_Type":"LED-Powered Lamp","Verification_Date":null},"id":"stl-city-public-streetlights:2:152618","sourceLayerId":2,"sourceObjectId":152618,"sourceURL":"https://maps8.stlouis-mo.gov/arcgis/rest/services/STREETS/Streets_Permitting/MapServer/2","title":"Street light L045472"},"type":"Feature"},{"geometry":{"coordinates":[-90.24552141203552,38.702499532325305],"type":"Point"},"id":"stl-city-public-streetlights:2:152619","properties":{"address":null,"attributes":{"Date_Installed":"6/15/2017","LED_Powered":1,"LightID":"L045473","Light_Source":"LED","Light_Type":"Cobra","Lighting_Type":"LED-Powered Lamp","Verification_Date":null},"id":"stl-city-public-streetlights:2:152619","sourceLayerId":2,"sourceObjectId":152619,"sourceURL":"https://maps8.stlouis-mo.gov/arcgis/rest/services/STREETS/Streets_Permitting/MapServer/2","title":"Street light L045473"},"type":"Feature"},{"geometry":{"coordinates":[-90.24589030650887,38.702916603034545],"type":"Point"},"id":"stl-city-public-streetlights:2:152620","properties":{"address":null,"attributes":{"Date_Installed":"6/15/2017","LED_Powered":1,"LightID":"L045474","Light_Source":"LED","Light_Type":"Cobra","Lighting_Type":"LED-Powered Lamp","Verification_Date":null},"id":"stl-city-public-streetlights:2:152620","sourceLayerId":2,"sourceObjectId":152620,"sourceURL":"https://maps8.stlouis-mo.gov/arcgis/rest/services/STREETS/Streets_Permitting/MapServer/2","title":"Street light L045474"},"type":"Feature"},{"geometry":{"coordinates":[-90.24622670183427,38.70330404597817],"type":"Point"},"id":"stl-city-public-streetlights:2:152621","properties":{"address":null,"attributes":{"Date_Installed":"6/15/2017","LED_Powered":1,"LightID":"L045475","Light_Source":"LED","Light_Type":"Cobra","Lighting_Type":"LED-Powered Lamp","Verification_Date":null},"id":"stl-city-public-streetlights:2:152621","sourceLayerId":2,"sourceObjectId":152621,"sourceURL":"https://maps8.stlouis-mo.gov/arcgis/rest/services/STREETS/Streets_Permitting/MapServer/2","title":"Street light L045475"},"type":"Feature"},{"geometry":{"coordinates":[-90.24656019946954,38.70368614304135],"type":"Point"},"id":"stl-city-public-streetlights:2:152622","properties":{"address":null,"attributes":{"Date_Installed":"6/15/2017","LED_Powered":1,"LightID":"L045476","Light_Source":"LED","Light_Type":"Cobra","Lighting_Type":"LED-Powered Lamp","Verification_Date":null},"id":"stl-city-public-streetlights:2:152622","sourceLayerId":2,"sourceObjectId":152622,"sourceURL":"https://maps8.stlouis-mo.gov/arcgis/rest/services/STREETS/Streets_Permitting/MapServer/2","title":"Street light L045476"},"type":"Feature"},{"geometry":{"coordinates":[-90.24691490505383,38.70409345470289],"type":"Point"},"id":"stl-city-public-streetlights:2:152623","properties":{"address":null,"attributes":{"Date_Installed":"6/15/2017","LED_Powered":1,"LightID":"L045477","Light_Source":"LED","Light_Type":"Cobra","Lighting_Type":"LED-Powered Lamp","Verification_Date":null},"id":"stl-city-public-streetlights:2:152623","sourceLayerId":2,"sourceObjectId":152623,"sourceURL":"https://maps8.stlouis-mo.gov/arcgis/rest/services/STREETS/Streets_Permitting/MapServer/2","title":"Street light L045477"},"type":"Feature"},{"geometry":{"coordinates":[-90.24725663612715,38.70448891498391],"type":"Point"},"id":"stl-city-public-streetlights:2:152624","properties":{"address":null,"attributes":{"Date_Installed":"6/15/2017","LED_Powered":1,"LightID":"L045478","Light_Source":"LED","Light_Type":"Cobra","Lighting_Type":"LED-Powered Lamp","Verification_Date":null},"id":"stl-city-public-streetlights:2:152624","sourceLayerId":2,"sourceObjectId":152624,"sourceURL":"https://maps8.stlouis-mo.gov/arcgis/rest/services/STREETS/Streets_Permitting/MapServer/2","title":"Street light L045478"},"type":"Feature"},{"geometry":{"coordinates":[-90.247605658549,38.704888394390245],"type":"Point"},"id":"stl-city-public-streetlights:2:152625","properties":{"address":null,"attributes":{"Date_Installed":"6/15/2017","LED_Powered":1,"LightID":"L045479","Light_Source":"LED","Light_Type":"Cobra","Lighting_Type":"LED-Powered Lamp","Verification_Date":null},"id":"stl-city-public-streetlights:2:152625","sourceLayerId":2,"sourceObjectId":152625,"sourceURL":"https://maps8.stlouis-mo.gov/arcgis/rest/services/STREETS/Streets_Permitting/MapServer/2","title":"Street light L045479"},"type":"Feature"},{"geometry":{"coordinates":[-90.24795962425648,38.70529303191143],"type":"Point"},"id":"stl-city-public-streetlights:2:152626","properties":{"address":null,"attributes":{"Date_Installed":"6/15/2017","LED_Powered":1,"LightID":"L045480","Light_Source":"LED","Light_Type":"Cobra","Lighting_Type":"LED-Powered Lamp","Verification_Date":null},"id":"stl-city-public-streetlights:2:152626","sourceLayerId":2,"sourceObjectId":152626,"sourceURL":"https://maps8.stlouis-mo.gov/arcgis/rest/services/STREETS/Streets_Permitting/MapServer/2","title":"Street light L045480"},"type":"Feature"},{"geometry":{"coordinates":[-90.24831352183895,38.705692328680946],"type":"Point"},"id":"stl-city-public-streetlights:2:152627","properties":{"address":null,"attributes":{"Date_Installed":"6/15/2017","LED_Powered":1,"LightID":"L045481","Light_Source":"LED","Light_Type":"Cobra","Lighting_Type":"LED-Powered Lamp","Verification_Date":null},"id":"stl-city-public-streetlights:2:152627","sourceLayerId":2,"sourceObjectId":152627,"sourceURL":"https://maps8.stlouis-mo.gov/arcgis/rest/services/STREETS/Streets_Permitting/MapServer/2","title":"Street light L045481"},"type":"Feature"},{"geometry":{"coordinates":[-90.24866738463345,38.70610268437406],"type":"Point"},"id":"stl-city-public-streetlights:2:152628","properties":{"address":null,"attributes":{"Date_Installed":"6/15/2017","LED_Powered":1,"LightID":"L045482","Light_Source":"LED","Light_Type":"Cobra","Lighting_Type":"LED-Powered Lamp","Verification_Date":null},"id":"stl-city-public-streetlights:2:152628","sourceLayerId":2,"sourceObjectId":152628,"sourceURL":"https://maps8.stlouis-mo.gov/arcgis/rest/services/STREETS/Streets_Permitting/MapServer/2","title":"Street light L045482"},"type":"Feature"},{"geometry":{"coordinates":[-90.24902490047612,38.70651342788482],"type":"Point"},"id":"stl-city-public-streetlights:2:152629","properties":{"address":null,"attributes":{"Date_Installed":"6/15/2017","LED_Powered":1,"LightID":"L045483","Light_Source":"LED","Light_Type":"Cobra","Lighting_Type":"LED-Powered Lamp","Verification_Date":null},"id":"stl-city-public-streetlights:2:152629","sourceLayerId":2,"sourceObjectId":152629,"sourceURL":"https://maps8.stlouis-mo.gov/arcgis/rest/services/STREETS/Streets_Permitting/MapServer/2","title":"Street light L045483"},"type":"Feature"},{"geometry":{"coordinates":[-90.2492049272754,38.70680904298642],"type":"Point"},"id":"stl-city-public-streetlights:2:152630","properties":{"address":null,"attributes":{"Date_Installed":null,"LED_Powered":0,"LightID":"L045484","Light_Source":"LED","Light_Type":"Cobra","Lighting_Type":"LED-Powered Lamp","Verification_Date":null},"id":"stl-city-public-streetlights:2:152630","sourceLayerId":2,"sourceObjectId":152630,"sourceURL":"https://maps8.stlouis-mo.gov/arcgis/rest/services/STREETS/Streets_Permitting/MapServer/2","title":"Street light L045484"},"type":"Feature"}],"layerId":"city-streetlights","retrievedAt":"2026-09-13T21:56:18.173251+00:00","schema":"property-infrastructure-geojson-v1","sourceId":"stl-city-public-streetlights","tileId":"-9025_3870","type":"FeatureCollection"}