{"features":[{"geometry":{"coordinates":[-90.27179889608686,38.69010708693636],"type":"Point"},"id":"stl-city-public-streetlights:2:131564","properties":{"address":null,"attributes":{"Date_Installed":null,"LED_Powered":0,"LightID":"L024280","Light_Source":"LED","Light_Type":"Cobra","Lighting_Type":"LED-Powered Lamp","Verification_Date":null},"id":"stl-city-public-streetlights:2:131564","sourceLayerId":2,"sourceObjectId":131564,"sourceURL":"https://maps8.stlouis-mo.gov/arcgis/rest/services/STREETS/Streets_Permitting/MapServer/2","title":"Street light L024280"},"type":"Feature"},{"geometry":{"coordinates":[-90.27183007923459,38.690487246031644],"type":"Point"},"id":"stl-city-public-streetlights:2:131565","properties":{"address":null,"attributes":{"Date_Installed":null,"LED_Powered":0,"LightID":"L024281","Light_Source":"LED","Light_Type":"Cobra","Lighting_Type":"LED-Powered Lamp","Verification_Date":null},"id":"stl-city-public-streetlights:2:131565","sourceLayerId":2,"sourceObjectId":131565,"sourceURL":"https://maps8.stlouis-mo.gov/arcgis/rest/services/STREETS/Streets_Permitting/MapServer/2","title":"Street light L024281"},"type":"Feature"},{"geometry":{"coordinates":[-90.27178259125162,38.690836052261176],"type":"Point"},"id":"stl-city-public-streetlights:2:131566","properties":{"address":null,"attributes":{"Date_Installed":null,"LED_Powered":0,"LightID":"L024282","Light_Source":"LED","Light_Type":"Cobra","Lighting_Type":"LED-Powered Lamp","Verification_Date":null},"id":"stl-city-public-streetlights:2:131566","sourceLayerId":2,"sourceObjectId":131566,"sourceURL":"https://maps8.stlouis-mo.gov/arcgis/rest/services/STREETS/Streets_Permitting/MapServer/2","title":"Street light L024282"},"type":"Feature"},{"geometry":{"coordinates":[-90.27165258677128,38.6911670211601],"type":"Point"},"id":"stl-city-public-streetlights:2:131567","properties":{"address":null,"attributes":{"Date_Installed":null,"LED_Powered":0,"LightID":"L024283","Light_Source":"LED","Light_Type":"Cobra","Lighting_Type":"LED-Powered Lamp","Verification_Date":null},"id":"stl-city-public-streetlights:2:131567","sourceLayerId":2,"sourceObjectId":131567,"sourceURL":"https://maps8.stlouis-mo.gov/arcgis/rest/services/STREETS/Streets_Permitting/MapServer/2","title":"Street light L024283"},"type":"Feature"},{"geometry":{"coordinates":[-90.27144960691591,38.69149269966252],"type":"Point"},"id":"stl-city-public-streetlights:2:131568","properties":{"address":null,"attributes":{"Date_Installed":null,"LED_Powered":0,"LightID":"L024284","Light_Source":"LED","Light_Type":"Cobra","Lighting_Type":"LED-Powered Lamp","Verification_Date":null},"id":"stl-city-public-streetlights:2:131568","sourceLayerId":2,"sourceObjectId":131568,"sourceURL":"https://maps8.stlouis-mo.gov/arcgis/rest/services/STREETS/Streets_Permitting/MapServer/2","title":"Street light L024284"},"type":"Feature"},{"geometry":{"coordinates":[-90.27123328141941,38.69178353711857],"type":"Point"},"id":"stl-city-public-streetlights:2:131569","properties":{"address":null,"attributes":{"Date_Installed":null,"LED_Powered":0,"LightID":"L024285","Light_Source":"LED","Light_Type":"Cobra","Lighting_Type":"LED-Powered Lamp","Verification_Date":null},"id":"stl-city-public-streetlights:2:131569","sourceLayerId":2,"sourceObjectId":131569,"sourceURL":"https://maps8.stlouis-mo.gov/arcgis/rest/services/STREETS/Streets_Permitting/MapServer/2","title":"Street light L024285"},"type":"Feature"},{"geometry":{"coordinates":[-90.27092648676934,38.693521205317815],"type":"Point"},"id":"stl-city-public-streetlights:2:131570","properties":{"address":null,"attributes":{"Date_Installed":null,"LED_Powered":0,"LightID":"L024286","Light_Source":"LED","Light_Type":"Cobra","Lighting_Type":"LED-Powered Lamp","Verification_Date":null},"id":"stl-city-public-streetlights:2:131570","sourceLayerId":2,"sourceObjectId":131570,"sourceURL":"https://maps8.stlouis-mo.gov/arcgis/rest/services/STREETS/Streets_Permitting/MapServer/2","title":"Street light L024286"},"type":"Feature"},{"geometry":{"coordinates":[-90.27115653262857,38.69319891767721],"type":"Point"},"id":"stl-city-public-streetlights:2:131571","properties":{"address":null,"attributes":{"Date_Installed":null,"LED_Powered":0,"LightID":"L024287","Light_Source":"LED","Light_Type":"Cobra","Lighting_Type":"LED-Powered Lamp","Verification_Date":null},"id":"stl-city-public-streetlights:2:131571","sourceLayerId":2,"sourceObjectId":131571,"sourceURL":"https://maps8.stlouis-mo.gov/arcgis/rest/services/STREETS/Streets_Permitting/MapServer/2","title":"Street light L024287"},"type":"Feature"},{"geometry":{"coordinates":[-90.27138711509262,38.6928749630815],"type":"Point"},"id":"stl-city-public-streetlights:2:131572","properties":{"address":null,"attributes":{"Date_Installed":null,"LED_Powered":0,"LightID":"L024288","Light_Source":"LED","Light_Type":"Cobra","Lighting_Type":"LED-Powered Lamp","Verification_Date":null},"id":"stl-city-public-streetlights:2:131572","sourceLayerId":2,"sourceObjectId":131572,"sourceURL":"https://maps8.stlouis-mo.gov/arcgis/rest/services/STREETS/Streets_Permitting/MapServer/2","title":"Street light L024288"},"type":"Feature"},{"geometry":{"coordinates":[-90.27161906412967,38.692550771045155],"type":"Point"},"id":"stl-city-public-streetlights:2:131573","properties":{"address":null,"attributes":{"Date_Installed":null,"LED_Powered":0,"LightID":"L024289","Light_Source":"LED","Light_Type":"Cobra","Lighting_Type":"LED-Powered Lamp","Verification_Date":null},"id":"stl-city-public-streetlights:2:131573","sourceLayerId":2,"sourceObjectId":131573,"sourceURL":"https://maps8.stlouis-mo.gov/arcgis/rest/services/STREETS/Streets_Permitting/MapServer/2","title":"Street light L024289"},"type":"Feature"},{"geometry":{"coordinates":[-90.27182536733976,38.6922333463646],"type":"Point"},"id":"stl-city-public-streetlights:2:131574","properties":{"address":null,"attributes":{"Date_Installed":null,"LED_Powered":0,"LightID":"L024290","Light_Source":"LED","Light_Type":"Cobra","Lighting_Type":"LED-Powered Lamp","Verification_Date":null},"id":"stl-city-public-streetlights:2:131574","sourceLayerId":2,"sourceObjectId":131574,"sourceURL":"https://maps8.stlouis-mo.gov/arcgis/rest/services/STREETS/Streets_Permitting/MapServer/2","title":"Street light L024290"},"type":"Feature"},{"geometry":{"coordinates":[-90.27206067795657,38.69192656139932],"type":"Point"},"id":"stl-city-public-streetlights:2:131575","properties":{"address":null,"attributes":{"Date_Installed":null,"LED_Powered":0,"LightID":"L024291","Light_Source":"LED","Light_Type":"Cobra","Lighting_Type":"LED-Powered Lamp","Verification_Date":null},"id":"stl-city-public-streetlights:2:131575","sourceLayerId":2,"sourceObjectId":131575,"sourceURL":"https://maps8.stlouis-mo.gov/arcgis/rest/services/STREETS/Streets_Permitting/MapServer/2","title":"Street light L024291"},"type":"Feature"},{"geometry":{"coordinates":[-90.27227469748347,38.691619971416664],"type":"Point"},"id":"stl-city-public-streetlights:2:131576","properties":{"address":null,"attributes":{"Date_Installed":null,"LED_Powered":0,"LightID":"L024292","Light_Source":"LED","Light_Type":"Cobra","Lighting_Type":"LED-Powered Lamp","Verification_Date":null},"id":"stl-city-public-streetlights:2:131576","sourceLayerId":2,"sourceObjectId":131576,"sourceURL":"https://maps8.stlouis-mo.gov/arcgis/rest/services/STREETS/Streets_Permitting/MapServer/2","title":"Street light L024292"},"type":"Feature"},{"geometry":{"coordinates":[-90.27244122509687,38.69131824797594],"type":"Point"},"id":"stl-city-public-streetlights:2:131577","properties":{"address":null,"attributes":{"Date_Installed":null,"LED_Powered":0,"LightID":"L024293","Light_Source":"LED","Light_Type":"Cobra","Lighting_Type":"LED-Powered Lamp","Verification_Date":null},"id":"stl-city-public-streetlights:2:131577","sourceLayerId":2,"sourceObjectId":131577,"sourceURL":"https://maps8.stlouis-mo.gov/arcgis/rest/services/STREETS/Streets_Permitting/MapServer/2","title":"Street light L024293"},"type":"Feature"},{"geometry":{"coordinates":[-90.27256458139615,38.690985373424574],"type":"Point"},"id":"stl-city-public-streetlights:2:131578","properties":{"address":null,"attributes":{"Date_Installed":null,"LED_Powered":0,"LightID":"L024294","Light_Source":"LED","Light_Type":"Cobra","Lighting_Type":"LED-Powered Lamp","Verification_Date":null},"id":"stl-city-public-streetlights:2:131578","sourceLayerId":2,"sourceObjectId":131578,"sourceURL":"https://maps8.stlouis-mo.gov/arcgis/rest/services/STREETS/Streets_Permitting/MapServer/2","title":"Street light L024294"},"type":"Feature"},{"geometry":{"coordinates":[-90.27272943838241,38.690672401482544],"type":"Point"},"id":"stl-city-public-streetlights:2:131579","properties":{"address":null,"attributes":{"Date_Installed":null,"LED_Powered":0,"LightID":"L024295","Light_Source":"LED","Light_Type":"Cobra","Lighting_Type":"LED-Powered Lamp","Verification_Date":null},"id":"stl-city-public-streetlights:2:131579","sourceLayerId":2,"sourceObjectId":131579,"sourceURL":"https://maps8.stlouis-mo.gov/arcgis/rest/services/STREETS/Streets_Permitting/MapServer/2","title":"Street light L024295"},"type":"Feature"},{"geometry":{"coordinates":[-90.27274270710964,38.69032346980491],"type":"Point"},"id":"stl-city-public-streetlights:2:131580","properties":{"address":null,"attributes":{"Date_Installed":null,"LED_Powered":0,"LightID":"L024296","Light_Source":"LED","Light_Type":"Cobra","Lighting_Type":"LED-Powered Lamp","Verification_Date":null},"id":"stl-city-public-streetlights:2:131580","sourceLayerId":2,"sourceObjectId":131580,"sourceURL":"https://maps8.stlouis-mo.gov/arcgis/rest/services/STREETS/Streets_Permitting/MapServer/2","title":"Street light L024296"},"type":"Feature"},{"geometry":{"coordinates":[-90.27285004630473,38.69081022387215],"type":"Point"},"id":"stl-city-public-streetlights:2:131589","properties":{"address":null,"attributes":{"Date_Installed":null,"LED_Powered":0,"LightID":"L024305","Light_Source":"LED","Light_Type":"Cobra","Lighting_Type":"LED-Powered Lamp","Verification_Date":null},"id":"stl-city-public-streetlights:2:131589","sourceLayerId":2,"sourceObjectId":131589,"sourceURL":"https://maps8.stlouis-mo.gov/arcgis/rest/services/STREETS/Streets_Permitting/MapServer/2","title":"Street light L024305"},"type":"Feature"},{"geometry":{"coordinates":[-90.27305459757729,38.69052373249761],"type":"Point"},"id":"stl-city-public-streetlights:2:131590","properties":{"address":null,"attributes":{"Date_Installed":null,"LED_Powered":0,"LightID":"L024306","Light_Source":"LED","Light_Type":"Cobra","Lighting_Type":"LED-Powered Lamp","Verification_Date":null},"id":"stl-city-public-streetlights:2:131590","sourceLayerId":2,"sourceObjectId":131590,"sourceURL":"https://maps8.stlouis-mo.gov/arcgis/rest/services/STREETS/Streets_Permitting/MapServer/2","title":"Street light L024306"},"type":"Feature"},{"geometry":{"coordinates":[-90.27326795180761,38.69022276533035],"type":"Point"},"id":"stl-city-public-streetlights:2:131591","properties":{"address":null,"attributes":{"Date_Installed":null,"LED_Powered":0,"LightID":"L024307","Light_Source":"LED","Light_Type":"Cobra","Lighting_Type":"LED-Powered Lamp","Verification_Date":null},"id":"stl-city-public-streetlights:2:131591","sourceLayerId":2,"sourceObjectId":131591,"sourceURL":"https://maps8.stlouis-mo.gov/arcgis/rest/services/STREETS/Streets_Permitting/MapServer/2","title":"Street light L024307"},"type":"Feature"},{"geometry":{"coordinates":[-90.2712879175538,38.693830865468655],"type":"Point"},"id":"stl-city-public-streetlights:2:131701","properties":{"address":null,"attributes":{"Date_Installed":null,"LED_Powered":0,"LightID":"L024417","Light_Source":"LED","Light_Type":"Cobra","Lighting_Type":"LED-Powered Lamp","Verification_Date":null},"id":"stl-city-public-streetlights:2:131701","sourceLayerId":2,"sourceObjectId":131701,"sourceURL":"https://maps8.stlouis-mo.gov/arcgis/rest/services/STREETS/Streets_Permitting/MapServer/2","title":"Street light L024417"},"type":"Feature"},{"geometry":{"coordinates":[-90.27166241471943,38.69389643010702],"type":"Point"},"id":"stl-city-public-streetlights:2:131702","properties":{"address":null,"attributes":{"Date_Installed":null,"LED_Powered":0,"LightID":"L024418","Light_Source":"LED","Light_Type":"Cobra","Lighting_Type":"LED-Powered Lamp","Verification_Date":null},"id":"stl-city-public-streetlights:2:131702","sourceLayerId":2,"sourceObjectId":131702,"sourceURL":"https://maps8.stlouis-mo.gov/arcgis/rest/services/STREETS/Streets_Permitting/MapServer/2","title":"Street light L024418"},"type":"Feature"},{"geometry":{"coordinates":[-90.27192056208726,38.693536058839],"type":"Point"},"id":"stl-city-public-streetlights:2:131703","properties":{"address":null,"attributes":{"Date_Installed":null,"LED_Powered":0,"LightID":"L024419","Light_Source":"LED","Light_Type":"Cobra","Lighting_Type":"LED-Powered Lamp","Verification_Date":null},"id":"stl-city-public-streetlights:2:131703","sourceLayerId":2,"sourceObjectId":131703,"sourceURL":"https://maps8.stlouis-mo.gov/arcgis/rest/services/STREETS/Streets_Permitting/MapServer/2","title":"Street light L024419"},"type":"Feature"},{"geometry":{"coordinates":[-90.27216043556469,38.693201728287214],"type":"Point"},"id":"stl-city-public-streetlights:2:131704","properties":{"address":null,"attributes":{"Date_Installed":null,"LED_Powered":0,"LightID":"L024420","Light_Source":"LED","Light_Type":"Cobra","Lighting_Type":"LED-Powered Lamp","Verification_Date":null},"id":"stl-city-public-streetlights:2:131704","sourceLayerId":2,"sourceObjectId":131704,"sourceURL":"https://maps8.stlouis-mo.gov/arcgis/rest/services/STREETS/Streets_Permitting/MapServer/2","title":"Street light L024420"},"type":"Feature"},{"geometry":{"coordinates":[-90.27239109618662,38.69287562595982],"type":"Point"},"id":"stl-city-public-streetlights:2:131705","properties":{"address":null,"attributes":{"Date_Installed":null,"LED_Powered":0,"LightID":"L024421","Light_Source":"LED","Light_Type":"Cobra","Lighting_Type":"LED-Powered Lamp","Verification_Date":null},"id":"stl-city-public-streetlights:2:131705","sourceLayerId":2,"sourceObjectId":131705,"sourceURL":"https://maps8.stlouis-mo.gov/arcgis/rest/services/STREETS/Streets_Permitting/MapServer/2","title":"Street light L024421"},"type":"Feature"},{"geometry":{"coordinates":[-90.27262845380935,38.69254667587912],"type":"Point"},"id":"stl-city-public-streetlights:2:131706","properties":{"address":null,"attributes":{"Date_Installed":null,"LED_Powered":0,"LightID":"L024422","Light_Source":"LED","Light_Type":"Cobra","Lighting_Type":"LED-Powered Lamp","Verification_Date":null},"id":"stl-city-public-streetlights:2:131706","sourceLayerId":2,"sourceObjectId":131706,"sourceURL":"https://maps8.stlouis-mo.gov/arcgis/rest/services/STREETS/Streets_Permitting/MapServer/2","title":"Street light L024422"},"type":"Feature"},{"geometry":{"coordinates":[-90.27286798718676,38.692202570388055],"type":"Point"},"id":"stl-city-public-streetlights:2:131707","properties":{"address":null,"attributes":{"Date_Installed":null,"LED_Powered":0,"LightID":"L024423","Light_Source":"LED","Light_Type":"Cobra","Lighting_Type":"LED-Powered Lamp","Verification_Date":null},"id":"stl-city-public-streetlights:2:131707","sourceLayerId":2,"sourceObjectId":131707,"sourceURL":"https://maps8.stlouis-mo.gov/arcgis/rest/services/STREETS/Streets_Permitting/MapServer/2","title":"Street light L024423"},"type":"Feature"},{"geometry":{"coordinates":[-90.2731084443474,38.691873148743916],"type":"Point"},"id":"stl-city-public-streetlights:2:131708","properties":{"address":null,"attributes":{"Date_Installed":null,"LED_Powered":0,"LightID":"L024424","Light_Source":"LED","Light_Type":"Cobra","Lighting_Type":"LED-Powered Lamp","Verification_Date":null},"id":"stl-city-public-streetlights:2:131708","sourceLayerId":2,"sourceObjectId":131708,"sourceURL":"https://maps8.stlouis-mo.gov/arcgis/rest/services/STREETS/Streets_Permitting/MapServer/2","title":"Street light L024424"},"type":"Feature"},{"geometry":{"coordinates":[-90.27333453220169,38.691547639190894],"type":"Point"},"id":"stl-city-public-streetlights:2:131709","properties":{"address":null,"attributes":{"Date_Installed":null,"LED_Powered":0,"LightID":"L024425","Light_Source":"LED","Light_Type":"Cobra","Lighting_Type":"LED-Powered Lamp","Verification_Date":null},"id":"stl-city-public-streetlights:2:131709","sourceLayerId":2,"sourceObjectId":131709,"sourceURL":"https://maps8.stlouis-mo.gov/arcgis/rest/services/STREETS/Streets_Permitting/MapServer/2","title":"Street light L024425"},"type":"Feature"},{"geometry":{"coordinates":[-90.27357737821225,38.69121202400573],"type":"Point"},"id":"stl-city-public-streetlights:2:131710","properties":{"address":null,"attributes":{"Date_Installed":null,"LED_Powered":0,"LightID":"L024426","Light_Source":"LED","Light_Type":"Cobra","Lighting_Type":"LED-Powered Lamp","Verification_Date":null},"id":"stl-city-public-streetlights:2:131710","sourceLayerId":2,"sourceObjectId":131710,"sourceURL":"https://maps8.stlouis-mo.gov/arcgis/rest/services/STREETS/Streets_Permitting/MapServer/2","title":"Street light L024426"},"type":"Feature"},{"geometry":{"coordinates":[-90.27385015089763,38.69071681280525],"type":"Point"},"id":"stl-city-public-streetlights:2:131721","properties":{"address":null,"attributes":{"Date_Installed":null,"LED_Powered":0,"LightID":"L024437","Light_Source":"LED","Light_Type":"Cobra","Lighting_Type":"LED-Powered Lamp","Verification_Date":null},"id":"stl-city-public-streetlights:2:131721","sourceLayerId":2,"sourceObjectId":131721,"sourceURL":"https://maps8.stlouis-mo.gov/arcgis/rest/services/STREETS/Streets_Permitting/MapServer/2","title":"Street light L024437"},"type":"Feature"},{"geometry":{"coordinates":[-90.27345396103274,38.69049437231585],"type":"Point"},"id":"stl-city-public-streetlights:2:131722","properties":{"address":null,"attributes":{"Date_Installed":null,"LED_Powered":0,"LightID":"L024438","Light_Source":"LED","Light_Type":"Cobra","Lighting_Type":"LED-Powered Lamp","Verification_Date":null},"id":"stl-city-public-streetlights:2:131722","sourceLayerId":2,"sourceObjectId":131722,"sourceURL":"https://maps8.stlouis-mo.gov/arcgis/rest/services/STREETS/Streets_Permitting/MapServer/2","title":"Street light L024438"},"type":"Feature"},{"geometry":{"coordinates":[-90.27260700005137,38.69241943060105],"type":"Point"},"id":"stl-city-public-streetlights:2:131725","properties":{"address":null,"attributes":{"Date_Installed":null,"LED_Powered":0,"LightID":"L024441","Light_Source":"LED","Light_Type":"Cobra","Lighting_Type":"LED-Powered Lamp","Verification_Date":null},"id":"stl-city-public-streetlights:2:131725","sourceLayerId":2,"sourceObjectId":131725,"sourceURL":"https://maps8.stlouis-mo.gov/arcgis/rest/services/STREETS/Streets_Permitting/MapServer/2","title":"Street light L024441"},"type":"Feature"},{"geometry":{"coordinates":[-90.27219606258522,38.69224224454616],"type":"Point"},"id":"stl-city-public-streetlights:2:131726","properties":{"address":null,"attributes":{"Date_Installed":null,"LED_Powered":0,"LightID":"L024442","Light_Source":"LED","Light_Type":"Cobra","Lighting_Type":"LED-Powered Lamp","Verification_Date":null},"id":"stl-city-public-streetlights:2:131726","sourceLayerId":2,"sourceObjectId":131726,"sourceURL":"https://maps8.stlouis-mo.gov/arcgis/rest/services/STREETS/Streets_Permitting/MapServer/2","title":"Street light L024442"},"type":"Feature"},{"geometry":{"coordinates":[-90.27178544575642,38.692060292006495],"type":"Point"},"id":"stl-city-public-streetlights:2:131727","properties":{"address":null,"attributes":{"Date_Installed":null,"LED_Powered":0,"LightID":"L024443","Light_Source":"LED","Light_Type":"Cobra","Lighting_Type":"LED-Powered Lamp","Verification_Date":null},"id":"stl-city-public-streetlights:2:131727","sourceLayerId":2,"sourceObjectId":131727,"sourceURL":"https://maps8.stlouis-mo.gov/arcgis/rest/services/STREETS/Streets_Permitting/MapServer/2","title":"Street light L024443"},"type":"Feature"},{"geometry":{"coordinates":[-90.27137318778944,38.69188538961682],"type":"Point"},"id":"stl-city-public-streetlights:2:131728","properties":{"address":null,"attributes":{"Date_Installed":null,"LED_Powered":0,"LightID":"L024444","Light_Source":"LED","Light_Type":"Cobra","Lighting_Type":"LED-Powered Lamp","Verification_Date":null},"id":"stl-city-public-streetlights:2:131728","sourceLayerId":2,"sourceObjectId":131728,"sourceURL":"https://maps8.stlouis-mo.gov/arcgis/rest/services/STREETS/Streets_Permitting/MapServer/2","title":"Street light L024444"},"type":"Feature"},{"geometry":{"coordinates":[-90.27097345396473,38.69172538385352],"type":"Point"},"id":"stl-city-public-streetlights:2:131729","properties":{"address":null,"attributes":{"Date_Installed":null,"LED_Powered":0,"LightID":"L024445","Light_Source":"LED","Light_Type":"Cobra","Lighting_Type":"LED-Powered Lamp","Verification_Date":null},"id":"stl-city-public-streetlights:2:131729","sourceLayerId":2,"sourceObjectId":131729,"sourceURL":"https://maps8.stlouis-mo.gov/arcgis/rest/services/STREETS/Streets_Permitting/MapServer/2","title":"Street light L024445"},"type":"Feature"},{"geometry":{"coordinates":[-90.27141983084323,38.6901261146982],"type":"Point"},"id":"stl-city-public-streetlights:2:131730","properties":{"address":null,"attributes":{"Date_Installed":null,"LED_Powered":0,"LightID":"L024446","Light_Source":"LED","Light_Type":"Cobra","Lighting_Type":"LED-Powered Lamp","Verification_Date":null},"id":"stl-city-public-streetlights:2:131730","sourceLayerId":2,"sourceObjectId":131730,"sourceURL":"https://maps8.stlouis-mo.gov/arcgis/rest/services/STREETS/Streets_Permitting/MapServer/2","title":"Street light L024446"},"type":"Feature"},{"geometry":{"coordinates":[-90.27185433324343,38.690061176252],"type":"Point"},"id":"stl-city-public-streetlights:2:131731","properties":{"address":null,"attributes":{"Date_Installed":null,"LED_Powered":0,"LightID":"L024447","Light_Source":"LED","Light_Type":"Cobra","Lighting_Type":"LED-Powered Lamp","Verification_Date":null},"id":"stl-city-public-streetlights:2:131731","sourceLayerId":2,"sourceObjectId":131731,"sourceURL":"https://maps8.stlouis-mo.gov/arcgis/rest/services/STREETS/Streets_Permitting/MapServer/2","title":"Street light L024447"},"type":"Feature"}],"layerId":"city-streetlights","retrievedAt":"2026-09-13T21:56:18.173251+00:00","schema":"property-infrastructure-geojson-v1","sourceId":"stl-city-public-streetlights","tileId":"-9028_3869","type":"FeatureCollection"}