{"features":[{"geometry":{"coordinates":[-90.195653304513,38.749821835339326],"type":"Point"},"id":"stl-city-public-streetlights:2:120530","properties":{"address":null,"attributes":{"Date_Installed":null,"LED_Powered":0,"LightID":"L013255","Light_Source":"LED","Light_Type":"Cobra","Lighting_Type":"LED-Powered Lamp","Verification_Date":null},"id":"stl-city-public-streetlights:2:120530","sourceLayerId":2,"sourceObjectId":120530,"sourceURL":"https://maps8.stlouis-mo.gov/arcgis/rest/services/STREETS/Streets_Permitting/MapServer/2","title":"Street light L013255"},"type":"Feature"},{"geometry":{"coordinates":[-90.19589351722341,38.74952189376929],"type":"Point"},"id":"stl-city-public-streetlights:2:120531","properties":{"address":null,"attributes":{"Date_Installed":null,"LED_Powered":0,"LightID":"L013256","Light_Source":"LED","Light_Type":"Cobra","Lighting_Type":"LED-Powered Lamp","Verification_Date":null},"id":"stl-city-public-streetlights:2:120531","sourceLayerId":2,"sourceObjectId":120531,"sourceURL":"https://maps8.stlouis-mo.gov/arcgis/rest/services/STREETS/Streets_Permitting/MapServer/2","title":"Street light L013256"},"type":"Feature"},{"geometry":{"coordinates":[-90.19624589067229,38.749308178228866],"type":"Point"},"id":"stl-city-public-streetlights:2:120532","properties":{"address":null,"attributes":{"Date_Installed":null,"LED_Powered":0,"LightID":"L013257","Light_Source":"LED","Light_Type":"Cobra","Lighting_Type":"LED-Powered Lamp","Verification_Date":null},"id":"stl-city-public-streetlights:2:120532","sourceLayerId":2,"sourceObjectId":120532,"sourceURL":"https://maps8.stlouis-mo.gov/arcgis/rest/services/STREETS/Streets_Permitting/MapServer/2","title":"Street light L013257"},"type":"Feature"},{"geometry":{"coordinates":[-90.19665006571522,38.74909613024026],"type":"Point"},"id":"stl-city-public-streetlights:2:120533","properties":{"address":null,"attributes":{"Date_Installed":null,"LED_Powered":0,"LightID":"L013258","Light_Source":"LED","Light_Type":"Cobra","Lighting_Type":"LED-Powered Lamp","Verification_Date":null},"id":"stl-city-public-streetlights:2:120533","sourceLayerId":2,"sourceObjectId":120533,"sourceURL":"https://maps8.stlouis-mo.gov/arcgis/rest/services/STREETS/Streets_Permitting/MapServer/2","title":"Street light L013258"},"type":"Feature"},{"geometry":{"coordinates":[-90.1971984219681,38.74882134565924],"type":"Point"},"id":"stl-city-public-streetlights:2:120534","properties":{"address":null,"attributes":{"Date_Installed":null,"LED_Powered":0,"LightID":"L013259","Light_Source":"LED","Light_Type":"Cobra","Lighting_Type":"LED-Powered Lamp","Verification_Date":null},"id":"stl-city-public-streetlights:2:120534","sourceLayerId":2,"sourceObjectId":120534,"sourceURL":"https://maps8.stlouis-mo.gov/arcgis/rest/services/STREETS/Streets_Permitting/MapServer/2","title":"Street light L013259"},"type":"Feature"},{"geometry":{"coordinates":[-90.19736226332039,38.74855969469231],"type":"Point"},"id":"stl-city-public-streetlights:2:120535","properties":{"address":null,"attributes":{"Date_Installed":null,"LED_Powered":0,"LightID":"L013260","Light_Source":"LED","Light_Type":"Cobra","Lighting_Type":"LED-Powered Lamp","Verification_Date":null},"id":"stl-city-public-streetlights:2:120535","sourceLayerId":2,"sourceObjectId":120535,"sourceURL":"https://maps8.stlouis-mo.gov/arcgis/rest/services/STREETS/Streets_Permitting/MapServer/2","title":"Street light L013260"},"type":"Feature"},{"geometry":{"coordinates":[-90.19748046993408,38.74824375147184],"type":"Point"},"id":"stl-city-public-streetlights:2:120536","properties":{"address":null,"attributes":{"Date_Installed":null,"LED_Powered":0,"LightID":"L013261","Light_Source":"LED","Light_Type":"Cobra","Lighting_Type":"LED-Powered Lamp","Verification_Date":null},"id":"stl-city-public-streetlights:2:120536","sourceLayerId":2,"sourceObjectId":120536,"sourceURL":"https://maps8.stlouis-mo.gov/arcgis/rest/services/STREETS/Streets_Permitting/MapServer/2","title":"Street light L013261"},"type":"Feature"},{"geometry":{"coordinates":[-90.19753349518771,38.74794022375204],"type":"Point"},"id":"stl-city-public-streetlights:2:120537","properties":{"address":null,"attributes":{"Date_Installed":null,"LED_Powered":0,"LightID":"L013262","Light_Source":"LED","Light_Type":"Cobra","Lighting_Type":"LED-Powered Lamp","Verification_Date":null},"id":"stl-city-public-streetlights:2:120537","sourceLayerId":2,"sourceObjectId":120537,"sourceURL":"https://maps8.stlouis-mo.gov/arcgis/rest/services/STREETS/Streets_Permitting/MapServer/2","title":"Street light L013262"},"type":"Feature"},{"geometry":{"coordinates":[-90.19754863360961,38.74767044282279],"type":"Point"},"id":"stl-city-public-streetlights:2:120538","properties":{"address":null,"attributes":{"Date_Installed":null,"LED_Powered":0,"LightID":"L013263","Light_Source":"LED","Light_Type":"Cobra","Lighting_Type":"LED-Powered Lamp","Verification_Date":null},"id":"stl-city-public-streetlights:2:120538","sourceLayerId":2,"sourceObjectId":120538,"sourceURL":"https://maps8.stlouis-mo.gov/arcgis/rest/services/STREETS/Streets_Permitting/MapServer/2","title":"Street light L013263"},"type":"Feature"},{"geometry":{"coordinates":[-90.19750878465202,38.74744819103473],"type":"Point"},"id":"stl-city-public-streetlights:2:120539","properties":{"address":null,"attributes":{"Date_Installed":null,"LED_Powered":0,"LightID":"L013264","Light_Source":"LED","Light_Type":"Cobra","Lighting_Type":"LED-Powered Lamp","Verification_Date":null},"id":"stl-city-public-streetlights:2:120539","sourceLayerId":2,"sourceObjectId":120539,"sourceURL":"https://maps8.stlouis-mo.gov/arcgis/rest/services/STREETS/Streets_Permitting/MapServer/2","title":"Street light L013264"},"type":"Feature"},{"geometry":{"coordinates":[-90.1973354199812,38.747057839555055],"type":"Point"},"id":"stl-city-public-streetlights:2:120540","properties":{"address":null,"attributes":{"Date_Installed":null,"LED_Powered":0,"LightID":"L013265","Light_Source":"LED","Light_Type":"Cobra","Lighting_Type":"LED-Powered Lamp","Verification_Date":null},"id":"stl-city-public-streetlights:2:120540","sourceLayerId":2,"sourceObjectId":120540,"sourceURL":"https://maps8.stlouis-mo.gov/arcgis/rest/services/STREETS/Streets_Permitting/MapServer/2","title":"Street light L013265"},"type":"Feature"},{"geometry":{"coordinates":[-90.19751891529637,38.74739165601258],"type":"Point"},"id":"stl-city-public-streetlights:2:120541","properties":{"address":null,"attributes":{"Date_Installed":null,"LED_Powered":0,"LightID":"L013266","Light_Source":"LED","Light_Type":"Cobra","Lighting_Type":"LED-Powered Lamp","Verification_Date":null},"id":"stl-city-public-streetlights:2:120541","sourceLayerId":2,"sourceObjectId":120541,"sourceURL":"https://maps8.stlouis-mo.gov/arcgis/rest/services/STREETS/Streets_Permitting/MapServer/2","title":"Street light L013266"},"type":"Feature"},{"geometry":{"coordinates":[-90.19763568753542,38.74770563446747],"type":"Point"},"id":"stl-city-public-streetlights:2:120542","properties":{"address":null,"attributes":{"Date_Installed":null,"LED_Powered":0,"LightID":"L013267","Light_Source":"LED","Light_Type":"Cobra","Lighting_Type":"LED-Powered Lamp","Verification_Date":null},"id":"stl-city-public-streetlights:2:120542","sourceLayerId":2,"sourceObjectId":120542,"sourceURL":"https://maps8.stlouis-mo.gov/arcgis/rest/services/STREETS/Streets_Permitting/MapServer/2","title":"Street light L013267"},"type":"Feature"},{"geometry":{"coordinates":[-90.19771018679145,38.748083622124255],"type":"Point"},"id":"stl-city-public-streetlights:2:120543","properties":{"address":null,"attributes":{"Date_Installed":null,"LED_Powered":0,"LightID":"L013268","Light_Source":"LED","Light_Type":"Cobra","Lighting_Type":"LED-Powered Lamp","Verification_Date":null},"id":"stl-city-public-streetlights:2:120543","sourceLayerId":2,"sourceObjectId":120543,"sourceURL":"https://maps8.stlouis-mo.gov/arcgis/rest/services/STREETS/Streets_Permitting/MapServer/2","title":"Street light L013268"},"type":"Feature"},{"geometry":{"coordinates":[-90.19771473176141,38.74844951030032],"type":"Point"},"id":"stl-city-public-streetlights:2:120544","properties":{"address":null,"attributes":{"Date_Installed":null,"LED_Powered":0,"LightID":"L013269","Light_Source":"LED","Light_Type":"Cobra","Lighting_Type":"LED-Powered Lamp","Verification_Date":null},"id":"stl-city-public-streetlights:2:120544","sourceLayerId":2,"sourceObjectId":120544,"sourceURL":"https://maps8.stlouis-mo.gov/arcgis/rest/services/STREETS/Streets_Permitting/MapServer/2","title":"Street light L013269"},"type":"Feature"},{"geometry":{"coordinates":[-90.19765116613412,38.74879877599262],"type":"Point"},"id":"stl-city-public-streetlights:2:120545","properties":{"address":null,"attributes":{"Date_Installed":null,"LED_Powered":0,"LightID":"L013270","Light_Source":"LED","Light_Type":"Cobra","Lighting_Type":"LED-Powered Lamp","Verification_Date":null},"id":"stl-city-public-streetlights:2:120545","sourceLayerId":2,"sourceObjectId":120545,"sourceURL":"https://maps8.stlouis-mo.gov/arcgis/rest/services/STREETS/Streets_Permitting/MapServer/2","title":"Street light L013270"},"type":"Feature"},{"geometry":{"coordinates":[-90.19771838670394,38.74917078548328],"type":"Point"},"id":"stl-city-public-streetlights:2:120546","properties":{"address":null,"attributes":{"Date_Installed":null,"LED_Powered":0,"LightID":"L013271","Light_Source":"LED","Light_Type":"Cobra","Lighting_Type":"LED-Powered Lamp","Verification_Date":null},"id":"stl-city-public-streetlights:2:120546","sourceLayerId":2,"sourceObjectId":120546,"sourceURL":"https://maps8.stlouis-mo.gov/arcgis/rest/services/STREETS/Streets_Permitting/MapServer/2","title":"Street light L013271"},"type":"Feature"},{"geometry":{"coordinates":[-90.19785079493167,38.74953104489903],"type":"Point"},"id":"stl-city-public-streetlights:2:120547","properties":{"address":null,"attributes":{"Date_Installed":null,"LED_Powered":0,"LightID":"L013272","Light_Source":"LED","Light_Type":"Cobra","Lighting_Type":"LED-Powered Lamp","Verification_Date":null},"id":"stl-city-public-streetlights:2:120547","sourceLayerId":2,"sourceObjectId":120547,"sourceURL":"https://maps8.stlouis-mo.gov/arcgis/rest/services/STREETS/Streets_Permitting/MapServer/2","title":"Street light L013272"},"type":"Feature"},{"geometry":{"coordinates":[-90.19790115648654,38.749859153537386],"type":"Point"},"id":"stl-city-public-streetlights:2:120548","properties":{"address":null,"attributes":{"Date_Installed":null,"LED_Powered":0,"LightID":"L013273","Light_Source":"LED","Light_Type":"Cobra","Lighting_Type":"LED-Powered Lamp","Verification_Date":null},"id":"stl-city-public-streetlights:2:120548","sourceLayerId":2,"sourceObjectId":120548,"sourceURL":"https://maps8.stlouis-mo.gov/arcgis/rest/services/STREETS/Streets_Permitting/MapServer/2","title":"Street light L013273"},"type":"Feature"},{"geometry":{"coordinates":[-90.1977978841507,38.74727755061757],"type":"Point"},"id":"stl-city-public-streetlights:2:120555","properties":{"address":null,"attributes":{"Date_Installed":null,"LED_Powered":0,"LightID":"L013280","Light_Source":"LED","Light_Type":"Cobra","Lighting_Type":"LED-Powered Lamp","Verification_Date":null},"id":"stl-city-public-streetlights:2:120555","sourceLayerId":2,"sourceObjectId":120555,"sourceURL":"https://maps8.stlouis-mo.gov/arcgis/rest/services/STREETS/Streets_Permitting/MapServer/2","title":"Street light L013280"},"type":"Feature"},{"geometry":{"coordinates":[-90.19903530937104,38.74723998494254],"type":"Point"},"id":"stl-city-public-streetlights:2:120556","properties":{"address":null,"attributes":{"Date_Installed":null,"LED_Powered":0,"LightID":"L013281","Light_Source":"LED","Light_Type":"Cobra","Lighting_Type":"LED-Powered Lamp","Verification_Date":null},"id":"stl-city-public-streetlights:2:120556","sourceLayerId":2,"sourceObjectId":120556,"sourceURL":"https://maps8.stlouis-mo.gov/arcgis/rest/services/STREETS/Streets_Permitting/MapServer/2","title":"Street light L013281"},"type":"Feature"},{"geometry":{"coordinates":[-90.19853626085127,38.74721152601079],"type":"Point"},"id":"stl-city-public-streetlights:2:120557","properties":{"address":null,"attributes":{"Date_Installed":null,"LED_Powered":0,"LightID":"L013282","Light_Source":"LED","Light_Type":"Cobra","Lighting_Type":"LED-Powered Lamp","Verification_Date":null},"id":"stl-city-public-streetlights:2:120557","sourceLayerId":2,"sourceObjectId":120557,"sourceURL":"https://maps8.stlouis-mo.gov/arcgis/rest/services/STREETS/Streets_Permitting/MapServer/2","title":"Street light L013282"},"type":"Feature"},{"geometry":{"coordinates":[-90.19856099292704,38.747482600868025],"type":"Point"},"id":"stl-city-public-streetlights:2:120558","properties":{"address":null,"attributes":{"Date_Installed":null,"LED_Powered":0,"LightID":"L013283","Light_Source":"LED","Light_Type":"Cobra","Lighting_Type":"LED-Powered Lamp","Verification_Date":null},"id":"stl-city-public-streetlights:2:120558","sourceLayerId":2,"sourceObjectId":120558,"sourceURL":"https://maps8.stlouis-mo.gov/arcgis/rest/services/STREETS/Streets_Permitting/MapServer/2","title":"Street light L013283"},"type":"Feature"},{"geometry":{"coordinates":[-90.1986391644874,38.74780279568911],"type":"Point"},"id":"stl-city-public-streetlights:2:120559","properties":{"address":null,"attributes":{"Date_Installed":null,"LED_Powered":0,"LightID":"L013284","Light_Source":"LED","Light_Type":"Cobra","Lighting_Type":"LED-Powered Lamp","Verification_Date":null},"id":"stl-city-public-streetlights:2:120559","sourceLayerId":2,"sourceObjectId":120559,"sourceURL":"https://maps8.stlouis-mo.gov/arcgis/rest/services/STREETS/Streets_Permitting/MapServer/2","title":"Street light L013284"},"type":"Feature"},{"geometry":{"coordinates":[-90.19889861855155,38.74789892516047],"type":"Point"},"id":"stl-city-public-streetlights:2:120560","properties":{"address":null,"attributes":{"Date_Installed":null,"LED_Powered":0,"LightID":"L013285","Light_Source":"LED","Light_Type":"Cobra","Lighting_Type":"LED-Powered Lamp","Verification_Date":null},"id":"stl-city-public-streetlights:2:120560","sourceLayerId":2,"sourceObjectId":120560,"sourceURL":"https://maps8.stlouis-mo.gov/arcgis/rest/services/STREETS/Streets_Permitting/MapServer/2","title":"Street light L013285"},"type":"Feature"},{"geometry":{"coordinates":[-90.19928761761024,38.745384956835984],"type":"Point"},"id":"stl-city-public-streetlights:2:120561","properties":{"address":null,"attributes":{"Date_Installed":null,"LED_Powered":0,"LightID":"L013286","Light_Source":"LED","Light_Type":"Cobra","Lighting_Type":"LED-Powered Lamp","Verification_Date":null},"id":"stl-city-public-streetlights:2:120561","sourceLayerId":2,"sourceObjectId":120561,"sourceURL":"https://maps8.stlouis-mo.gov/arcgis/rest/services/STREETS/Streets_Permitting/MapServer/2","title":"Street light L013286"},"type":"Feature"},{"geometry":{"coordinates":[-90.19965636919585,38.74556276496789],"type":"Point"},"id":"stl-city-public-streetlights:2:120562","properties":{"address":null,"attributes":{"Date_Installed":null,"LED_Powered":0,"LightID":"L013287","Light_Source":"LED","Light_Type":"Cobra","Lighting_Type":"LED-Powered Lamp","Verification_Date":null},"id":"stl-city-public-streetlights:2:120562","sourceLayerId":2,"sourceObjectId":120562,"sourceURL":"https://maps8.stlouis-mo.gov/arcgis/rest/services/STREETS/Streets_Permitting/MapServer/2","title":"Street light L013287"},"type":"Feature"},{"geometry":{"coordinates":[-90.19444183501317,38.749674469667944],"type":"Point"},"id":"stl-city-public-streetlights:2:137607","properties":{"address":null,"attributes":{"Date_Installed":null,"LED_Powered":1,"LightID":"L030323","Light_Source":"LED","Light_Type":"Cobra","Lighting_Type":"LED-Powered Lamp","Verification_Date":null},"id":"stl-city-public-streetlights:2:137607","sourceLayerId":2,"sourceObjectId":137607,"sourceURL":"https://maps8.stlouis-mo.gov/arcgis/rest/services/STREETS/Streets_Permitting/MapServer/2","title":"Street light L030323"},"type":"Feature"},{"geometry":{"coordinates":[-90.1947334167749,38.749320796237086],"type":"Point"},"id":"stl-city-public-streetlights:2:137608","properties":{"address":null,"attributes":{"Date_Installed":null,"LED_Powered":1,"LightID":"L030324","Light_Source":"LED","Light_Type":"Cobra","Lighting_Type":"LED-Powered Lamp","Verification_Date":null},"id":"stl-city-public-streetlights:2:137608","sourceLayerId":2,"sourceObjectId":137608,"sourceURL":"https://maps8.stlouis-mo.gov/arcgis/rest/services/STREETS/Streets_Permitting/MapServer/2","title":"Street light L030324"},"type":"Feature"},{"geometry":{"coordinates":[-90.19502833300972,38.74896927572791],"type":"Point"},"id":"stl-city-public-streetlights:2:137609","properties":{"address":null,"attributes":{"Date_Installed":null,"LED_Powered":1,"LightID":"L030325","Light_Source":"LED","Light_Type":"Cobra","Lighting_Type":"LED-Powered Lamp","Verification_Date":null},"id":"stl-city-public-streetlights:2:137609","sourceLayerId":2,"sourceObjectId":137609,"sourceURL":"https://maps8.stlouis-mo.gov/arcgis/rest/services/STREETS/Streets_Permitting/MapServer/2","title":"Street light L030325"},"type":"Feature"},{"geometry":{"coordinates":[-90.195328704587,38.748606478044486],"type":"Point"},"id":"stl-city-public-streetlights:2:137610","properties":{"address":null,"attributes":{"Date_Installed":null,"LED_Powered":1,"LightID":"L030326","Light_Source":"LED","Light_Type":"Cobra","Lighting_Type":"LED-Powered Lamp","Verification_Date":null},"id":"stl-city-public-streetlights:2:137610","sourceLayerId":2,"sourceObjectId":137610,"sourceURL":"https://maps8.stlouis-mo.gov/arcgis/rest/services/STREETS/Streets_Permitting/MapServer/2","title":"Street light L030326"},"type":"Feature"},{"geometry":{"coordinates":[-90.19563562103285,38.74825047836538],"type":"Point"},"id":"stl-city-public-streetlights:2:137611","properties":{"address":null,"attributes":{"Date_Installed":null,"LED_Powered":1,"LightID":"L030327","Light_Source":"LED","Light_Type":"Cobra","Lighting_Type":"LED-Powered Lamp","Verification_Date":null},"id":"stl-city-public-streetlights:2:137611","sourceLayerId":2,"sourceObjectId":137611,"sourceURL":"https://maps8.stlouis-mo.gov/arcgis/rest/services/STREETS/Streets_Permitting/MapServer/2","title":"Street light L030327"},"type":"Feature"},{"geometry":{"coordinates":[-90.19599366990782,38.747927908864135],"type":"Point"},"id":"stl-city-public-streetlights:2:137612","properties":{"address":null,"attributes":{"Date_Installed":null,"LED_Powered":1,"LightID":"L030328","Light_Source":"LED","Light_Type":"Cobra","Lighting_Type":"LED-Powered Lamp","Verification_Date":null},"id":"stl-city-public-streetlights:2:137612","sourceLayerId":2,"sourceObjectId":137612,"sourceURL":"https://maps8.stlouis-mo.gov/arcgis/rest/services/STREETS/Streets_Permitting/MapServer/2","title":"Street light L030328"},"type":"Feature"},{"geometry":{"coordinates":[-90.19638672191391,38.747579739002525],"type":"Point"},"id":"stl-city-public-streetlights:2:137613","properties":{"address":null,"attributes":{"Date_Installed":null,"LED_Powered":1,"LightID":"L030329","Light_Source":"LED","Light_Type":"Cobra","Lighting_Type":"LED-Powered Lamp","Verification_Date":null},"id":"stl-city-public-streetlights:2:137613","sourceLayerId":2,"sourceObjectId":137613,"sourceURL":"https://maps8.stlouis-mo.gov/arcgis/rest/services/STREETS/Streets_Permitting/MapServer/2","title":"Street light L030329"},"type":"Feature"},{"geometry":{"coordinates":[-90.1967356208006,38.74727078171484],"type":"Point"},"id":"stl-city-public-streetlights:2:137614","properties":{"address":null,"attributes":{"Date_Installed":null,"LED_Powered":1,"LightID":"L030330","Light_Source":"LED","Light_Type":"Cobra","Lighting_Type":"LED-Powered Lamp","Verification_Date":null},"id":"stl-city-public-streetlights:2:137614","sourceLayerId":2,"sourceObjectId":137614,"sourceURL":"https://maps8.stlouis-mo.gov/arcgis/rest/services/STREETS/Streets_Permitting/MapServer/2","title":"Street light L030330"},"type":"Feature"},{"geometry":{"coordinates":[-90.19708194074676,38.74695943297519],"type":"Point"},"id":"stl-city-public-streetlights:2:137615","properties":{"address":null,"attributes":{"Date_Installed":null,"LED_Powered":1,"LightID":"L030331","Light_Source":"LED","Light_Type":"Cobra","Lighting_Type":"LED-Powered Lamp","Verification_Date":null},"id":"stl-city-public-streetlights:2:137615","sourceLayerId":2,"sourceObjectId":137615,"sourceURL":"https://maps8.stlouis-mo.gov/arcgis/rest/services/STREETS/Streets_Permitting/MapServer/2","title":"Street light L030331"},"type":"Feature"},{"geometry":{"coordinates":[-90.19738274930886,38.7466491581337],"type":"Point"},"id":"stl-city-public-streetlights:2:137616","properties":{"address":null,"attributes":{"Date_Installed":null,"LED_Powered":0,"LightID":"L030332","Light_Source":"High Pressure Sodium","Light_Type":"Cobra","Lighting_Type":"400-W High Pressure Sodium Vapor Lamp","Verification_Date":null},"id":"stl-city-public-streetlights:2:137616","sourceLayerId":2,"sourceObjectId":137616,"sourceURL":"https://maps8.stlouis-mo.gov/arcgis/rest/services/STREETS/Streets_Permitting/MapServer/2","title":"Street light L030332"},"type":"Feature"},{"geometry":{"coordinates":[-90.19775642136689,38.746321965156255],"type":"Point"},"id":"stl-city-public-streetlights:2:137617","properties":{"address":null,"attributes":{"Date_Installed":null,"LED_Powered":0,"LightID":"L030333","Light_Source":"High Pressure Sodium","Light_Type":"Cobra","Lighting_Type":"400-W High Pressure Sodium Vapor Lamp","Verification_Date":null},"id":"stl-city-public-streetlights:2:137617","sourceLayerId":2,"sourceObjectId":137617,"sourceURL":"https://maps8.stlouis-mo.gov/arcgis/rest/services/STREETS/Streets_Permitting/MapServer/2","title":"Street light L030333"},"type":"Feature"},{"geometry":{"coordinates":[-90.19813106209332,38.746029459738665],"type":"Point"},"id":"stl-city-public-streetlights:2:137618","properties":{"address":null,"attributes":{"Date_Installed":null,"LED_Powered":0,"LightID":"L030334","Light_Source":"High Pressure Sodium","Light_Type":"Cobra","Lighting_Type":"400-W High Pressure Sodium Vapor Lamp","Verification_Date":null},"id":"stl-city-public-streetlights:2:137618","sourceLayerId":2,"sourceObjectId":137618,"sourceURL":"https://maps8.stlouis-mo.gov/arcgis/rest/services/STREETS/Streets_Permitting/MapServer/2","title":"Street light L030334"},"type":"Feature"},{"geometry":{"coordinates":[-90.19847325580946,38.745719049260686],"type":"Point"},"id":"stl-city-public-streetlights:2:137619","properties":{"address":null,"attributes":{"Date_Installed":null,"LED_Powered":0,"LightID":"L030335","Light_Source":"High Pressure Sodium","Light_Type":"Cobra","Lighting_Type":"400-W High Pressure Sodium Vapor Lamp","Verification_Date":null},"id":"stl-city-public-streetlights:2:137619","sourceLayerId":2,"sourceObjectId":137619,"sourceURL":"https://maps8.stlouis-mo.gov/arcgis/rest/services/STREETS/Streets_Permitting/MapServer/2","title":"Street light L030335"},"type":"Feature"},{"geometry":{"coordinates":[-90.19882974708636,38.74540986735147],"type":"Point"},"id":"stl-city-public-streetlights:2:137620","properties":{"address":null,"attributes":{"Date_Installed":null,"LED_Powered":0,"LightID":"L030336","Light_Source":"High Pressure Sodium","Light_Type":"Cobra","Lighting_Type":"400-W High Pressure Sodium Vapor Lamp","Verification_Date":null},"id":"stl-city-public-streetlights:2:137620","sourceLayerId":2,"sourceObjectId":137620,"sourceURL":"https://maps8.stlouis-mo.gov/arcgis/rest/services/STREETS/Streets_Permitting/MapServer/2","title":"Street light L030336"},"type":"Feature"},{"geometry":{"coordinates":[-90.19915767664816,38.74508869229363],"type":"Point"},"id":"stl-city-public-streetlights:2:137621","properties":{"address":null,"attributes":{"Date_Installed":null,"LED_Powered":0,"LightID":"L030337","Light_Source":"High Pressure Sodium","Light_Type":"Cobra","Lighting_Type":"400-W High Pressure Sodium Vapor Lamp","Verification_Date":null},"id":"stl-city-public-streetlights:2:137621","sourceLayerId":2,"sourceObjectId":137621,"sourceURL":"https://maps8.stlouis-mo.gov/arcgis/rest/services/STREETS/Streets_Permitting/MapServer/2","title":"Street light L030337"},"type":"Feature"},{"geometry":{"coordinates":[-90.19953215448605,38.74477121150997],"type":"Point"},"id":"stl-city-public-streetlights:2:137622","properties":{"address":null,"attributes":{"Date_Installed":null,"LED_Powered":0,"LightID":"L030338","Light_Source":"High Pressure Sodium","Light_Type":"Cobra","Lighting_Type":"400-W High Pressure Sodium Vapor Lamp","Verification_Date":null},"id":"stl-city-public-streetlights:2:137622","sourceLayerId":2,"sourceObjectId":137622,"sourceURL":"https://maps8.stlouis-mo.gov/arcgis/rest/services/STREETS/Streets_Permitting/MapServer/2","title":"Street light L030338"},"type":"Feature"},{"geometry":{"coordinates":[-90.1999011729893,38.744448233681716],"type":"Point"},"id":"stl-city-public-streetlights:2:137623","properties":{"address":null,"attributes":{"Date_Installed":null,"LED_Powered":0,"LightID":"L030339","Light_Source":"High Pressure Sodium","Light_Type":"Cobra","Lighting_Type":"400-W High Pressure Sodium Vapor Lamp","Verification_Date":null},"id":"stl-city-public-streetlights:2:137623","sourceLayerId":2,"sourceObjectId":137623,"sourceURL":"https://maps8.stlouis-mo.gov/arcgis/rest/services/STREETS/Streets_Permitting/MapServer/2","title":"Street light L030339"},"type":"Feature"},{"geometry":{"coordinates":[-90.19821961204028,38.74714164183153],"type":"Point"},"id":"stl-city-public-streetlights:2:159626","properties":{"address":null,"attributes":{"Date_Installed":null,"LED_Powered":0,"LightID":"L052557","Light_Source":"LED","Light_Type":"Cobra","Lighting_Type":"LED-Powered Lamp","Verification_Date":null},"id":"stl-city-public-streetlights:2:159626","sourceLayerId":2,"sourceObjectId":159626,"sourceURL":"https://maps8.stlouis-mo.gov/arcgis/rest/services/STREETS/Streets_Permitting/MapServer/2","title":"Street light L052557"},"type":"Feature"}],"layerId":"city-streetlights","retrievedAt":"2026-09-13T21:56:18.173251+00:00","schema":"property-infrastructure-geojson-v1","sourceId":"stl-city-public-streetlights","tileId":"-9020_3874","type":"FeatureCollection"}