{"features":[{"geometry":{"coordinates":[-90.25515465890456,38.68987480706596],"type":"Point"},"id":"stl-city-public-streetlights:2:127263","properties":{"address":null,"attributes":{"Date_Installed":null,"LED_Powered":0,"LightID":"L019979","Light_Source":"LED","Light_Type":"Cobra","Lighting_Type":"LED-Powered Lamp","Verification_Date":null},"id":"stl-city-public-streetlights:2:127263","sourceLayerId":2,"sourceObjectId":127263,"sourceURL":"https://maps8.stlouis-mo.gov/arcgis/rest/services/STREETS/Streets_Permitting/MapServer/2","title":"Street light L019979"},"type":"Feature"},{"geometry":{"coordinates":[-90.25479033443897,38.6896905071203],"type":"Point"},"id":"stl-city-public-streetlights:2:127264","properties":{"address":null,"attributes":{"Date_Installed":null,"LED_Powered":0,"LightID":"L019980","Light_Source":"LED","Light_Type":"Cobra","Lighting_Type":"LED-Powered Lamp","Verification_Date":null},"id":"stl-city-public-streetlights:2:127264","sourceLayerId":2,"sourceObjectId":127264,"sourceURL":"https://maps8.stlouis-mo.gov/arcgis/rest/services/STREETS/Streets_Permitting/MapServer/2","title":"Street light L019980"},"type":"Feature"},{"geometry":{"coordinates":[-90.25444571803109,38.689524363248196],"type":"Point"},"id":"stl-city-public-streetlights:2:127265","properties":{"address":null,"attributes":{"Date_Installed":null,"LED_Powered":0,"LightID":"L019981","Light_Source":"LED","Light_Type":"Cobra","Lighting_Type":"LED-Powered Lamp","Verification_Date":null},"id":"stl-city-public-streetlights:2:127265","sourceLayerId":2,"sourceObjectId":127265,"sourceURL":"https://maps8.stlouis-mo.gov/arcgis/rest/services/STREETS/Streets_Permitting/MapServer/2","title":"Street light L019981"},"type":"Feature"},{"geometry":{"coordinates":[-90.25410006495743,38.68935360816809],"type":"Point"},"id":"stl-city-public-streetlights:2:127266","properties":{"address":null,"attributes":{"Date_Installed":null,"LED_Powered":0,"LightID":"L019982","Light_Source":"LED","Light_Type":"Cobra","Lighting_Type":"LED-Powered Lamp","Verification_Date":null},"id":"stl-city-public-streetlights:2:127266","sourceLayerId":2,"sourceObjectId":127266,"sourceURL":"https://maps8.stlouis-mo.gov/arcgis/rest/services/STREETS/Streets_Permitting/MapServer/2","title":"Street light L019982"},"type":"Feature"},{"geometry":{"coordinates":[-90.25383850010473,38.689222755269796],"type":"Point"},"id":"stl-city-public-streetlights:2:127267","properties":{"address":null,"attributes":{"Date_Installed":null,"LED_Powered":0,"LightID":"L019983","Light_Source":"LED","Light_Type":"Cobra","Lighting_Type":"LED-Powered Lamp","Verification_Date":null},"id":"stl-city-public-streetlights:2:127267","sourceLayerId":2,"sourceObjectId":127267,"sourceURL":"https://maps8.stlouis-mo.gov/arcgis/rest/services/STREETS/Streets_Permitting/MapServer/2","title":"Street light L019983"},"type":"Feature"},{"geometry":{"coordinates":[-90.25345518755468,38.68903483558349],"type":"Point"},"id":"stl-city-public-streetlights:2:127268","properties":{"address":null,"attributes":{"Date_Installed":null,"LED_Powered":0,"LightID":"L019984","Light_Source":"LED","Light_Type":"Cobra","Lighting_Type":"LED-Powered Lamp","Verification_Date":null},"id":"stl-city-public-streetlights:2:127268","sourceLayerId":2,"sourceObjectId":127268,"sourceURL":"https://maps8.stlouis-mo.gov/arcgis/rest/services/STREETS/Streets_Permitting/MapServer/2","title":"Street light L019984"},"type":"Feature"},{"geometry":{"coordinates":[-90.25305699429455,38.688841163518376],"type":"Point"},"id":"stl-city-public-streetlights:2:127269","properties":{"address":null,"attributes":{"Date_Installed":null,"LED_Powered":0,"LightID":"L019985","Light_Source":"LED","Light_Type":"Cobra","Lighting_Type":"LED-Powered Lamp","Verification_Date":null},"id":"stl-city-public-streetlights:2:127269","sourceLayerId":2,"sourceObjectId":127269,"sourceURL":"https://maps8.stlouis-mo.gov/arcgis/rest/services/STREETS/Streets_Permitting/MapServer/2","title":"Street light L019985"},"type":"Feature"},{"geometry":{"coordinates":[-90.25269830244164,38.68867119385011],"type":"Point"},"id":"stl-city-public-streetlights:2:127270","properties":{"address":null,"attributes":{"Date_Installed":null,"LED_Powered":0,"LightID":"L019986","Light_Source":"LED","Light_Type":"Cobra","Lighting_Type":"LED-Powered Lamp","Verification_Date":null},"id":"stl-city-public-streetlights:2:127270","sourceLayerId":2,"sourceObjectId":127270,"sourceURL":"https://maps8.stlouis-mo.gov/arcgis/rest/services/STREETS/Streets_Permitting/MapServer/2","title":"Street light L019986"},"type":"Feature"},{"geometry":{"coordinates":[-90.25239117656155,38.68848402812981],"type":"Point"},"id":"stl-city-public-streetlights:2:127271","properties":{"address":null,"attributes":{"Date_Installed":null,"LED_Powered":0,"LightID":"L019987","Light_Source":"LED","Light_Type":"Cobra","Lighting_Type":"LED-Powered Lamp","Verification_Date":null},"id":"stl-city-public-streetlights:2:127271","sourceLayerId":2,"sourceObjectId":127271,"sourceURL":"https://maps8.stlouis-mo.gov/arcgis/rest/services/STREETS/Streets_Permitting/MapServer/2","title":"Street light L019987"},"type":"Feature"},{"geometry":{"coordinates":[-90.25207482104982,38.6883195541648],"type":"Point"},"id":"stl-city-public-streetlights:2:127272","properties":{"address":null,"attributes":{"Date_Installed":null,"LED_Powered":0,"LightID":"L019988","Light_Source":"LED","Light_Type":"Cobra","Lighting_Type":"LED-Powered Lamp","Verification_Date":null},"id":"stl-city-public-streetlights:2:127272","sourceLayerId":2,"sourceObjectId":127272,"sourceURL":"https://maps8.stlouis-mo.gov/arcgis/rest/services/STREETS/Streets_Permitting/MapServer/2","title":"Street light L019988"},"type":"Feature"},{"geometry":{"coordinates":[-90.25180018564797,38.68815703541864],"type":"Point"},"id":"stl-city-public-streetlights:2:127273","properties":{"address":null,"attributes":{"Date_Installed":null,"LED_Powered":0,"LightID":"L019989","Light_Source":"LED","Light_Type":"Cobra","Lighting_Type":"LED-Powered Lamp","Verification_Date":null},"id":"stl-city-public-streetlights:2:127273","sourceLayerId":2,"sourceObjectId":127273,"sourceURL":"https://maps8.stlouis-mo.gov/arcgis/rest/services/STREETS/Streets_Permitting/MapServer/2","title":"Street light L019989"},"type":"Feature"},{"geometry":{"coordinates":[-90.25178590382684,38.68810219185211],"type":"Point"},"id":"stl-city-public-streetlights:2:127274","properties":{"address":null,"attributes":{"Date_Installed":null,"LED_Powered":1,"LightID":"L019990","Light_Source":"LED","Light_Type":"Cobra","Lighting_Type":"LED-Powered Lamp","Verification_Date":null},"id":"stl-city-public-streetlights:2:127274","sourceLayerId":2,"sourceObjectId":127274,"sourceURL":"https://maps8.stlouis-mo.gov/arcgis/rest/services/STREETS/Streets_Permitting/MapServer/2","title":"Street light L019990"},"type":"Feature"},{"geometry":{"coordinates":[-90.25647508432506,38.68995110576579],"type":"Point"},"id":"stl-city-public-streetlights:2:127276","properties":{"address":null,"attributes":{"Date_Installed":null,"LED_Powered":0,"LightID":"L019992","Light_Source":"LED","Light_Type":"Cobra","Lighting_Type":"LED-Powered Lamp","Verification_Date":null},"id":"stl-city-public-streetlights:2:127276","sourceLayerId":2,"sourceObjectId":127276,"sourceURL":"https://maps8.stlouis-mo.gov/arcgis/rest/services/STREETS/Streets_Permitting/MapServer/2","title":"Street light L019992"},"type":"Feature"},{"geometry":{"coordinates":[-90.25668864198617,38.68964162445384],"type":"Point"},"id":"stl-city-public-streetlights:2:127277","properties":{"address":null,"attributes":{"Date_Installed":null,"LED_Powered":0,"LightID":"L019993","Light_Source":"LED","Light_Type":"Cobra","Lighting_Type":"LED-Powered Lamp","Verification_Date":null},"id":"stl-city-public-streetlights:2:127277","sourceLayerId":2,"sourceObjectId":127277,"sourceURL":"https://maps8.stlouis-mo.gov/arcgis/rest/services/STREETS/Streets_Permitting/MapServer/2","title":"Street light L019993"},"type":"Feature"},{"geometry":{"coordinates":[-90.25690867588352,38.68932744818718],"type":"Point"},"id":"stl-city-public-streetlights:2:127278","properties":{"address":null,"attributes":{"Date_Installed":null,"LED_Powered":0,"LightID":"L019994","Light_Source":"LED","Light_Type":"Cobra","Lighting_Type":"LED-Powered Lamp","Verification_Date":null},"id":"stl-city-public-streetlights:2:127278","sourceLayerId":2,"sourceObjectId":127278,"sourceURL":"https://maps8.stlouis-mo.gov/arcgis/rest/services/STREETS/Streets_Permitting/MapServer/2","title":"Street light L019994"},"type":"Feature"},{"geometry":{"coordinates":[-90.2571169006784,38.689033698780904],"type":"Point"},"id":"stl-city-public-streetlights:2:127279","properties":{"address":null,"attributes":{"Date_Installed":null,"LED_Powered":0,"LightID":"L019995","Light_Source":"LED","Light_Type":"Cobra","Lighting_Type":"LED-Powered Lamp","Verification_Date":null},"id":"stl-city-public-streetlights:2:127279","sourceLayerId":2,"sourceObjectId":127279,"sourceURL":"https://maps8.stlouis-mo.gov/arcgis/rest/services/STREETS/Streets_Permitting/MapServer/2","title":"Street light L019995"},"type":"Feature"},{"geometry":{"coordinates":[-90.25734150902183,38.688714763696346],"type":"Point"},"id":"stl-city-public-streetlights:2:127280","properties":{"address":null,"attributes":{"Date_Installed":null,"LED_Powered":0,"LightID":"L019996","Light_Source":"LED","Light_Type":"Cobra","Lighting_Type":"LED-Powered Lamp","Verification_Date":null},"id":"stl-city-public-streetlights:2:127280","sourceLayerId":2,"sourceObjectId":127280,"sourceURL":"https://maps8.stlouis-mo.gov/arcgis/rest/services/STREETS/Streets_Permitting/MapServer/2","title":"Street light L019996"},"type":"Feature"},{"geometry":{"coordinates":[-90.2575630446258,38.68840452250823],"type":"Point"},"id":"stl-city-public-streetlights:2:127281","properties":{"address":null,"attributes":{"Date_Installed":null,"LED_Powered":0,"LightID":"L019997","Light_Source":"LED","Light_Type":"Cobra","Lighting_Type":"LED-Powered Lamp","Verification_Date":null},"id":"stl-city-public-streetlights:2:127281","sourceLayerId":2,"sourceObjectId":127281,"sourceURL":"https://maps8.stlouis-mo.gov/arcgis/rest/services/STREETS/Streets_Permitting/MapServer/2","title":"Street light L019997"},"type":"Feature"},{"geometry":{"coordinates":[-90.25777882712335,38.6880995724583],"type":"Point"},"id":"stl-city-public-streetlights:2:127282","properties":{"address":null,"attributes":{"Date_Installed":null,"LED_Powered":0,"LightID":"L019998","Light_Source":"LED","Light_Type":"Cobra","Lighting_Type":"LED-Powered Lamp","Verification_Date":null},"id":"stl-city-public-streetlights:2:127282","sourceLayerId":2,"sourceObjectId":127282,"sourceURL":"https://maps8.stlouis-mo.gov/arcgis/rest/services/STREETS/Streets_Permitting/MapServer/2","title":"Street light L019998"},"type":"Feature"},{"geometry":{"coordinates":[-90.25803473017268,38.68774256375866],"type":"Point"},"id":"stl-city-public-streetlights:2:127283","properties":{"address":null,"attributes":{"Date_Installed":null,"LED_Powered":0,"LightID":"L019999","Light_Source":"LED","Light_Type":"Cobra","Lighting_Type":"LED-Powered Lamp","Verification_Date":null},"id":"stl-city-public-streetlights:2:127283","sourceLayerId":2,"sourceObjectId":127283,"sourceURL":"https://maps8.stlouis-mo.gov/arcgis/rest/services/STREETS/Streets_Permitting/MapServer/2","title":"Street light L019999"},"type":"Feature"},{"geometry":{"coordinates":[-90.25822955172875,38.68746140590684],"type":"Point"},"id":"stl-city-public-streetlights:2:127492","properties":{"address":null,"attributes":{"Date_Installed":null,"LED_Powered":0,"LightID":"L020208","Light_Source":"LED","Light_Type":"Cobra","Lighting_Type":"LED-Powered Lamp","Verification_Date":null},"id":"stl-city-public-streetlights:2:127492","sourceLayerId":2,"sourceObjectId":127492,"sourceURL":"https://maps8.stlouis-mo.gov/arcgis/rest/services/STREETS/Streets_Permitting/MapServer/2","title":"Street light L020208"},"type":"Feature"},{"geometry":{"coordinates":[-90.25846642367412,38.68711031530817],"type":"Point"},"id":"stl-city-public-streetlights:2:127493","properties":{"address":null,"attributes":{"Date_Installed":null,"LED_Powered":0,"LightID":"L020209","Light_Source":"LED","Light_Type":"Cobra","Lighting_Type":"LED-Powered Lamp","Verification_Date":null},"id":"stl-city-public-streetlights:2:127493","sourceLayerId":2,"sourceObjectId":127493,"sourceURL":"https://maps8.stlouis-mo.gov/arcgis/rest/services/STREETS/Streets_Permitting/MapServer/2","title":"Street light L020209"},"type":"Feature"},{"geometry":{"coordinates":[-90.25866127684863,38.68681872815619],"type":"Point"},"id":"stl-city-public-streetlights:2:127494","properties":{"address":null,"attributes":{"Date_Installed":null,"LED_Powered":0,"LightID":"L020210","Light_Source":"LED","Light_Type":"Cobra","Lighting_Type":"LED-Powered Lamp","Verification_Date":null},"id":"stl-city-public-streetlights:2:127494","sourceLayerId":2,"sourceObjectId":127494,"sourceURL":"https://maps8.stlouis-mo.gov/arcgis/rest/services/STREETS/Streets_Permitting/MapServer/2","title":"Street light L020210"},"type":"Feature"},{"geometry":{"coordinates":[-90.25336396814522,38.68981513740101],"type":"Point"},"id":"stl-city-public-streetlights:2:129209","properties":{"address":null,"attributes":{"Date_Installed":null,"LED_Powered":0,"LightID":"L021925","Light_Source":"LED","Light_Type":"Cobra","Lighting_Type":"LED-Powered Lamp","Verification_Date":null},"id":"stl-city-public-streetlights:2:129209","sourceLayerId":2,"sourceObjectId":129209,"sourceURL":"https://maps8.stlouis-mo.gov/arcgis/rest/services/STREETS/Streets_Permitting/MapServer/2","title":"Street light L021925"},"type":"Feature"},{"geometry":{"coordinates":[-90.25278069669632,38.68966912697772],"type":"Point"},"id":"stl-city-public-streetlights:2:129210","properties":{"address":null,"attributes":{"Date_Installed":null,"LED_Powered":0,"LightID":"L021926","Light_Source":"LED","Light_Type":"Cobra","Lighting_Type":"LED-Powered Lamp","Verification_Date":null},"id":"stl-city-public-streetlights:2:129210","sourceLayerId":2,"sourceObjectId":129210,"sourceURL":"https://maps8.stlouis-mo.gov/arcgis/rest/services/STREETS/Streets_Permitting/MapServer/2","title":"Street light L021926"},"type":"Feature"},{"geometry":{"coordinates":[-90.25220243628854,38.6895309664371],"type":"Point"},"id":"stl-city-public-streetlights:2:129211","properties":{"address":null,"attributes":{"Date_Installed":null,"LED_Powered":0,"LightID":"L021927","Light_Source":"LED","Light_Type":"Cobra","Lighting_Type":"LED-Powered Lamp","Verification_Date":null},"id":"stl-city-public-streetlights:2:129211","sourceLayerId":2,"sourceObjectId":129211,"sourceURL":"https://maps8.stlouis-mo.gov/arcgis/rest/services/STREETS/Streets_Permitting/MapServer/2","title":"Street light L021927"},"type":"Feature"},{"geometry":{"coordinates":[-90.25165498212928,38.6893406200254],"type":"Point"},"id":"stl-city-public-streetlights:2:129212","properties":{"address":null,"attributes":{"Date_Installed":null,"LED_Powered":0,"LightID":"L021928","Light_Source":"LED","Light_Type":"Cobra","Lighting_Type":"LED-Powered Lamp","Verification_Date":null},"id":"stl-city-public-streetlights:2:129212","sourceLayerId":2,"sourceObjectId":129212,"sourceURL":"https://maps8.stlouis-mo.gov/arcgis/rest/services/STREETS/Streets_Permitting/MapServer/2","title":"Street light L021928"},"type":"Feature"},{"geometry":{"coordinates":[-90.25086871541609,38.688991818176895],"type":"Point"},"id":"stl-city-public-streetlights:2:129213","properties":{"address":null,"attributes":{"Date_Installed":null,"LED_Powered":0,"LightID":"L021929","Light_Source":"LED","Light_Type":"Cobra","Lighting_Type":"LED-Powered Lamp","Verification_Date":null},"id":"stl-city-public-streetlights:2:129213","sourceLayerId":2,"sourceObjectId":129213,"sourceURL":"https://maps8.stlouis-mo.gov/arcgis/rest/services/STREETS/Streets_Permitting/MapServer/2","title":"Street light L021929"},"type":"Feature"},{"geometry":{"coordinates":[-90.25053159079943,38.68897430709139],"type":"Point"},"id":"stl-city-public-streetlights:2:129214","properties":{"address":null,"attributes":{"Date_Installed":null,"LED_Powered":0,"LightID":"L021930","Light_Source":"LED","Light_Type":"Cobra","Lighting_Type":"LED-Powered Lamp","Verification_Date":null},"id":"stl-city-public-streetlights:2:129214","sourceLayerId":2,"sourceObjectId":129214,"sourceURL":"https://maps8.stlouis-mo.gov/arcgis/rest/services/STREETS/Streets_Permitting/MapServer/2","title":"Street light L021930"},"type":"Feature"},{"geometry":{"coordinates":[-90.25013815492848,38.689049408797224],"type":"Point"},"id":"stl-city-public-streetlights:2:129215","properties":{"address":null,"attributes":{"Date_Installed":"6/15/2017","LED_Powered":1,"LightID":"L021931","Light_Source":"LED","Light_Type":"Cobra","Lighting_Type":"LED-Powered Lamp","Verification_Date":null},"id":"stl-city-public-streetlights:2:129215","sourceLayerId":2,"sourceObjectId":129215,"sourceURL":"https://maps8.stlouis-mo.gov/arcgis/rest/services/STREETS/Streets_Permitting/MapServer/2","title":"Street light L021931"},"type":"Feature"},{"geometry":{"coordinates":[-90.25004679122456,38.68866295151719],"type":"Point"},"id":"stl-city-public-streetlights:2:129216","properties":{"address":null,"attributes":{"Date_Installed":null,"LED_Powered":0,"LightID":"L021932","Light_Source":"LED","Light_Type":"Cobra","Lighting_Type":"LED-Powered Lamp","Verification_Date":null},"id":"stl-city-public-streetlights:2:129216","sourceLayerId":2,"sourceObjectId":129216,"sourceURL":"https://maps8.stlouis-mo.gov/arcgis/rest/services/STREETS/Streets_Permitting/MapServer/2","title":"Street light L021932"},"type":"Feature"},{"geometry":{"coordinates":[-90.25141583365343,38.68800030796365],"type":"Point"},"id":"stl-city-public-streetlights:2:131923","properties":{"address":null,"attributes":{"Date_Installed":null,"LED_Powered":1,"LightID":"L024639","Light_Source":"LED","Light_Type":"Cobra","Lighting_Type":"LED-Powered Lamp","Verification_Date":null},"id":"stl-city-public-streetlights:2:131923","sourceLayerId":2,"sourceObjectId":131923,"sourceURL":"https://maps8.stlouis-mo.gov/arcgis/rest/services/STREETS/Streets_Permitting/MapServer/2","title":"Street light L024639"},"type":"Feature"},{"geometry":{"coordinates":[-90.25105585082204,38.68788513024313],"type":"Point"},"id":"stl-city-public-streetlights:2:131924","properties":{"address":null,"attributes":{"Date_Installed":null,"LED_Powered":0,"LightID":"L024640","Light_Source":"LED","Light_Type":"Cobra","Lighting_Type":"LED-Powered Lamp","Verification_Date":null},"id":"stl-city-public-streetlights:2:131924","sourceLayerId":2,"sourceObjectId":131924,"sourceURL":"https://maps8.stlouis-mo.gov/arcgis/rest/services/STREETS/Streets_Permitting/MapServer/2","title":"Street light L024640"},"type":"Feature"},{"geometry":{"coordinates":[-90.25068872753246,38.68772464795813],"type":"Point"},"id":"stl-city-public-streetlights:2:131925","properties":{"address":null,"attributes":{"Date_Installed":null,"LED_Powered":0,"LightID":"L024641","Light_Source":"LED","Light_Type":"Cobra","Lighting_Type":"LED-Powered Lamp","Verification_Date":null},"id":"stl-city-public-streetlights:2:131925","sourceLayerId":2,"sourceObjectId":131925,"sourceURL":"https://maps8.stlouis-mo.gov/arcgis/rest/services/STREETS/Streets_Permitting/MapServer/2","title":"Street light L024641"},"type":"Feature"},{"geometry":{"coordinates":[-90.25031067017619,38.687560565573996],"type":"Point"},"id":"stl-city-public-streetlights:2:131926","properties":{"address":null,"attributes":{"Date_Installed":null,"LED_Powered":0,"LightID":"L024642","Light_Source":"LED","Light_Type":"Cobra","Lighting_Type":"LED-Powered Lamp","Verification_Date":null},"id":"stl-city-public-streetlights:2:131926","sourceLayerId":2,"sourceObjectId":131926,"sourceURL":"https://maps8.stlouis-mo.gov/arcgis/rest/services/STREETS/Streets_Permitting/MapServer/2","title":"Street light L024642"},"type":"Feature"},{"geometry":{"coordinates":[-90.25222204402283,38.68363887149231],"type":"Point"},"id":"stl-city-public-streetlights:2:131936","properties":{"address":null,"attributes":{"Date_Installed":"10/1/2016","LED_Powered":1,"LightID":"L024652","Light_Source":"LED","Light_Type":"Cobra","Lighting_Type":"LED-Powered Lamp","Verification_Date":null},"id":"stl-city-public-streetlights:2:131936","sourceLayerId":2,"sourceObjectId":131936,"sourceURL":"https://maps8.stlouis-mo.gov/arcgis/rest/services/STREETS/Streets_Permitting/MapServer/2","title":"Street light L024652"},"type":"Feature"},{"geometry":{"coordinates":[-90.25185748726092,38.68348056664432],"type":"Point"},"id":"stl-city-public-streetlights:2:131937","properties":{"address":null,"attributes":{"Date_Installed":"10/1/2016","LED_Powered":1,"LightID":"L024653","Light_Source":"LED","Light_Type":"Cobra","Lighting_Type":"LED-Powered Lamp","Verification_Date":null},"id":"stl-city-public-streetlights:2:131937","sourceLayerId":2,"sourceObjectId":131937,"sourceURL":"https://maps8.stlouis-mo.gov/arcgis/rest/services/STREETS/Streets_Permitting/MapServer/2","title":"Street light L024653"},"type":"Feature"},{"geometry":{"coordinates":[-90.25145765582337,38.683304762630115],"type":"Point"},"id":"stl-city-public-streetlights:2:131938","properties":{"address":null,"attributes":{"Date_Installed":"10/1/2016","LED_Powered":1,"LightID":"L024654","Light_Source":"LED","Light_Type":"Cobra","Lighting_Type":"LED-Powered Lamp","Verification_Date":null},"id":"stl-city-public-streetlights:2:131938","sourceLayerId":2,"sourceObjectId":131938,"sourceURL":"https://maps8.stlouis-mo.gov/arcgis/rest/services/STREETS/Streets_Permitting/MapServer/2","title":"Street light L024654"},"type":"Feature"},{"geometry":{"coordinates":[-90.25108599489761,38.68314379528343],"type":"Point"},"id":"stl-city-public-streetlights:2:131939","properties":{"address":null,"attributes":{"Date_Installed":"10/1/2016","LED_Powered":1,"LightID":"L024655","Light_Source":"LED","Light_Type":"Cobra","Lighting_Type":"LED-Powered Lamp","Verification_Date":null},"id":"stl-city-public-streetlights:2:131939","sourceLayerId":2,"sourceObjectId":131939,"sourceURL":"https://maps8.stlouis-mo.gov/arcgis/rest/services/STREETS/Streets_Permitting/MapServer/2","title":"Street light L024655"},"type":"Feature"},{"geometry":{"coordinates":[-90.25067482786575,38.68296399066783],"type":"Point"},"id":"stl-city-public-streetlights:2:131940","properties":{"address":null,"attributes":{"Date_Installed":"10/1/2016","LED_Powered":1,"LightID":"L024656","Light_Source":"LED","Light_Type":"Cobra","Lighting_Type":"LED-Powered Lamp","Verification_Date":null},"id":"stl-city-public-streetlights:2:131940","sourceLayerId":2,"sourceObjectId":131940,"sourceURL":"https://maps8.stlouis-mo.gov/arcgis/rest/services/STREETS/Streets_Permitting/MapServer/2","title":"Street light L024656"},"type":"Feature"},{"geometry":{"coordinates":[-90.25029643302548,38.68279508048555],"type":"Point"},"id":"stl-city-public-streetlights:2:131941","properties":{"address":null,"attributes":{"Date_Installed":"10/1/2016","LED_Powered":1,"LightID":"L024657","Light_Source":"LED","Light_Type":"Cobra","Lighting_Type":"LED-Powered Lamp","Verification_Date":null},"id":"stl-city-public-streetlights:2:131941","sourceLayerId":2,"sourceObjectId":131941,"sourceURL":"https://maps8.stlouis-mo.gov/arcgis/rest/services/STREETS/Streets_Permitting/MapServer/2","title":"Street light L024657"},"type":"Feature"},{"geometry":{"coordinates":[-90.25369129761472,38.68135787149859],"type":"Point"},"id":"stl-city-public-streetlights:2:131947","properties":{"address":null,"attributes":{"Date_Installed":null,"LED_Powered":0,"LightID":"L024663","Light_Source":"LED","Light_Type":"Cobra","Lighting_Type":"LED-Powered Lamp","Verification_Date":null},"id":"stl-city-public-streetlights:2:131947","sourceLayerId":2,"sourceObjectId":131947,"sourceURL":"https://maps8.stlouis-mo.gov/arcgis/rest/services/STREETS/Streets_Permitting/MapServer/2","title":"Street light L024663"},"type":"Feature"},{"geometry":{"coordinates":[-90.25333907791334,38.68120457998191],"type":"Point"},"id":"stl-city-public-streetlights:2:131948","properties":{"address":null,"attributes":{"Date_Installed":null,"LED_Powered":0,"LightID":"L024664","Light_Source":"LED","Light_Type":"Cobra","Lighting_Type":"LED-Powered Lamp","Verification_Date":null},"id":"stl-city-public-streetlights:2:131948","sourceLayerId":2,"sourceObjectId":131948,"sourceURL":"https://maps8.stlouis-mo.gov/arcgis/rest/services/STREETS/Streets_Permitting/MapServer/2","title":"Street light L024664"},"type":"Feature"},{"geometry":{"coordinates":[-90.25296561437925,38.68103932385124],"type":"Point"},"id":"stl-city-public-streetlights:2:131949","properties":{"address":null,"attributes":{"Date_Installed":null,"LED_Powered":0,"LightID":"L024665","Light_Source":"LED","Light_Type":"Cobra","Lighting_Type":"LED-Powered Lamp","Verification_Date":null},"id":"stl-city-public-streetlights:2:131949","sourceLayerId":2,"sourceObjectId":131949,"sourceURL":"https://maps8.stlouis-mo.gov/arcgis/rest/services/STREETS/Streets_Permitting/MapServer/2","title":"Street light L024665"},"type":"Feature"},{"geometry":{"coordinates":[-90.25254926989089,38.680857910361055],"type":"Point"},"id":"stl-city-public-streetlights:2:131950","properties":{"address":null,"attributes":{"Date_Installed":null,"LED_Powered":0,"LightID":"L024666","Light_Source":"LED","Light_Type":"Cobra","Lighting_Type":"LED-Powered Lamp","Verification_Date":null},"id":"stl-city-public-streetlights:2:131950","sourceLayerId":2,"sourceObjectId":131950,"sourceURL":"https://maps8.stlouis-mo.gov/arcgis/rest/services/STREETS/Streets_Permitting/MapServer/2","title":"Street light L024666"},"type":"Feature"},{"geometry":{"coordinates":[-90.2521646176767,38.68069308113818],"type":"Point"},"id":"stl-city-public-streetlights:2:131951","properties":{"address":null,"attributes":{"Date_Installed":null,"LED_Powered":0,"LightID":"L024667","Light_Source":"LED","Light_Type":"Cobra","Lighting_Type":"LED-Powered Lamp","Verification_Date":null},"id":"stl-city-public-streetlights:2:131951","sourceLayerId":2,"sourceObjectId":131951,"sourceURL":"https://maps8.stlouis-mo.gov/arcgis/rest/services/STREETS/Streets_Permitting/MapServer/2","title":"Street light L024667"},"type":"Feature"},{"geometry":{"coordinates":[-90.2517717145033,38.68052313143552],"type":"Point"},"id":"stl-city-public-streetlights:2:131952","properties":{"address":null,"attributes":{"Date_Installed":null,"LED_Powered":0,"LightID":"L024668","Light_Source":"LED","Light_Type":"Cobra","Lighting_Type":"LED-Powered Lamp","Verification_Date":null},"id":"stl-city-public-streetlights:2:131952","sourceLayerId":2,"sourceObjectId":131952,"sourceURL":"https://maps8.stlouis-mo.gov/arcgis/rest/services/STREETS/Streets_Permitting/MapServer/2","title":"Street light L024668"},"type":"Feature"},{"geometry":{"coordinates":[-90.25136486561063,38.68034111496661],"type":"Point"},"id":"stl-city-public-streetlights:2:131953","properties":{"address":null,"attributes":{"Date_Installed":null,"LED_Powered":0,"LightID":"L024669","Light_Source":"LED","Light_Type":"Cobra","Lighting_Type":"LED-Powered Lamp","Verification_Date":null},"id":"stl-city-public-streetlights:2:131953","sourceLayerId":2,"sourceObjectId":131953,"sourceURL":"https://maps8.stlouis-mo.gov/arcgis/rest/services/STREETS/Streets_Permitting/MapServer/2","title":"Street light L024669"},"type":"Feature"},{"geometry":{"coordinates":[-90.25100655730807,38.68019257003907],"type":"Point"},"id":"stl-city-public-streetlights:2:131954","properties":{"address":null,"attributes":{"Date_Installed":null,"LED_Powered":0,"LightID":"L024670","Light_Source":"LED","Light_Type":"Cobra","Lighting_Type":"LED-Powered Lamp","Verification_Date":null},"id":"stl-city-public-streetlights:2:131954","sourceLayerId":2,"sourceObjectId":131954,"sourceURL":"https://maps8.stlouis-mo.gov/arcgis/rest/services/STREETS/Streets_Permitting/MapServer/2","title":"Street light L024670"},"type":"Feature"},{"geometry":{"coordinates":[-90.25059302006204,38.68001148887355],"type":"Point"},"id":"stl-city-public-streetlights:2:131955","properties":{"address":null,"attributes":{"Date_Installed":null,"LED_Powered":0,"LightID":"L024671","Light_Source":"LED","Light_Type":"Cobra","Lighting_Type":"LED-Powered Lamp","Verification_Date":null},"id":"stl-city-public-streetlights:2:131955","sourceLayerId":2,"sourceObjectId":131955,"sourceURL":"https://maps8.stlouis-mo.gov/arcgis/rest/services/STREETS/Streets_Permitting/MapServer/2","title":"Street light L024671"},"type":"Feature"},{"geometry":{"coordinates":[-90.25471925291706,38.68077303542396],"type":"Point"},"id":"stl-city-public-streetlights:2:131974","properties":{"address":null,"attributes":{"Date_Installed":null,"LED_Powered":0,"LightID":"L024690","Light_Source":"LED","Light_Type":"Cobra","Lighting_Type":"LED-Powered Lamp","Verification_Date":null},"id":"stl-city-public-streetlights:2:131974","sourceLayerId":2,"sourceObjectId":131974,"sourceURL":"https://maps8.stlouis-mo.gov/arcgis/rest/services/STREETS/Streets_Permitting/MapServer/2","title":"Street light L024690"},"type":"Feature"},{"geometry":{"coordinates":[-90.2551206687181,38.68094621010425],"type":"Point"},"id":"stl-city-public-streetlights:2:131975","properties":{"address":null,"attributes":{"Date_Installed":null,"LED_Powered":0,"LightID":"L024691","Light_Source":"LED","Light_Type":"Cobra","Lighting_Type":"LED-Powered Lamp","Verification_Date":null},"id":"stl-city-public-streetlights:2:131975","sourceLayerId":2,"sourceObjectId":131975,"sourceURL":"https://maps8.stlouis-mo.gov/arcgis/rest/services/STREETS/Streets_Permitting/MapServer/2","title":"Street light L024691"},"type":"Feature"},{"geometry":{"coordinates":[-90.25552450170346,38.68112463249655],"type":"Point"},"id":"stl-city-public-streetlights:2:131976","properties":{"address":null,"attributes":{"Date_Installed":null,"LED_Powered":0,"LightID":"L024692","Light_Source":"LED","Light_Type":"Cobra","Lighting_Type":"LED-Powered Lamp","Verification_Date":null},"id":"stl-city-public-streetlights:2:131976","sourceLayerId":2,"sourceObjectId":131976,"sourceURL":"https://maps8.stlouis-mo.gov/arcgis/rest/services/STREETS/Streets_Permitting/MapServer/2","title":"Street light L024692"},"type":"Feature"},{"geometry":{"coordinates":[-90.25591832641948,38.68129552374536],"type":"Point"},"id":"stl-city-public-streetlights:2:131977","properties":{"address":null,"attributes":{"Date_Installed":null,"LED_Powered":0,"LightID":"L024693","Light_Source":"LED","Light_Type":"Cobra","Lighting_Type":"LED-Powered Lamp","Verification_Date":null},"id":"stl-city-public-streetlights:2:131977","sourceLayerId":2,"sourceObjectId":131977,"sourceURL":"https://maps8.stlouis-mo.gov/arcgis/rest/services/STREETS/Streets_Permitting/MapServer/2","title":"Street light L024693"},"type":"Feature"},{"geometry":{"coordinates":[-90.25631304010454,38.68147392437687],"type":"Point"},"id":"stl-city-public-streetlights:2:131978","properties":{"address":null,"attributes":{"Date_Installed":null,"LED_Powered":0,"LightID":"L024694","Light_Source":"LED","Light_Type":"Cobra","Lighting_Type":"LED-Powered Lamp","Verification_Date":null},"id":"stl-city-public-streetlights:2:131978","sourceLayerId":2,"sourceObjectId":131978,"sourceURL":"https://maps8.stlouis-mo.gov/arcgis/rest/services/STREETS/Streets_Permitting/MapServer/2","title":"Street light L024694"},"type":"Feature"},{"geometry":{"coordinates":[-90.25301435092572,38.68299247316081],"type":"Point"},"id":"stl-city-public-streetlights:2:131979","properties":{"address":null,"attributes":{"Date_Installed":null,"LED_Powered":0,"LightID":"L024695","Light_Source":"LED","Light_Type":"Cobra","Lighting_Type":"LED-Powered Lamp","Verification_Date":null},"id":"stl-city-public-streetlights:2:131979","sourceLayerId":2,"sourceObjectId":131979,"sourceURL":"https://maps8.stlouis-mo.gov/arcgis/rest/services/STREETS/Streets_Permitting/MapServer/2","title":"Street light L024695"},"type":"Feature"},{"geometry":{"coordinates":[-90.25338753763674,38.68315296103822],"type":"Point"},"id":"stl-city-public-streetlights:2:131980","properties":{"address":null,"attributes":{"Date_Installed":null,"LED_Powered":0,"LightID":"L024696","Light_Source":"LED","Light_Type":"Cobra","Lighting_Type":"LED-Powered Lamp","Verification_Date":null},"id":"stl-city-public-streetlights:2:131980","sourceLayerId":2,"sourceObjectId":131980,"sourceURL":"https://maps8.stlouis-mo.gov/arcgis/rest/services/STREETS/Streets_Permitting/MapServer/2","title":"Street light L024696"},"type":"Feature"},{"geometry":{"coordinates":[-90.25375585643094,38.683314391507864],"type":"Point"},"id":"stl-city-public-streetlights:2:131981","properties":{"address":null,"attributes":{"Date_Installed":null,"LED_Powered":0,"LightID":"L024697","Light_Source":"LED","Light_Type":"Cobra","Lighting_Type":"LED-Powered Lamp","Verification_Date":null},"id":"stl-city-public-streetlights:2:131981","sourceLayerId":2,"sourceObjectId":131981,"sourceURL":"https://maps8.stlouis-mo.gov/arcgis/rest/services/STREETS/Streets_Permitting/MapServer/2","title":"Street light L024697"},"type":"Feature"},{"geometry":{"coordinates":[-90.2541151051015,38.68346102276705],"type":"Point"},"id":"stl-city-public-streetlights:2:131982","properties":{"address":null,"attributes":{"Date_Installed":null,"LED_Powered":0,"LightID":"L024698","Light_Source":"LED","Light_Type":"Cobra","Lighting_Type":"LED-Powered Lamp","Verification_Date":null},"id":"stl-city-public-streetlights:2:131982","sourceLayerId":2,"sourceObjectId":131982,"sourceURL":"https://maps8.stlouis-mo.gov/arcgis/rest/services/STREETS/Streets_Permitting/MapServer/2","title":"Street light L024698"},"type":"Feature"},{"geometry":{"coordinates":[-90.25447639587101,38.68363339992785],"type":"Point"},"id":"stl-city-public-streetlights:2:131983","properties":{"address":null,"attributes":{"Date_Installed":null,"LED_Powered":0,"LightID":"L024699","Light_Source":"LED","Light_Type":"Cobra","Lighting_Type":"LED-Powered Lamp","Verification_Date":null},"id":"stl-city-public-streetlights:2:131983","sourceLayerId":2,"sourceObjectId":131983,"sourceURL":"https://maps8.stlouis-mo.gov/arcgis/rest/services/STREETS/Streets_Permitting/MapServer/2","title":"Street light L024699"},"type":"Feature"},{"geometry":{"coordinates":[-90.25751705881018,38.68012334012828],"type":"Point"},"id":"stl-city-public-streetlights:2:132001","properties":{"address":null,"attributes":{"Date_Installed":"6/15/2017","LED_Powered":1,"LightID":"L024717","Light_Source":"LED","Light_Type":"Cobra","Lighting_Type":"LED-Powered Lamp","Verification_Date":null},"id":"stl-city-public-streetlights:2:132001","sourceLayerId":2,"sourceObjectId":132001,"sourceURL":"https://maps8.stlouis-mo.gov/arcgis/rest/services/STREETS/Streets_Permitting/MapServer/2","title":"Street light L024717"},"type":"Feature"},{"geometry":{"coordinates":[-90.25721895594162,38.68054232874131],"type":"Point"},"id":"stl-city-public-streetlights:2:132002","properties":{"address":null,"attributes":{"Date_Installed":"6/15/2017","LED_Powered":1,"LightID":"L024718","Light_Source":"LED","Light_Type":"Cobra","Lighting_Type":"LED-Powered Lamp","Verification_Date":null},"id":"stl-city-public-streetlights:2:132002","sourceLayerId":2,"sourceObjectId":132002,"sourceURL":"https://maps8.stlouis-mo.gov/arcgis/rest/services/STREETS/Streets_Permitting/MapServer/2","title":"Street light L024718"},"type":"Feature"},{"geometry":{"coordinates":[-90.25692101140866,38.6809736166455],"type":"Point"},"id":"stl-city-public-streetlights:2:132003","properties":{"address":null,"attributes":{"Date_Installed":"6/15/2017","LED_Powered":1,"LightID":"L024719","Light_Source":"LED","Light_Type":"Cobra","Lighting_Type":"LED-Powered Lamp","Verification_Date":null},"id":"stl-city-public-streetlights:2:132003","sourceLayerId":2,"sourceObjectId":132003,"sourceURL":"https://maps8.stlouis-mo.gov/arcgis/rest/services/STREETS/Streets_Permitting/MapServer/2","title":"Street light L024719"},"type":"Feature"},{"geometry":{"coordinates":[-90.25662408585568,38.68138565851049],"type":"Point"},"id":"stl-city-public-streetlights:2:132004","properties":{"address":null,"attributes":{"Date_Installed":"6/15/2017","LED_Powered":1,"LightID":"L024720","Light_Source":"LED","Light_Type":"Cobra","Lighting_Type":"LED-Powered Lamp","Verification_Date":null},"id":"stl-city-public-streetlights:2:132004","sourceLayerId":2,"sourceObjectId":132004,"sourceURL":"https://maps8.stlouis-mo.gov/arcgis/rest/services/STREETS/Streets_Permitting/MapServer/2","title":"Street light L024720"},"type":"Feature"},{"geometry":{"coordinates":[-90.25638346561321,38.68173777394103],"type":"Point"},"id":"stl-city-public-streetlights:2:132005","properties":{"address":null,"attributes":{"Date_Installed":"6/15/2017","LED_Powered":1,"LightID":"L024721","Light_Source":"LED","Light_Type":"Cobra","Lighting_Type":"LED-Powered Lamp","Verification_Date":null},"id":"stl-city-public-streetlights:2:132005","sourceLayerId":2,"sourceObjectId":132005,"sourceURL":"https://maps8.stlouis-mo.gov/arcgis/rest/services/STREETS/Streets_Permitting/MapServer/2","title":"Street light L024721"},"type":"Feature"},{"geometry":{"coordinates":[-90.25601677042572,38.68226287739212],"type":"Point"},"id":"stl-city-public-streetlights:2:132006","properties":{"address":null,"attributes":{"Date_Installed":"6/15/2017","LED_Powered":1,"LightID":"L024722","Light_Source":"LED","Light_Type":"Cobra","Lighting_Type":"LED-Powered Lamp","Verification_Date":null},"id":"stl-city-public-streetlights:2:132006","sourceLayerId":2,"sourceObjectId":132006,"sourceURL":"https://maps8.stlouis-mo.gov/arcgis/rest/services/STREETS/Streets_Permitting/MapServer/2","title":"Street light L024722"},"type":"Feature"},{"geometry":{"coordinates":[-90.25571133292517,38.68269343113813],"type":"Point"},"id":"stl-city-public-streetlights:2:132007","properties":{"address":null,"attributes":{"Date_Installed":"6/15/2017","LED_Powered":1,"LightID":"L024723","Light_Source":"LED","Light_Type":"Cobra","Lighting_Type":"LED-Powered Lamp","Verification_Date":null},"id":"stl-city-public-streetlights:2:132007","sourceLayerId":2,"sourceObjectId":132007,"sourceURL":"https://maps8.stlouis-mo.gov/arcgis/rest/services/STREETS/Streets_Permitting/MapServer/2","title":"Street light L024723"},"type":"Feature"},{"geometry":{"coordinates":[-90.25545586923667,38.683057348461546],"type":"Point"},"id":"stl-city-public-streetlights:2:132008","properties":{"address":null,"attributes":{"Date_Installed":"6/15/2017","LED_Powered":1,"LightID":"L024724","Light_Source":"LED","Light_Type":"Cobra","Lighting_Type":"LED-Powered Lamp","Verification_Date":null},"id":"stl-city-public-streetlights:2:132008","sourceLayerId":2,"sourceObjectId":132008,"sourceURL":"https://maps8.stlouis-mo.gov/arcgis/rest/services/STREETS/Streets_Permitting/MapServer/2","title":"Street light L024724"},"type":"Feature"},{"geometry":{"coordinates":[-90.25512370711836,38.683528699750084],"type":"Point"},"id":"stl-city-public-streetlights:2:132113","properties":{"address":null,"attributes":{"Date_Installed":"6/15/2017","LED_Powered":1,"LightID":"L024829","Light_Source":"LED","Light_Type":"Cobra","Lighting_Type":"LED-Powered Lamp","Verification_Date":null},"id":"stl-city-public-streetlights:2:132113","sourceLayerId":2,"sourceObjectId":132113,"sourceURL":"https://maps8.stlouis-mo.gov/arcgis/rest/services/STREETS/Streets_Permitting/MapServer/2","title":"Street light L024829"},"type":"Feature"},{"geometry":{"coordinates":[-90.25484687583607,38.683786727151485],"type":"Point"},"id":"stl-city-public-streetlights:2:132114","properties":{"address":null,"attributes":{"Date_Installed":null,"LED_Powered":1,"LightID":"L024830","Light_Source":"LED","Light_Type":"Cobra","Lighting_Type":"LED-Powered Lamp","Verification_Date":null},"id":"stl-city-public-streetlights:2:132114","sourceLayerId":2,"sourceObjectId":132114,"sourceURL":"https://maps8.stlouis-mo.gov/arcgis/rest/services/STREETS/Streets_Permitting/MapServer/2","title":"Street light L024830"},"type":"Feature"},{"geometry":{"coordinates":[-90.2547336072383,38.6839562132379],"type":"Point"},"id":"stl-city-public-streetlights:2:132115","properties":{"address":null,"attributes":{"Date_Installed":"6/15/2017","LED_Powered":1,"LightID":"L024831","Light_Source":"LED","Light_Type":"Cobra","Lighting_Type":"LED-Powered Lamp","Verification_Date":null},"id":"stl-city-public-streetlights:2:132115","sourceLayerId":2,"sourceObjectId":132115,"sourceURL":"https://maps8.stlouis-mo.gov/arcgis/rest/services/STREETS/Streets_Permitting/MapServer/2","title":"Street light L024831"},"type":"Feature"},{"geometry":{"coordinates":[-90.25404785755619,38.68446228707205],"type":"Point"},"id":"stl-city-public-streetlights:2:132116","properties":{"address":null,"attributes":{"Date_Installed":"6/15/2017","LED_Powered":1,"LightID":"L024832","Light_Source":"LED","Light_Type":"Cobra","Lighting_Type":"LED-Powered Lamp","Verification_Date":null},"id":"stl-city-public-streetlights:2:132116","sourceLayerId":2,"sourceObjectId":132116,"sourceURL":"https://maps8.stlouis-mo.gov/arcgis/rest/services/STREETS/Streets_Permitting/MapServer/2","title":"Street light L024832"},"type":"Feature"},{"geometry":{"coordinates":[-90.2535367169815,38.68515412021127],"type":"Point"},"id":"stl-city-public-streetlights:2:132117","properties":{"address":null,"attributes":{"Date_Installed":"6/15/2017","LED_Powered":1,"LightID":"L024833","Light_Source":"LED","Light_Type":"Cobra","Lighting_Type":"LED-Powered Lamp","Verification_Date":null},"id":"stl-city-public-streetlights:2:132117","sourceLayerId":2,"sourceObjectId":132117,"sourceURL":"https://maps8.stlouis-mo.gov/arcgis/rest/services/STREETS/Streets_Permitting/MapServer/2","title":"Street light L024833"},"type":"Feature"},{"geometry":{"coordinates":[-90.25302077520855,38.685912681842076],"type":"Point"},"id":"stl-city-public-streetlights:2:132118","properties":{"address":null,"attributes":{"Date_Installed":"6/15/2017","LED_Powered":1,"LightID":"L024834","Light_Source":"LED","Light_Type":"Cobra","Lighting_Type":"LED-Powered Lamp","Verification_Date":null},"id":"stl-city-public-streetlights:2:132118","sourceLayerId":2,"sourceObjectId":132118,"sourceURL":"https://maps8.stlouis-mo.gov/arcgis/rest/services/STREETS/Streets_Permitting/MapServer/2","title":"Street light L024834"},"type":"Feature"},{"geometry":{"coordinates":[-90.25246987496466,38.6866858857112],"type":"Point"},"id":"stl-city-public-streetlights:2:132119","properties":{"address":null,"attributes":{"Date_Installed":"6/15/2017","LED_Powered":1,"LightID":"L024835","Light_Source":"LED","Light_Type":"Cobra","Lighting_Type":"LED-Powered Lamp","Verification_Date":null},"id":"stl-city-public-streetlights:2:132119","sourceLayerId":2,"sourceObjectId":132119,"sourceURL":"https://maps8.stlouis-mo.gov/arcgis/rest/services/STREETS/Streets_Permitting/MapServer/2","title":"Street light L024835"},"type":"Feature"},{"geometry":{"coordinates":[-90.25183801654944,38.68757546040351],"type":"Point"},"id":"stl-city-public-streetlights:2:132120","properties":{"address":null,"attributes":{"Date_Installed":"6/15/2017","LED_Powered":1,"LightID":"L024836","Light_Source":"LED","Light_Type":"Cobra","Lighting_Type":"LED-Powered Lamp","Verification_Date":null},"id":"stl-city-public-streetlights:2:132120","sourceLayerId":2,"sourceObjectId":132120,"sourceURL":"https://maps8.stlouis-mo.gov/arcgis/rest/services/STREETS/Streets_Permitting/MapServer/2","title":"Street light L024836"},"type":"Feature"},{"geometry":{"coordinates":[-90.25188060640004,38.68792379297968],"type":"Point"},"id":"stl-city-public-streetlights:2:132121","properties":{"address":null,"attributes":{"Date_Installed":"6/15/2017","LED_Powered":1,"LightID":"L024837","Light_Source":"LED","Light_Type":"Cobra","Lighting_Type":"LED-Powered Lamp","Verification_Date":null},"id":"stl-city-public-streetlights:2:132121","sourceLayerId":2,"sourceObjectId":132121,"sourceURL":"https://maps8.stlouis-mo.gov/arcgis/rest/services/STREETS/Streets_Permitting/MapServer/2","title":"Street light L024837"},"type":"Feature"},{"geometry":{"coordinates":[-90.25241238989284,38.68716479364366],"type":"Point"},"id":"stl-city-public-streetlights:2:132122","properties":{"address":null,"attributes":{"Date_Installed":"6/15/2017","LED_Powered":1,"LightID":"L024838","Light_Source":"LED","Light_Type":"Cobra","Lighting_Type":"LED-Powered Lamp","Verification_Date":null},"id":"stl-city-public-streetlights:2:132122","sourceLayerId":2,"sourceObjectId":132122,"sourceURL":"https://maps8.stlouis-mo.gov/arcgis/rest/services/STREETS/Streets_Permitting/MapServer/2","title":"Street light L024838"},"type":"Feature"},{"geometry":{"coordinates":[-90.25295345522359,38.6863873496071],"type":"Point"},"id":"stl-city-public-streetlights:2:132123","properties":{"address":null,"attributes":{"Date_Installed":"6/15/2017","LED_Powered":1,"LightID":"L024839","Light_Source":"LED","Light_Type":"Cobra","Lighting_Type":"LED-Powered Lamp","Verification_Date":null},"id":"stl-city-public-streetlights:2:132123","sourceLayerId":2,"sourceObjectId":132123,"sourceURL":"https://maps8.stlouis-mo.gov/arcgis/rest/services/STREETS/Streets_Permitting/MapServer/2","title":"Street light L024839"},"type":"Feature"},{"geometry":{"coordinates":[-90.25348889630395,38.68561929630605],"type":"Point"},"id":"stl-city-public-streetlights:2:132124","properties":{"address":null,"attributes":{"Date_Installed":"6/15/2017","LED_Powered":1,"LightID":"L024840","Light_Source":"LED","Light_Type":"Cobra","Lighting_Type":"LED-Powered Lamp","Verification_Date":null},"id":"stl-city-public-streetlights:2:132124","sourceLayerId":2,"sourceObjectId":132124,"sourceURL":"https://maps8.stlouis-mo.gov/arcgis/rest/services/STREETS/Streets_Permitting/MapServer/2","title":"Street light L024840"},"type":"Feature"},{"geometry":{"coordinates":[-90.25398931769506,38.68490610709224],"type":"Point"},"id":"stl-city-public-streetlights:2:132125","properties":{"address":null,"attributes":{"Date_Installed":"6/15/2017","LED_Powered":1,"LightID":"L024841","Light_Source":"LED","Light_Type":"Cobra","Lighting_Type":"LED-Powered Lamp","Verification_Date":null},"id":"stl-city-public-streetlights:2:132125","sourceLayerId":2,"sourceObjectId":132125,"sourceURL":"https://maps8.stlouis-mo.gov/arcgis/rest/services/STREETS/Streets_Permitting/MapServer/2","title":"Street light L024841"},"type":"Feature"},{"geometry":{"coordinates":[-90.25456233082627,38.68434979002463],"type":"Point"},"id":"stl-city-public-streetlights:2:132126","properties":{"address":null,"attributes":{"Date_Installed":"6/15/2017","LED_Powered":1,"LightID":"L024842","Light_Source":"LED","Light_Type":"Cobra","Lighting_Type":"LED-Powered Lamp","Verification_Date":null},"id":"stl-city-public-streetlights:2:132126","sourceLayerId":2,"sourceObjectId":132126,"sourceURL":"https://maps8.stlouis-mo.gov/arcgis/rest/services/STREETS/Streets_Permitting/MapServer/2","title":"Street light L024842"},"type":"Feature"},{"geometry":{"coordinates":[-90.25479932688229,38.68421377822342],"type":"Point"},"id":"stl-city-public-streetlights:2:132127","properties":{"address":null,"attributes":{"Date_Installed":"6/15/2017","LED_Powered":1,"LightID":"L024843","Light_Source":"LED","Light_Type":"Cobra","Lighting_Type":"LED-Powered Lamp","Verification_Date":null},"id":"stl-city-public-streetlights:2:132127","sourceLayerId":2,"sourceObjectId":132127,"sourceURL":"https://maps8.stlouis-mo.gov/arcgis/rest/services/STREETS/Streets_Permitting/MapServer/2","title":"Street light L024843"},"type":"Feature"},{"geometry":{"coordinates":[-90.25505059613515,38.68410132328078],"type":"Point"},"id":"stl-city-public-streetlights:2:132128","properties":{"address":null,"attributes":{"Date_Installed":"6/15/2017","LED_Powered":1,"LightID":"L024844","Light_Source":"LED","Light_Type":"Cobra","Lighting_Type":"LED-Powered Lamp","Verification_Date":null},"id":"stl-city-public-streetlights:2:132128","sourceLayerId":2,"sourceObjectId":132128,"sourceURL":"https://maps8.stlouis-mo.gov/arcgis/rest/services/STREETS/Streets_Permitting/MapServer/2","title":"Street light L024844"},"type":"Feature"},{"geometry":{"coordinates":[-90.25519576484626,38.68380057931425],"type":"Point"},"id":"stl-city-public-streetlights:2:132129","properties":{"address":null,"attributes":{"Date_Installed":"6/15/2017","LED_Powered":1,"LightID":"L024845","Light_Source":"LED","Light_Type":"Cobra","Lighting_Type":"LED-Powered Lamp","Verification_Date":null},"id":"stl-city-public-streetlights:2:132129","sourceLayerId":2,"sourceObjectId":132129,"sourceURL":"https://maps8.stlouis-mo.gov/arcgis/rest/services/STREETS/Streets_Permitting/MapServer/2","title":"Street light L024845"},"type":"Feature"},{"geometry":{"coordinates":[-90.25544787120337,38.68344156630102],"type":"Point"},"id":"stl-city-public-streetlights:2:132130","properties":{"address":null,"attributes":{"Date_Installed":"6/15/2017","LED_Powered":1,"LightID":"L024846","Light_Source":"LED","Light_Type":"Cobra","Lighting_Type":"LED-Powered Lamp","Verification_Date":null},"id":"stl-city-public-streetlights:2:132130","sourceLayerId":2,"sourceObjectId":132130,"sourceURL":"https://maps8.stlouis-mo.gov/arcgis/rest/services/STREETS/Streets_Permitting/MapServer/2","title":"Street light L024846"},"type":"Feature"},{"geometry":{"coordinates":[-90.25575384399878,38.68306965017393],"type":"Point"},"id":"stl-city-public-streetlights:2:132131","properties":{"address":null,"attributes":{"Date_Installed":"6/15/2017","LED_Powered":1,"LightID":"L024847","Light_Source":"LED","Light_Type":"Cobra","Lighting_Type":"LED-Powered Lamp","Verification_Date":null},"id":"stl-city-public-streetlights:2:132131","sourceLayerId":2,"sourceObjectId":132131,"sourceURL":"https://maps8.stlouis-mo.gov/arcgis/rest/services/STREETS/Streets_Permitting/MapServer/2","title":"Street light L024847"},"type":"Feature"},{"geometry":{"coordinates":[-90.25603570003959,38.68259900291913],"type":"Point"},"id":"stl-city-public-streetlights:2:132132","properties":{"address":null,"attributes":{"Date_Installed":"6/15/2017","LED_Powered":1,"LightID":"L024848","Light_Source":"LED","Light_Type":"Cobra","Lighting_Type":"LED-Powered Lamp","Verification_Date":null},"id":"stl-city-public-streetlights:2:132132","sourceLayerId":2,"sourceObjectId":132132,"sourceURL":"https://maps8.stlouis-mo.gov/arcgis/rest/services/STREETS/Streets_Permitting/MapServer/2","title":"Street light L024848"},"type":"Feature"},{"geometry":{"coordinates":[-90.25632996185027,38.68218118874081],"type":"Point"},"id":"stl-city-public-streetlights:2:132133","properties":{"address":null,"attributes":{"Date_Installed":"6/15/2017","LED_Powered":1,"LightID":"L024849","Light_Source":"LED","Light_Type":"Cobra","Lighting_Type":"LED-Powered Lamp","Verification_Date":null},"id":"stl-city-public-streetlights:2:132133","sourceLayerId":2,"sourceObjectId":132133,"sourceURL":"https://maps8.stlouis-mo.gov/arcgis/rest/services/STREETS/Streets_Permitting/MapServer/2","title":"Street light L024849"},"type":"Feature"},{"geometry":{"coordinates":[-90.25663388885575,38.68174592217727],"type":"Point"},"id":"stl-city-public-streetlights:2:132134","properties":{"address":null,"attributes":{"Date_Installed":"6/15/2017","LED_Powered":1,"LightID":"L024850","Light_Source":"LED","Light_Type":"Cobra","Lighting_Type":"LED-Powered Lamp","Verification_Date":null},"id":"stl-city-public-streetlights:2:132134","sourceLayerId":2,"sourceObjectId":132134,"sourceURL":"https://maps8.stlouis-mo.gov/arcgis/rest/services/STREETS/Streets_Permitting/MapServer/2","title":"Street light L024850"},"type":"Feature"},{"geometry":{"coordinates":[-90.2569460873027,38.681304868488795],"type":"Point"},"id":"stl-city-public-streetlights:2:132135","properties":{"address":null,"attributes":{"Date_Installed":"6/15/2017","LED_Powered":1,"LightID":"L024851","Light_Source":"LED","Light_Type":"Cobra","Lighting_Type":"LED-Powered Lamp","Verification_Date":null},"id":"stl-city-public-streetlights:2:132135","sourceLayerId":2,"sourceObjectId":132135,"sourceURL":"https://maps8.stlouis-mo.gov/arcgis/rest/services/STREETS/Streets_Permitting/MapServer/2","title":"Street light L024851"},"type":"Feature"},{"geometry":{"coordinates":[-90.2572406103512,38.68088346604167],"type":"Point"},"id":"stl-city-public-streetlights:2:132136","properties":{"address":null,"attributes":{"Date_Installed":"6/15/2017","LED_Powered":1,"LightID":"L024852","Light_Source":"LED","Light_Type":"Cobra","Lighting_Type":"LED-Powered Lamp","Verification_Date":null},"id":"stl-city-public-streetlights:2:132136","sourceLayerId":2,"sourceObjectId":132136,"sourceURL":"https://maps8.stlouis-mo.gov/arcgis/rest/services/STREETS/Streets_Permitting/MapServer/2","title":"Street light L024852"},"type":"Feature"},{"geometry":{"coordinates":[-90.25753201044311,38.68046827604117],"type":"Point"},"id":"stl-city-public-streetlights:2:132137","properties":{"address":null,"attributes":{"Date_Installed":"6/15/2017","LED_Powered":1,"LightID":"L024853","Light_Source":"LED","Light_Type":"Cobra","Lighting_Type":"LED-Powered Lamp","Verification_Date":null},"id":"stl-city-public-streetlights:2:132137","sourceLayerId":2,"sourceObjectId":132137,"sourceURL":"https://maps8.stlouis-mo.gov/arcgis/rest/services/STREETS/Streets_Permitting/MapServer/2","title":"Street light L024853"},"type":"Feature"},{"geometry":{"coordinates":[-90.25775412753292,38.68015839287846],"type":"Point"},"id":"stl-city-public-streetlights:2:132138","properties":{"address":null,"attributes":{"Date_Installed":"6/15/2017","LED_Powered":1,"LightID":"L024854","Light_Source":"LED","Light_Type":"Cobra","Lighting_Type":"LED-Powered Lamp","Verification_Date":null},"id":"stl-city-public-streetlights:2:132138","sourceLayerId":2,"sourceObjectId":132138,"sourceURL":"https://maps8.stlouis-mo.gov/arcgis/rest/services/STREETS/Streets_Permitting/MapServer/2","title":"Street light L024854"},"type":"Feature"},{"geometry":{"coordinates":[-90.25020202283851,38.68666492623248],"type":"Point"},"id":"stl-city-public-streetlights:2:132142","properties":{"address":null,"attributes":{"Date_Installed":"10/1/2016","LED_Powered":1,"LightID":"L024858","Light_Source":"LED","Light_Type":"Cobra","Lighting_Type":"LED-Powered Lamp","Verification_Date":null},"id":"stl-city-public-streetlights:2:132142","sourceLayerId":2,"sourceObjectId":132142,"sourceURL":"https://maps8.stlouis-mo.gov/arcgis/rest/services/STREETS/Streets_Permitting/MapServer/2","title":"Street light L024858"},"type":"Feature"},{"geometry":{"coordinates":[-90.25042021201777,38.68636220020004],"type":"Point"},"id":"stl-city-public-streetlights:2:132143","properties":{"address":null,"attributes":{"Date_Installed":"10/1/2016","LED_Powered":1,"LightID":"L024859","Light_Source":"LED","Light_Type":"Cobra","Lighting_Type":"LED-Powered Lamp","Verification_Date":null},"id":"stl-city-public-streetlights:2:132143","sourceLayerId":2,"sourceObjectId":132143,"sourceURL":"https://maps8.stlouis-mo.gov/arcgis/rest/services/STREETS/Streets_Permitting/MapServer/2","title":"Street light L024859"},"type":"Feature"},{"geometry":{"coordinates":[-90.25062430854625,38.68607117047664],"type":"Point"},"id":"stl-city-public-streetlights:2:132144","properties":{"address":null,"attributes":{"Date_Installed":"10/1/2016","LED_Powered":1,"LightID":"L024860","Light_Source":"LED","Light_Type":"Cobra","Lighting_Type":"LED-Powered Lamp","Verification_Date":null},"id":"stl-city-public-streetlights:2:132144","sourceLayerId":2,"sourceObjectId":132144,"sourceURL":"https://maps8.stlouis-mo.gov/arcgis/rest/services/STREETS/Streets_Permitting/MapServer/2","title":"Street light L024860"},"type":"Feature"},{"geometry":{"coordinates":[-90.25084628768356,38.685748726879574],"type":"Point"},"id":"stl-city-public-streetlights:2:132145","properties":{"address":null,"attributes":{"Date_Installed":"10/1/2016","LED_Powered":1,"LightID":"L024861","Light_Source":"LED","Light_Type":"Cobra","Lighting_Type":"LED-Powered Lamp","Verification_Date":null},"id":"stl-city-public-streetlights:2:132145","sourceLayerId":2,"sourceObjectId":132145,"sourceURL":"https://maps8.stlouis-mo.gov/arcgis/rest/services/STREETS/Streets_Permitting/MapServer/2","title":"Street light L024861"},"type":"Feature"},{"geometry":{"coordinates":[-90.25106079135871,38.68543296408792],"type":"Point"},"id":"stl-city-public-streetlights:2:132146","properties":{"address":null,"attributes":{"Date_Installed":"10/1/2016","LED_Powered":1,"LightID":"L024862","Light_Source":"LED","Light_Type":"Cobra","Lighting_Type":"LED-Powered Lamp","Verification_Date":null},"id":"stl-city-public-streetlights:2:132146","sourceLayerId":2,"sourceObjectId":132146,"sourceURL":"https://maps8.stlouis-mo.gov/arcgis/rest/services/STREETS/Streets_Permitting/MapServer/2","title":"Street light L024862"},"type":"Feature"},{"geometry":{"coordinates":[-90.25125829118471,38.68513090677853],"type":"Point"},"id":"stl-city-public-streetlights:2:132147","properties":{"address":null,"attributes":{"Date_Installed":"10/1/2016","LED_Powered":1,"LightID":"L024863","Light_Source":"LED","Light_Type":"Cobra","Lighting_Type":"LED-Powered Lamp","Verification_Date":null},"id":"stl-city-public-streetlights:2:132147","sourceLayerId":2,"sourceObjectId":132147,"sourceURL":"https://maps8.stlouis-mo.gov/arcgis/rest/services/STREETS/Streets_Permitting/MapServer/2","title":"Street light L024863"},"type":"Feature"},{"geometry":{"coordinates":[-90.251466620249,38.68484503306016],"type":"Point"},"id":"stl-city-public-streetlights:2:132148","properties":{"address":null,"attributes":{"Date_Installed":"10/1/2016","LED_Powered":1,"LightID":"L024864","Light_Source":"LED","Light_Type":"Cobra","Lighting_Type":"LED-Powered Lamp","Verification_Date":null},"id":"stl-city-public-streetlights:2:132148","sourceLayerId":2,"sourceObjectId":132148,"sourceURL":"https://maps8.stlouis-mo.gov/arcgis/rest/services/STREETS/Streets_Permitting/MapServer/2","title":"Street light L024864"},"type":"Feature"},{"geometry":{"coordinates":[-90.2517049785924,38.68451088406459],"type":"Point"},"id":"stl-city-public-streetlights:2:132149","properties":{"address":null,"attributes":{"Date_Installed":"10/1/2016","LED_Powered":1,"LightID":"L024865","Light_Source":"LED","Light_Type":"Cobra","Lighting_Type":"LED-Powered Lamp","Verification_Date":null},"id":"stl-city-public-streetlights:2:132149","sourceLayerId":2,"sourceObjectId":132149,"sourceURL":"https://maps8.stlouis-mo.gov/arcgis/rest/services/STREETS/Streets_Permitting/MapServer/2","title":"Street light L024865"},"type":"Feature"},{"geometry":{"coordinates":[-90.25190425587775,38.684220794003906],"type":"Point"},"id":"stl-city-public-streetlights:2:132150","properties":{"address":null,"attributes":{"Date_Installed":"10/1/2016","LED_Powered":1,"LightID":"L024866","Light_Source":"LED","Light_Type":"Cobra","Lighting_Type":"LED-Powered Lamp","Verification_Date":null},"id":"stl-city-public-streetlights:2:132150","sourceLayerId":2,"sourceObjectId":132150,"sourceURL":"https://maps8.stlouis-mo.gov/arcgis/rest/services/STREETS/Streets_Permitting/MapServer/2","title":"Street light L024866"},"type":"Feature"},{"geometry":{"coordinates":[-90.25209191558278,38.683948510129305],"type":"Point"},"id":"stl-city-public-streetlights:2:132151","properties":{"address":null,"attributes":{"Date_Installed":"10/1/2016","LED_Powered":1,"LightID":"L024867","Light_Source":"LED","Light_Type":"Cobra","Lighting_Type":"LED-Powered Lamp","Verification_Date":null},"id":"stl-city-public-streetlights:2:132151","sourceLayerId":2,"sourceObjectId":132151,"sourceURL":"https://maps8.stlouis-mo.gov/arcgis/rest/services/STREETS/Streets_Permitting/MapServer/2","title":"Street light L024867"},"type":"Feature"},{"geometry":{"coordinates":[-90.25227618866477,38.68368765907332],"type":"Point"},"id":"stl-city-public-streetlights:2:132152","properties":{"address":null,"attributes":{"Date_Installed":"10/1/2016","LED_Powered":1,"LightID":"L024868","Light_Source":"LED","Light_Type":"Cobra","Lighting_Type":"LED-Powered Lamp","Verification_Date":null},"id":"stl-city-public-streetlights:2:132152","sourceLayerId":2,"sourceObjectId":132152,"sourceURL":"https://maps8.stlouis-mo.gov/arcgis/rest/services/STREETS/Streets_Permitting/MapServer/2","title":"Street light L024868"},"type":"Feature"},{"geometry":{"coordinates":[-90.25251778430967,38.683364765424784],"type":"Point"},"id":"stl-city-public-streetlights:2:132153","properties":{"address":null,"attributes":{"Date_Installed":null,"LED_Powered":0,"LightID":"L024869","Light_Source":"LED","Light_Type":"Cobra","Lighting_Type":"LED-Powered Lamp","Verification_Date":null},"id":"stl-city-public-streetlights:2:132153","sourceLayerId":2,"sourceObjectId":132153,"sourceURL":"https://maps8.stlouis-mo.gov/arcgis/rest/services/STREETS/Streets_Permitting/MapServer/2","title":"Street light L024869"},"type":"Feature"},{"geometry":{"coordinates":[-90.25273595366141,38.68306203393435],"type":"Point"},"id":"stl-city-public-streetlights:2:132154","properties":{"address":null,"attributes":{"Date_Installed":null,"LED_Powered":0,"LightID":"L024870","Light_Source":"LED","Light_Type":"Cobra","Lighting_Type":"LED-Powered Lamp","Verification_Date":null},"id":"stl-city-public-streetlights:2:132154","sourceLayerId":2,"sourceObjectId":132154,"sourceURL":"https://maps8.stlouis-mo.gov/arcgis/rest/services/STREETS/Streets_Permitting/MapServer/2","title":"Street light L024870"},"type":"Feature"},{"geometry":{"coordinates":[-90.25296697959956,38.68273401527267],"type":"Point"},"id":"stl-city-public-streetlights:2:132155","properties":{"address":null,"attributes":{"Date_Installed":null,"LED_Powered":0,"LightID":"L024871","Light_Source":"LED","Light_Type":"Cobra","Lighting_Type":"LED-Powered Lamp","Verification_Date":null},"id":"stl-city-public-streetlights:2:132155","sourceLayerId":2,"sourceObjectId":132155,"sourceURL":"https://maps8.stlouis-mo.gov/arcgis/rest/services/STREETS/Streets_Permitting/MapServer/2","title":"Street light L024871"},"type":"Feature"},{"geometry":{"coordinates":[-90.25315140493291,38.6824490888078],"type":"Point"},"id":"stl-city-public-streetlights:2:132156","properties":{"address":null,"attributes":{"Date_Installed":null,"LED_Powered":0,"LightID":"L024872","Light_Source":"LED","Light_Type":"Cobra","Lighting_Type":"LED-Powered Lamp","Verification_Date":null},"id":"stl-city-public-streetlights:2:132156","sourceLayerId":2,"sourceObjectId":132156,"sourceURL":"https://maps8.stlouis-mo.gov/arcgis/rest/services/STREETS/Streets_Permitting/MapServer/2","title":"Street light L024872"},"type":"Feature"},{"geometry":{"coordinates":[-90.25335631789565,38.68215748375773],"type":"Point"},"id":"stl-city-public-streetlights:2:132157","properties":{"address":null,"attributes":{"Date_Installed":null,"LED_Powered":0,"LightID":"L024873","Light_Source":"LED","Light_Type":"Cobra","Lighting_Type":"LED-Powered Lamp","Verification_Date":null},"id":"stl-city-public-streetlights:2:132157","sourceLayerId":2,"sourceObjectId":132157,"sourceURL":"https://maps8.stlouis-mo.gov/arcgis/rest/services/STREETS/Streets_Permitting/MapServer/2","title":"Street light L024873"},"type":"Feature"},{"geometry":{"coordinates":[-90.2535726549071,38.68185474767197],"type":"Point"},"id":"stl-city-public-streetlights:2:132158","properties":{"address":null,"attributes":{"Date_Installed":null,"LED_Powered":0,"LightID":"L024874","Light_Source":"High Pressure Sodium","Light_Type":"Cobra","Lighting_Type":"400-W High Pressure Sodium Vapor Lamp","Verification_Date":null},"id":"stl-city-public-streetlights:2:132158","sourceLayerId":2,"sourceObjectId":132158,"sourceURL":"https://maps8.stlouis-mo.gov/arcgis/rest/services/STREETS/Streets_Permitting/MapServer/2","title":"Street light L024874"},"type":"Feature"},{"geometry":{"coordinates":[-90.25376706150867,38.681562261189484],"type":"Point"},"id":"stl-city-public-streetlights:2:132159","properties":{"address":null,"attributes":{"Date_Installed":null,"LED_Powered":0,"LightID":"L024875","Light_Source":"LED","Light_Type":"Cobra","Lighting_Type":"LED-Powered Lamp","Verification_Date":null},"id":"stl-city-public-streetlights:2:132159","sourceLayerId":2,"sourceObjectId":132159,"sourceURL":"https://maps8.stlouis-mo.gov/arcgis/rest/services/STREETS/Streets_Permitting/MapServer/2","title":"Street light L024875"},"type":"Feature"},{"geometry":{"coordinates":[-90.25399259050722,38.6812380909183],"type":"Point"},"id":"stl-city-public-streetlights:2:132160","properties":{"address":null,"attributes":{"Date_Installed":null,"LED_Powered":0,"LightID":"L024876","Light_Source":"LED","Light_Type":"Cobra","Lighting_Type":"LED-Powered Lamp","Verification_Date":null},"id":"stl-city-public-streetlights:2:132160","sourceLayerId":2,"sourceObjectId":132160,"sourceURL":"https://maps8.stlouis-mo.gov/arcgis/rest/services/STREETS/Streets_Permitting/MapServer/2","title":"Street light L024876"},"type":"Feature"},{"geometry":{"coordinates":[-90.25420028268918,38.68095449901655],"type":"Point"},"id":"stl-city-public-streetlights:2:132161","properties":{"address":null,"attributes":{"Date_Installed":null,"LED_Powered":0,"LightID":"L024877","Light_Source":"LED","Light_Type":"Cobra","Lighting_Type":"LED-Powered Lamp","Verification_Date":null},"id":"stl-city-public-streetlights:2:132161","sourceLayerId":2,"sourceObjectId":132161,"sourceURL":"https://maps8.stlouis-mo.gov/arcgis/rest/services/STREETS/Streets_Permitting/MapServer/2","title":"Street light L024877"},"type":"Feature"},{"geometry":{"coordinates":[-90.25441116282553,38.68064459863076],"type":"Point"},"id":"stl-city-public-streetlights:2:132162","properties":{"address":null,"attributes":{"Date_Installed":null,"LED_Powered":0,"LightID":"L024878","Light_Source":"LED","Light_Type":"Cobra","Lighting_Type":"LED-Powered Lamp","Verification_Date":null},"id":"stl-city-public-streetlights:2:132162","sourceLayerId":2,"sourceObjectId":132162,"sourceURL":"https://maps8.stlouis-mo.gov/arcgis/rest/services/STREETS/Streets_Permitting/MapServer/2","title":"Street light L024878"},"type":"Feature"},{"geometry":{"coordinates":[-90.2546014081121,38.680366545813364],"type":"Point"},"id":"stl-city-public-streetlights:2:132163","properties":{"address":null,"attributes":{"Date_Installed":null,"LED_Powered":0,"LightID":"L024879","Light_Source":"LED","Light_Type":"Cobra","Lighting_Type":"LED-Powered Lamp","Verification_Date":null},"id":"stl-city-public-streetlights:2:132163","sourceLayerId":2,"sourceObjectId":132163,"sourceURL":"https://maps8.stlouis-mo.gov/arcgis/rest/services/STREETS/Streets_Permitting/MapServer/2","title":"Street light L024879"},"type":"Feature"},{"geometry":{"coordinates":[-90.25480537588655,38.68007665230555],"type":"Point"},"id":"stl-city-public-streetlights:2:132164","properties":{"address":null,"attributes":{"Date_Installed":null,"LED_Powered":0,"LightID":"L024880","Light_Source":"LED","Light_Type":"Cobra","Lighting_Type":"LED-Powered Lamp","Verification_Date":null},"id":"stl-city-public-streetlights:2:132164","sourceLayerId":2,"sourceObjectId":132164,"sourceURL":"https://maps8.stlouis-mo.gov/arcgis/rest/services/STREETS/Streets_Permitting/MapServer/2","title":"Street light L024880"},"type":"Feature"},{"geometry":{"coordinates":[-90.25993567988165,38.680112400166365],"type":"Point"},"id":"stl-city-public-streetlights:2:132671","properties":{"address":null,"attributes":{"Date_Installed":null,"LED_Powered":1,"LightID":"L025387","Light_Source":"LED","Light_Type":"Cobra","Lighting_Type":"LED-Powered Lamp","Verification_Date":null},"id":"stl-city-public-streetlights:2:132671","sourceLayerId":2,"sourceObjectId":132671,"sourceURL":"https://maps8.stlouis-mo.gov/arcgis/rest/services/STREETS/Streets_Permitting/MapServer/2","title":"Street light L025387"},"type":"Feature"},{"geometry":{"coordinates":[-90.25127590581731,38.68819588829371],"type":"Point"},"id":"stl-city-public-streetlights:2:151072","properties":{"address":null,"attributes":{"Date_Installed":null,"LED_Powered":0,"LightID":"L043937","Light_Source":"High Pressure Sodium","Light_Type":"Decorative","Lighting_Type":"GE Americana Series (Historic Light Fixture)","Verification_Date":null},"id":"stl-city-public-streetlights:2:151072","sourceLayerId":2,"sourceObjectId":151072,"sourceURL":"https://maps8.stlouis-mo.gov/arcgis/rest/services/STREETS/Streets_Permitting/MapServer/2","title":"Street light L043937"},"type":"Feature"},{"geometry":{"coordinates":[-90.25114426277574,38.68827188410788],"type":"Point"},"id":"stl-city-public-streetlights:2:151073","properties":{"address":null,"attributes":{"Date_Installed":null,"LED_Powered":0,"LightID":"L043938","Light_Source":"High Pressure Sodium","Light_Type":"Decorative","Lighting_Type":"GE Americana Series (Historic Light Fixture)","Verification_Date":null},"id":"stl-city-public-streetlights:2:151073","sourceLayerId":2,"sourceObjectId":151073,"sourceURL":"https://maps8.stlouis-mo.gov/arcgis/rest/services/STREETS/Streets_Permitting/MapServer/2","title":"Street light L043938"},"type":"Feature"},{"geometry":{"coordinates":[-90.25099802839179,38.688345940638634],"type":"Point"},"id":"stl-city-public-streetlights:2:151074","properties":{"address":null,"attributes":{"Date_Installed":null,"LED_Powered":0,"LightID":"L043939","Light_Source":"High Pressure Sodium","Light_Type":"Decorative","Lighting_Type":"GE Americana Series (Historic Light Fixture)","Verification_Date":null},"id":"stl-city-public-streetlights:2:151074","sourceLayerId":2,"sourceObjectId":151074,"sourceURL":"https://maps8.stlouis-mo.gov/arcgis/rest/services/STREETS/Streets_Permitting/MapServer/2","title":"Street light L043939"},"type":"Feature"},{"geometry":{"coordinates":[-90.25086395145338,38.688421930051575],"type":"Point"},"id":"stl-city-public-streetlights:2:151075","properties":{"address":null,"attributes":{"Date_Installed":null,"LED_Powered":0,"LightID":"L043940","Light_Source":"High Pressure Sodium","Light_Type":"Decorative","Lighting_Type":"GE Americana Series (Historic Light Fixture)","Verification_Date":null},"id":"stl-city-public-streetlights:2:151075","sourceLayerId":2,"sourceObjectId":151075,"sourceURL":"https://maps8.stlouis-mo.gov/arcgis/rest/services/STREETS/Streets_Permitting/MapServer/2","title":"Street light L043940"},"type":"Feature"},{"geometry":{"coordinates":[-90.25073473428638,38.68849983593359],"type":"Point"},"id":"stl-city-public-streetlights:2:151076","properties":{"address":null,"attributes":{"Date_Installed":null,"LED_Powered":0,"LightID":"L043941","Light_Source":"High Pressure Sodium","Light_Type":"Decorative","Lighting_Type":"GE Americana Series (Historic Light Fixture)","Verification_Date":null},"id":"stl-city-public-streetlights:2:151076","sourceLayerId":2,"sourceObjectId":151076,"sourceURL":"https://maps8.stlouis-mo.gov/arcgis/rest/services/STREETS/Streets_Permitting/MapServer/2","title":"Street light L043941"},"type":"Feature"},{"geometry":{"coordinates":[-90.25058605128874,38.68857770105963],"type":"Point"},"id":"stl-city-public-streetlights:2:151077","properties":{"address":null,"attributes":{"Date_Installed":null,"LED_Powered":0,"LightID":"L043942","Light_Source":"High Pressure Sodium","Light_Type":"Decorative","Lighting_Type":"GE Americana Series (Historic Light Fixture)","Verification_Date":null},"id":"stl-city-public-streetlights:2:151077","sourceLayerId":2,"sourceObjectId":151077,"sourceURL":"https://maps8.stlouis-mo.gov/arcgis/rest/services/STREETS/Streets_Permitting/MapServer/2","title":"Street light L043942"},"type":"Feature"},{"geometry":{"coordinates":[-90.25045926688068,38.68865561182277],"type":"Point"},"id":"stl-city-public-streetlights:2:151078","properties":{"address":null,"attributes":{"Date_Installed":null,"LED_Powered":0,"LightID":"L043943","Light_Source":"High Pressure Sodium","Light_Type":"Decorative","Lighting_Type":"GE Americana Series (Historic Light Fixture)","Verification_Date":null},"id":"stl-city-public-streetlights:2:151078","sourceLayerId":2,"sourceObjectId":151078,"sourceURL":"https://maps8.stlouis-mo.gov/arcgis/rest/services/STREETS/Streets_Permitting/MapServer/2","title":"Street light L043943"},"type":"Feature"},{"geometry":{"coordinates":[-90.2507386338332,38.68877824823981],"type":"Point"},"id":"stl-city-public-streetlights:2:151079","properties":{"address":null,"attributes":{"Date_Installed":null,"LED_Powered":0,"LightID":"L043944","Light_Source":"High Pressure Sodium","Light_Type":"Decorative","Lighting_Type":"GE Americana Series (Historic Light Fixture)","Verification_Date":null},"id":"stl-city-public-streetlights:2:151079","sourceLayerId":2,"sourceObjectId":151079,"sourceURL":"https://maps8.stlouis-mo.gov/arcgis/rest/services/STREETS/Streets_Permitting/MapServer/2","title":"Street light L043944"},"type":"Feature"},{"geometry":{"coordinates":[-90.25082637915997,38.68873266953148],"type":"Point"},"id":"stl-city-public-streetlights:2:151080","properties":{"address":null,"attributes":{"Date_Installed":null,"LED_Powered":0,"LightID":"L043945","Light_Source":"High Pressure Sodium","Light_Type":"Decorative","Lighting_Type":"GE Americana Series (Historic Light Fixture)","Verification_Date":null},"id":"stl-city-public-streetlights:2:151080","sourceLayerId":2,"sourceObjectId":151080,"sourceURL":"https://maps8.stlouis-mo.gov/arcgis/rest/services/STREETS/Streets_Permitting/MapServer/2","title":"Street light L043945"},"type":"Feature"},{"geometry":{"coordinates":[-90.25094093280178,38.68867380038789],"type":"Point"},"id":"stl-city-public-streetlights:2:151081","properties":{"address":null,"attributes":{"Date_Installed":null,"LED_Powered":0,"LightID":"L043946","Light_Source":"High Pressure Sodium","Light_Type":"Decorative","Lighting_Type":"GE Americana Series (Historic Light Fixture)","Verification_Date":null},"id":"stl-city-public-streetlights:2:151081","sourceLayerId":2,"sourceObjectId":151081,"sourceURL":"https://maps8.stlouis-mo.gov/arcgis/rest/services/STREETS/Streets_Permitting/MapServer/2","title":"Street light L043946"},"type":"Feature"},{"geometry":{"coordinates":[-90.25107257794231,38.6885978057143],"type":"Point"},"id":"stl-city-public-streetlights:2:151082","properties":{"address":null,"attributes":{"Date_Installed":null,"LED_Powered":0,"LightID":"L043947","Light_Source":"High Pressure Sodium","Light_Type":"Decorative","Lighting_Type":"GE Americana Series (Historic Light Fixture)","Verification_Date":null},"id":"stl-city-public-streetlights:2:151082","sourceLayerId":2,"sourceObjectId":151082,"sourceURL":"https://maps8.stlouis-mo.gov/arcgis/rest/services/STREETS/Streets_Permitting/MapServer/2","title":"Street light L043947"},"type":"Feature"},{"geometry":{"coordinates":[-90.25119691619356,38.68852370251318],"type":"Point"},"id":"stl-city-public-streetlights:2:151083","properties":{"address":null,"attributes":{"Date_Installed":null,"LED_Powered":0,"LightID":"L043948","Light_Source":"High Pressure Sodium","Light_Type":"Decorative","Lighting_Type":"GE Americana Series (Historic Light Fixture)","Verification_Date":null},"id":"stl-city-public-streetlights:2:151083","sourceLayerId":2,"sourceObjectId":151083,"sourceURL":"https://maps8.stlouis-mo.gov/arcgis/rest/services/STREETS/Streets_Permitting/MapServer/2","title":"Street light L043948"},"type":"Feature"},{"geometry":{"coordinates":[-90.25132853983483,38.68845342900341],"type":"Point"},"id":"stl-city-public-streetlights:2:151084","properties":{"address":null,"attributes":{"Date_Installed":null,"LED_Powered":0,"LightID":"L043949","Light_Source":"High Pressure Sodium","Light_Type":"Decorative","Lighting_Type":"GE Americana Series (Historic Light Fixture)","Verification_Date":null},"id":"stl-city-public-streetlights:2:151084","sourceLayerId":2,"sourceObjectId":151084,"sourceURL":"https://maps8.stlouis-mo.gov/arcgis/rest/services/STREETS/Streets_Permitting/MapServer/2","title":"Street light L043949"},"type":"Feature"},{"geometry":{"coordinates":[-90.25146260315083,38.68838125246146],"type":"Point"},"id":"stl-city-public-streetlights:2:151085","properties":{"address":null,"attributes":{"Date_Installed":null,"LED_Powered":0,"LightID":"L043950","Light_Source":"High Pressure Sodium","Light_Type":"Decorative","Lighting_Type":"GE Americana Series (Historic Light Fixture)","Verification_Date":null},"id":"stl-city-public-streetlights:2:151085","sourceLayerId":2,"sourceObjectId":151085,"sourceURL":"https://maps8.stlouis-mo.gov/arcgis/rest/services/STREETS/Streets_Permitting/MapServer/2","title":"Street light L043950"},"type":"Feature"},{"geometry":{"coordinates":[-90.25959330919555,38.68948016485909],"type":"Point"},"id":"stl-city-public-streetlights:2:151427","properties":{"address":null,"attributes":{"Date_Installed":null,"LED_Powered":0,"LightID":"L044293","Light_Source":"High Pressure Sodium","Light_Type":"Cobra","Lighting_Type":"150-W High Pressure Sodium Vapor Lamp","Verification_Date":null},"id":"stl-city-public-streetlights:2:151427","sourceLayerId":2,"sourceObjectId":151427,"sourceURL":"https://maps8.stlouis-mo.gov/arcgis/rest/services/STREETS/Streets_Permitting/MapServer/2","title":"Street light L044293"},"type":"Feature"},{"geometry":{"coordinates":[-90.25081979764525,38.689877208539286],"type":"Point"},"id":"stl-city-public-streetlights:2:152369","properties":{"address":null,"attributes":{"Date_Installed":null,"LED_Powered":0,"LightID":"L045223","Light_Source":"LED","Light_Type":"Cobra","Lighting_Type":"LED-Powered Lamp","Verification_Date":null},"id":"stl-city-public-streetlights:2:152369","sourceLayerId":2,"sourceObjectId":152369,"sourceURL":"https://maps8.stlouis-mo.gov/arcgis/rest/services/STREETS/Streets_Permitting/MapServer/2","title":"Street light L045223"},"type":"Feature"},{"geometry":{"coordinates":[-90.25060967776638,38.68963992698772],"type":"Point"},"id":"stl-city-public-streetlights:2:152370","properties":{"address":null,"attributes":{"Date_Installed":null,"LED_Powered":0,"LightID":"L045224","Light_Source":"LED","Light_Type":"Cobra","Lighting_Type":"LED-Powered Lamp","Verification_Date":null},"id":"stl-city-public-streetlights:2:152370","sourceLayerId":2,"sourceObjectId":152370,"sourceURL":"https://maps8.stlouis-mo.gov/arcgis/rest/services/STREETS/Streets_Permitting/MapServer/2","title":"Street light L045224"},"type":"Feature"},{"geometry":{"coordinates":[-90.25041339065373,38.689413544610716],"type":"Point"},"id":"stl-city-public-streetlights:2:152371","properties":{"address":null,"attributes":{"Date_Installed":null,"LED_Powered":0,"LightID":"L045225","Light_Source":"LED","Light_Type":"Cobra","Lighting_Type":"LED-Powered Lamp","Verification_Date":null},"id":"stl-city-public-streetlights:2:152371","sourceLayerId":2,"sourceObjectId":152371,"sourceURL":"https://maps8.stlouis-mo.gov/arcgis/rest/services/STREETS/Streets_Permitting/MapServer/2","title":"Street light L045225"},"type":"Feature"},{"geometry":{"coordinates":[-90.25243790044853,38.68980371875251],"type":"Point"},"id":"stl-city-public-streetlights:2:152420","properties":{"address":null,"attributes":{"Date_Installed":null,"LED_Powered":0,"LightID":"L045274","Light_Source":"LED","Light_Type":"Cobra","Lighting_Type":"LED-Powered Lamp","Verification_Date":null},"id":"stl-city-public-streetlights:2:152420","sourceLayerId":2,"sourceObjectId":152420,"sourceURL":"https://maps8.stlouis-mo.gov/arcgis/rest/services/STREETS/Streets_Permitting/MapServer/2","title":"Street light L045274"},"type":"Feature"},{"geometry":{"coordinates":[-90.2521063990317,38.689980831647524],"type":"Point"},"id":"stl-city-public-streetlights:2:152421","properties":{"address":null,"attributes":{"Date_Installed":null,"LED_Powered":0,"LightID":"L045275","Light_Source":"LED","Light_Type":"Cobra","Lighting_Type":"LED-Powered Lamp","Verification_Date":null},"id":"stl-city-public-streetlights:2:152421","sourceLayerId":2,"sourceObjectId":152421,"sourceURL":"https://maps8.stlouis-mo.gov/arcgis/rest/services/STREETS/Streets_Permitting/MapServer/2","title":"Street light L045275"},"type":"Feature"},{"geometry":{"coordinates":[-90.25121352738712,38.68938944284146],"type":"Point"},"id":"stl-city-public-streetlights:2:152439","properties":{"address":null,"attributes":{"Date_Installed":null,"LED_Powered":0,"LightID":"L045293","Light_Source":"LED","Light_Type":"Cobra","Lighting_Type":"LED-Powered Lamp","Verification_Date":null},"id":"stl-city-public-streetlights:2:152439","sourceLayerId":2,"sourceObjectId":152439,"sourceURL":"https://maps8.stlouis-mo.gov/arcgis/rest/services/STREETS/Streets_Permitting/MapServer/2","title":"Street light L045293"},"type":"Feature"},{"geometry":{"coordinates":[-90.25085336930165,38.689586037658685],"type":"Point"},"id":"stl-city-public-streetlights:2:152440","properties":{"address":null,"attributes":{"Date_Installed":null,"LED_Powered":0,"LightID":"L045294","Light_Source":"LED","Light_Type":"Cobra","Lighting_Type":"LED-Powered Lamp","Verification_Date":null},"id":"stl-city-public-streetlights:2:152440","sourceLayerId":2,"sourceObjectId":152440,"sourceURL":"https://maps8.stlouis-mo.gov/arcgis/rest/services/STREETS/Streets_Permitting/MapServer/2","title":"Street light L045294"},"type":"Feature"},{"geometry":{"coordinates":[-90.25046415145977,38.68979508169971],"type":"Point"},"id":"stl-city-public-streetlights:2:152441","properties":{"address":null,"attributes":{"Date_Installed":null,"LED_Powered":0,"LightID":"L045295","Light_Source":"LED","Light_Type":"Cobra","Lighting_Type":"LED-Powered Lamp","Verification_Date":null},"id":"stl-city-public-streetlights:2:152441","sourceLayerId":2,"sourceObjectId":152441,"sourceURL":"https://maps8.stlouis-mo.gov/arcgis/rest/services/STREETS/Streets_Permitting/MapServer/2","title":"Street light L045295"},"type":"Feature"},{"geometry":{"coordinates":[-90.25014573321027,38.689969477365935],"type":"Point"},"id":"stl-city-public-streetlights:2:152442","properties":{"address":null,"attributes":{"Date_Installed":null,"LED_Powered":0,"LightID":"L045296","Light_Source":"LED","Light_Type":"Cobra","Lighting_Type":"LED-Powered Lamp","Verification_Date":null},"id":"stl-city-public-streetlights:2:152442","sourceLayerId":2,"sourceObjectId":152442,"sourceURL":"https://maps8.stlouis-mo.gov/arcgis/rest/services/STREETS/Streets_Permitting/MapServer/2","title":"Street light L045296"},"type":"Feature"},{"geometry":{"coordinates":[-90.25279366384275,38.68256016788044],"type":"Point"},"id":"stl-city-public-streetlights:2:153123","properties":{"address":null,"attributes":{"Date_Installed":null,"LED_Powered":0,"LightID":"L045977","Light_Source":"LED","Light_Type":"Cobra","Lighting_Type":"LED-Powered Lamp","Verification_Date":null},"id":"stl-city-public-streetlights:2:153123","sourceLayerId":2,"sourceObjectId":153123,"sourceURL":"https://maps8.stlouis-mo.gov/arcgis/rest/services/STREETS/Streets_Permitting/MapServer/2","title":"Street light L045977"},"type":"Feature"},{"geometry":{"coordinates":[-90.25242620848438,38.68239706775982],"type":"Point"},"id":"stl-city-public-streetlights:2:153124","properties":{"address":null,"attributes":{"Date_Installed":null,"LED_Powered":0,"LightID":"L045978","Light_Source":"LED","Light_Type":"Cobra","Lighting_Type":"LED-Powered Lamp","Verification_Date":null},"id":"stl-city-public-streetlights:2:153124","sourceLayerId":2,"sourceObjectId":153124,"sourceURL":"https://maps8.stlouis-mo.gov/arcgis/rest/services/STREETS/Streets_Permitting/MapServer/2","title":"Street light L045978"},"type":"Feature"},{"geometry":{"coordinates":[-90.25187325655098,38.682163496118285],"type":"Point"},"id":"stl-city-public-streetlights:2:153125","properties":{"address":null,"attributes":{"Date_Installed":null,"LED_Powered":0,"LightID":"L045979","Light_Source":"LED","Light_Type":"Cobra","Lighting_Type":"LED-Powered Lamp","Verification_Date":null},"id":"stl-city-public-streetlights:2:153125","sourceLayerId":2,"sourceObjectId":153125,"sourceURL":"https://maps8.stlouis-mo.gov/arcgis/rest/services/STREETS/Streets_Permitting/MapServer/2","title":"Street light L045979"},"type":"Feature"},{"geometry":{"coordinates":[-90.2514214490692,38.681965175811506],"type":"Point"},"id":"stl-city-public-streetlights:2:153126","properties":{"address":null,"attributes":{"Date_Installed":null,"LED_Powered":0,"LightID":"L045980","Light_Source":"LED","Light_Type":"Cobra","Lighting_Type":"LED-Powered Lamp","Verification_Date":null},"id":"stl-city-public-streetlights:2:153126","sourceLayerId":2,"sourceObjectId":153126,"sourceURL":"https://maps8.stlouis-mo.gov/arcgis/rest/services/STREETS/Streets_Permitting/MapServer/2","title":"Street light L045980"},"type":"Feature"},{"geometry":{"coordinates":[-90.25095615544292,38.68176324853422],"type":"Point"},"id":"stl-city-public-streetlights:2:153127","properties":{"address":null,"attributes":{"Date_Installed":null,"LED_Powered":0,"LightID":"L045981","Light_Source":"LED","Light_Type":"Cobra","Lighting_Type":"LED-Powered Lamp","Verification_Date":null},"id":"stl-city-public-streetlights:2:153127","sourceLayerId":2,"sourceObjectId":153127,"sourceURL":"https://maps8.stlouis-mo.gov/arcgis/rest/services/STREETS/Streets_Permitting/MapServer/2","title":"Street light L045981"},"type":"Feature"},{"geometry":{"coordinates":[-90.25046242781906,38.681553394030864],"type":"Point"},"id":"stl-city-public-streetlights:2:153128","properties":{"address":null,"attributes":{"Date_Installed":null,"LED_Powered":0,"LightID":"L045982","Light_Source":"LED","Light_Type":"Cobra","Lighting_Type":"LED-Powered Lamp","Verification_Date":null},"id":"stl-city-public-streetlights:2:153128","sourceLayerId":2,"sourceObjectId":153128,"sourceURL":"https://maps8.stlouis-mo.gov/arcgis/rest/services/STREETS/Streets_Permitting/MapServer/2","title":"Street light L045982"},"type":"Feature"},{"geometry":{"coordinates":[-90.25003341015184,38.681362267280306],"type":"Point"},"id":"stl-city-public-streetlights:2:153129","properties":{"address":null,"attributes":{"Date_Installed":null,"LED_Powered":0,"LightID":"L045983","Light_Source":"LED","Light_Type":"Cobra","Lighting_Type":"LED-Powered Lamp","Verification_Date":null},"id":"stl-city-public-streetlights:2:153129","sourceLayerId":2,"sourceObjectId":153129,"sourceURL":"https://maps8.stlouis-mo.gov/arcgis/rest/services/STREETS/Streets_Permitting/MapServer/2","title":"Street light L045983"},"type":"Feature"},{"geometry":{"coordinates":[-90.25564494147812,38.68408240032785],"type":"Point"},"id":"stl-city-public-streetlights:2:159550","properties":{"address":null,"attributes":{"Date_Installed":null,"LED_Powered":0,"LightID":"L052416","Light_Source":"LED","Light_Type":"Cobra","Lighting_Type":"LED-Powered Lamp","Verification_Date":null},"id":"stl-city-public-streetlights:2:159550","sourceLayerId":2,"sourceObjectId":159550,"sourceURL":"https://maps8.stlouis-mo.gov/arcgis/rest/services/STREETS/Streets_Permitting/MapServer/2","title":"Street light L052416"},"type":"Feature"},{"geometry":{"coordinates":[-90.2561076619401,38.68449977931621],"type":"Point"},"id":"stl-city-public-streetlights:2:159551","properties":{"address":null,"attributes":{"Date_Installed":null,"LED_Powered":0,"LightID":"L052417","Light_Source":"LED","Light_Type":"Cobra","Lighting_Type":"LED-Powered Lamp","Verification_Date":null},"id":"stl-city-public-streetlights:2:159551","sourceLayerId":2,"sourceObjectId":159551,"sourceURL":"https://maps8.stlouis-mo.gov/arcgis/rest/services/STREETS/Streets_Permitting/MapServer/2","title":"Street light L052417"},"type":"Feature"},{"geometry":{"coordinates":[-90.2568385939369,38.684584965369154],"type":"Point"},"id":"stl-city-public-streetlights:2:159552","properties":{"address":null,"attributes":{"Date_Installed":null,"LED_Powered":0,"LightID":"L052418","Light_Source":"LED","Light_Type":"Cobra","Lighting_Type":"LED-Powered Lamp","Verification_Date":null},"id":"stl-city-public-streetlights:2:159552","sourceLayerId":2,"sourceObjectId":159552,"sourceURL":"https://maps8.stlouis-mo.gov/arcgis/rest/services/STREETS/Streets_Permitting/MapServer/2","title":"Street light L052418"},"type":"Feature"},{"geometry":{"coordinates":[-90.25733552520248,38.68500582674612],"type":"Point"},"id":"stl-city-public-streetlights:2:159553","properties":{"address":null,"attributes":{"Date_Installed":null,"LED_Powered":0,"LightID":"L052419","Light_Source":"LED","Light_Type":"Cobra","Lighting_Type":"LED-Powered Lamp","Verification_Date":null},"id":"stl-city-public-streetlights:2:159553","sourceLayerId":2,"sourceObjectId":159553,"sourceURL":"https://maps8.stlouis-mo.gov/arcgis/rest/services/STREETS/Streets_Permitting/MapServer/2","title":"Street light L052419"},"type":"Feature"},{"geometry":{"coordinates":[-90.2580756850944,38.68501665637041],"type":"Point"},"id":"stl-city-public-streetlights:2:159554","properties":{"address":null,"attributes":{"Date_Installed":null,"LED_Powered":0,"LightID":"L052420","Light_Source":"LED","Light_Type":"Cobra","Lighting_Type":"LED-Powered Lamp","Verification_Date":null},"id":"stl-city-public-streetlights:2:159554","sourceLayerId":2,"sourceObjectId":159554,"sourceURL":"https://maps8.stlouis-mo.gov/arcgis/rest/services/STREETS/Streets_Permitting/MapServer/2","title":"Street light L052420"},"type":"Feature"},{"geometry":{"coordinates":[-90.25877353941898,38.685219034271604],"type":"Point"},"id":"stl-city-public-streetlights:2:159555","properties":{"address":null,"attributes":{"Date_Installed":null,"LED_Powered":0,"LightID":"L052421","Light_Source":"LED","Light_Type":"Cobra","Lighting_Type":"LED-Powered Lamp","Verification_Date":null},"id":"stl-city-public-streetlights:2:159555","sourceLayerId":2,"sourceObjectId":159555,"sourceURL":"https://maps8.stlouis-mo.gov/arcgis/rest/services/STREETS/Streets_Permitting/MapServer/2","title":"Street light L052421"},"type":"Feature"},{"geometry":{"coordinates":[-90.259467586742,38.68501547517158],"type":"Point"},"id":"stl-city-public-streetlights:2:159556","properties":{"address":null,"attributes":{"Date_Installed":null,"LED_Powered":0,"LightID":"L052422","Light_Source":"LED","Light_Type":"Cobra","Lighting_Type":"LED-Powered Lamp","Verification_Date":null},"id":"stl-city-public-streetlights:2:159556","sourceLayerId":2,"sourceObjectId":159556,"sourceURL":"https://maps8.stlouis-mo.gov/arcgis/rest/services/STREETS/Streets_Permitting/MapServer/2","title":"Street light L052422"},"type":"Feature"}],"layerId":"city-streetlights","retrievedAt":"2026-09-13T21:56:18.173251+00:00","schema":"property-infrastructure-geojson-v1","sourceId":"stl-city-public-streetlights","tileId":"-9026_3868","type":"FeatureCollection"}