{"features":[{"geometry":{"coordinates":[-90.2301708328987,38.69939776159652],"type":"Point"},"id":"stl-city-public-streetlights:2:126222","properties":{"address":null,"attributes":{"Date_Installed":null,"LED_Powered":0,"LightID":"L018950","Light_Source":"LED","Light_Type":"Cobra","Lighting_Type":"LED-Powered Lamp","Verification_Date":null},"id":"stl-city-public-streetlights:2:126222","sourceLayerId":2,"sourceObjectId":126222,"sourceURL":"https://maps8.stlouis-mo.gov/arcgis/rest/services/STREETS/Streets_Permitting/MapServer/2","title":"Street light L018950"},"type":"Feature"},{"geometry":{"coordinates":[-90.23064626953172,38.69914858154765],"type":"Point"},"id":"stl-city-public-streetlights:2:126223","properties":{"address":null,"attributes":{"Date_Installed":null,"LED_Powered":0,"LightID":"L018951","Light_Source":"LED","Light_Type":"Cobra","Lighting_Type":"LED-Powered Lamp","Verification_Date":null},"id":"stl-city-public-streetlights:2:126223","sourceLayerId":2,"sourceObjectId":126223,"sourceURL":"https://maps8.stlouis-mo.gov/arcgis/rest/services/STREETS/Streets_Permitting/MapServer/2","title":"Street light L018951"},"type":"Feature"},{"geometry":{"coordinates":[-90.23110197683904,38.69888743644591],"type":"Point"},"id":"stl-city-public-streetlights:2:126224","properties":{"address":null,"attributes":{"Date_Installed":null,"LED_Powered":0,"LightID":"L018952","Light_Source":"LED","Light_Type":"Cobra","Lighting_Type":"LED-Powered Lamp","Verification_Date":null},"id":"stl-city-public-streetlights:2:126224","sourceLayerId":2,"sourceObjectId":126224,"sourceURL":"https://maps8.stlouis-mo.gov/arcgis/rest/services/STREETS/Streets_Permitting/MapServer/2","title":"Street light L018952"},"type":"Feature"},{"geometry":{"coordinates":[-90.23141328298767,38.69852346397144],"type":"Point"},"id":"stl-city-public-streetlights:2:126225","properties":{"address":null,"attributes":{"Date_Installed":null,"LED_Powered":0,"LightID":"L018953","Light_Source":"LED","Light_Type":"Cobra","Lighting_Type":"LED-Powered Lamp","Verification_Date":null},"id":"stl-city-public-streetlights:2:126225","sourceLayerId":2,"sourceObjectId":126225,"sourceURL":"https://maps8.stlouis-mo.gov/arcgis/rest/services/STREETS/Streets_Permitting/MapServer/2","title":"Street light L018953"},"type":"Feature"},{"geometry":{"coordinates":[-90.23170053967294,38.69816420202259],"type":"Point"},"id":"stl-city-public-streetlights:2:126226","properties":{"address":null,"attributes":{"Date_Installed":null,"LED_Powered":0,"LightID":"L018954","Light_Source":"LED","Light_Type":"Cobra","Lighting_Type":"LED-Powered Lamp","Verification_Date":null},"id":"stl-city-public-streetlights:2:126226","sourceLayerId":2,"sourceObjectId":126226,"sourceURL":"https://maps8.stlouis-mo.gov/arcgis/rest/services/STREETS/Streets_Permitting/MapServer/2","title":"Street light L018954"},"type":"Feature"},{"geometry":{"coordinates":[-90.2320914055929,38.69783354186445],"type":"Point"},"id":"stl-city-public-streetlights:2:126227","properties":{"address":null,"attributes":{"Date_Installed":null,"LED_Powered":0,"LightID":"L018955","Light_Source":"LED","Light_Type":"Cobra","Lighting_Type":"LED-Powered Lamp","Verification_Date":null},"id":"stl-city-public-streetlights:2:126227","sourceLayerId":2,"sourceObjectId":126227,"sourceURL":"https://maps8.stlouis-mo.gov/arcgis/rest/services/STREETS/Streets_Permitting/MapServer/2","title":"Street light L018955"},"type":"Feature"},{"geometry":{"coordinates":[-90.23256237262508,38.6975751664311],"type":"Point"},"id":"stl-city-public-streetlights:2:126228","properties":{"address":null,"attributes":{"Date_Installed":null,"LED_Powered":0,"LightID":"L018956","Light_Source":"LED","Light_Type":"Cobra","Lighting_Type":"LED-Powered Lamp","Verification_Date":null},"id":"stl-city-public-streetlights:2:126228","sourceLayerId":2,"sourceObjectId":126228,"sourceURL":"https://maps8.stlouis-mo.gov/arcgis/rest/services/STREETS/Streets_Permitting/MapServer/2","title":"Street light L018956"},"type":"Feature"},{"geometry":{"coordinates":[-90.23305613572202,38.69729979917475],"type":"Point"},"id":"stl-city-public-streetlights:2:126229","properties":{"address":null,"attributes":{"Date_Installed":null,"LED_Powered":0,"LightID":"L018957","Light_Source":"LED","Light_Type":"Cobra","Lighting_Type":"LED-Powered Lamp","Verification_Date":null},"id":"stl-city-public-streetlights:2:126229","sourceLayerId":2,"sourceObjectId":126229,"sourceURL":"https://maps8.stlouis-mo.gov/arcgis/rest/services/STREETS/Streets_Permitting/MapServer/2","title":"Street light L018957"},"type":"Feature"},{"geometry":{"coordinates":[-90.23347973507407,38.69707909209006],"type":"Point"},"id":"stl-city-public-streetlights:2:126230","properties":{"address":null,"attributes":{"Date_Installed":null,"LED_Powered":0,"LightID":"L018958","Light_Source":"LED","Light_Type":"Cobra","Lighting_Type":"LED-Powered Lamp","Verification_Date":null},"id":"stl-city-public-streetlights:2:126230","sourceLayerId":2,"sourceObjectId":126230,"sourceURL":"https://maps8.stlouis-mo.gov/arcgis/rest/services/STREETS/Streets_Permitting/MapServer/2","title":"Street light L018958"},"type":"Feature"},{"geometry":{"coordinates":[-90.23394996536648,38.696832270338994],"type":"Point"},"id":"stl-city-public-streetlights:2:126231","properties":{"address":null,"attributes":{"Date_Installed":null,"LED_Powered":0,"LightID":"L018959","Light_Source":"LED","Light_Type":"Cobra","Lighting_Type":"LED-Powered Lamp","Verification_Date":null},"id":"stl-city-public-streetlights:2:126231","sourceLayerId":2,"sourceObjectId":126231,"sourceURL":"https://maps8.stlouis-mo.gov/arcgis/rest/services/STREETS/Streets_Permitting/MapServer/2","title":"Street light L018959"},"type":"Feature"},{"geometry":{"coordinates":[-90.23440103933645,38.69658301944679],"type":"Point"},"id":"stl-city-public-streetlights:2:126232","properties":{"address":null,"attributes":{"Date_Installed":null,"LED_Powered":0,"LightID":"L018960","Light_Source":"LED","Light_Type":"Cobra","Lighting_Type":"LED-Powered Lamp","Verification_Date":null},"id":"stl-city-public-streetlights:2:126232","sourceLayerId":2,"sourceObjectId":126232,"sourceURL":"https://maps8.stlouis-mo.gov/arcgis/rest/services/STREETS/Streets_Permitting/MapServer/2","title":"Street light L018960"},"type":"Feature"},{"geometry":{"coordinates":[-90.23486124146602,38.69633211906602],"type":"Point"},"id":"stl-city-public-streetlights:2:126233","properties":{"address":null,"attributes":{"Date_Installed":null,"LED_Powered":0,"LightID":"L018961","Light_Source":"LED","Light_Type":"Cobra","Lighting_Type":"LED-Powered Lamp","Verification_Date":null},"id":"stl-city-public-streetlights:2:126233","sourceLayerId":2,"sourceObjectId":126233,"sourceURL":"https://maps8.stlouis-mo.gov/arcgis/rest/services/STREETS/Streets_Permitting/MapServer/2","title":"Street light L018961"},"type":"Feature"},{"geometry":{"coordinates":[-90.23531870041121,38.696081687216235],"type":"Point"},"id":"stl-city-public-streetlights:2:126234","properties":{"address":null,"attributes":{"Date_Installed":null,"LED_Powered":0,"LightID":"L018962","Light_Source":"LED","Light_Type":"Cobra","Lighting_Type":"LED-Powered Lamp","Verification_Date":null},"id":"stl-city-public-streetlights:2:126234","sourceLayerId":2,"sourceObjectId":126234,"sourceURL":"https://maps8.stlouis-mo.gov/arcgis/rest/services/STREETS/Streets_Permitting/MapServer/2","title":"Street light L018962"},"type":"Feature"},{"geometry":{"coordinates":[-90.23577768518102,38.695829349845745],"type":"Point"},"id":"stl-city-public-streetlights:2:126235","properties":{"address":null,"attributes":{"Date_Installed":null,"LED_Powered":0,"LightID":"L018963","Light_Source":"LED","Light_Type":"Cobra","Lighting_Type":"LED-Powered Lamp","Verification_Date":null},"id":"stl-city-public-streetlights:2:126235","sourceLayerId":2,"sourceObjectId":126235,"sourceURL":"https://maps8.stlouis-mo.gov/arcgis/rest/services/STREETS/Streets_Permitting/MapServer/2","title":"Street light L018963"},"type":"Feature"},{"geometry":{"coordinates":[-90.23623634519559,38.69558130081992],"type":"Point"},"id":"stl-city-public-streetlights:2:126236","properties":{"address":null,"attributes":{"Date_Installed":null,"LED_Powered":0,"LightID":"L018964","Light_Source":"LED","Light_Type":"Cobra","Lighting_Type":"LED-Powered Lamp","Verification_Date":null},"id":"stl-city-public-streetlights:2:126236","sourceLayerId":2,"sourceObjectId":126236,"sourceURL":"https://maps8.stlouis-mo.gov/arcgis/rest/services/STREETS/Streets_Permitting/MapServer/2","title":"Street light L018964"},"type":"Feature"},{"geometry":{"coordinates":[-90.23670034519954,38.69532789906217],"type":"Point"},"id":"stl-city-public-streetlights:2:126237","properties":{"address":null,"attributes":{"Date_Installed":null,"LED_Powered":0,"LightID":"L018965","Light_Source":"LED","Light_Type":"Cobra","Lighting_Type":"LED-Powered Lamp","Verification_Date":null},"id":"stl-city-public-streetlights:2:126237","sourceLayerId":2,"sourceObjectId":126237,"sourceURL":"https://maps8.stlouis-mo.gov/arcgis/rest/services/STREETS/Streets_Permitting/MapServer/2","title":"Street light L018965"},"type":"Feature"},{"geometry":{"coordinates":[-90.23715032337107,38.695082329520645],"type":"Point"},"id":"stl-city-public-streetlights:2:126238","properties":{"address":null,"attributes":{"Date_Installed":null,"LED_Powered":0,"LightID":"L018966","Light_Source":"LED","Light_Type":"Cobra","Lighting_Type":"LED-Powered Lamp","Verification_Date":null},"id":"stl-city-public-streetlights:2:126238","sourceLayerId":2,"sourceObjectId":126238,"sourceURL":"https://maps8.stlouis-mo.gov/arcgis/rest/services/STREETS/Streets_Permitting/MapServer/2","title":"Street light L018966"},"type":"Feature"},{"geometry":{"coordinates":[-90.23761353635933,38.69483428528291],"type":"Point"},"id":"stl-city-public-streetlights:2:126239","properties":{"address":null,"attributes":{"Date_Installed":null,"LED_Powered":0,"LightID":"L018967","Light_Source":"LED","Light_Type":"Cobra","Lighting_Type":"LED-Powered Lamp","Verification_Date":null},"id":"stl-city-public-streetlights:2:126239","sourceLayerId":2,"sourceObjectId":126239,"sourceURL":"https://maps8.stlouis-mo.gov/arcgis/rest/services/STREETS/Streets_Permitting/MapServer/2","title":"Street light L018967"},"type":"Feature"},{"geometry":{"coordinates":[-90.23807739017151,38.69457670571031],"type":"Point"},"id":"stl-city-public-streetlights:2:126240","properties":{"address":null,"attributes":{"Date_Installed":null,"LED_Powered":0,"LightID":"L018968","Light_Source":"LED","Light_Type":"Cobra","Lighting_Type":"LED-Powered Lamp","Verification_Date":null},"id":"stl-city-public-streetlights:2:126240","sourceLayerId":2,"sourceObjectId":126240,"sourceURL":"https://maps8.stlouis-mo.gov/arcgis/rest/services/STREETS/Streets_Permitting/MapServer/2","title":"Street light L018968"},"type":"Feature"},{"geometry":{"coordinates":[-90.23986232312244,38.69342636972469],"type":"Point"},"id":"stl-city-public-streetlights:2:129249","properties":{"address":null,"attributes":{"Date_Installed":null,"LED_Powered":0,"LightID":"L021965","Light_Source":"LED","Light_Type":"Cobra","Lighting_Type":"LED-Powered Lamp","Verification_Date":null},"id":"stl-city-public-streetlights:2:129249","sourceLayerId":2,"sourceObjectId":129249,"sourceURL":"https://maps8.stlouis-mo.gov/arcgis/rest/services/STREETS/Streets_Permitting/MapServer/2","title":"Street light L021965"},"type":"Feature"},{"geometry":{"coordinates":[-90.23953014529225,38.69360916679087],"type":"Point"},"id":"stl-city-public-streetlights:2:129250","properties":{"address":null,"attributes":{"Date_Installed":null,"LED_Powered":0,"LightID":"L021966","Light_Source":"LED","Light_Type":"Cobra","Lighting_Type":"LED-Powered Lamp","Verification_Date":null},"id":"stl-city-public-streetlights:2:129250","sourceLayerId":2,"sourceObjectId":129250,"sourceURL":"https://maps8.stlouis-mo.gov/arcgis/rest/services/STREETS/Streets_Permitting/MapServer/2","title":"Street light L021966"},"type":"Feature"},{"geometry":{"coordinates":[-90.23917447469132,38.69381145602055],"type":"Point"},"id":"stl-city-public-streetlights:2:129251","properties":{"address":null,"attributes":{"Date_Installed":null,"LED_Powered":0,"LightID":"L021967","Light_Source":"LED","Light_Type":"Cobra","Lighting_Type":"LED-Powered Lamp","Verification_Date":null},"id":"stl-city-public-streetlights:2:129251","sourceLayerId":2,"sourceObjectId":129251,"sourceURL":"https://maps8.stlouis-mo.gov/arcgis/rest/services/STREETS/Streets_Permitting/MapServer/2","title":"Street light L021967"},"type":"Feature"},{"geometry":{"coordinates":[-90.23880268015562,38.69401466037778],"type":"Point"},"id":"stl-city-public-streetlights:2:129252","properties":{"address":null,"attributes":{"Date_Installed":null,"LED_Powered":0,"LightID":"L021968","Light_Source":"LED","Light_Type":"Cobra","Lighting_Type":"LED-Powered Lamp","Verification_Date":null},"id":"stl-city-public-streetlights:2:129252","sourceLayerId":2,"sourceObjectId":129252,"sourceURL":"https://maps8.stlouis-mo.gov/arcgis/rest/services/STREETS/Streets_Permitting/MapServer/2","title":"Street light L021968"},"type":"Feature"},{"geometry":{"coordinates":[-90.23978646490032,38.69471288389355],"type":"Point"},"id":"stl-city-public-streetlights:2:129265","properties":{"address":null,"attributes":{"Date_Installed":"6/15/2017","LED_Powered":1,"LightID":"L021981","Light_Source":"LED","Light_Type":"Cobra","Lighting_Type":"LED-Powered Lamp","Verification_Date":null},"id":"stl-city-public-streetlights:2:129265","sourceLayerId":2,"sourceObjectId":129265,"sourceURL":"https://maps8.stlouis-mo.gov/arcgis/rest/services/STREETS/Streets_Permitting/MapServer/2","title":"Street light L021981"},"type":"Feature"},{"geometry":{"coordinates":[-90.2383192597629,38.69328619678096],"type":"Point"},"id":"stl-city-public-streetlights:2:129266","properties":{"address":null,"attributes":{"Date_Installed":null,"LED_Powered":0,"LightID":"L021982","Light_Source":"LED","Light_Type":"Cobra","Lighting_Type":"LED-Powered Lamp","Verification_Date":null},"id":"stl-city-public-streetlights:2:129266","sourceLayerId":2,"sourceObjectId":129266,"sourceURL":"https://maps8.stlouis-mo.gov/arcgis/rest/services/STREETS/Streets_Permitting/MapServer/2","title":"Street light L021982"},"type":"Feature"},{"geometry":{"coordinates":[-90.2386819236915,38.69308392666188],"type":"Point"},"id":"stl-city-public-streetlights:2:129267","properties":{"address":null,"attributes":{"Date_Installed":null,"LED_Powered":0,"LightID":"L021983","Light_Source":"LED","Light_Type":"Cobra","Lighting_Type":"LED-Powered Lamp","Verification_Date":null},"id":"stl-city-public-streetlights:2:129267","sourceLayerId":2,"sourceObjectId":129267,"sourceURL":"https://maps8.stlouis-mo.gov/arcgis/rest/services/STREETS/Streets_Permitting/MapServer/2","title":"Street light L021983"},"type":"Feature"},{"geometry":{"coordinates":[-90.23896291203202,38.69292723697588],"type":"Point"},"id":"stl-city-public-streetlights:2:129268","properties":{"address":null,"attributes":{"Date_Installed":null,"LED_Powered":0,"LightID":"L021984","Light_Source":"LED","Light_Type":"Cobra","Lighting_Type":"LED-Powered Lamp","Verification_Date":null},"id":"stl-city-public-streetlights:2:129268","sourceLayerId":2,"sourceObjectId":129268,"sourceURL":"https://maps8.stlouis-mo.gov/arcgis/rest/services/STREETS/Streets_Permitting/MapServer/2","title":"Street light L021984"},"type":"Feature"},{"geometry":{"coordinates":[-90.23938952806942,38.6927012718692],"type":"Point"},"id":"stl-city-public-streetlights:2:129269","properties":{"address":null,"attributes":{"Date_Installed":null,"LED_Powered":0,"LightID":"L021985","Light_Source":"LED","Light_Type":"Cobra","Lighting_Type":"LED-Powered Lamp","Verification_Date":null},"id":"stl-city-public-streetlights:2:129269","sourceLayerId":2,"sourceObjectId":129269,"sourceURL":"https://maps8.stlouis-mo.gov/arcgis/rest/services/STREETS/Streets_Permitting/MapServer/2","title":"Street light L021985"},"type":"Feature"},{"geometry":{"coordinates":[-90.23974572727388,38.6925024154723],"type":"Point"},"id":"stl-city-public-streetlights:2:129270","properties":{"address":null,"attributes":{"Date_Installed":null,"LED_Powered":0,"LightID":"L021986","Light_Source":"LED","Light_Type":"Cobra","Lighting_Type":"LED-Powered Lamp","Verification_Date":null},"id":"stl-city-public-streetlights:2:129270","sourceLayerId":2,"sourceObjectId":129270,"sourceURL":"https://maps8.stlouis-mo.gov/arcgis/rest/services/STREETS/Streets_Permitting/MapServer/2","title":"Street light L021986"},"type":"Feature"},{"geometry":{"coordinates":[-90.23986703570469,38.69091864988659],"type":"Point"},"id":"stl-city-public-streetlights:2:129428","properties":{"address":null,"attributes":{"Date_Installed":null,"LED_Powered":0,"LightID":"L022144","Light_Source":"LED","Light_Type":"Cobra","Lighting_Type":"LED-Powered Lamp","Verification_Date":null},"id":"stl-city-public-streetlights:2:129428","sourceLayerId":2,"sourceObjectId":129428,"sourceURL":"https://maps8.stlouis-mo.gov/arcgis/rest/services/STREETS/Streets_Permitting/MapServer/2","title":"Street light L022144"},"type":"Feature"},{"geometry":{"coordinates":[-90.2395391454426,38.691096092761704],"type":"Point"},"id":"stl-city-public-streetlights:2:129429","properties":{"address":null,"attributes":{"Date_Installed":null,"LED_Powered":0,"LightID":"L022145","Light_Source":"LED","Light_Type":"Cobra","Lighting_Type":"LED-Powered Lamp","Verification_Date":null},"id":"stl-city-public-streetlights:2:129429","sourceLayerId":2,"sourceObjectId":129429,"sourceURL":"https://maps8.stlouis-mo.gov/arcgis/rest/services/STREETS/Streets_Permitting/MapServer/2","title":"Street light L022145"},"type":"Feature"},{"geometry":{"coordinates":[-90.23919930316436,38.691281565537864],"type":"Point"},"id":"stl-city-public-streetlights:2:129430","properties":{"address":null,"attributes":{"Date_Installed":null,"LED_Powered":0,"LightID":"L022146","Light_Source":"LED","Light_Type":"Cobra","Lighting_Type":"LED-Powered Lamp","Verification_Date":null},"id":"stl-city-public-streetlights:2:129430","sourceLayerId":2,"sourceObjectId":129430,"sourceURL":"https://maps8.stlouis-mo.gov/arcgis/rest/services/STREETS/Streets_Permitting/MapServer/2","title":"Street light L022146"},"type":"Feature"},{"geometry":{"coordinates":[-90.23883336184564,38.69148459306439],"type":"Point"},"id":"stl-city-public-streetlights:2:129431","properties":{"address":null,"attributes":{"Date_Installed":null,"LED_Powered":0,"LightID":"L022147","Light_Source":"LED","Light_Type":"Cobra","Lighting_Type":"LED-Powered Lamp","Verification_Date":null},"id":"stl-city-public-streetlights:2:129431","sourceLayerId":2,"sourceObjectId":129431,"sourceURL":"https://maps8.stlouis-mo.gov/arcgis/rest/services/STREETS/Streets_Permitting/MapServer/2","title":"Street light L022147"},"type":"Feature"},{"geometry":{"coordinates":[-90.23847474540372,38.691680008056615],"type":"Point"},"id":"stl-city-public-streetlights:2:129432","properties":{"address":null,"attributes":{"Date_Installed":null,"LED_Powered":0,"LightID":"L022148","Light_Source":"LED","Light_Type":"Cobra","Lighting_Type":"LED-Powered Lamp","Verification_Date":null},"id":"stl-city-public-streetlights:2:129432","sourceLayerId":2,"sourceObjectId":129432,"sourceURL":"https://maps8.stlouis-mo.gov/arcgis/rest/services/STREETS/Streets_Permitting/MapServer/2","title":"Street light L022148"},"type":"Feature"},{"geometry":{"coordinates":[-90.23813341458602,38.69187183820482],"type":"Point"},"id":"stl-city-public-streetlights:2:129433","properties":{"address":null,"attributes":{"Date_Installed":null,"LED_Powered":0,"LightID":"L022149","Light_Source":"LED","Light_Type":"Cobra","Lighting_Type":"LED-Powered Lamp","Verification_Date":null},"id":"stl-city-public-streetlights:2:129433","sourceLayerId":2,"sourceObjectId":129433,"sourceURL":"https://maps8.stlouis-mo.gov/arcgis/rest/services/STREETS/Streets_Permitting/MapServer/2","title":"Street light L022149"},"type":"Feature"},{"geometry":{"coordinates":[-90.23779453628272,38.692057952252455],"type":"Point"},"id":"stl-city-public-streetlights:2:129434","properties":{"address":null,"attributes":{"Date_Installed":null,"LED_Powered":0,"LightID":"L022150","Light_Source":"LED","Light_Type":"Cobra","Lighting_Type":"LED-Powered Lamp","Verification_Date":null},"id":"stl-city-public-streetlights:2:129434","sourceLayerId":2,"sourceObjectId":129434,"sourceURL":"https://maps8.stlouis-mo.gov/arcgis/rest/services/STREETS/Streets_Permitting/MapServer/2","title":"Street light L022150"},"type":"Feature"},{"geometry":{"coordinates":[-90.23738981563358,38.69228396163458],"type":"Point"},"id":"stl-city-public-streetlights:2:129435","properties":{"address":null,"attributes":{"Date_Installed":null,"LED_Powered":0,"LightID":"L022151","Light_Source":"LED","Light_Type":"Cobra","Lighting_Type":"LED-Powered Lamp","Verification_Date":null},"id":"stl-city-public-streetlights:2:129435","sourceLayerId":2,"sourceObjectId":129435,"sourceURL":"https://maps8.stlouis-mo.gov/arcgis/rest/services/STREETS/Streets_Permitting/MapServer/2","title":"Street light L022151"},"type":"Feature"},{"geometry":{"coordinates":[-90.23999946412198,38.69116796146503],"type":"Point"},"id":"stl-city-public-streetlights:2:129444","properties":{"address":null,"attributes":{"Date_Installed":null,"LED_Powered":0,"LightID":"L022160","Light_Source":"LED","Light_Type":"Cobra","Lighting_Type":"LED-Powered Lamp","Verification_Date":null},"id":"stl-city-public-streetlights:2:129444","sourceLayerId":2,"sourceObjectId":129444,"sourceURL":"https://maps8.stlouis-mo.gov/arcgis/rest/services/STREETS/Streets_Permitting/MapServer/2","title":"Street light L022160"},"type":"Feature"},{"geometry":{"coordinates":[-90.23975773673031,38.69089998549435],"type":"Point"},"id":"stl-city-public-streetlights:2:129445","properties":{"address":null,"attributes":{"Date_Installed":null,"LED_Powered":0,"LightID":"L022161","Light_Source":"LED","Light_Type":"Cobra","Lighting_Type":"LED-Powered Lamp","Verification_Date":null},"id":"stl-city-public-streetlights:2:129445","sourceLayerId":2,"sourceObjectId":129445,"sourceURL":"https://maps8.stlouis-mo.gov/arcgis/rest/services/STREETS/Streets_Permitting/MapServer/2","title":"Street light L022161"},"type":"Feature"},{"geometry":{"coordinates":[-90.2395192663814,38.690631706365416],"type":"Point"},"id":"stl-city-public-streetlights:2:129446","properties":{"address":null,"attributes":{"Date_Installed":null,"LED_Powered":0,"LightID":"L022162","Light_Source":"LED","Light_Type":"Cobra","Lighting_Type":"LED-Powered Lamp","Verification_Date":null},"id":"stl-city-public-streetlights:2:129446","sourceLayerId":2,"sourceObjectId":129446,"sourceURL":"https://maps8.stlouis-mo.gov/arcgis/rest/services/STREETS/Streets_Permitting/MapServer/2","title":"Street light L022162"},"type":"Feature"},{"geometry":{"coordinates":[-90.23928224286885,38.69036749384128],"type":"Point"},"id":"stl-city-public-streetlights:2:129447","properties":{"address":null,"attributes":{"Date_Installed":null,"LED_Powered":0,"LightID":"L022163","Light_Source":"LED","Light_Type":"Cobra","Lighting_Type":"LED-Powered Lamp","Verification_Date":null},"id":"stl-city-public-streetlights:2:129447","sourceLayerId":2,"sourceObjectId":129447,"sourceURL":"https://maps8.stlouis-mo.gov/arcgis/rest/services/STREETS/Streets_Permitting/MapServer/2","title":"Street light L022163"},"type":"Feature"},{"geometry":{"coordinates":[-90.23905565641951,38.69011927403936],"type":"Point"},"id":"stl-city-public-streetlights:2:129448","properties":{"address":null,"attributes":{"Date_Installed":null,"LED_Powered":1,"LightID":"L022164","Light_Source":"LED","Light_Type":"Cobra","Lighting_Type":"LED-Powered Lamp","Verification_Date":1659312000000},"id":"stl-city-public-streetlights:2:129448","sourceLayerId":2,"sourceObjectId":129448,"sourceURL":"https://maps8.stlouis-mo.gov/arcgis/rest/services/STREETS/Streets_Permitting/MapServer/2","title":"Street light L022164"},"type":"Feature"},{"geometry":{"coordinates":[-90.23823276063551,38.69025134832698],"type":"Point"},"id":"stl-city-public-streetlights:2:129475","properties":{"address":null,"attributes":{"Date_Installed":null,"LED_Powered":1,"LightID":"L022191","Light_Source":"LED","Light_Type":"Cobra","Lighting_Type":"LED-Powered Lamp","Verification_Date":1659312000000},"id":"stl-city-public-streetlights:2:129475","sourceLayerId":2,"sourceObjectId":129475,"sourceURL":"https://maps8.stlouis-mo.gov/arcgis/rest/services/STREETS/Streets_Permitting/MapServer/2","title":"Street light L022191"},"type":"Feature"},{"geometry":{"coordinates":[-90.2376760168069,38.69055245910425],"type":"Point"},"id":"stl-city-public-streetlights:2:129476","properties":{"address":null,"attributes":{"Date_Installed":null,"LED_Powered":1,"LightID":"L022192","Light_Source":"LED","Light_Type":"Cobra","Lighting_Type":"LED-Powered Lamp","Verification_Date":1659312000000},"id":"stl-city-public-streetlights:2:129476","sourceLayerId":2,"sourceObjectId":129476,"sourceURL":"https://maps8.stlouis-mo.gov/arcgis/rest/services/STREETS/Streets_Permitting/MapServer/2","title":"Street light L022192"},"type":"Feature"},{"geometry":{"coordinates":[-90.23714162583656,38.69085600028447],"type":"Point"},"id":"stl-city-public-streetlights:2:129477","properties":{"address":null,"attributes":{"Date_Installed":null,"LED_Powered":1,"LightID":"L022193","Light_Source":"LED","Light_Type":"Cobra","Lighting_Type":"LED-Powered Lamp","Verification_Date":1659312000000},"id":"stl-city-public-streetlights:2:129477","sourceLayerId":2,"sourceObjectId":129477,"sourceURL":"https://maps8.stlouis-mo.gov/arcgis/rest/services/STREETS/Streets_Permitting/MapServer/2","title":"Street light L022193"},"type":"Feature"},{"geometry":{"coordinates":[-90.23650700793131,38.691465890276646],"type":"Point"},"id":"stl-city-public-streetlights:2:129478","properties":{"address":null,"attributes":{"Date_Installed":null,"LED_Powered":0,"LightID":"L022194","Light_Source":"LED","Light_Type":"Cobra","Lighting_Type":"LED-Powered Lamp","Verification_Date":1669852800000},"id":"stl-city-public-streetlights:2:129478","sourceLayerId":2,"sourceObjectId":129478,"sourceURL":"https://maps8.stlouis-mo.gov/arcgis/rest/services/STREETS/Streets_Permitting/MapServer/2","title":"Street light L022194"},"type":"Feature"},{"geometry":{"coordinates":[-90.236625025383,38.691254850853184],"type":"Point"},"id":"stl-city-public-streetlights:2:129479","properties":{"address":null,"attributes":{"Date_Installed":null,"LED_Powered":1,"LightID":"L022195","Light_Source":"LED","Light_Type":"Cobra","Lighting_Type":"LED-Powered Lamp (Twin Lights)","Verification_Date":1659312000000},"id":"stl-city-public-streetlights:2:129479","sourceLayerId":2,"sourceObjectId":129479,"sourceURL":"https://maps8.stlouis-mo.gov/arcgis/rest/services/STREETS/Streets_Permitting/MapServer/2","title":"Street light L022195"},"type":"Feature"},{"geometry":{"coordinates":[-90.23683163495078,38.69114376436773],"type":"Point"},"id":"stl-city-public-streetlights:2:129480","properties":{"address":null,"attributes":{"Date_Installed":null,"LED_Powered":1,"LightID":"L022196","Light_Source":"LED","Light_Type":"Cobra","Lighting_Type":"LED-Powered Lamp (Twin Lights)","Verification_Date":1659312000000},"id":"stl-city-public-streetlights:2:129480","sourceLayerId":2,"sourceObjectId":129480,"sourceURL":"https://maps8.stlouis-mo.gov/arcgis/rest/services/STREETS/Streets_Permitting/MapServer/2","title":"Street light L022196"},"type":"Feature"},{"geometry":{"coordinates":[-90.23756125127838,38.69087696479839],"type":"Point"},"id":"stl-city-public-streetlights:2:129481","properties":{"address":null,"attributes":{"Date_Installed":null,"LED_Powered":1,"LightID":"L022197","Light_Source":"LED","Light_Type":"Cobra","Lighting_Type":"LED-Powered Lamp","Verification_Date":1659312000000},"id":"stl-city-public-streetlights:2:129481","sourceLayerId":2,"sourceObjectId":129481,"sourceURL":"https://maps8.stlouis-mo.gov/arcgis/rest/services/STREETS/Streets_Permitting/MapServer/2","title":"Street light L022197"},"type":"Feature"},{"geometry":{"coordinates":[-90.23810003041086,38.69057879447312],"type":"Point"},"id":"stl-city-public-streetlights:2:129482","properties":{"address":null,"attributes":{"Date_Installed":null,"LED_Powered":1,"LightID":"L022198","Light_Source":"LED","Light_Type":"Cobra","Lighting_Type":"LED-Powered Lamp","Verification_Date":1659312000000},"id":"stl-city-public-streetlights:2:129482","sourceLayerId":2,"sourceObjectId":129482,"sourceURL":"https://maps8.stlouis-mo.gov/arcgis/rest/services/STREETS/Streets_Permitting/MapServer/2","title":"Street light L022198"},"type":"Feature"},{"geometry":{"coordinates":[-90.23860970423402,38.69029986338227],"type":"Point"},"id":"stl-city-public-streetlights:2:129483","properties":{"address":null,"attributes":{"Date_Installed":null,"LED_Powered":1,"LightID":"L022199","Light_Source":"LED","Light_Type":"Cobra","Lighting_Type":"LED-Powered Lamp","Verification_Date":1659312000000},"id":"stl-city-public-streetlights:2:129483","sourceLayerId":2,"sourceObjectId":129483,"sourceURL":"https://maps8.stlouis-mo.gov/arcgis/rest/services/STREETS/Streets_Permitting/MapServer/2","title":"Street light L022199"},"type":"Feature"},{"geometry":{"coordinates":[-90.2390965363047,38.69002862487336],"type":"Point"},"id":"stl-city-public-streetlights:2:129484","properties":{"address":null,"attributes":{"Date_Installed":null,"LED_Powered":1,"LightID":"L022200","Light_Source":"LED","Light_Type":"Cobra","Lighting_Type":"LED-Powered Lamp","Verification_Date":1659312000000},"id":"stl-city-public-streetlights:2:129484","sourceLayerId":2,"sourceObjectId":129484,"sourceURL":"https://maps8.stlouis-mo.gov/arcgis/rest/services/STREETS/Streets_Permitting/MapServer/2","title":"Street light L022200"},"type":"Feature"},{"geometry":{"coordinates":[-90.23935872704779,38.694943138751114],"type":"Point"},"id":"stl-city-public-streetlights:2:152557","properties":{"address":null,"attributes":{"Date_Installed":"6/15/2017","LED_Powered":1,"LightID":"L045411","Light_Source":"LED","Light_Type":"Cobra","Lighting_Type":"LED-Powered Lamp","Verification_Date":null},"id":"stl-city-public-streetlights:2:152557","sourceLayerId":2,"sourceObjectId":152557,"sourceURL":"https://maps8.stlouis-mo.gov/arcgis/rest/services/STREETS/Streets_Permitting/MapServer/2","title":"Street light L045411"},"type":"Feature"},{"geometry":{"coordinates":[-90.23957881782925,38.695295259889996],"type":"Point"},"id":"stl-city-public-streetlights:2:152558","properties":{"address":null,"attributes":{"Date_Installed":"6/15/2017","LED_Powered":1,"LightID":"L045412","Light_Source":"LED","Light_Type":"Cobra","Lighting_Type":"LED-Powered Lamp","Verification_Date":null},"id":"stl-city-public-streetlights:2:152558","sourceLayerId":2,"sourceObjectId":152558,"sourceURL":"https://maps8.stlouis-mo.gov/arcgis/rest/services/STREETS/Streets_Permitting/MapServer/2","title":"Street light L045412"},"type":"Feature"},{"geometry":{"coordinates":[-90.2399378363163,38.695704119886834],"type":"Point"},"id":"stl-city-public-streetlights:2:152559","properties":{"address":null,"attributes":{"Date_Installed":"6/15/2017","LED_Powered":1,"LightID":"L045413","Light_Source":"LED","Light_Type":"Cobra","Lighting_Type":"LED-Powered Lamp","Verification_Date":null},"id":"stl-city-public-streetlights:2:152559","sourceLayerId":2,"sourceObjectId":152559,"sourceURL":"https://maps8.stlouis-mo.gov/arcgis/rest/services/STREETS/Streets_Permitting/MapServer/2","title":"Street light L045413"},"type":"Feature"},{"geometry":{"coordinates":[-90.23916186959747,38.69519993997823],"type":"Point"},"id":"stl-city-public-streetlights:2:152601","properties":{"address":null,"attributes":{"Date_Installed":"6/15/2017","LED_Powered":1,"LightID":"L045455","Light_Source":"LED","Light_Type":"Cobra","Lighting_Type":"LED-Powered Lamp","Verification_Date":null},"id":"stl-city-public-streetlights:2:152601","sourceLayerId":2,"sourceObjectId":152601,"sourceURL":"https://maps8.stlouis-mo.gov/arcgis/rest/services/STREETS/Streets_Permitting/MapServer/2","title":"Street light L045455"},"type":"Feature"},{"geometry":{"coordinates":[-90.23953299892541,38.695623131513315],"type":"Point"},"id":"stl-city-public-streetlights:2:152602","properties":{"address":null,"attributes":{"Date_Installed":"6/15/2017","LED_Powered":1,"LightID":"L045456","Light_Source":"LED","Light_Type":"Cobra","Lighting_Type":"LED-Powered Lamp","Verification_Date":null},"id":"stl-city-public-streetlights:2:152602","sourceLayerId":2,"sourceObjectId":152602,"sourceURL":"https://maps8.stlouis-mo.gov/arcgis/rest/services/STREETS/Streets_Permitting/MapServer/2","title":"Street light L045456"},"type":"Feature"},{"geometry":{"coordinates":[-90.23988510703819,38.696028670928634],"type":"Point"},"id":"stl-city-public-streetlights:2:152603","properties":{"address":null,"attributes":{"Date_Installed":"6/15/2017","LED_Powered":1,"LightID":"L045457","Light_Source":"LED","Light_Type":"Cobra","Lighting_Type":"LED-Powered Lamp","Verification_Date":null},"id":"stl-city-public-streetlights:2:152603","sourceLayerId":2,"sourceObjectId":152603,"sourceURL":"https://maps8.stlouis-mo.gov/arcgis/rest/services/STREETS/Streets_Permitting/MapServer/2","title":"Street light L045457"},"type":"Feature"},{"geometry":{"coordinates":[-90.23924758875295,38.69479492225341],"type":"Point"},"id":"stl-city-public-streetlights:2:152641","properties":{"address":null,"attributes":{"Date_Installed":"6/15/2017","LED_Powered":1,"LightID":"L045495","Light_Source":"LED","Light_Type":"Cobra","Lighting_Type":"LED-Powered Lamp","Verification_Date":null},"id":"stl-city-public-streetlights:2:152641","sourceLayerId":2,"sourceObjectId":152641,"sourceURL":"https://maps8.stlouis-mo.gov/arcgis/rest/services/STREETS/Streets_Permitting/MapServer/2","title":"Street light L045495"},"type":"Feature"},{"geometry":{"coordinates":[-90.2389149969646,38.694419957066536],"type":"Point"},"id":"stl-city-public-streetlights:2:152642","properties":{"address":null,"attributes":{"Date_Installed":"6/15/2017","LED_Powered":1,"LightID":"L045496","Light_Source":"LED","Light_Type":"Cobra","Lighting_Type":"LED-Powered Lamp","Verification_Date":null},"id":"stl-city-public-streetlights:2:152642","sourceLayerId":2,"sourceObjectId":152642,"sourceURL":"https://maps8.stlouis-mo.gov/arcgis/rest/services/STREETS/Streets_Permitting/MapServer/2","title":"Street light L045496"},"type":"Feature"},{"geometry":{"coordinates":[-90.23863199975521,38.69404069285746],"type":"Point"},"id":"stl-city-public-streetlights:2:152643","properties":{"address":null,"attributes":{"Date_Installed":"6/15/2017","LED_Powered":1,"LightID":"L045497","Light_Source":"LED","Light_Type":"Cobra","Lighting_Type":"LED-Powered Lamp","Verification_Date":null},"id":"stl-city-public-streetlights:2:152643","sourceLayerId":2,"sourceObjectId":152643,"sourceURL":"https://maps8.stlouis-mo.gov/arcgis/rest/services/STREETS/Streets_Permitting/MapServer/2","title":"Street light L045497"},"type":"Feature"},{"geometry":{"coordinates":[-90.23831201738348,38.69362928554136],"type":"Point"},"id":"stl-city-public-streetlights:2:152644","properties":{"address":null,"attributes":{"Date_Installed":"6/15/2017","LED_Powered":1,"LightID":"L045498","Light_Source":"LED","Light_Type":"Cobra","Lighting_Type":"LED-Powered Lamp","Verification_Date":null},"id":"stl-city-public-streetlights:2:152644","sourceLayerId":2,"sourceObjectId":152644,"sourceURL":"https://maps8.stlouis-mo.gov/arcgis/rest/services/STREETS/Streets_Permitting/MapServer/2","title":"Street light L045498"},"type":"Feature"},{"geometry":{"coordinates":[-90.2380039018232,38.693245235735986],"type":"Point"},"id":"stl-city-public-streetlights:2:152645","properties":{"address":null,"attributes":{"Date_Installed":"6/15/2017","LED_Powered":1,"LightID":"L045499","Light_Source":"LED","Light_Type":"Cobra","Lighting_Type":"LED-Powered Lamp","Verification_Date":null},"id":"stl-city-public-streetlights:2:152645","sourceLayerId":2,"sourceObjectId":152645,"sourceURL":"https://maps8.stlouis-mo.gov/arcgis/rest/services/STREETS/Streets_Permitting/MapServer/2","title":"Street light L045499"},"type":"Feature"},{"geometry":{"coordinates":[-90.23767434199708,38.69286625129777],"type":"Point"},"id":"stl-city-public-streetlights:2:152646","properties":{"address":null,"attributes":{"Date_Installed":"6/15/2017","LED_Powered":1,"LightID":"L045500","Light_Source":"LED","Light_Type":"Cobra","Lighting_Type":"LED-Powered Lamp","Verification_Date":null},"id":"stl-city-public-streetlights:2:152646","sourceLayerId":2,"sourceObjectId":152646,"sourceURL":"https://maps8.stlouis-mo.gov/arcgis/rest/services/STREETS/Streets_Permitting/MapServer/2","title":"Street light L045500"},"type":"Feature"},{"geometry":{"coordinates":[-90.2373231586661,38.69246503675286],"type":"Point"},"id":"stl-city-public-streetlights:2:152647","properties":{"address":null,"attributes":{"Date_Installed":"6/15/2017","LED_Powered":1,"LightID":"L045501","Light_Source":"LED","Light_Type":"Cobra","Lighting_Type":"LED-Powered Lamp","Verification_Date":null},"id":"stl-city-public-streetlights:2:152647","sourceLayerId":2,"sourceObjectId":152647,"sourceURL":"https://maps8.stlouis-mo.gov/arcgis/rest/services/STREETS/Streets_Permitting/MapServer/2","title":"Street light L045501"},"type":"Feature"},{"geometry":{"coordinates":[-90.23707875447381,38.692182175753366],"type":"Point"},"id":"stl-city-public-streetlights:2:152648","properties":{"address":null,"attributes":{"Date_Installed":"6/15/2017","LED_Powered":1,"LightID":"L045502","Light_Source":"LED","Light_Type":"Cobra","Lighting_Type":"LED-Powered Lamp","Verification_Date":null},"id":"stl-city-public-streetlights:2:152648","sourceLayerId":2,"sourceObjectId":152648,"sourceURL":"https://maps8.stlouis-mo.gov/arcgis/rest/services/STREETS/Streets_Permitting/MapServer/2","title":"Street light L045502"},"type":"Feature"},{"geometry":{"coordinates":[-90.23663296128781,38.69167843419277],"type":"Point"},"id":"stl-city-public-streetlights:2:152649","properties":{"address":null,"attributes":{"Date_Installed":"6/15/2017","LED_Powered":1,"LightID":"L045503","Light_Source":"LED","Light_Type":"Cobra","Lighting_Type":"LED-Powered Lamp","Verification_Date":null},"id":"stl-city-public-streetlights:2:152649","sourceLayerId":2,"sourceObjectId":152649,"sourceURL":"https://maps8.stlouis-mo.gov/arcgis/rest/services/STREETS/Streets_Permitting/MapServer/2","title":"Street light L045503"},"type":"Feature"},{"geometry":{"coordinates":[-90.23628528605208,38.69127759012236],"type":"Point"},"id":"stl-city-public-streetlights:2:152650","properties":{"address":null,"attributes":{"Date_Installed":"6/15/2017","LED_Powered":1,"LightID":"L045504","Light_Source":"LED","Light_Type":"Cobra","Lighting_Type":"LED-Powered Lamp","Verification_Date":1669852800000},"id":"stl-city-public-streetlights:2:152650","sourceLayerId":2,"sourceObjectId":152650,"sourceURL":"https://maps8.stlouis-mo.gov/arcgis/rest/services/STREETS/Streets_Permitting/MapServer/2","title":"Street light L045504"},"type":"Feature"},{"geometry":{"coordinates":[-90.23593876913858,38.69089352742413],"type":"Point"},"id":"stl-city-public-streetlights:2:152651","properties":{"address":null,"attributes":{"Date_Installed":"6/15/2017","LED_Powered":1,"LightID":"L045505","Light_Source":"LED","Light_Type":"Cobra","Lighting_Type":"LED-Powered Lamp","Verification_Date":null},"id":"stl-city-public-streetlights:2:152651","sourceLayerId":2,"sourceObjectId":152651,"sourceURL":"https://maps8.stlouis-mo.gov/arcgis/rest/services/STREETS/Streets_Permitting/MapServer/2","title":"Street light L045505"},"type":"Feature"},{"geometry":{"coordinates":[-90.23559156778389,38.690498115532016],"type":"Point"},"id":"stl-city-public-streetlights:2:152652","properties":{"address":null,"attributes":{"Date_Installed":"6/15/2017","LED_Powered":1,"LightID":"L045506","Light_Source":"LED","Light_Type":"Cobra","Lighting_Type":"LED-Powered Lamp","Verification_Date":null},"id":"stl-city-public-streetlights:2:152652","sourceLayerId":2,"sourceObjectId":152652,"sourceURL":"https://maps8.stlouis-mo.gov/arcgis/rest/services/STREETS/Streets_Permitting/MapServer/2","title":"Street light L045506"},"type":"Feature"},{"geometry":{"coordinates":[-90.23524219318614,38.69009926711125],"type":"Point"},"id":"stl-city-public-streetlights:2:152653","properties":{"address":null,"attributes":{"Date_Installed":"6/15/2017","LED_Powered":1,"LightID":"L045507","Light_Source":"LED","Light_Type":"Cobra","Lighting_Type":"LED-Powered Lamp","Verification_Date":null},"id":"stl-city-public-streetlights:2:152653","sourceLayerId":2,"sourceObjectId":152653,"sourceURL":"https://maps8.stlouis-mo.gov/arcgis/rest/services/STREETS/Streets_Permitting/MapServer/2","title":"Street light L045507"},"type":"Feature"},{"geometry":{"coordinates":[-90.23484951979574,38.690028776289175],"type":"Point"},"id":"stl-city-public-streetlights:2:152685","properties":{"address":null,"attributes":{"Date_Installed":"6/15/2017","LED_Powered":1,"LightID":"L045539","Light_Source":"LED","Light_Type":"Cobra","Lighting_Type":"LED-Powered Lamp","Verification_Date":null},"id":"stl-city-public-streetlights:2:152685","sourceLayerId":2,"sourceObjectId":152685,"sourceURL":"https://maps8.stlouis-mo.gov/arcgis/rest/services/STREETS/Streets_Permitting/MapServer/2","title":"Street light L045539"},"type":"Feature"},{"geometry":{"coordinates":[-90.23518675590361,38.69041949497229],"type":"Point"},"id":"stl-city-public-streetlights:2:152686","properties":{"address":null,"attributes":{"Date_Installed":"6/15/2017","LED_Powered":1,"LightID":"L045540","Light_Source":"LED","Light_Type":"Cobra","Lighting_Type":"LED-Powered Lamp","Verification_Date":null},"id":"stl-city-public-streetlights:2:152686","sourceLayerId":2,"sourceObjectId":152686,"sourceURL":"https://maps8.stlouis-mo.gov/arcgis/rest/services/STREETS/Streets_Permitting/MapServer/2","title":"Street light L045540"},"type":"Feature"},{"geometry":{"coordinates":[-90.23555381985678,38.690838311932595],"type":"Point"},"id":"stl-city-public-streetlights:2:152687","properties":{"address":null,"attributes":{"Date_Installed":"6/15/2017","LED_Powered":1,"LightID":"L045541","Light_Source":"LED","Light_Type":"Cobra","Lighting_Type":"LED-Powered Lamp","Verification_Date":null},"id":"stl-city-public-streetlights:2:152687","sourceLayerId":2,"sourceObjectId":152687,"sourceURL":"https://maps8.stlouis-mo.gov/arcgis/rest/services/STREETS/Streets_Permitting/MapServer/2","title":"Street light L045541"},"type":"Feature"},{"geometry":{"coordinates":[-90.23588163897308,38.69121184548732],"type":"Point"},"id":"stl-city-public-streetlights:2:152688","properties":{"address":null,"attributes":{"Date_Installed":"6/15/2017","LED_Powered":1,"LightID":"L045542","Light_Source":"LED","Light_Type":"Cobra","Lighting_Type":"LED-Powered Lamp","Verification_Date":null},"id":"stl-city-public-streetlights:2:152688","sourceLayerId":2,"sourceObjectId":152688,"sourceURL":"https://maps8.stlouis-mo.gov/arcgis/rest/services/STREETS/Streets_Permitting/MapServer/2","title":"Street light L045542"},"type":"Feature"},{"geometry":{"coordinates":[-90.23622207549177,38.69159551264739],"type":"Point"},"id":"stl-city-public-streetlights:2:152689","properties":{"address":null,"attributes":{"Date_Installed":"6/15/2017","LED_Powered":1,"LightID":"L045543","Light_Source":"LED","Light_Type":"Cobra","Lighting_Type":"LED-Powered Lamp","Verification_Date":1669852800000},"id":"stl-city-public-streetlights:2:152689","sourceLayerId":2,"sourceObjectId":152689,"sourceURL":"https://maps8.stlouis-mo.gov/arcgis/rest/services/STREETS/Streets_Permitting/MapServer/2","title":"Street light L045543"},"type":"Feature"},{"geometry":{"coordinates":[-90.23657804635191,38.69200144573012],"type":"Point"},"id":"stl-city-public-streetlights:2:152690","properties":{"address":null,"attributes":{"Date_Installed":"6/15/2017","LED_Powered":1,"LightID":"L045544","Light_Source":"LED","Light_Type":"Cobra","Lighting_Type":"LED-Powered Lamp","Verification_Date":null},"id":"stl-city-public-streetlights:2:152690","sourceLayerId":2,"sourceObjectId":152690,"sourceURL":"https://maps8.stlouis-mo.gov/arcgis/rest/services/STREETS/Streets_Permitting/MapServer/2","title":"Street light L045544"},"type":"Feature"},{"geometry":{"coordinates":[-90.23691285504083,38.6923877440474],"type":"Point"},"id":"stl-city-public-streetlights:2:152691","properties":{"address":null,"attributes":{"Date_Installed":"6/15/2017","LED_Powered":1,"LightID":"L045545","Light_Source":"LED","Light_Type":"Cobra","Lighting_Type":"LED-Powered Lamp","Verification_Date":null},"id":"stl-city-public-streetlights:2:152691","sourceLayerId":2,"sourceObjectId":152691,"sourceURL":"https://maps8.stlouis-mo.gov/arcgis/rest/services/STREETS/Streets_Permitting/MapServer/2","title":"Street light L045545"},"type":"Feature"},{"geometry":{"coordinates":[-90.23725570819697,38.69277904133065],"type":"Point"},"id":"stl-city-public-streetlights:2:152692","properties":{"address":null,"attributes":{"Date_Installed":"6/15/2017","LED_Powered":1,"LightID":"L045546","Light_Source":"LED","Light_Type":"Cobra","Lighting_Type":"LED-Powered Lamp","Verification_Date":null},"id":"stl-city-public-streetlights:2:152692","sourceLayerId":2,"sourceObjectId":152692,"sourceURL":"https://maps8.stlouis-mo.gov/arcgis/rest/services/STREETS/Streets_Permitting/MapServer/2","title":"Street light L045546"},"type":"Feature"},{"geometry":{"coordinates":[-90.237604228307,38.69317044849871],"type":"Point"},"id":"stl-city-public-streetlights:2:152693","properties":{"address":null,"attributes":{"Date_Installed":"6/15/2017","LED_Powered":1,"LightID":"L045547","Light_Source":"LED","Light_Type":"Cobra","Lighting_Type":"LED-Powered Lamp","Verification_Date":null},"id":"stl-city-public-streetlights:2:152693","sourceLayerId":2,"sourceObjectId":152693,"sourceURL":"https://maps8.stlouis-mo.gov/arcgis/rest/services/STREETS/Streets_Permitting/MapServer/2","title":"Street light L045547"},"type":"Feature"},{"geometry":{"coordinates":[-90.23793513915201,38.693558125139006],"type":"Point"},"id":"stl-city-public-streetlights:2:152694","properties":{"address":null,"attributes":{"Date_Installed":"6/15/2017","LED_Powered":1,"LightID":"L045548","Light_Source":"LED","Light_Type":"Cobra","Lighting_Type":"LED-Powered Lamp","Verification_Date":null},"id":"stl-city-public-streetlights:2:152694","sourceLayerId":2,"sourceObjectId":152694,"sourceURL":"https://maps8.stlouis-mo.gov/arcgis/rest/services/STREETS/Streets_Permitting/MapServer/2","title":"Street light L045548"},"type":"Feature"},{"geometry":{"coordinates":[-90.2382313448777,38.69394171152056],"type":"Point"},"id":"stl-city-public-streetlights:2:152695","properties":{"address":null,"attributes":{"Date_Installed":"6/15/2017","LED_Powered":1,"LightID":"L045549","Light_Source":"LED","Light_Type":"Cobra","Lighting_Type":"LED-Powered Lamp","Verification_Date":null},"id":"stl-city-public-streetlights:2:152695","sourceLayerId":2,"sourceObjectId":152695,"sourceURL":"https://maps8.stlouis-mo.gov/arcgis/rest/services/STREETS/Streets_Permitting/MapServer/2","title":"Street light L045549"},"type":"Feature"},{"geometry":{"coordinates":[-90.2381984072611,38.69433540013758],"type":"Point"},"id":"stl-city-public-streetlights:2:152696","properties":{"address":null,"attributes":{"Date_Installed":null,"LED_Powered":0,"LightID":"L045550","Light_Source":"LED","Light_Type":"Cobra","Lighting_Type":"LED-Powered Lamp","Verification_Date":null},"id":"stl-city-public-streetlights:2:152696","sourceLayerId":2,"sourceObjectId":152696,"sourceURL":"https://maps8.stlouis-mo.gov/arcgis/rest/services/STREETS/Streets_Permitting/MapServer/2","title":"Street light L045550"},"type":"Feature"},{"geometry":{"coordinates":[-90.23877925191167,38.69478076743366],"type":"Point"},"id":"stl-city-public-streetlights:2:152697","properties":{"address":null,"attributes":{"Date_Installed":"6/15/2017","LED_Powered":1,"LightID":"L045551","Light_Source":"LED","Light_Type":"Cobra","Lighting_Type":"LED-Powered Lamp","Verification_Date":null},"id":"stl-city-public-streetlights:2:152697","sourceLayerId":2,"sourceObjectId":152697,"sourceURL":"https://maps8.stlouis-mo.gov/arcgis/rest/services/STREETS/Streets_Permitting/MapServer/2","title":"Street light L045551"},"type":"Feature"},{"geometry":{"coordinates":[-90.23719050712651,38.690686339978285],"type":"Point"},"id":"stl-city-public-streetlights:2:152698","properties":{"address":null,"attributes":{"Date_Installed":null,"LED_Powered":0,"LightID":"L045552","Light_Source":"LED","Light_Type":"Cobra","Lighting_Type":"LED-Powered Lamp","Verification_Date":null},"id":"stl-city-public-streetlights:2:152698","sourceLayerId":2,"sourceObjectId":152698,"sourceURL":"https://maps8.stlouis-mo.gov/arcgis/rest/services/STREETS/Streets_Permitting/MapServer/2","title":"Street light L045552"},"type":"Feature"},{"geometry":{"coordinates":[-90.2369337875124,38.690396490712885],"type":"Point"},"id":"stl-city-public-streetlights:2:152699","properties":{"address":null,"attributes":{"Date_Installed":null,"LED_Powered":0,"LightID":"L045553","Light_Source":"LED","Light_Type":"Cobra","Lighting_Type":"LED-Powered Lamp","Verification_Date":null},"id":"stl-city-public-streetlights:2:152699","sourceLayerId":2,"sourceObjectId":152699,"sourceURL":"https://maps8.stlouis-mo.gov/arcgis/rest/services/STREETS/Streets_Permitting/MapServer/2","title":"Street light L045553"},"type":"Feature"},{"geometry":{"coordinates":[-90.23667454367039,38.69009905607398],"type":"Point"},"id":"stl-city-public-streetlights:2:152700","properties":{"address":null,"attributes":{"Date_Installed":null,"LED_Powered":0,"LightID":"L045554","Light_Source":"LED","Light_Type":"Cobra","Lighting_Type":"LED-Powered Lamp","Verification_Date":null},"id":"stl-city-public-streetlights:2:152700","sourceLayerId":2,"sourceObjectId":152700,"sourceURL":"https://maps8.stlouis-mo.gov/arcgis/rest/services/STREETS/Streets_Permitting/MapServer/2","title":"Street light L045554"},"type":"Feature"},{"geometry":{"coordinates":[-90.23801051039851,38.69020959118189],"type":"Point"},"id":"stl-city-public-streetlights:2:152724","properties":{"address":null,"attributes":{"Date_Installed":null,"LED_Powered":0,"LightID":"L045578","Light_Source":"LED","Light_Type":"Cobra","Lighting_Type":"LED-Powered Lamp","Verification_Date":null},"id":"stl-city-public-streetlights:2:152724","sourceLayerId":2,"sourceObjectId":152724,"sourceURL":"https://maps8.stlouis-mo.gov/arcgis/rest/services/STREETS/Streets_Permitting/MapServer/2","title":"Street light L045578"},"type":"Feature"}],"layerId":"city-streetlights","retrievedAt":"2026-09-13T21:56:18.173251+00:00","schema":"property-infrastructure-geojson-v1","sourceId":"stl-city-public-streetlights","tileId":"-9024_3869","type":"FeatureCollection"}