{"features":[{"geometry":{"coordinates":[-90.19975256936469,38.608986013467906],"type":"Point"},"id":"stl-city-public-streetlights:2:121314","properties":{"address":null,"attributes":{"Date_Installed":null,"LED_Powered":0,"LightID":"L014034","Light_Source":"LED","Light_Type":"Cobra","Lighting_Type":"LED-Powered Lamp","Verification_Date":null},"id":"stl-city-public-streetlights:2:121314","sourceLayerId":2,"sourceObjectId":121314,"sourceURL":"https://maps8.stlouis-mo.gov/arcgis/rest/services/STREETS/Streets_Permitting/MapServer/2","title":"Street light L014034"},"type":"Feature"},{"geometry":{"coordinates":[-90.19960268906918,38.60053567535829],"type":"Point"},"id":"stl-city-public-streetlights:2:121884","properties":{"address":null,"attributes":{"Date_Installed":null,"LED_Powered":0,"LightID":"L014604","Light_Source":"LED","Light_Type":"Cobra","Lighting_Type":"LED-Powered Lamp","Verification_Date":null},"id":"stl-city-public-streetlights:2:121884","sourceLayerId":2,"sourceObjectId":121884,"sourceURL":"https://maps8.stlouis-mo.gov/arcgis/rest/services/STREETS/Streets_Permitting/MapServer/2","title":"Street light L014604"},"type":"Feature"},{"geometry":{"coordinates":[-90.19919844907417,38.60042141441104],"type":"Point"},"id":"stl-city-public-streetlights:2:121885","properties":{"address":null,"attributes":{"Date_Installed":null,"LED_Powered":0,"LightID":"L014605","Light_Source":"LED","Light_Type":"Cobra","Lighting_Type":"LED-Powered Lamp","Verification_Date":null},"id":"stl-city-public-streetlights:2:121885","sourceLayerId":2,"sourceObjectId":121885,"sourceURL":"https://maps8.stlouis-mo.gov/arcgis/rest/services/STREETS/Streets_Permitting/MapServer/2","title":"Street light L014605"},"type":"Feature"},{"geometry":{"coordinates":[-90.19863101667299,38.6002636844907],"type":"Point"},"id":"stl-city-public-streetlights:2:121886","properties":{"address":null,"attributes":{"Date_Installed":null,"LED_Powered":0,"LightID":"L014606","Light_Source":"LED","Light_Type":"Cobra","Lighting_Type":"LED-Powered Lamp","Verification_Date":null},"id":"stl-city-public-streetlights:2:121886","sourceLayerId":2,"sourceObjectId":121886,"sourceURL":"https://maps8.stlouis-mo.gov/arcgis/rest/services/STREETS/Streets_Permitting/MapServer/2","title":"Street light L014606"},"type":"Feature"},{"geometry":{"coordinates":[-90.19985525879531,38.604856830654306],"type":"Point"},"id":"stl-city-public-streetlights:2:143241","properties":{"address":null,"attributes":{"Date_Installed":null,"LED_Powered":0,"LightID":"L036099","Light_Source":"LED","Light_Type":"Cobra","Lighting_Type":"LED-Powered Lamp","Verification_Date":null},"id":"stl-city-public-streetlights:2:143241","sourceLayerId":2,"sourceObjectId":143241,"sourceURL":"https://maps8.stlouis-mo.gov/arcgis/rest/services/STREETS/Streets_Permitting/MapServer/2","title":"Street light L036099"},"type":"Feature"},{"geometry":{"coordinates":[-90.1997127062551,38.605168718339236],"type":"Point"},"id":"stl-city-public-streetlights:2:143242","properties":{"address":null,"attributes":{"Date_Installed":null,"LED_Powered":0,"LightID":"L036100","Light_Source":"LED","Light_Type":"Cobra","Lighting_Type":"LED-Powered Lamp","Verification_Date":null},"id":"stl-city-public-streetlights:2:143242","sourceLayerId":2,"sourceObjectId":143242,"sourceURL":"https://maps8.stlouis-mo.gov/arcgis/rest/services/STREETS/Streets_Permitting/MapServer/2","title":"Street light L036100"},"type":"Feature"},{"geometry":{"coordinates":[-90.1995160857772,38.6055888039861],"type":"Point"},"id":"stl-city-public-streetlights:2:143243","properties":{"address":null,"attributes":{"Date_Installed":null,"LED_Powered":0,"LightID":"L036101","Light_Source":"LED","Light_Type":"Cobra","Lighting_Type":"LED-Powered Lamp","Verification_Date":null},"id":"stl-city-public-streetlights:2:143243","sourceLayerId":2,"sourceObjectId":143243,"sourceURL":"https://maps8.stlouis-mo.gov/arcgis/rest/services/STREETS/Streets_Permitting/MapServer/2","title":"Street light L036101"},"type":"Feature"},{"geometry":{"coordinates":[-90.19732867659478,38.60804017725723],"type":"Point"},"id":"stl-city-public-streetlights:2:145876","properties":{"address":null,"attributes":{"Date_Installed":null,"LED_Powered":0,"LightID":"L038733","Light_Source":"LED","Light_Type":"Cobra","Lighting_Type":"LED-Powered Lamp","Verification_Date":null},"id":"stl-city-public-streetlights:2:145876","sourceLayerId":2,"sourceObjectId":145876,"sourceURL":"https://maps8.stlouis-mo.gov/arcgis/rest/services/STREETS/Streets_Permitting/MapServer/2","title":"Street light L038733"},"type":"Feature"},{"geometry":{"coordinates":[-90.19696453436666,38.608399701158326],"type":"Point"},"id":"stl-city-public-streetlights:2:145877","properties":{"address":null,"attributes":{"Date_Installed":null,"LED_Powered":0,"LightID":"L038734","Light_Source":"LED","Light_Type":"Cobra","Lighting_Type":"LED-Powered Lamp","Verification_Date":null},"id":"stl-city-public-streetlights:2:145877","sourceLayerId":2,"sourceObjectId":145877,"sourceURL":"https://maps8.stlouis-mo.gov/arcgis/rest/services/STREETS/Streets_Permitting/MapServer/2","title":"Street light L038734"},"type":"Feature"},{"geometry":{"coordinates":[-90.19667344525534,38.60873265405094],"type":"Point"},"id":"stl-city-public-streetlights:2:145878","properties":{"address":null,"attributes":{"Date_Installed":null,"LED_Powered":0,"LightID":"L038735","Light_Source":"LED","Light_Type":"Cobra","Lighting_Type":"LED-Powered Lamp","Verification_Date":null},"id":"stl-city-public-streetlights:2:145878","sourceLayerId":2,"sourceObjectId":145878,"sourceURL":"https://maps8.stlouis-mo.gov/arcgis/rest/services/STREETS/Streets_Permitting/MapServer/2","title":"Street light L038735"},"type":"Feature"},{"geometry":{"coordinates":[-90.19628404399361,38.60915306743504],"type":"Point"},"id":"stl-city-public-streetlights:2:145879","properties":{"address":null,"attributes":{"Date_Installed":null,"LED_Powered":0,"LightID":"L038736","Light_Source":"LED","Light_Type":"Cobra","Lighting_Type":"LED-Powered Lamp","Verification_Date":null},"id":"stl-city-public-streetlights:2:145879","sourceLayerId":2,"sourceObjectId":145879,"sourceURL":"https://maps8.stlouis-mo.gov/arcgis/rest/services/STREETS/Streets_Permitting/MapServer/2","title":"Street light L038736"},"type":"Feature"},{"geometry":{"coordinates":[-90.19530822795639,38.60792241875127],"type":"Point"},"id":"stl-city-public-streetlights:2:145880","properties":{"address":null,"attributes":{"Date_Installed":null,"LED_Powered":0,"LightID":"L038737","Light_Source":"LED","Light_Type":"Cobra","Lighting_Type":"LED-Powered Lamp","Verification_Date":null},"id":"stl-city-public-streetlights:2:145880","sourceLayerId":2,"sourceObjectId":145880,"sourceURL":"https://maps8.stlouis-mo.gov/arcgis/rest/services/STREETS/Streets_Permitting/MapServer/2","title":"Street light L038737"},"type":"Feature"},{"geometry":{"coordinates":[-90.19506375493457,38.60840811114193],"type":"Point"},"id":"stl-city-public-streetlights:2:145881","properties":{"address":null,"attributes":{"Date_Installed":null,"LED_Powered":0,"LightID":"L038738","Light_Source":"LED","Light_Type":"Cobra","Lighting_Type":"LED-Powered Lamp","Verification_Date":null},"id":"stl-city-public-streetlights:2:145881","sourceLayerId":2,"sourceObjectId":145881,"sourceURL":"https://maps8.stlouis-mo.gov/arcgis/rest/services/STREETS/Streets_Permitting/MapServer/2","title":"Street light L038738"},"type":"Feature"},{"geometry":{"coordinates":[-90.19489661910218,38.60870801165272],"type":"Point"},"id":"stl-city-public-streetlights:2:145882","properties":{"address":null,"attributes":{"Date_Installed":null,"LED_Powered":0,"LightID":"L038739","Light_Source":"LED","Light_Type":"Cobra","Lighting_Type":"LED-Powered Lamp","Verification_Date":null},"id":"stl-city-public-streetlights:2:145882","sourceLayerId":2,"sourceObjectId":145882,"sourceURL":"https://maps8.stlouis-mo.gov/arcgis/rest/services/STREETS/Streets_Permitting/MapServer/2","title":"Street light L038739"},"type":"Feature"},{"geometry":{"coordinates":[-90.1997662610035,38.60706788364448],"type":"Point"},"id":"stl-city-public-streetlights:2:145883","properties":{"address":null,"attributes":{"Date_Installed":null,"LED_Powered":0,"LightID":"L038740","Light_Source":"LED","Light_Type":"Cobra","Lighting_Type":"LED-Powered Lamp","Verification_Date":null},"id":"stl-city-public-streetlights:2:145883","sourceLayerId":2,"sourceObjectId":145883,"sourceURL":"https://maps8.stlouis-mo.gov/arcgis/rest/services/STREETS/Streets_Permitting/MapServer/2","title":"Street light L038740"},"type":"Feature"},{"geometry":{"coordinates":[-90.19939242734976,38.60747690612524],"type":"Point"},"id":"stl-city-public-streetlights:2:145884","properties":{"address":null,"attributes":{"Date_Installed":null,"LED_Powered":0,"LightID":"L038741","Light_Source":"LED","Light_Type":"Cobra","Lighting_Type":"LED-Powered Lamp","Verification_Date":null},"id":"stl-city-public-streetlights:2:145884","sourceLayerId":2,"sourceObjectId":145884,"sourceURL":"https://maps8.stlouis-mo.gov/arcgis/rest/services/STREETS/Streets_Permitting/MapServer/2","title":"Street light L038741"},"type":"Feature"},{"geometry":{"coordinates":[-90.19902144625856,38.60788065097428],"type":"Point"},"id":"stl-city-public-streetlights:2:145885","properties":{"address":null,"attributes":{"Date_Installed":null,"LED_Powered":0,"LightID":"L038742","Light_Source":"LED","Light_Type":"Cobra","Lighting_Type":"LED-Powered Lamp","Verification_Date":null},"id":"stl-city-public-streetlights:2:145885","sourceLayerId":2,"sourceObjectId":145885,"sourceURL":"https://maps8.stlouis-mo.gov/arcgis/rest/services/STREETS/Streets_Permitting/MapServer/2","title":"Street light L038742"},"type":"Feature"},{"geometry":{"coordinates":[-90.1986577879082,38.60828069548376],"type":"Point"},"id":"stl-city-public-streetlights:2:145886","properties":{"address":null,"attributes":{"Date_Installed":null,"LED_Powered":0,"LightID":"L038743","Light_Source":"LED","Light_Type":"Cobra","Lighting_Type":"LED-Powered Lamp","Verification_Date":null},"id":"stl-city-public-streetlights:2:145886","sourceLayerId":2,"sourceObjectId":145886,"sourceURL":"https://maps8.stlouis-mo.gov/arcgis/rest/services/STREETS/Streets_Permitting/MapServer/2","title":"Street light L038743"},"type":"Feature"},{"geometry":{"coordinates":[-90.19827035380305,38.608694227862784],"type":"Point"},"id":"stl-city-public-streetlights:2:145887","properties":{"address":null,"attributes":{"Date_Installed":null,"LED_Powered":0,"LightID":"L038744","Light_Source":"LED","Light_Type":"Cobra","Lighting_Type":"LED-Powered Lamp","Verification_Date":null},"id":"stl-city-public-streetlights:2:145887","sourceLayerId":2,"sourceObjectId":145887,"sourceURL":"https://maps8.stlouis-mo.gov/arcgis/rest/services/STREETS/Streets_Permitting/MapServer/2","title":"Street light L038744"},"type":"Feature"},{"geometry":{"coordinates":[-90.19788849342963,38.6091019139042],"type":"Point"},"id":"stl-city-public-streetlights:2:145888","properties":{"address":null,"attributes":{"Date_Installed":null,"LED_Powered":0,"LightID":"L038745","Light_Source":"LED","Light_Type":"Cobra","Lighting_Type":"LED-Powered Lamp","Verification_Date":null},"id":"stl-city-public-streetlights:2:145888","sourceLayerId":2,"sourceObjectId":145888,"sourceURL":"https://maps8.stlouis-mo.gov/arcgis/rest/services/STREETS/Streets_Permitting/MapServer/2","title":"Street light L038745"},"type":"Feature"},{"geometry":{"coordinates":[-90.19752037442998,38.609514024236695],"type":"Point"},"id":"stl-city-public-streetlights:2:145889","properties":{"address":null,"attributes":{"Date_Installed":null,"LED_Powered":0,"LightID":"L038746","Light_Source":"LED","Light_Type":"Cobra","Lighting_Type":"LED-Powered Lamp","Verification_Date":null},"id":"stl-city-public-streetlights:2:145889","sourceLayerId":2,"sourceObjectId":145889,"sourceURL":"https://maps8.stlouis-mo.gov/arcgis/rest/services/STREETS/Streets_Permitting/MapServer/2","title":"Street light L038746"},"type":"Feature"},{"geometry":{"coordinates":[-90.1971385091875,38.609924369887025],"type":"Point"},"id":"stl-city-public-streetlights:2:145890","properties":{"address":null,"attributes":{"Date_Installed":null,"LED_Powered":0,"LightID":"L038747","Light_Source":"LED","Light_Type":"Cobra","Lighting_Type":"LED-Powered Lamp","Verification_Date":null},"id":"stl-city-public-streetlights:2:145890","sourceLayerId":2,"sourceObjectId":145890,"sourceURL":"https://maps8.stlouis-mo.gov/arcgis/rest/services/STREETS/Streets_Permitting/MapServer/2","title":"Street light L038747"},"type":"Feature"},{"geometry":{"coordinates":[-90.19973901657704,38.60860965938546],"type":"Point"},"id":"stl-city-public-streetlights:2:146198","properties":{"address":null,"attributes":{"Date_Installed":"6/15/2017","LED_Powered":1,"LightID":"L039055","Light_Source":"LED","Light_Type":"Cobra","Lighting_Type":"LED-Powered Lamp","Verification_Date":null},"id":"stl-city-public-streetlights:2:146198","sourceLayerId":2,"sourceObjectId":146198,"sourceURL":"https://maps8.stlouis-mo.gov/arcgis/rest/services/STREETS/Streets_Permitting/MapServer/2","title":"Street light L039055"},"type":"Feature"},{"geometry":{"coordinates":[-90.19934351103667,38.60904126993039],"type":"Point"},"id":"stl-city-public-streetlights:2:146199","properties":{"address":null,"attributes":{"Date_Installed":"6/15/2017","LED_Powered":1,"LightID":"L039056","Light_Source":"LED","Light_Type":"Cobra","Lighting_Type":"LED-Powered Lamp","Verification_Date":null},"id":"stl-city-public-streetlights:2:146199","sourceLayerId":2,"sourceObjectId":146199,"sourceURL":"https://maps8.stlouis-mo.gov/arcgis/rest/services/STREETS/Streets_Permitting/MapServer/2","title":"Street light L039056"},"type":"Feature"},{"geometry":{"coordinates":[-90.19900205514435,38.609405086294146],"type":"Point"},"id":"stl-city-public-streetlights:2:146200","properties":{"address":null,"attributes":{"Date_Installed":"6/15/2017","LED_Powered":1,"LightID":"L039057","Light_Source":"LED","Light_Type":"Cobra","Lighting_Type":"LED-Powered Lamp","Verification_Date":null},"id":"stl-city-public-streetlights:2:146200","sourceLayerId":2,"sourceObjectId":146200,"sourceURL":"https://maps8.stlouis-mo.gov/arcgis/rest/services/STREETS/Streets_Permitting/MapServer/2","title":"Street light L039057"},"type":"Feature"},{"geometry":{"coordinates":[-90.19863765011397,38.60980745661226],"type":"Point"},"id":"stl-city-public-streetlights:2:146201","properties":{"address":null,"attributes":{"Date_Installed":"6/15/2017","LED_Powered":1,"LightID":"L039058","Light_Source":"LED","Light_Type":"Cobra","Lighting_Type":"LED-Powered Lamp","Verification_Date":null},"id":"stl-city-public-streetlights:2:146201","sourceLayerId":2,"sourceObjectId":146201,"sourceURL":"https://maps8.stlouis-mo.gov/arcgis/rest/services/STREETS/Streets_Permitting/MapServer/2","title":"Street light L039058"},"type":"Feature"},{"geometry":{"coordinates":[-90.1989652780903,38.60970020264044],"type":"Point"},"id":"stl-city-public-streetlights:2:146223","properties":{"address":null,"attributes":{"Date_Installed":"6/15/2017","LED_Powered":1,"LightID":"L039080","Light_Source":"LED","Light_Type":"Cobra","Lighting_Type":"LED-Powered Lamp","Verification_Date":null},"id":"stl-city-public-streetlights:2:146223","sourceLayerId":2,"sourceObjectId":146223,"sourceURL":"https://maps8.stlouis-mo.gov/arcgis/rest/services/STREETS/Streets_Permitting/MapServer/2","title":"Street light L039080"},"type":"Feature"},{"geometry":{"coordinates":[-90.19933817998097,38.6092996404945],"type":"Point"},"id":"stl-city-public-streetlights:2:146224","properties":{"address":null,"attributes":{"Date_Installed":"6/15/2017","LED_Powered":1,"LightID":"L039081","Light_Source":"LED","Light_Type":"Cobra","Lighting_Type":"LED-Powered Lamp","Verification_Date":null},"id":"stl-city-public-streetlights:2:146224","sourceLayerId":2,"sourceObjectId":146224,"sourceURL":"https://maps8.stlouis-mo.gov/arcgis/rest/services/STREETS/Streets_Permitting/MapServer/2","title":"Street light L039081"},"type":"Feature"},{"geometry":{"coordinates":[-90.1997232668345,38.608889931896016],"type":"Point"},"id":"stl-city-public-streetlights:2:146225","properties":{"address":null,"attributes":{"Date_Installed":"6/15/2017","LED_Powered":1,"LightID":"L039082","Light_Source":"LED","Light_Type":"Cobra","Lighting_Type":"LED-Powered Lamp","Verification_Date":null},"id":"stl-city-public-streetlights:2:146225","sourceLayerId":2,"sourceObjectId":146225,"sourceURL":"https://maps8.stlouis-mo.gov/arcgis/rest/services/STREETS/Streets_Permitting/MapServer/2","title":"Street light L039082"},"type":"Feature"},{"geometry":{"coordinates":[-90.19999395397028,38.609825204588795],"type":"Point"},"id":"stl-city-public-streetlights:2:146229","properties":{"address":null,"attributes":{"Date_Installed":"6/15/2017","LED_Powered":1,"LightID":"L039086","Light_Source":"LED","Light_Type":"Cobra","Lighting_Type":"LED-Powered Lamp","Verification_Date":null},"id":"stl-city-public-streetlights:2:146229","sourceLayerId":2,"sourceObjectId":146229,"sourceURL":"https://maps8.stlouis-mo.gov/arcgis/rest/services/STREETS/Streets_Permitting/MapServer/2","title":"Street light L039086"},"type":"Feature"},{"geometry":{"coordinates":[-90.19945111417495,38.60881461044798],"type":"Point"},"id":"stl-city-public-streetlights:2:146254","properties":{"address":null,"attributes":{"Date_Installed":null,"LED_Powered":0,"LightID":"L039111","Light_Source":"LED","Light_Type":"Cobra","Lighting_Type":"LED-Powered Lamp","Verification_Date":null},"id":"stl-city-public-streetlights:2:146254","sourceLayerId":2,"sourceObjectId":146254,"sourceURL":"https://maps8.stlouis-mo.gov/arcgis/rest/services/STREETS/Streets_Permitting/MapServer/2","title":"Street light L039111"},"type":"Feature"},{"geometry":{"coordinates":[-90.19896108160083,38.60853017669466],"type":"Point"},"id":"stl-city-public-streetlights:2:146255","properties":{"address":null,"attributes":{"Date_Installed":null,"LED_Powered":0,"LightID":"L039112","Light_Source":"LED","Light_Type":"Cobra","Lighting_Type":"LED-Powered Lamp","Verification_Date":null},"id":"stl-city-public-streetlights:2:146255","sourceLayerId":2,"sourceObjectId":146255,"sourceURL":"https://maps8.stlouis-mo.gov/arcgis/rest/services/STREETS/Streets_Permitting/MapServer/2","title":"Street light L039112"},"type":"Feature"},{"geometry":{"coordinates":[-90.19831388892683,38.6081813958224],"type":"Point"},"id":"stl-city-public-streetlights:2:146256","properties":{"address":null,"attributes":{"Date_Installed":null,"LED_Powered":0,"LightID":"L039113","Light_Source":"LED","Light_Type":"Cobra","Lighting_Type":"LED-Powered Lamp","Verification_Date":null},"id":"stl-city-public-streetlights:2:146256","sourceLayerId":2,"sourceObjectId":146256,"sourceURL":"https://maps8.stlouis-mo.gov/arcgis/rest/services/STREETS/Streets_Permitting/MapServer/2","title":"Street light L039113"},"type":"Feature"},{"geometry":{"coordinates":[-90.19759089446848,38.60777422499463],"type":"Point"},"id":"stl-city-public-streetlights:2:146257","properties":{"address":null,"attributes":{"Date_Installed":null,"LED_Powered":0,"LightID":"L039114","Light_Source":"LED","Light_Type":"Cobra","Lighting_Type":"LED-Powered Lamp","Verification_Date":null},"id":"stl-city-public-streetlights:2:146257","sourceLayerId":2,"sourceObjectId":146257,"sourceURL":"https://maps8.stlouis-mo.gov/arcgis/rest/services/STREETS/Streets_Permitting/MapServer/2","title":"Street light L039114"},"type":"Feature"},{"geometry":{"coordinates":[-90.19907833170316,38.60882366405008],"type":"Point"},"id":"stl-city-public-streetlights:2:146258","properties":{"address":null,"attributes":{"Date_Installed":null,"LED_Powered":0,"LightID":"L039115","Light_Source":"LED","Light_Type":"Cobra","Lighting_Type":"LED-Powered Lamp","Verification_Date":null},"id":"stl-city-public-streetlights:2:146258","sourceLayerId":2,"sourceObjectId":146258,"sourceURL":"https://maps8.stlouis-mo.gov/arcgis/rest/services/STREETS/Streets_Permitting/MapServer/2","title":"Street light L039115"},"type":"Feature"},{"geometry":{"coordinates":[-90.19856713248137,38.60853087879244],"type":"Point"},"id":"stl-city-public-streetlights:2:146259","properties":{"address":null,"attributes":{"Date_Installed":null,"LED_Powered":0,"LightID":"L039116","Light_Source":"LED","Light_Type":"Cobra","Lighting_Type":"LED-Powered Lamp","Verification_Date":null},"id":"stl-city-public-streetlights:2:146259","sourceLayerId":2,"sourceObjectId":146259,"sourceURL":"https://maps8.stlouis-mo.gov/arcgis/rest/services/STREETS/Streets_Permitting/MapServer/2","title":"Street light L039116"},"type":"Feature"},{"geometry":{"coordinates":[-90.19785334684315,38.60810348484632],"type":"Point"},"id":"stl-city-public-streetlights:2:146260","properties":{"address":null,"attributes":{"Date_Installed":null,"LED_Powered":0,"LightID":"L039117","Light_Source":"LED","Light_Type":"Cobra","Lighting_Type":"LED-Powered Lamp","Verification_Date":null},"id":"stl-city-public-streetlights:2:146260","sourceLayerId":2,"sourceObjectId":146260,"sourceURL":"https://maps8.stlouis-mo.gov/arcgis/rest/services/STREETS/Streets_Permitting/MapServer/2","title":"Street light L039117"},"type":"Feature"},{"geometry":{"coordinates":[-90.19717590956436,38.60772142796133],"type":"Point"},"id":"stl-city-public-streetlights:2:146261","properties":{"address":null,"attributes":{"Date_Installed":null,"LED_Powered":0,"LightID":"L039118","Light_Source":"LED","Light_Type":"Cobra","Lighting_Type":"LED-Powered Lamp","Verification_Date":null},"id":"stl-city-public-streetlights:2:146261","sourceLayerId":2,"sourceObjectId":146261,"sourceURL":"https://maps8.stlouis-mo.gov/arcgis/rest/services/STREETS/Streets_Permitting/MapServer/2","title":"Street light L039118"},"type":"Feature"},{"geometry":{"coordinates":[-90.19648565367964,38.60842244906492],"type":"Point"},"id":"stl-city-public-streetlights:2:146262","properties":{"address":null,"attributes":{"Date_Installed":null,"LED_Powered":0,"LightID":"L039119","Light_Source":"LED","Light_Type":"Cobra","Lighting_Type":"LED-Powered Lamp","Verification_Date":null},"id":"stl-city-public-streetlights:2:146262","sourceLayerId":2,"sourceObjectId":146262,"sourceURL":"https://maps8.stlouis-mo.gov/arcgis/rest/services/STREETS/Streets_Permitting/MapServer/2","title":"Street light L039119"},"type":"Feature"},{"geometry":{"coordinates":[-90.19611857613094,38.60821745851323],"type":"Point"},"id":"stl-city-public-streetlights:2:146263","properties":{"address":null,"attributes":{"Date_Installed":null,"LED_Powered":0,"LightID":"L039120","Light_Source":"LED","Light_Type":"Cobra","Lighting_Type":"LED-Powered Lamp","Verification_Date":null},"id":"stl-city-public-streetlights:2:146263","sourceLayerId":2,"sourceObjectId":146263,"sourceURL":"https://maps8.stlouis-mo.gov/arcgis/rest/services/STREETS/Streets_Permitting/MapServer/2","title":"Street light L039120"},"type":"Feature"},{"geometry":{"coordinates":[-90.19568215824228,38.60797414899094],"type":"Point"},"id":"stl-city-public-streetlights:2:146264","properties":{"address":null,"attributes":{"Date_Installed":null,"LED_Powered":0,"LightID":"L039121","Light_Source":"LED","Light_Type":"Cobra","Lighting_Type":"LED-Powered Lamp","Verification_Date":null},"id":"stl-city-public-streetlights:2:146264","sourceLayerId":2,"sourceObjectId":146264,"sourceURL":"https://maps8.stlouis-mo.gov/arcgis/rest/services/STREETS/Streets_Permitting/MapServer/2","title":"Street light L039121"},"type":"Feature"},{"geometry":{"coordinates":[-90.19517540244942,38.607698237793514],"type":"Point"},"id":"stl-city-public-streetlights:2:146265","properties":{"address":null,"attributes":{"Date_Installed":null,"LED_Powered":0,"LightID":"L039122","Light_Source":"LED","Light_Type":"Cobra","Lighting_Type":"LED-Powered Lamp","Verification_Date":null},"id":"stl-city-public-streetlights:2:146265","sourceLayerId":2,"sourceObjectId":146265,"sourceURL":"https://maps8.stlouis-mo.gov/arcgis/rest/services/STREETS/Streets_Permitting/MapServer/2","title":"Street light L039122"},"type":"Feature"},{"geometry":{"coordinates":[-90.19461424922699,38.607490366560015],"type":"Point"},"id":"stl-city-public-streetlights:2:146266","properties":{"address":null,"attributes":{"Date_Installed":null,"LED_Powered":0,"LightID":"L039123","Light_Source":"LED","Light_Type":"Cobra","Lighting_Type":"LED-Powered Lamp","Verification_Date":null},"id":"stl-city-public-streetlights:2:146266","sourceLayerId":2,"sourceObjectId":146266,"sourceURL":"https://maps8.stlouis-mo.gov/arcgis/rest/services/STREETS/Streets_Permitting/MapServer/2","title":"Street light L039123"},"type":"Feature"},{"geometry":{"coordinates":[-90.19492140827397,38.60875563352904],"type":"Point"},"id":"stl-city-public-streetlights:2:146267","properties":{"address":null,"attributes":{"Date_Installed":null,"LED_Powered":0,"LightID":"L039124","Light_Source":"LED","Light_Type":"Cobra","Lighting_Type":"LED-Powered Lamp","Verification_Date":null},"id":"stl-city-public-streetlights:2:146267","sourceLayerId":2,"sourceObjectId":146267,"sourceURL":"https://maps8.stlouis-mo.gov/arcgis/rest/services/STREETS/Streets_Permitting/MapServer/2","title":"Street light L039124"},"type":"Feature"},{"geometry":{"coordinates":[-90.19539780364603,38.60902860732803],"type":"Point"},"id":"stl-city-public-streetlights:2:146268","properties":{"address":null,"attributes":{"Date_Installed":null,"LED_Powered":0,"LightID":"L039125","Light_Source":"LED","Light_Type":"Cobra","Lighting_Type":"LED-Powered Lamp","Verification_Date":null},"id":"stl-city-public-streetlights:2:146268","sourceLayerId":2,"sourceObjectId":146268,"sourceURL":"https://maps8.stlouis-mo.gov/arcgis/rest/services/STREETS/Streets_Permitting/MapServer/2","title":"Street light L039125"},"type":"Feature"},{"geometry":{"coordinates":[-90.19578420974975,38.609246521424296],"type":"Point"},"id":"stl-city-public-streetlights:2:146269","properties":{"address":null,"attributes":{"Date_Installed":null,"LED_Powered":0,"LightID":"L039126","Light_Source":"LED","Light_Type":"Cobra","Lighting_Type":"LED-Powered Lamp","Verification_Date":null},"id":"stl-city-public-streetlights:2:146269","sourceLayerId":2,"sourceObjectId":146269,"sourceURL":"https://maps8.stlouis-mo.gov/arcgis/rest/services/STREETS/Streets_Permitting/MapServer/2","title":"Street light L039126"},"type":"Feature"},{"geometry":{"coordinates":[-90.19620140036886,38.60947702846946],"type":"Point"},"id":"stl-city-public-streetlights:2:146270","properties":{"address":null,"attributes":{"Date_Installed":null,"LED_Powered":0,"LightID":"L039127","Light_Source":"LED","Light_Type":"Cobra","Lighting_Type":"LED-Powered Lamp","Verification_Date":null},"id":"stl-city-public-streetlights:2:146270","sourceLayerId":2,"sourceObjectId":146270,"sourceURL":"https://maps8.stlouis-mo.gov/arcgis/rest/services/STREETS/Streets_Permitting/MapServer/2","title":"Street light L039127"},"type":"Feature"},{"geometry":{"coordinates":[-90.19668629591962,38.60975359381418],"type":"Point"},"id":"stl-city-public-streetlights:2:146271","properties":{"address":null,"attributes":{"Date_Installed":null,"LED_Powered":0,"LightID":"L039128","Light_Source":"LED","Light_Type":"Cobra","Lighting_Type":"LED-Powered Lamp","Verification_Date":null},"id":"stl-city-public-streetlights:2:146271","sourceLayerId":2,"sourceObjectId":146271,"sourceURL":"https://maps8.stlouis-mo.gov/arcgis/rest/services/STREETS/Streets_Permitting/MapServer/2","title":"Street light L039128"},"type":"Feature"},{"geometry":{"coordinates":[-90.19906043105868,38.609919754478106],"type":"Point"},"id":"stl-city-public-streetlights:2:146293","properties":{"address":null,"attributes":{"Date_Installed":null,"LED_Powered":0,"LightID":"L039150","Light_Source":"LED","Light_Type":"Cobra","Lighting_Type":"LED-Powered Lamp","Verification_Date":null},"id":"stl-city-public-streetlights:2:146293","sourceLayerId":2,"sourceObjectId":146293,"sourceURL":"https://maps8.stlouis-mo.gov/arcgis/rest/services/STREETS/Streets_Permitting/MapServer/2","title":"Street light L039150"},"type":"Feature"},{"geometry":{"coordinates":[-90.19624602240343,38.60699706272499],"type":"Point"},"id":"stl-city-public-streetlights:2:151515","properties":{"address":null,"attributes":{"Date_Installed":null,"LED_Powered":0,"LightID":"L044380","Light_Source":"LED","Light_Type":"Cobra","Lighting_Type":"LED-Powered Lamp","Verification_Date":null},"id":"stl-city-public-streetlights:2:151515","sourceLayerId":2,"sourceObjectId":151515,"sourceURL":"https://maps8.stlouis-mo.gov/arcgis/rest/services/STREETS/Streets_Permitting/MapServer/2","title":"Street light L044380"},"type":"Feature"},{"geometry":{"coordinates":[-90.19600603188626,38.606843039009455],"type":"Point"},"id":"stl-city-public-streetlights:2:151596","properties":{"address":null,"attributes":{"Date_Installed":null,"LED_Powered":0,"LightID":"L052399","Light_Source":"LED","Light_Type":"Cobra","Lighting_Type":"LED-Powered Lamp","Verification_Date":null},"id":"stl-city-public-streetlights:2:151596","sourceLayerId":2,"sourceObjectId":151596,"sourceURL":"https://maps8.stlouis-mo.gov/arcgis/rest/services/STREETS/Streets_Permitting/MapServer/2","title":"Street light L052399"},"type":"Feature"}],"layerId":"city-streetlights","retrievedAt":"2026-09-13T21:56:18.173251+00:00","schema":"property-infrastructure-geojson-v1","sourceId":"stl-city-public-streetlights","tileId":"-9020_3860","type":"FeatureCollection"}