{"features":[{"geometry":{"coordinates":[-90.22821203358606,38.72410733153816],"type":"Point"},"id":"stl-city-public-streetlights:2:122053","properties":{"address":null,"attributes":{"Date_Installed":"8/1/2016","LED_Powered":1,"LightID":"L014773","Light_Source":"LED","Light_Type":"Cobra","Lighting_Type":"LED-Powered Lamp","Verification_Date":null},"id":"stl-city-public-streetlights:2:122053","sourceLayerId":2,"sourceObjectId":122053,"sourceURL":"https://maps8.stlouis-mo.gov/arcgis/rest/services/STREETS/Streets_Permitting/MapServer/2","title":"Street light L014773"},"type":"Feature"},{"geometry":{"coordinates":[-90.22811688573447,38.72464598905133],"type":"Point"},"id":"stl-city-public-streetlights:2:122054","properties":{"address":null,"attributes":{"Date_Installed":"8/1/2016","LED_Powered":1,"LightID":"L014774","Light_Source":"LED","Light_Type":"Cobra","Lighting_Type":"LED-Powered Lamp","Verification_Date":null},"id":"stl-city-public-streetlights:2:122054","sourceLayerId":2,"sourceObjectId":122054,"sourceURL":"https://maps8.stlouis-mo.gov/arcgis/rest/services/STREETS/Streets_Permitting/MapServer/2","title":"Street light L014774"},"type":"Feature"},{"geometry":{"coordinates":[-90.22803144877582,38.725150559166025],"type":"Point"},"id":"stl-city-public-streetlights:2:122055","properties":{"address":null,"attributes":{"Date_Installed":"8/1/2016","LED_Powered":1,"LightID":"L014775","Light_Source":"LED","Light_Type":"Cobra","Lighting_Type":"LED-Powered Lamp","Verification_Date":null},"id":"stl-city-public-streetlights:2:122055","sourceLayerId":2,"sourceObjectId":122055,"sourceURL":"https://maps8.stlouis-mo.gov/arcgis/rest/services/STREETS/Streets_Permitting/MapServer/2","title":"Street light L014775"},"type":"Feature"},{"geometry":{"coordinates":[-90.22794827415025,38.72564018981051],"type":"Point"},"id":"stl-city-public-streetlights:2:122056","properties":{"address":null,"attributes":{"Date_Installed":"8/1/2016","LED_Powered":1,"LightID":"L014776","Light_Source":"LED","Light_Type":"Cobra","Lighting_Type":"LED-Powered Lamp","Verification_Date":null},"id":"stl-city-public-streetlights:2:122056","sourceLayerId":2,"sourceObjectId":122056,"sourceURL":"https://maps8.stlouis-mo.gov/arcgis/rest/services/STREETS/Streets_Permitting/MapServer/2","title":"Street light L014776"},"type":"Feature"},{"geometry":{"coordinates":[-90.22785973360529,38.72614039044922],"type":"Point"},"id":"stl-city-public-streetlights:2:122057","properties":{"address":null,"attributes":{"Date_Installed":"8/1/2016","LED_Powered":1,"LightID":"L014777","Light_Source":"LED","Light_Type":"Cobra","Lighting_Type":"LED-Powered Lamp","Verification_Date":null},"id":"stl-city-public-streetlights:2:122057","sourceLayerId":2,"sourceObjectId":122057,"sourceURL":"https://maps8.stlouis-mo.gov/arcgis/rest/services/STREETS/Streets_Permitting/MapServer/2","title":"Street light L014777"},"type":"Feature"},{"geometry":{"coordinates":[-90.22920833925534,38.725620252653556],"type":"Point"},"id":"stl-city-public-streetlights:2:122058","properties":{"address":null,"attributes":{"Date_Installed":"2/14/2018","LED_Powered":1,"LightID":"L014778","Light_Source":"LED","Light_Type":"Cobra","Lighting_Type":"LED-Powered Lamp","Verification_Date":null},"id":"stl-city-public-streetlights:2:122058","sourceLayerId":2,"sourceObjectId":122058,"sourceURL":"https://maps8.stlouis-mo.gov/arcgis/rest/services/STREETS/Streets_Permitting/MapServer/2","title":"Street light L014778"},"type":"Feature"},{"geometry":{"coordinates":[-90.2292674650313,38.72527238758652],"type":"Point"},"id":"stl-city-public-streetlights:2:122059","properties":{"address":null,"attributes":{"Date_Installed":"2/14/2018","LED_Powered":1,"LightID":"L014779","Light_Source":"LED","Light_Type":"Cobra","Lighting_Type":"LED-Powered Lamp","Verification_Date":null},"id":"stl-city-public-streetlights:2:122059","sourceLayerId":2,"sourceObjectId":122059,"sourceURL":"https://maps8.stlouis-mo.gov/arcgis/rest/services/STREETS/Streets_Permitting/MapServer/2","title":"Street light L014779"},"type":"Feature"},{"geometry":{"coordinates":[-90.22768081464913,38.72016823661167],"type":"Point"},"id":"stl-city-public-streetlights:2:122115","properties":{"address":null,"attributes":{"Date_Installed":"6/25/2018","LED_Powered":1,"LightID":"L014835","Light_Source":"LED","Light_Type":"Cobra","Lighting_Type":"LED-Powered Lamp","Verification_Date":null},"id":"stl-city-public-streetlights:2:122115","sourceLayerId":2,"sourceObjectId":122115,"sourceURL":"https://maps8.stlouis-mo.gov/arcgis/rest/services/STREETS/Streets_Permitting/MapServer/2","title":"Street light L014835"},"type":"Feature"},{"geometry":{"coordinates":[-90.22730525051632,38.72035804711147],"type":"Point"},"id":"stl-city-public-streetlights:2:122116","properties":{"address":null,"attributes":{"Date_Installed":"6/25/2018","LED_Powered":1,"LightID":"L014836","Light_Source":"LED","Light_Type":"Cobra","Lighting_Type":"LED-Powered Lamp","Verification_Date":null},"id":"stl-city-public-streetlights:2:122116","sourceLayerId":2,"sourceObjectId":122116,"sourceURL":"https://maps8.stlouis-mo.gov/arcgis/rest/services/STREETS/Streets_Permitting/MapServer/2","title":"Street light L014836"},"type":"Feature"},{"geometry":{"coordinates":[-90.22695160520816,38.72054409417609],"type":"Point"},"id":"stl-city-public-streetlights:2:122117","properties":{"address":null,"attributes":{"Date_Installed":"6/25/2018","LED_Powered":1,"LightID":"L014837","Light_Source":"LED","Light_Type":"Cobra","Lighting_Type":"LED-Powered Lamp","Verification_Date":null},"id":"stl-city-public-streetlights:2:122117","sourceLayerId":2,"sourceObjectId":122117,"sourceURL":"https://maps8.stlouis-mo.gov/arcgis/rest/services/STREETS/Streets_Permitting/MapServer/2","title":"Street light L014837"},"type":"Feature"},{"geometry":{"coordinates":[-90.22928066444818,38.72015113351876],"type":"Point"},"id":"stl-city-public-streetlights:2:122118","properties":{"address":null,"attributes":{"Date_Installed":"2/14/2018","LED_Powered":1,"LightID":"L014838","Light_Source":"LED","Light_Type":"Cobra","Lighting_Type":"LED-Powered Lamp","Verification_Date":null},"id":"stl-city-public-streetlights:2:122118","sourceLayerId":2,"sourceObjectId":122118,"sourceURL":"https://maps8.stlouis-mo.gov/arcgis/rest/services/STREETS/Streets_Permitting/MapServer/2","title":"Street light L014838"},"type":"Feature"},{"geometry":{"coordinates":[-90.22970995597265,38.72019503096551],"type":"Point"},"id":"stl-city-public-streetlights:2:122119","properties":{"address":null,"attributes":{"Date_Installed":"2/14/2018","LED_Powered":1,"LightID":"L014839","Light_Source":"LED","Light_Type":"Cobra","Lighting_Type":"LED-Powered Lamp","Verification_Date":null},"id":"stl-city-public-streetlights:2:122119","sourceLayerId":2,"sourceObjectId":122119,"sourceURL":"https://maps8.stlouis-mo.gov/arcgis/rest/services/STREETS/Streets_Permitting/MapServer/2","title":"Street light L014839"},"type":"Feature"},{"geometry":{"coordinates":[-90.22913392176302,38.721025117716984],"type":"Point"},"id":"stl-city-public-streetlights:2:122126","properties":{"address":null,"attributes":{"Date_Installed":"6/25/2018","LED_Powered":1,"LightID":"L014846","Light_Source":"LED","Light_Type":"Cobra","Lighting_Type":"LED-Powered Lamp","Verification_Date":null},"id":"stl-city-public-streetlights:2:122126","sourceLayerId":2,"sourceObjectId":122126,"sourceURL":"https://maps8.stlouis-mo.gov/arcgis/rest/services/STREETS/Streets_Permitting/MapServer/2","title":"Street light L014846"},"type":"Feature"},{"geometry":{"coordinates":[-90.22952169148346,38.72106772779521],"type":"Point"},"id":"stl-city-public-streetlights:2:122127","properties":{"address":null,"attributes":{"Date_Installed":"6/25/2018","LED_Powered":1,"LightID":"L014847","Light_Source":"LED","Light_Type":"Cobra","Lighting_Type":"LED-Powered Lamp","Verification_Date":null},"id":"stl-city-public-streetlights:2:122127","sourceLayerId":2,"sourceObjectId":122127,"sourceURL":"https://maps8.stlouis-mo.gov/arcgis/rest/services/STREETS/Streets_Permitting/MapServer/2","title":"Street light L014847"},"type":"Feature"},{"geometry":{"coordinates":[-90.22995892602925,38.72110449244689],"type":"Point"},"id":"stl-city-public-streetlights:2:122128","properties":{"address":null,"attributes":{"Date_Installed":"6/25/2018","LED_Powered":1,"LightID":"L014848","Light_Source":"LED","Light_Type":"Cobra","Lighting_Type":"LED-Powered Lamp","Verification_Date":null},"id":"stl-city-public-streetlights:2:122128","sourceLayerId":2,"sourceObjectId":122128,"sourceURL":"https://maps8.stlouis-mo.gov/arcgis/rest/services/STREETS/Streets_Permitting/MapServer/2","title":"Street light L014848"},"type":"Feature"},{"geometry":{"coordinates":[-90.229038339048,38.72190449119824],"type":"Point"},"id":"stl-city-public-streetlights:2:122134","properties":{"address":null,"attributes":{"Date_Installed":"6/25/2018","LED_Powered":1,"LightID":"L014854","Light_Source":"LED","Light_Type":"Cobra","Lighting_Type":"LED-Powered Lamp","Verification_Date":null},"id":"stl-city-public-streetlights:2:122134","sourceLayerId":2,"sourceObjectId":122134,"sourceURL":"https://maps8.stlouis-mo.gov/arcgis/rest/services/STREETS/Streets_Permitting/MapServer/2","title":"Street light L014854"},"type":"Feature"},{"geometry":{"coordinates":[-90.22939116769025,38.72193534086605],"type":"Point"},"id":"stl-city-public-streetlights:2:122135","properties":{"address":null,"attributes":{"Date_Installed":"6/25/2018","LED_Powered":1,"LightID":"L014855","Light_Source":"LED","Light_Type":"Cobra","Lighting_Type":"LED-Powered Lamp","Verification_Date":null},"id":"stl-city-public-streetlights:2:122135","sourceLayerId":2,"sourceObjectId":122135,"sourceURL":"https://maps8.stlouis-mo.gov/arcgis/rest/services/STREETS/Streets_Permitting/MapServer/2","title":"Street light L014855"},"type":"Feature"},{"geometry":{"coordinates":[-90.22979446812231,38.72197584099793],"type":"Point"},"id":"stl-city-public-streetlights:2:122136","properties":{"address":null,"attributes":{"Date_Installed":"6/25/2018","LED_Powered":1,"LightID":"L014856","Light_Source":"LED","Light_Type":"Cobra","Lighting_Type":"LED-Powered Lamp","Verification_Date":null},"id":"stl-city-public-streetlights:2:122136","sourceLayerId":2,"sourceObjectId":122136,"sourceURL":"https://maps8.stlouis-mo.gov/arcgis/rest/services/STREETS/Streets_Permitting/MapServer/2","title":"Street light L014856"},"type":"Feature"},{"geometry":{"coordinates":[-90.22867055653089,38.72366755467532],"type":"Point"},"id":"stl-city-public-streetlights:2:122138","properties":{"address":null,"attributes":{"Date_Installed":"6/25/2018","LED_Powered":1,"LightID":"L014858","Light_Source":"LED","Light_Type":"Cobra","Lighting_Type":"LED-Powered Lamp","Verification_Date":null},"id":"stl-city-public-streetlights:2:122138","sourceLayerId":2,"sourceObjectId":122138,"sourceURL":"https://maps8.stlouis-mo.gov/arcgis/rest/services/STREETS/Streets_Permitting/MapServer/2","title":"Street light L014858"},"type":"Feature"},{"geometry":{"coordinates":[-90.22809700076651,38.72369984471375],"type":"Point"},"id":"stl-city-public-streetlights:2:122139","properties":{"address":null,"attributes":{"Date_Installed":"2/14/2018","LED_Powered":1,"LightID":"L014859","Light_Source":"LED","Light_Type":"Cobra","Lighting_Type":"LED-Powered Lamp","Verification_Date":null},"id":"stl-city-public-streetlights:2:122139","sourceLayerId":2,"sourceObjectId":122139,"sourceURL":"https://maps8.stlouis-mo.gov/arcgis/rest/services/STREETS/Streets_Permitting/MapServer/2","title":"Street light L014859"},"type":"Feature"},{"geometry":{"coordinates":[-90.22761337230357,38.72365724535772],"type":"Point"},"id":"stl-city-public-streetlights:2:122140","properties":{"address":null,"attributes":{"Date_Installed":"2/14/2018","LED_Powered":1,"LightID":"L014860","Light_Source":"LED","Light_Type":"Cobra","Lighting_Type":"LED-Powered Lamp","Verification_Date":null},"id":"stl-city-public-streetlights:2:122140","sourceLayerId":2,"sourceObjectId":122140,"sourceURL":"https://maps8.stlouis-mo.gov/arcgis/rest/services/STREETS/Streets_Permitting/MapServer/2","title":"Street light L014860"},"type":"Feature"},{"geometry":{"coordinates":[-90.22710421862796,38.72360600268139],"type":"Point"},"id":"stl-city-public-streetlights:2:122141","properties":{"address":null,"attributes":{"Date_Installed":"2/14/2018","LED_Powered":1,"LightID":"L014861","Light_Source":"LED","Light_Type":"Cobra","Lighting_Type":"LED-Powered Lamp","Verification_Date":null},"id":"stl-city-public-streetlights:2:122141","sourceLayerId":2,"sourceObjectId":122141,"sourceURL":"https://maps8.stlouis-mo.gov/arcgis/rest/services/STREETS/Streets_Permitting/MapServer/2","title":"Street light L014861"},"type":"Feature"},{"geometry":{"coordinates":[-90.2266482331857,38.723559649543],"type":"Point"},"id":"stl-city-public-streetlights:2:122142","properties":{"address":null,"attributes":{"Date_Installed":"2/14/2018","LED_Powered":1,"LightID":"L014862","Light_Source":"LED","Light_Type":"Cobra","Lighting_Type":"LED-Powered Lamp","Verification_Date":null},"id":"stl-city-public-streetlights:2:122142","sourceLayerId":2,"sourceObjectId":122142,"sourceURL":"https://maps8.stlouis-mo.gov/arcgis/rest/services/STREETS/Streets_Permitting/MapServer/2","title":"Street light L014862"},"type":"Feature"},{"geometry":{"coordinates":[-90.22623651098904,38.723523409712875],"type":"Point"},"id":"stl-city-public-streetlights:2:122143","properties":{"address":null,"attributes":{"Date_Installed":"2/14/2018","LED_Powered":1,"LightID":"L014863","Light_Source":"LED","Light_Type":"Cobra","Lighting_Type":"LED-Powered Lamp","Verification_Date":null},"id":"stl-city-public-streetlights:2:122143","sourceLayerId":2,"sourceObjectId":122143,"sourceURL":"https://maps8.stlouis-mo.gov/arcgis/rest/services/STREETS/Streets_Permitting/MapServer/2","title":"Street light L014863"},"type":"Feature"},{"geometry":{"coordinates":[-90.22800088522979,38.72448548495516],"type":"Point"},"id":"stl-city-public-streetlights:2:122144","properties":{"address":null,"attributes":{"Date_Installed":"2/14/2018","LED_Powered":1,"LightID":"L014864","Light_Source":"LED","Light_Type":"Cobra","Lighting_Type":"LED-Powered Lamp","Verification_Date":null},"id":"stl-city-public-streetlights:2:122144","sourceLayerId":2,"sourceObjectId":122144,"sourceURL":"https://maps8.stlouis-mo.gov/arcgis/rest/services/STREETS/Streets_Permitting/MapServer/2","title":"Street light L014864"},"type":"Feature"},{"geometry":{"coordinates":[-90.22750631408633,38.724438568825356],"type":"Point"},"id":"stl-city-public-streetlights:2:122145","properties":{"address":null,"attributes":{"Date_Installed":"2/14/2018","LED_Powered":1,"LightID":"L014865","Light_Source":"LED","Light_Type":"Cobra","Lighting_Type":"LED-Powered Lamp","Verification_Date":null},"id":"stl-city-public-streetlights:2:122145","sourceLayerId":2,"sourceObjectId":122145,"sourceURL":"https://maps8.stlouis-mo.gov/arcgis/rest/services/STREETS/Streets_Permitting/MapServer/2","title":"Street light L014865"},"type":"Feature"},{"geometry":{"coordinates":[-90.2270197736195,38.72439238464989],"type":"Point"},"id":"stl-city-public-streetlights:2:122146","properties":{"address":null,"attributes":{"Date_Installed":"2/14/2018","LED_Powered":1,"LightID":"L014866","Light_Source":"LED","Light_Type":"Cobra","Lighting_Type":"LED-Powered Lamp","Verification_Date":null},"id":"stl-city-public-streetlights:2:122146","sourceLayerId":2,"sourceObjectId":122146,"sourceURL":"https://maps8.stlouis-mo.gov/arcgis/rest/services/STREETS/Streets_Permitting/MapServer/2","title":"Street light L014866"},"type":"Feature"},{"geometry":{"coordinates":[-90.22660167250415,38.72435207907082],"type":"Point"},"id":"stl-city-public-streetlights:2:122147","properties":{"address":null,"attributes":{"Date_Installed":"2/14/2018","LED_Powered":1,"LightID":"L014867","Light_Source":"LED","Light_Type":"Cobra","Lighting_Type":"LED-Powered Lamp","Verification_Date":null},"id":"stl-city-public-streetlights:2:122147","sourceLayerId":2,"sourceObjectId":122147,"sourceURL":"https://maps8.stlouis-mo.gov/arcgis/rest/services/STREETS/Streets_Permitting/MapServer/2","title":"Street light L014867"},"type":"Feature"},{"geometry":{"coordinates":[-90.22610800698921,38.724307304130406],"type":"Point"},"id":"stl-city-public-streetlights:2:122148","properties":{"address":null,"attributes":{"Date_Installed":"2/14/2018","LED_Powered":1,"LightID":"L014868","Light_Source":"LED","Light_Type":"Cobra","Lighting_Type":"LED-Powered Lamp","Verification_Date":null},"id":"stl-city-public-streetlights:2:122148","sourceLayerId":2,"sourceObjectId":122148,"sourceURL":"https://maps8.stlouis-mo.gov/arcgis/rest/services/STREETS/Streets_Permitting/MapServer/2","title":"Street light L014868"},"type":"Feature"},{"geometry":{"coordinates":[-90.22889038980725,38.72537281549326],"type":"Point"},"id":"stl-city-public-streetlights:2:122149","properties":{"address":null,"attributes":{"Date_Installed":"2/14/2018","LED_Powered":1,"LightID":"L014869","Light_Source":"LED","Light_Type":"Cobra","Lighting_Type":"LED-Powered Lamp","Verification_Date":null},"id":"stl-city-public-streetlights:2:122149","sourceLayerId":2,"sourceObjectId":122149,"sourceURL":"https://maps8.stlouis-mo.gov/arcgis/rest/services/STREETS/Streets_Permitting/MapServer/2","title":"Street light L014869"},"type":"Feature"},{"geometry":{"coordinates":[-90.22840070070588,38.725320432636956],"type":"Point"},"id":"stl-city-public-streetlights:2:122150","properties":{"address":null,"attributes":{"Date_Installed":"2/14/2018","LED_Powered":1,"LightID":"L014870","Light_Source":"LED","Light_Type":"Cobra","Lighting_Type":"LED-Powered Lamp","Verification_Date":null},"id":"stl-city-public-streetlights:2:122150","sourceLayerId":2,"sourceObjectId":122150,"sourceURL":"https://maps8.stlouis-mo.gov/arcgis/rest/services/STREETS/Streets_Permitting/MapServer/2","title":"Street light L014870"},"type":"Feature"},{"geometry":{"coordinates":[-90.22781502546272,38.72554668408569],"type":"Point"},"id":"stl-city-public-streetlights:2:122151","properties":{"address":null,"attributes":{"Date_Installed":"2/14/2018","LED_Powered":1,"LightID":"L014871","Light_Source":"LED","Light_Type":"Cobra","Lighting_Type":"LED-Powered Lamp","Verification_Date":null},"id":"stl-city-public-streetlights:2:122151","sourceLayerId":2,"sourceObjectId":122151,"sourceURL":"https://maps8.stlouis-mo.gov/arcgis/rest/services/STREETS/Streets_Permitting/MapServer/2","title":"Street light L014871"},"type":"Feature"},{"geometry":{"coordinates":[-90.22736845059309,38.72550273937991],"type":"Point"},"id":"stl-city-public-streetlights:2:122152","properties":{"address":null,"attributes":{"Date_Installed":"2/14/2018","LED_Powered":1,"LightID":"L014872","Light_Source":"LED","Light_Type":"Cobra","Lighting_Type":"LED-Powered Lamp","Verification_Date":null},"id":"stl-city-public-streetlights:2:122152","sourceLayerId":2,"sourceObjectId":122152,"sourceURL":"https://maps8.stlouis-mo.gov/arcgis/rest/services/STREETS/Streets_Permitting/MapServer/2","title":"Street light L014872"},"type":"Feature"},{"geometry":{"coordinates":[-90.22701057078343,38.72546758003906],"type":"Point"},"id":"stl-city-public-streetlights:2:122153","properties":{"address":null,"attributes":{"Date_Installed":"2/14/2018","LED_Powered":1,"LightID":"L014873","Light_Source":"LED","Light_Type":"Cobra","Lighting_Type":"LED-Powered Lamp","Verification_Date":null},"id":"stl-city-public-streetlights:2:122153","sourceLayerId":2,"sourceObjectId":122153,"sourceURL":"https://maps8.stlouis-mo.gov/arcgis/rest/services/STREETS/Streets_Permitting/MapServer/2","title":"Street light L014873"},"type":"Feature"},{"geometry":{"coordinates":[-90.22658199196063,38.72542045732083],"type":"Point"},"id":"stl-city-public-streetlights:2:122154","properties":{"address":null,"attributes":{"Date_Installed":"2/14/2018","LED_Powered":1,"LightID":"L014874","Light_Source":"LED","Light_Type":"Cobra","Lighting_Type":"LED-Powered Lamp","Verification_Date":null},"id":"stl-city-public-streetlights:2:122154","sourceLayerId":2,"sourceObjectId":122154,"sourceURL":"https://maps8.stlouis-mo.gov/arcgis/rest/services/STREETS/Streets_Permitting/MapServer/2","title":"Street light L014874"},"type":"Feature"},{"geometry":{"coordinates":[-90.22615903927321,38.72538216398101],"type":"Point"},"id":"stl-city-public-streetlights:2:122155","properties":{"address":null,"attributes":{"Date_Installed":"2/14/2018","LED_Powered":1,"LightID":"L014875","Light_Source":"LED","Light_Type":"Cobra","Lighting_Type":"LED-Powered Lamp","Verification_Date":null},"id":"stl-city-public-streetlights:2:122155","sourceLayerId":2,"sourceObjectId":122155,"sourceURL":"https://maps8.stlouis-mo.gov/arcgis/rest/services/STREETS/Streets_Permitting/MapServer/2","title":"Street light L014875"},"type":"Feature"},{"geometry":{"coordinates":[-90.22576848984963,38.725344541499084],"type":"Point"},"id":"stl-city-public-streetlights:2:122156","properties":{"address":null,"attributes":{"Date_Installed":"2/14/2018","LED_Powered":1,"LightID":"L014876","Light_Source":"LED","Light_Type":"Cobra","Lighting_Type":"LED-Powered Lamp","Verification_Date":null},"id":"stl-city-public-streetlights:2:122156","sourceLayerId":2,"sourceObjectId":122156,"sourceURL":"https://maps8.stlouis-mo.gov/arcgis/rest/services/STREETS/Streets_Permitting/MapServer/2","title":"Street light L014876"},"type":"Feature"},{"geometry":{"coordinates":[-90.22371111156014,38.727756039458406],"type":"Point"},"id":"stl-city-public-streetlights:2:123104","properties":{"address":null,"attributes":{"Date_Installed":"6/25/2018","LED_Powered":1,"LightID":"L015824","Light_Source":"LED","Light_Type":"Cobra","Lighting_Type":"LED-Powered Lamp","Verification_Date":null},"id":"stl-city-public-streetlights:2:123104","sourceLayerId":2,"sourceObjectId":123104,"sourceURL":"https://maps8.stlouis-mo.gov/arcgis/rest/services/STREETS/Streets_Permitting/MapServer/2","title":"Street light L015824"},"type":"Feature"},{"geometry":{"coordinates":[-90.22423236236152,38.72761215801519],"type":"Point"},"id":"stl-city-public-streetlights:2:123105","properties":{"address":null,"attributes":{"Date_Installed":"6/25/2018","LED_Powered":1,"LightID":"L015825","Light_Source":"LED","Light_Type":"Cobra","Lighting_Type":"LED-Powered Lamp","Verification_Date":null},"id":"stl-city-public-streetlights:2:123105","sourceLayerId":2,"sourceObjectId":123105,"sourceURL":"https://maps8.stlouis-mo.gov/arcgis/rest/services/STREETS/Streets_Permitting/MapServer/2","title":"Street light L015825"},"type":"Feature"},{"geometry":{"coordinates":[-90.22479274360103,38.727462709762236],"type":"Point"},"id":"stl-city-public-streetlights:2:123106","properties":{"address":null,"attributes":{"Date_Installed":"6/25/2018","LED_Powered":1,"LightID":"L015826","Light_Source":"LED","Light_Type":"Cobra","Lighting_Type":"LED-Powered Lamp","Verification_Date":null},"id":"stl-city-public-streetlights:2:123106","sourceLayerId":2,"sourceObjectId":123106,"sourceURL":"https://maps8.stlouis-mo.gov/arcgis/rest/services/STREETS/Streets_Permitting/MapServer/2","title":"Street light L015826"},"type":"Feature"},{"geometry":{"coordinates":[-90.22530601826955,38.72732414423217],"type":"Point"},"id":"stl-city-public-streetlights:2:123107","properties":{"address":null,"attributes":{"Date_Installed":"6/25/2018","LED_Powered":1,"LightID":"L015827","Light_Source":"LED","Light_Type":"Cobra","Lighting_Type":"LED-Powered Lamp","Verification_Date":null},"id":"stl-city-public-streetlights:2:123107","sourceLayerId":2,"sourceObjectId":123107,"sourceURL":"https://maps8.stlouis-mo.gov/arcgis/rest/services/STREETS/Streets_Permitting/MapServer/2","title":"Street light L015827"},"type":"Feature"},{"geometry":{"coordinates":[-90.22591959686662,38.727160450182176],"type":"Point"},"id":"stl-city-public-streetlights:2:123108","properties":{"address":null,"attributes":{"Date_Installed":"6/25/2018","LED_Powered":1,"LightID":"L015828","Light_Source":"LED","Light_Type":"Cobra","Lighting_Type":"LED-Powered Lamp","Verification_Date":null},"id":"stl-city-public-streetlights:2:123108","sourceLayerId":2,"sourceObjectId":123108,"sourceURL":"https://maps8.stlouis-mo.gov/arcgis/rest/services/STREETS/Streets_Permitting/MapServer/2","title":"Street light L015828"},"type":"Feature"},{"geometry":{"coordinates":[-90.22637808957036,38.727023277578105],"type":"Point"},"id":"stl-city-public-streetlights:2:123109","properties":{"address":null,"attributes":{"Date_Installed":"6/25/2018","LED_Powered":1,"LightID":"L015829","Light_Source":"LED","Light_Type":"Cobra","Lighting_Type":"LED-Powered Lamp","Verification_Date":null},"id":"stl-city-public-streetlights:2:123109","sourceLayerId":2,"sourceObjectId":123109,"sourceURL":"https://maps8.stlouis-mo.gov/arcgis/rest/services/STREETS/Streets_Permitting/MapServer/2","title":"Street light L015829"},"type":"Feature"},{"geometry":{"coordinates":[-90.22696297461131,38.72694646338225],"type":"Point"},"id":"stl-city-public-streetlights:2:123110","properties":{"address":null,"attributes":{"Date_Installed":"6/25/2018","LED_Powered":1,"LightID":"L015830","Light_Source":"LED","Light_Type":"Cobra","Lighting_Type":"LED-Powered Lamp","Verification_Date":null},"id":"stl-city-public-streetlights:2:123110","sourceLayerId":2,"sourceObjectId":123110,"sourceURL":"https://maps8.stlouis-mo.gov/arcgis/rest/services/STREETS/Streets_Permitting/MapServer/2","title":"Street light L015830"},"type":"Feature"},{"geometry":{"coordinates":[-90.22754446647828,38.7268331222627],"type":"Point"},"id":"stl-city-public-streetlights:2:123111","properties":{"address":null,"attributes":{"Date_Installed":"6/25/2018","LED_Powered":1,"LightID":"L015831","Light_Source":"LED","Light_Type":"Cobra","Lighting_Type":"LED-Powered Lamp","Verification_Date":null},"id":"stl-city-public-streetlights:2:123111","sourceLayerId":2,"sourceObjectId":123111,"sourceURL":"https://maps8.stlouis-mo.gov/arcgis/rest/services/STREETS/Streets_Permitting/MapServer/2","title":"Street light L015831"},"type":"Feature"},{"geometry":{"coordinates":[-90.22807751030606,38.72669898237345],"type":"Point"},"id":"stl-city-public-streetlights:2:123112","properties":{"address":null,"attributes":{"Date_Installed":"6/25/2018","LED_Powered":1,"LightID":"L015832","Light_Source":"LED","Light_Type":"Cobra","Lighting_Type":"LED-Powered Lamp","Verification_Date":null},"id":"stl-city-public-streetlights:2:123112","sourceLayerId":2,"sourceObjectId":123112,"sourceURL":"https://maps8.stlouis-mo.gov/arcgis/rest/services/STREETS/Streets_Permitting/MapServer/2","title":"Street light L015832"},"type":"Feature"},{"geometry":{"coordinates":[-90.22846687360087,38.72656974503124],"type":"Point"},"id":"stl-city-public-streetlights:2:123113","properties":{"address":null,"attributes":{"Date_Installed":"6/25/2018","LED_Powered":1,"LightID":"L015833","Light_Source":"LED","Light_Type":"Cobra","Lighting_Type":"LED-Powered Lamp","Verification_Date":null},"id":"stl-city-public-streetlights:2:123113","sourceLayerId":2,"sourceObjectId":123113,"sourceURL":"https://maps8.stlouis-mo.gov/arcgis/rest/services/STREETS/Streets_Permitting/MapServer/2","title":"Street light L015833"},"type":"Feature"},{"geometry":{"coordinates":[-90.22893721499959,38.72636946012556],"type":"Point"},"id":"stl-city-public-streetlights:2:123114","properties":{"address":null,"attributes":{"Date_Installed":"6/25/2018","LED_Powered":1,"LightID":"L015834","Light_Source":"LED","Light_Type":"Cobra","Lighting_Type":"LED-Powered Lamp","Verification_Date":null},"id":"stl-city-public-streetlights:2:123114","sourceLayerId":2,"sourceObjectId":123114,"sourceURL":"https://maps8.stlouis-mo.gov/arcgis/rest/services/STREETS/Streets_Permitting/MapServer/2","title":"Street light L015834"},"type":"Feature"},{"geometry":{"coordinates":[-90.22938769923958,38.72614912972013],"type":"Point"},"id":"stl-city-public-streetlights:2:123115","properties":{"address":null,"attributes":{"Date_Installed":"6/25/2018","LED_Powered":1,"LightID":"L015835","Light_Source":"LED","Light_Type":"Cobra","Lighting_Type":"LED-Powered Lamp","Verification_Date":null},"id":"stl-city-public-streetlights:2:123115","sourceLayerId":2,"sourceObjectId":123115,"sourceURL":"https://maps8.stlouis-mo.gov/arcgis/rest/services/STREETS/Streets_Permitting/MapServer/2","title":"Street light L015835"},"type":"Feature"},{"geometry":{"coordinates":[-90.22991827251151,38.72588419106607],"type":"Point"},"id":"stl-city-public-streetlights:2:123116","properties":{"address":null,"attributes":{"Date_Installed":"6/25/2018","LED_Powered":1,"LightID":"L015836","Light_Source":"LED","Light_Type":"Cobra","Lighting_Type":"LED-Powered Lamp","Verification_Date":null},"id":"stl-city-public-streetlights:2:123116","sourceLayerId":2,"sourceObjectId":123116,"sourceURL":"https://maps8.stlouis-mo.gov/arcgis/rest/services/STREETS/Streets_Permitting/MapServer/2","title":"Street light L015836"},"type":"Feature"},{"geometry":{"coordinates":[-90.22985354038062,38.725802404157264],"type":"Point"},"id":"stl-city-public-streetlights:2:123119","properties":{"address":null,"attributes":{"Date_Installed":"6/25/2018","LED_Powered":1,"LightID":"L015839","Light_Source":"LED","Light_Type":"Cobra","Lighting_Type":"LED-Powered Lamp","Verification_Date":null},"id":"stl-city-public-streetlights:2:123119","sourceLayerId":2,"sourceObjectId":123119,"sourceURL":"https://maps8.stlouis-mo.gov/arcgis/rest/services/STREETS/Streets_Permitting/MapServer/2","title":"Street light L015839"},"type":"Feature"},{"geometry":{"coordinates":[-90.22931759501628,38.726019658447235],"type":"Point"},"id":"stl-city-public-streetlights:2:123120","properties":{"address":null,"attributes":{"Date_Installed":"6/25/2018","LED_Powered":1,"LightID":"L015840","Light_Source":"LED","Light_Type":"Cobra","Lighting_Type":"LED-Powered Lamp","Verification_Date":null},"id":"stl-city-public-streetlights:2:123120","sourceLayerId":2,"sourceObjectId":123120,"sourceURL":"https://maps8.stlouis-mo.gov/arcgis/rest/services/STREETS/Streets_Permitting/MapServer/2","title":"Street light L015840"},"type":"Feature"},{"geometry":{"coordinates":[-90.22874861171347,38.726174820947946],"type":"Point"},"id":"stl-city-public-streetlights:2:123121","properties":{"address":null,"attributes":{"Date_Installed":"6/25/2018","LED_Powered":1,"LightID":"L015841","Light_Source":"LED","Light_Type":"Cobra","Lighting_Type":"LED-Powered Lamp","Verification_Date":null},"id":"stl-city-public-streetlights:2:123121","sourceLayerId":2,"sourceObjectId":123121,"sourceURL":"https://maps8.stlouis-mo.gov/arcgis/rest/services/STREETS/Streets_Permitting/MapServer/2","title":"Street light L015841"},"type":"Feature"},{"geometry":{"coordinates":[-90.22819576266919,38.726327420958015],"type":"Point"},"id":"stl-city-public-streetlights:2:123122","properties":{"address":null,"attributes":{"Date_Installed":"6/25/2018","LED_Powered":1,"LightID":"L015842","Light_Source":"LED","Light_Type":"Cobra","Lighting_Type":"LED-Powered Lamp","Verification_Date":null},"id":"stl-city-public-streetlights:2:123122","sourceLayerId":2,"sourceObjectId":123122,"sourceURL":"https://maps8.stlouis-mo.gov/arcgis/rest/services/STREETS/Streets_Permitting/MapServer/2","title":"Street light L015842"},"type":"Feature"},{"geometry":{"coordinates":[-90.2277635245821,38.72659631040256],"type":"Point"},"id":"stl-city-public-streetlights:2:123123","properties":{"address":null,"attributes":{"Date_Installed":"8/1/2016","LED_Powered":1,"LightID":"L015843","Light_Source":"LED","Light_Type":"Cobra","Lighting_Type":"LED-Powered Lamp","Verification_Date":null},"id":"stl-city-public-streetlights:2:123123","sourceLayerId":2,"sourceObjectId":123123,"sourceURL":"https://maps8.stlouis-mo.gov/arcgis/rest/services/STREETS/Streets_Permitting/MapServer/2","title":"Street light L015843"},"type":"Feature"},{"geometry":{"coordinates":[-90.22765810631776,38.72647499351965],"type":"Point"},"id":"stl-city-public-streetlights:2:123124","properties":{"address":null,"attributes":{"Date_Installed":"6/25/2018","LED_Powered":1,"LightID":"L015844","Light_Source":"LED","Light_Type":"Cobra","Lighting_Type":"LED-Powered Lamp","Verification_Date":null},"id":"stl-city-public-streetlights:2:123124","sourceLayerId":2,"sourceObjectId":123124,"sourceURL":"https://maps8.stlouis-mo.gov/arcgis/rest/services/STREETS/Streets_Permitting/MapServer/2","title":"Street light L015844"},"type":"Feature"},{"geometry":{"coordinates":[-90.22716534931887,38.726603415777916],"type":"Point"},"id":"stl-city-public-streetlights:2:123125","properties":{"address":null,"attributes":{"Date_Installed":"6/25/2018","LED_Powered":1,"LightID":"L015845","Light_Source":"LED","Light_Type":"Cobra","Lighting_Type":"LED-Powered Lamp","Verification_Date":null},"id":"stl-city-public-streetlights:2:123125","sourceLayerId":2,"sourceObjectId":123125,"sourceURL":"https://maps8.stlouis-mo.gov/arcgis/rest/services/STREETS/Streets_Permitting/MapServer/2","title":"Street light L015845"},"type":"Feature"},{"geometry":{"coordinates":[-90.22664849409085,38.72674741520915],"type":"Point"},"id":"stl-city-public-streetlights:2:123126","properties":{"address":null,"attributes":{"Date_Installed":"6/25/2018","LED_Powered":1,"LightID":"L015846","Light_Source":"LED","Light_Type":"Cobra","Lighting_Type":"LED-Powered Lamp","Verification_Date":null},"id":"stl-city-public-streetlights:2:123126","sourceLayerId":2,"sourceObjectId":123126,"sourceURL":"https://maps8.stlouis-mo.gov/arcgis/rest/services/STREETS/Streets_Permitting/MapServer/2","title":"Street light L015846"},"type":"Feature"},{"geometry":{"coordinates":[-90.22609619237342,38.72689771832026],"type":"Point"},"id":"stl-city-public-streetlights:2:123127","properties":{"address":null,"attributes":{"Date_Installed":"6/25/2018","LED_Powered":1,"LightID":"L015847","Light_Source":"LED","Light_Type":"Cobra","Lighting_Type":"LED-Powered Lamp","Verification_Date":null},"id":"stl-city-public-streetlights:2:123127","sourceLayerId":2,"sourceObjectId":123127,"sourceURL":"https://maps8.stlouis-mo.gov/arcgis/rest/services/STREETS/Streets_Permitting/MapServer/2","title":"Street light L015847"},"type":"Feature"},{"geometry":{"coordinates":[-90.22537271909997,38.727029453414254],"type":"Point"},"id":"stl-city-public-streetlights:2:123128","properties":{"address":null,"attributes":{"Date_Installed":"6/25/2018","LED_Powered":1,"LightID":"L015848","Light_Source":"LED","Light_Type":"Cobra","Lighting_Type":"LED-Powered Lamp","Verification_Date":null},"id":"stl-city-public-streetlights:2:123128","sourceLayerId":2,"sourceObjectId":123128,"sourceURL":"https://maps8.stlouis-mo.gov/arcgis/rest/services/STREETS/Streets_Permitting/MapServer/2","title":"Street light L015848"},"type":"Feature"},{"geometry":{"coordinates":[-90.22487529394733,38.727159141482545],"type":"Point"},"id":"stl-city-public-streetlights:2:123129","properties":{"address":null,"attributes":{"Date_Installed":"6/25/2018","LED_Powered":1,"LightID":"L015849","Light_Source":"LED","Light_Type":"Cobra","Lighting_Type":"LED-Powered Lamp","Verification_Date":null},"id":"stl-city-public-streetlights:2:123129","sourceLayerId":2,"sourceObjectId":123129,"sourceURL":"https://maps8.stlouis-mo.gov/arcgis/rest/services/STREETS/Streets_Permitting/MapServer/2","title":"Street light L015849"},"type":"Feature"},{"geometry":{"coordinates":[-90.22453671109548,38.72725807294034],"type":"Point"},"id":"stl-city-public-streetlights:2:123130","properties":{"address":null,"attributes":{"Date_Installed":"6/25/2018","LED_Powered":1,"LightID":"L015850","Light_Source":"LED","Light_Type":"Cobra","Lighting_Type":"LED-Powered Lamp","Verification_Date":null},"id":"stl-city-public-streetlights:2:123130","sourceLayerId":2,"sourceObjectId":123130,"sourceURL":"https://maps8.stlouis-mo.gov/arcgis/rest/services/STREETS/Streets_Permitting/MapServer/2","title":"Street light L015850"},"type":"Feature"},{"geometry":{"coordinates":[-90.22344389967468,38.72754736944592],"type":"Point"},"id":"stl-city-public-streetlights:2:123131","properties":{"address":null,"attributes":{"Date_Installed":"6/25/2018","LED_Powered":1,"LightID":"L015851","Light_Source":"LED","Light_Type":"Cobra","Lighting_Type":"LED-Powered Lamp","Verification_Date":null},"id":"stl-city-public-streetlights:2:123131","sourceLayerId":2,"sourceObjectId":123131,"sourceURL":"https://maps8.stlouis-mo.gov/arcgis/rest/services/STREETS/Streets_Permitting/MapServer/2","title":"Street light L015851"},"type":"Feature"},{"geometry":{"coordinates":[-90.22856722695013,38.721141091291834],"type":"Point"},"id":"stl-city-public-streetlights:2:123132","properties":{"address":null,"attributes":{"Date_Installed":"6/25/2018","LED_Powered":1,"LightID":"L015852","Light_Source":"LED","Light_Type":"Cobra","Lighting_Type":"LED-Powered Lamp","Verification_Date":null},"id":"stl-city-public-streetlights:2:123132","sourceLayerId":2,"sourceObjectId":123132,"sourceURL":"https://maps8.stlouis-mo.gov/arcgis/rest/services/STREETS/Streets_Permitting/MapServer/2","title":"Street light L015852"},"type":"Feature"},{"geometry":{"coordinates":[-90.22811967470608,38.721153399712364],"type":"Point"},"id":"stl-city-public-streetlights:2:123133","properties":{"address":null,"attributes":{"Date_Installed":"6/25/2018","LED_Powered":1,"LightID":"L015853","Light_Source":"LED","Light_Type":"Cobra","Lighting_Type":"LED-Powered Lamp","Verification_Date":null},"id":"stl-city-public-streetlights:2:123133","sourceLayerId":2,"sourceObjectId":123133,"sourceURL":"https://maps8.stlouis-mo.gov/arcgis/rest/services/STREETS/Streets_Permitting/MapServer/2","title":"Street light L015853"},"type":"Feature"},{"geometry":{"coordinates":[-90.22793070013533,38.72108088010403],"type":"Point"},"id":"stl-city-public-streetlights:2:123134","properties":{"address":null,"attributes":{"Date_Installed":"6/25/2018","LED_Powered":1,"LightID":"L015854","Light_Source":"LED","Light_Type":"Cobra","Lighting_Type":"LED-Powered Lamp","Verification_Date":null},"id":"stl-city-public-streetlights:2:123134","sourceLayerId":2,"sourceObjectId":123134,"sourceURL":"https://maps8.stlouis-mo.gov/arcgis/rest/services/STREETS/Streets_Permitting/MapServer/2","title":"Street light L015854"},"type":"Feature"},{"geometry":{"coordinates":[-90.22814882260923,38.72266346044553],"type":"Point"},"id":"stl-city-public-streetlights:2:123135","properties":{"address":null,"attributes":{"Date_Installed":"6/25/2018","LED_Powered":1,"LightID":"L015855","Light_Source":"LED","Light_Type":"Cobra","Lighting_Type":"LED-Powered Lamp","Verification_Date":null},"id":"stl-city-public-streetlights:2:123135","sourceLayerId":2,"sourceObjectId":123135,"sourceURL":"https://maps8.stlouis-mo.gov/arcgis/rest/services/STREETS/Streets_Permitting/MapServer/2","title":"Street light L015855"},"type":"Feature"},{"geometry":{"coordinates":[-90.22815686260097,38.722259940659015],"type":"Point"},"id":"stl-city-public-streetlights:2:123136","properties":{"address":null,"attributes":{"Date_Installed":"6/25/2018","LED_Powered":1,"LightID":"L015856","Light_Source":"LED","Light_Type":"Cobra","Lighting_Type":"LED-Powered Lamp","Verification_Date":null},"id":"stl-city-public-streetlights:2:123136","sourceLayerId":2,"sourceObjectId":123136,"sourceURL":"https://maps8.stlouis-mo.gov/arcgis/rest/services/STREETS/Streets_Permitting/MapServer/2","title":"Street light L015856"},"type":"Feature"},{"geometry":{"coordinates":[-90.22782679888157,38.72196383491287],"type":"Point"},"id":"stl-city-public-streetlights:2:123137","properties":{"address":null,"attributes":{"Date_Installed":"6/25/2018","LED_Powered":1,"LightID":"L015857","Light_Source":"LED","Light_Type":"Cobra","Lighting_Type":"LED-Powered Lamp","Verification_Date":null},"id":"stl-city-public-streetlights:2:123137","sourceLayerId":2,"sourceObjectId":123137,"sourceURL":"https://maps8.stlouis-mo.gov/arcgis/rest/services/STREETS/Streets_Permitting/MapServer/2","title":"Street light L015857"},"type":"Feature"},{"geometry":{"coordinates":[-90.22822591582177,38.72216624340196],"type":"Point"},"id":"stl-city-public-streetlights:2:123138","properties":{"address":null,"attributes":{"Date_Installed":"6/25/2018","LED_Powered":1,"LightID":"L015858","Light_Source":"LED","Light_Type":"Cobra","Lighting_Type":"LED-Powered Lamp","Verification_Date":null},"id":"stl-city-public-streetlights:2:123138","sourceLayerId":2,"sourceObjectId":123138,"sourceURL":"https://maps8.stlouis-mo.gov/arcgis/rest/services/STREETS/Streets_Permitting/MapServer/2","title":"Street light L015858"},"type":"Feature"},{"geometry":{"coordinates":[-90.22829761347776,38.72205137174609],"type":"Point"},"id":"stl-city-public-streetlights:2:123139","properties":{"address":null,"attributes":{"Date_Installed":"6/25/2018","LED_Powered":1,"LightID":"L015859","Light_Source":"LED","Light_Type":"Cobra","Lighting_Type":"LED-Powered Lamp","Verification_Date":null},"id":"stl-city-public-streetlights:2:123139","sourceLayerId":2,"sourceObjectId":123139,"sourceURL":"https://maps8.stlouis-mo.gov/arcgis/rest/services/STREETS/Streets_Permitting/MapServer/2","title":"Street light L015859"},"type":"Feature"},{"geometry":{"coordinates":[-90.22843625585848,38.72185338035164],"type":"Point"},"id":"stl-city-public-streetlights:2:123140","properties":{"address":null,"attributes":{"Date_Installed":"6/25/2018","LED_Powered":1,"LightID":"L015860","Light_Source":"LED","Light_Type":"Cobra","Lighting_Type":"LED-Powered Lamp","Verification_Date":null},"id":"stl-city-public-streetlights:2:123140","sourceLayerId":2,"sourceObjectId":123140,"sourceURL":"https://maps8.stlouis-mo.gov/arcgis/rest/services/STREETS/Streets_Permitting/MapServer/2","title":"Street light L015860"},"type":"Feature"},{"geometry":{"coordinates":[-90.22814811344394,38.721999252677016],"type":"Point"},"id":"stl-city-public-streetlights:2:123141","properties":{"address":null,"attributes":{"Date_Installed":"6/25/2018","LED_Powered":1,"LightID":"L015861","Light_Source":"LED","Light_Type":"Cobra","Lighting_Type":"LED-Powered Lamp","Verification_Date":null},"id":"stl-city-public-streetlights:2:123141","sourceLayerId":2,"sourceObjectId":123141,"sourceURL":"https://maps8.stlouis-mo.gov/arcgis/rest/services/STREETS/Streets_Permitting/MapServer/2","title":"Street light L015861"},"type":"Feature"},{"geometry":{"coordinates":[-90.22817188337588,38.72182864413977],"type":"Point"},"id":"stl-city-public-streetlights:2:123142","properties":{"address":null,"attributes":{"Date_Installed":"6/25/2018","LED_Powered":1,"LightID":"L015862","Light_Source":"LED","Light_Type":"Cobra","Lighting_Type":"LED-Powered Lamp","Verification_Date":null},"id":"stl-city-public-streetlights:2:123142","sourceLayerId":2,"sourceObjectId":123142,"sourceURL":"https://maps8.stlouis-mo.gov/arcgis/rest/services/STREETS/Streets_Permitting/MapServer/2","title":"Street light L015862"},"type":"Feature"},{"geometry":{"coordinates":[-90.22853186784667,38.721717155663065],"type":"Point"},"id":"stl-city-public-streetlights:2:123143","properties":{"address":null,"attributes":{"Date_Installed":"6/25/2018","LED_Powered":1,"LightID":"L015863","Light_Source":"LED","Light_Type":"Cobra","Lighting_Type":"LED-Powered Lamp","Verification_Date":null},"id":"stl-city-public-streetlights:2:123143","sourceLayerId":2,"sourceObjectId":123143,"sourceURL":"https://maps8.stlouis-mo.gov/arcgis/rest/services/STREETS/Streets_Permitting/MapServer/2","title":"Street light L015863"},"type":"Feature"},{"geometry":{"coordinates":[-90.2281407793793,38.72168651083587],"type":"Point"},"id":"stl-city-public-streetlights:2:123144","properties":{"address":null,"attributes":{"Date_Installed":"6/25/2018","LED_Powered":1,"LightID":"L015864","Light_Source":"LED","Light_Type":"Cobra","Lighting_Type":"LED-Powered Lamp (Twin Lights)","Verification_Date":null},"id":"stl-city-public-streetlights:2:123144","sourceLayerId":2,"sourceObjectId":123144,"sourceURL":"https://maps8.stlouis-mo.gov/arcgis/rest/services/STREETS/Streets_Permitting/MapServer/2","title":"Street light L015864"},"type":"Feature"},{"geometry":{"coordinates":[-90.22798427142837,38.72155667107412],"type":"Point"},"id":"stl-city-public-streetlights:2:123145","properties":{"address":null,"attributes":{"Date_Installed":"6/25/2018","LED_Powered":1,"LightID":"L015865","Light_Source":"LED","Light_Type":"Cobra","Lighting_Type":"LED-Powered Lamp","Verification_Date":null},"id":"stl-city-public-streetlights:2:123145","sourceLayerId":2,"sourceObjectId":123145,"sourceURL":"https://maps8.stlouis-mo.gov/arcgis/rest/services/STREETS/Streets_Permitting/MapServer/2","title":"Street light L015865"},"type":"Feature"},{"geometry":{"coordinates":[-90.22793247908947,38.721414203096366],"type":"Point"},"id":"stl-city-public-streetlights:2:123146","properties":{"address":null,"attributes":{"Date_Installed":"6/25/2018","LED_Powered":1,"LightID":"L015866","Light_Source":"LED","Light_Type":"Cobra","Lighting_Type":"LED-Powered Lamp","Verification_Date":null},"id":"stl-city-public-streetlights:2:123146","sourceLayerId":2,"sourceObjectId":123146,"sourceURL":"https://maps8.stlouis-mo.gov/arcgis/rest/services/STREETS/Streets_Permitting/MapServer/2","title":"Street light L015866"},"type":"Feature"},{"geometry":{"coordinates":[-90.2276185633484,38.72172546549097],"type":"Point"},"id":"stl-city-public-streetlights:2:123147","properties":{"address":null,"attributes":{"Date_Installed":"6/25/2018","LED_Powered":1,"LightID":"L015867","Light_Source":"LED","Light_Type":"Cobra","Lighting_Type":"LED-Powered Lamp","Verification_Date":null},"id":"stl-city-public-streetlights:2:123147","sourceLayerId":2,"sourceObjectId":123147,"sourceURL":"https://maps8.stlouis-mo.gov/arcgis/rest/services/STREETS/Streets_Permitting/MapServer/2","title":"Street light L015867"},"type":"Feature"},{"geometry":{"coordinates":[-90.22750022967857,38.72162671766822],"type":"Point"},"id":"stl-city-public-streetlights:2:123148","properties":{"address":null,"attributes":{"Date_Installed":"6/25/2018","LED_Powered":1,"LightID":"L015868","Light_Source":"LED","Light_Type":"Cobra","Lighting_Type":"LED-Powered Lamp","Verification_Date":null},"id":"stl-city-public-streetlights:2:123148","sourceLayerId":2,"sourceObjectId":123148,"sourceURL":"https://maps8.stlouis-mo.gov/arcgis/rest/services/STREETS/Streets_Permitting/MapServer/2","title":"Street light L015868"},"type":"Feature"},{"geometry":{"coordinates":[-90.22752718688578,38.72125823198426],"type":"Point"},"id":"stl-city-public-streetlights:2:123149","properties":{"address":null,"attributes":{"Date_Installed":"6/25/2018","LED_Powered":1,"LightID":"L015869","Light_Source":"LED","Light_Type":"Cobra","Lighting_Type":"LED-Powered Lamp","Verification_Date":null},"id":"stl-city-public-streetlights:2:123149","sourceLayerId":2,"sourceObjectId":123149,"sourceURL":"https://maps8.stlouis-mo.gov/arcgis/rest/services/STREETS/Streets_Permitting/MapServer/2","title":"Street light L015869"},"type":"Feature"},{"geometry":{"coordinates":[-90.2278376686888,38.721657545162564],"type":"Point"},"id":"stl-city-public-streetlights:2:123150","properties":{"address":null,"attributes":{"Date_Installed":"6/25/2018","LED_Powered":1,"LightID":"L015870","Light_Source":"LED","Light_Type":"Cobra","Lighting_Type":"LED-Powered Lamp (Twin Lights)","Verification_Date":null},"id":"stl-city-public-streetlights:2:123150","sourceLayerId":2,"sourceObjectId":123150,"sourceURL":"https://maps8.stlouis-mo.gov/arcgis/rest/services/STREETS/Streets_Permitting/MapServer/2","title":"Street light L015870"},"type":"Feature"},{"geometry":{"coordinates":[-90.22770471612462,38.72150192452484],"type":"Point"},"id":"stl-city-public-streetlights:2:123151","properties":{"address":null,"attributes":{"Date_Installed":"6/25/2018","LED_Powered":1,"LightID":"L015871","Light_Source":"LED","Light_Type":"Cobra","Lighting_Type":"LED-Powered Lamp","Verification_Date":null},"id":"stl-city-public-streetlights:2:123151","sourceLayerId":2,"sourceObjectId":123151,"sourceURL":"https://maps8.stlouis-mo.gov/arcgis/rest/services/STREETS/Streets_Permitting/MapServer/2","title":"Street light L015871"},"type":"Feature"},{"geometry":{"coordinates":[-90.22788559878023,38.72176682671552],"type":"Point"},"id":"stl-city-public-streetlights:2:123162","properties":{"address":null,"attributes":{"Date_Installed":"6/25/2018","LED_Powered":1,"LightID":"L015882","Light_Source":"LED","Light_Type":"Cobra","Lighting_Type":"LED-Powered Lamp","Verification_Date":null},"id":"stl-city-public-streetlights:2:123162","sourceLayerId":2,"sourceObjectId":123162,"sourceURL":"https://maps8.stlouis-mo.gov/arcgis/rest/services/STREETS/Streets_Permitting/MapServer/2","title":"Street light L015882"},"type":"Feature"},{"geometry":{"coordinates":[-90.22922086380653,38.72373938438324],"type":"Point"},"id":"stl-city-public-streetlights:2:123662","properties":{"address":null,"attributes":{"Date_Installed":"6/25/2018","LED_Powered":1,"LightID":"L016390","Light_Source":"LED","Light_Type":"Cobra","Lighting_Type":"LED-Powered Lamp","Verification_Date":null},"id":"stl-city-public-streetlights:2:123662","sourceLayerId":2,"sourceObjectId":123662,"sourceURL":"https://maps8.stlouis-mo.gov/arcgis/rest/services/STREETS/Streets_Permitting/MapServer/2","title":"Street light L016390"},"type":"Feature"},{"geometry":{"coordinates":[-90.229695032997,38.723890587355065],"type":"Point"},"id":"stl-city-public-streetlights:2:123663","properties":{"address":null,"attributes":{"Date_Installed":"6/25/2018","LED_Powered":1,"LightID":"L016391","Light_Source":"LED","Light_Type":"Cobra","Lighting_Type":"LED-Powered Lamp","Verification_Date":null},"id":"stl-city-public-streetlights:2:123663","sourceLayerId":2,"sourceObjectId":123663,"sourceURL":"https://maps8.stlouis-mo.gov/arcgis/rest/services/STREETS/Streets_Permitting/MapServer/2","title":"Street light L016391"},"type":"Feature"},{"geometry":{"coordinates":[-90.220095470858,38.72969772376923],"type":"Point"},"id":"stl-city-public-streetlights:2:137706","properties":{"address":null,"attributes":{"Date_Installed":null,"LED_Powered":0,"LightID":"L030422","Light_Source":"High Pressure Sodium","Light_Type":"Cobra","Lighting_Type":"400-W High Pressure Sodium Vapor Lamp (Twin Lights)","Verification_Date":null},"id":"stl-city-public-streetlights:2:137706","sourceLayerId":2,"sourceObjectId":137706,"sourceURL":"https://maps8.stlouis-mo.gov/arcgis/rest/services/STREETS/Streets_Permitting/MapServer/2","title":"Street light L030422"},"type":"Feature"},{"geometry":{"coordinates":[-90.22069816540723,38.72944441393201],"type":"Point"},"id":"stl-city-public-streetlights:2:137707","properties":{"address":null,"attributes":{"Date_Installed":null,"LED_Powered":0,"LightID":"L030423","Light_Source":"High Pressure Sodium","Light_Type":"Cobra","Lighting_Type":"400-W High Pressure Sodium Vapor Lamp","Verification_Date":null},"id":"stl-city-public-streetlights:2:137707","sourceLayerId":2,"sourceObjectId":137707,"sourceURL":"https://maps8.stlouis-mo.gov/arcgis/rest/services/STREETS/Streets_Permitting/MapServer/2","title":"Street light L030423"},"type":"Feature"},{"geometry":{"coordinates":[-90.22118860091734,38.72912470367725],"type":"Point"},"id":"stl-city-public-streetlights:2:137708","properties":{"address":null,"attributes":{"Date_Installed":null,"LED_Powered":0,"LightID":"L030424","Light_Source":"High Pressure Sodium","Light_Type":"Cobra","Lighting_Type":"400-W High Pressure Sodium Vapor Lamp","Verification_Date":null},"id":"stl-city-public-streetlights:2:137708","sourceLayerId":2,"sourceObjectId":137708,"sourceURL":"https://maps8.stlouis-mo.gov/arcgis/rest/services/STREETS/Streets_Permitting/MapServer/2","title":"Street light L030424"},"type":"Feature"},{"geometry":{"coordinates":[-90.22045202295865,38.729358017297756],"type":"Point"},"id":"stl-city-public-streetlights:2:137709","properties":{"address":null,"attributes":{"Date_Installed":null,"LED_Powered":0,"LightID":"L030425","Light_Source":"High Pressure Sodium","Light_Type":"Cobra","Lighting_Type":"400-W High Pressure Sodium Vapor Lamp","Verification_Date":null},"id":"stl-city-public-streetlights:2:137709","sourceLayerId":2,"sourceObjectId":137709,"sourceURL":"https://maps8.stlouis-mo.gov/arcgis/rest/services/STREETS/Streets_Permitting/MapServer/2","title":"Street light L030425"},"type":"Feature"},{"geometry":{"coordinates":[-90.22335586914994,38.72948653102602],"type":"Point"},"id":"stl-city-public-streetlights:2:137710","properties":{"address":null,"attributes":{"Date_Installed":"6/25/2018","LED_Powered":1,"LightID":"L030426","Light_Source":"LED","Light_Type":"Cobra","Lighting_Type":"LED-Powered Lamp","Verification_Date":null},"id":"stl-city-public-streetlights:2:137710","sourceLayerId":2,"sourceObjectId":137710,"sourceURL":"https://maps8.stlouis-mo.gov/arcgis/rest/services/STREETS/Streets_Permitting/MapServer/2","title":"Street light L030426"},"type":"Feature"},{"geometry":{"coordinates":[-90.22288917199221,38.729438827106584],"type":"Point"},"id":"stl-city-public-streetlights:2:137711","properties":{"address":null,"attributes":{"Date_Installed":"6/25/2018","LED_Powered":1,"LightID":"L030427","Light_Source":"LED","Light_Type":"Cobra","Lighting_Type":"LED-Powered Lamp","Verification_Date":null},"id":"stl-city-public-streetlights:2:137711","sourceLayerId":2,"sourceObjectId":137711,"sourceURL":"https://maps8.stlouis-mo.gov/arcgis/rest/services/STREETS/Streets_Permitting/MapServer/2","title":"Street light L030427"},"type":"Feature"},{"geometry":{"coordinates":[-90.22231204393795,38.72932932751656],"type":"Point"},"id":"stl-city-public-streetlights:2:137712","properties":{"address":null,"attributes":{"Date_Installed":"6/25/2018","LED_Powered":1,"LightID":"L030428","Light_Source":"LED","Light_Type":"Cobra","Lighting_Type":"LED-Powered Lamp","Verification_Date":null},"id":"stl-city-public-streetlights:2:137712","sourceLayerId":2,"sourceObjectId":137712,"sourceURL":"https://maps8.stlouis-mo.gov/arcgis/rest/services/STREETS/Streets_Permitting/MapServer/2","title":"Street light L030428"},"type":"Feature"},{"geometry":{"coordinates":[-90.22191446297468,38.728997113638606],"type":"Point"},"id":"stl-city-public-streetlights:2:137713","properties":{"address":null,"attributes":{"Date_Installed":"6/25/2018","LED_Powered":1,"LightID":"L030429","Light_Source":"LED","Light_Type":"Cobra","Lighting_Type":"LED-Powered Lamp","Verification_Date":null},"id":"stl-city-public-streetlights:2:137713","sourceLayerId":2,"sourceObjectId":137713,"sourceURL":"https://maps8.stlouis-mo.gov/arcgis/rest/services/STREETS/Streets_Permitting/MapServer/2","title":"Street light L030429"},"type":"Feature"},{"geometry":{"coordinates":[-90.22176028100563,38.72875506273511],"type":"Point"},"id":"stl-city-public-streetlights:2:137714","properties":{"address":null,"attributes":{"Date_Installed":null,"LED_Powered":0,"LightID":"L030430","Light_Source":"High Pressure Sodium","Light_Type":"Cobra","Lighting_Type":"400-W High Pressure Sodium Vapor Lamp","Verification_Date":null},"id":"stl-city-public-streetlights:2:137714","sourceLayerId":2,"sourceObjectId":137714,"sourceURL":"https://maps8.stlouis-mo.gov/arcgis/rest/services/STREETS/Streets_Permitting/MapServer/2","title":"Street light L030430"},"type":"Feature"},{"geometry":{"coordinates":[-90.22213090160393,38.728521162611464],"type":"Point"},"id":"stl-city-public-streetlights:2:137715","properties":{"address":null,"attributes":{"Date_Installed":null,"LED_Powered":0,"LightID":"L030431","Light_Source":"High Pressure Sodium","Light_Type":"Cobra","Lighting_Type":"400-W High Pressure Sodium Vapor Lamp","Verification_Date":null},"id":"stl-city-public-streetlights:2:137715","sourceLayerId":2,"sourceObjectId":137715,"sourceURL":"https://maps8.stlouis-mo.gov/arcgis/rest/services/STREETS/Streets_Permitting/MapServer/2","title":"Street light L030431"},"type":"Feature"},{"geometry":{"coordinates":[-90.22260809003821,38.728214672128864],"type":"Point"},"id":"stl-city-public-streetlights:2:137716","properties":{"address":null,"attributes":{"Date_Installed":null,"LED_Powered":0,"LightID":"L030432","Light_Source":"High Pressure Sodium","Light_Type":"Cobra","Lighting_Type":"400-W High Pressure Sodium Vapor Lamp","Verification_Date":null},"id":"stl-city-public-streetlights:2:137716","sourceLayerId":2,"sourceObjectId":137716,"sourceURL":"https://maps8.stlouis-mo.gov/arcgis/rest/services/STREETS/Streets_Permitting/MapServer/2","title":"Street light L030432"},"type":"Feature"},{"geometry":{"coordinates":[-90.2230849857786,38.727935280014364],"type":"Point"},"id":"stl-city-public-streetlights:2:137717","properties":{"address":null,"attributes":{"Date_Installed":"6/25/2018","LED_Powered":1,"LightID":"L030433","Light_Source":"LED","Light_Type":"Cobra","Lighting_Type":"LED-Powered Lamp","Verification_Date":null},"id":"stl-city-public-streetlights:2:137717","sourceLayerId":2,"sourceObjectId":137717,"sourceURL":"https://maps8.stlouis-mo.gov/arcgis/rest/services/STREETS/Streets_Permitting/MapServer/2","title":"Street light L030433"},"type":"Feature"},{"geometry":{"coordinates":[-90.22323271507858,38.72761275161705],"type":"Point"},"id":"stl-city-public-streetlights:2:137718","properties":{"address":null,"attributes":{"Date_Installed":"6/25/2018","LED_Powered":1,"LightID":"L030434","Light_Source":"LED","Light_Type":"Cobra","Lighting_Type":"LED-Powered Lamp","Verification_Date":null},"id":"stl-city-public-streetlights:2:137718","sourceLayerId":2,"sourceObjectId":137718,"sourceURL":"https://maps8.stlouis-mo.gov/arcgis/rest/services/STREETS/Streets_Permitting/MapServer/2","title":"Street light L030434"},"type":"Feature"},{"geometry":{"coordinates":[-90.22136824218369,38.7287832084145],"type":"Point"},"id":"stl-city-public-streetlights:2:137719","properties":{"address":null,"attributes":{"Date_Installed":null,"LED_Powered":0,"LightID":"L030435","Light_Source":"High Pressure Sodium","Light_Type":"Cobra","Lighting_Type":"400-W High Pressure Sodium Vapor Lamp","Verification_Date":null},"id":"stl-city-public-streetlights:2:137719","sourceLayerId":2,"sourceObjectId":137719,"sourceURL":"https://maps8.stlouis-mo.gov/arcgis/rest/services/STREETS/Streets_Permitting/MapServer/2","title":"Street light L030435"},"type":"Feature"},{"geometry":{"coordinates":[-90.22179572947272,38.728480559451334],"type":"Point"},"id":"stl-city-public-streetlights:2:137720","properties":{"address":null,"attributes":{"Date_Installed":null,"LED_Powered":0,"LightID":"L030436","Light_Source":"High Pressure Sodium","Light_Type":"Cobra","Lighting_Type":"400-W High Pressure Sodium Vapor Lamp","Verification_Date":null},"id":"stl-city-public-streetlights:2:137720","sourceLayerId":2,"sourceObjectId":137720,"sourceURL":"https://maps8.stlouis-mo.gov/arcgis/rest/services/STREETS/Streets_Permitting/MapServer/2","title":"Street light L030436"},"type":"Feature"},{"geometry":{"coordinates":[-90.22222520879284,38.72817338493779],"type":"Point"},"id":"stl-city-public-streetlights:2:137721","properties":{"address":null,"attributes":{"Date_Installed":null,"LED_Powered":0,"LightID":"L030437","Light_Source":"High Pressure Sodium","Light_Type":"Cobra","Lighting_Type":"400-W High Pressure Sodium Vapor Lamp","Verification_Date":null},"id":"stl-city-public-streetlights:2:137721","sourceLayerId":2,"sourceObjectId":137721,"sourceURL":"https://maps8.stlouis-mo.gov/arcgis/rest/services/STREETS/Streets_Permitting/MapServer/2","title":"Street light L030437"},"type":"Feature"},{"geometry":{"coordinates":[-90.22252812158403,38.72786219600541],"type":"Point"},"id":"stl-city-public-streetlights:2:137722","properties":{"address":null,"attributes":{"Date_Installed":null,"LED_Powered":0,"LightID":"L030438","Light_Source":"High Pressure Sodium","Light_Type":"Cobra","Lighting_Type":"400-W High Pressure Sodium Vapor Lamp","Verification_Date":null},"id":"stl-city-public-streetlights:2:137722","sourceLayerId":2,"sourceObjectId":137722,"sourceURL":"https://maps8.stlouis-mo.gov/arcgis/rest/services/STREETS/Streets_Permitting/MapServer/2","title":"Street light L030438"},"type":"Feature"},{"geometry":{"coordinates":[-90.22287244150314,38.72754248214756],"type":"Point"},"id":"stl-city-public-streetlights:2:137723","properties":{"address":null,"attributes":{"Date_Installed":null,"LED_Powered":0,"LightID":"L030439","Light_Source":"High Pressure Sodium","Light_Type":"Cobra","Lighting_Type":"400-W High Pressure Sodium Vapor Lamp","Verification_Date":null},"id":"stl-city-public-streetlights:2:137723","sourceLayerId":2,"sourceObjectId":137723,"sourceURL":"https://maps8.stlouis-mo.gov/arcgis/rest/services/STREETS/Streets_Permitting/MapServer/2","title":"Street light L030439"},"type":"Feature"},{"geometry":{"coordinates":[-90.22321316037002,38.727248560700346],"type":"Point"},"id":"stl-city-public-streetlights:2:137724","properties":{"address":null,"attributes":{"Date_Installed":null,"LED_Powered":0,"LightID":"L030440","Light_Source":"High Pressure Sodium","Light_Type":"Cobra","Lighting_Type":"400-W High Pressure Sodium Vapor Lamp","Verification_Date":null},"id":"stl-city-public-streetlights:2:137724","sourceLayerId":2,"sourceObjectId":137724,"sourceURL":"https://maps8.stlouis-mo.gov/arcgis/rest/services/STREETS/Streets_Permitting/MapServer/2","title":"Street light L030440"},"type":"Feature"},{"geometry":{"coordinates":[-90.22358730475226,38.72700513026056],"type":"Point"},"id":"stl-city-public-streetlights:2:137725","properties":{"address":null,"attributes":{"Date_Installed":null,"LED_Powered":0,"LightID":"L030441","Light_Source":"High Pressure Sodium","Light_Type":"Cobra","Lighting_Type":"400-W High Pressure Sodium Vapor Lamp","Verification_Date":null},"id":"stl-city-public-streetlights:2:137725","sourceLayerId":2,"sourceObjectId":137725,"sourceURL":"https://maps8.stlouis-mo.gov/arcgis/rest/services/STREETS/Streets_Permitting/MapServer/2","title":"Street light L030441"},"type":"Feature"},{"geometry":{"coordinates":[-90.22453487590147,38.726324115709744],"type":"Point"},"id":"stl-city-public-streetlights:2:137726","properties":{"address":null,"attributes":{"Date_Installed":null,"LED_Powered":0,"LightID":"L030442","Light_Source":"High Pressure Sodium","Light_Type":"Cobra","Lighting_Type":"400-W High Pressure Sodium Vapor Lamp","Verification_Date":null},"id":"stl-city-public-streetlights:2:137726","sourceLayerId":2,"sourceObjectId":137726,"sourceURL":"https://maps8.stlouis-mo.gov/arcgis/rest/services/STREETS/Streets_Permitting/MapServer/2","title":"Street light L030442"},"type":"Feature"},{"geometry":{"coordinates":[-90.22486414390707,38.725993908456715],"type":"Point"},"id":"stl-city-public-streetlights:2:137727","properties":{"address":null,"attributes":{"Date_Installed":null,"LED_Powered":0,"LightID":"L030443","Light_Source":"High Pressure Sodium","Light_Type":"Cobra","Lighting_Type":"400-W High Pressure Sodium Vapor Lamp","Verification_Date":null},"id":"stl-city-public-streetlights:2:137727","sourceLayerId":2,"sourceObjectId":137727,"sourceURL":"https://maps8.stlouis-mo.gov/arcgis/rest/services/STREETS/Streets_Permitting/MapServer/2","title":"Street light L030443"},"type":"Feature"},{"geometry":{"coordinates":[-90.22526285374913,38.72544257235583],"type":"Point"},"id":"stl-city-public-streetlights:2:137728","properties":{"address":null,"attributes":{"Date_Installed":null,"LED_Powered":0,"LightID":"L030444","Light_Source":"High Pressure Sodium","Light_Type":"Cobra","Lighting_Type":"400-W High Pressure Sodium Vapor Lamp","Verification_Date":null},"id":"stl-city-public-streetlights:2:137728","sourceLayerId":2,"sourceObjectId":137728,"sourceURL":"https://maps8.stlouis-mo.gov/arcgis/rest/services/STREETS/Streets_Permitting/MapServer/2","title":"Street light L030444"},"type":"Feature"},{"geometry":{"coordinates":[-90.22551841300422,38.724934709340545],"type":"Point"},"id":"stl-city-public-streetlights:2:137729","properties":{"address":null,"attributes":{"Date_Installed":null,"LED_Powered":0,"LightID":"L030445","Light_Source":"High Pressure Sodium","Light_Type":"Cobra","Lighting_Type":"400-W High Pressure Sodium Vapor Lamp","Verification_Date":null},"id":"stl-city-public-streetlights:2:137729","sourceLayerId":2,"sourceObjectId":137729,"sourceURL":"https://maps8.stlouis-mo.gov/arcgis/rest/services/STREETS/Streets_Permitting/MapServer/2","title":"Street light L030445"},"type":"Feature"},{"geometry":{"coordinates":[-90.22566029364825,38.72445391791022],"type":"Point"},"id":"stl-city-public-streetlights:2:137730","properties":{"address":null,"attributes":{"Date_Installed":null,"LED_Powered":0,"LightID":"L030446","Light_Source":"High Pressure Sodium","Light_Type":"Cobra","Lighting_Type":"400-W High Pressure Sodium Vapor Lamp","Verification_Date":null},"id":"stl-city-public-streetlights:2:137730","sourceLayerId":2,"sourceObjectId":137730,"sourceURL":"https://maps8.stlouis-mo.gov/arcgis/rest/services/STREETS/Streets_Permitting/MapServer/2","title":"Street light L030446"},"type":"Feature"},{"geometry":{"coordinates":[-90.22575369847257,38.72393857118108],"type":"Point"},"id":"stl-city-public-streetlights:2:137731","properties":{"address":null,"attributes":{"Date_Installed":null,"LED_Powered":0,"LightID":"L030447","Light_Source":"High Pressure Sodium","Light_Type":"Cobra","Lighting_Type":"400-W High Pressure Sodium Vapor Lamp","Verification_Date":null},"id":"stl-city-public-streetlights:2:137731","sourceLayerId":2,"sourceObjectId":137731,"sourceURL":"https://maps8.stlouis-mo.gov/arcgis/rest/services/STREETS/Streets_Permitting/MapServer/2","title":"Street light L030447"},"type":"Feature"},{"geometry":{"coordinates":[-90.22585051075274,38.723390957536225],"type":"Point"},"id":"stl-city-public-streetlights:2:137732","properties":{"address":null,"attributes":{"Date_Installed":null,"LED_Powered":0,"LightID":"L030448","Light_Source":"High Pressure Sodium","Light_Type":"Cobra","Lighting_Type":"400-W High Pressure Sodium Vapor Lamp","Verification_Date":null},"id":"stl-city-public-streetlights:2:137732","sourceLayerId":2,"sourceObjectId":137732,"sourceURL":"https://maps8.stlouis-mo.gov/arcgis/rest/services/STREETS/Streets_Permitting/MapServer/2","title":"Street light L030448"},"type":"Feature"},{"geometry":{"coordinates":[-90.22594629216991,38.72281025756785],"type":"Point"},"id":"stl-city-public-streetlights:2:137733","properties":{"address":null,"attributes":{"Date_Installed":null,"LED_Powered":0,"LightID":"L030449","Light_Source":"High Pressure Sodium","Light_Type":"Cobra","Lighting_Type":"400-W High Pressure Sodium Vapor Lamp","Verification_Date":null},"id":"stl-city-public-streetlights:2:137733","sourceLayerId":2,"sourceObjectId":137733,"sourceURL":"https://maps8.stlouis-mo.gov/arcgis/rest/services/STREETS/Streets_Permitting/MapServer/2","title":"Street light L030449"},"type":"Feature"},{"geometry":{"coordinates":[-90.22604292932692,38.72224386087586],"type":"Point"},"id":"stl-city-public-streetlights:2:137734","properties":{"address":null,"attributes":{"Date_Installed":null,"LED_Powered":0,"LightID":"L030450","Light_Source":"High Pressure Sodium","Light_Type":"Cobra","Lighting_Type":"400-W High Pressure Sodium Vapor Lamp","Verification_Date":null},"id":"stl-city-public-streetlights:2:137734","sourceLayerId":2,"sourceObjectId":137734,"sourceURL":"https://maps8.stlouis-mo.gov/arcgis/rest/services/STREETS/Streets_Permitting/MapServer/2","title":"Street light L030450"},"type":"Feature"},{"geometry":{"coordinates":[-90.2261418279393,38.72168261875289],"type":"Point"},"id":"stl-city-public-streetlights:2:137735","properties":{"address":null,"attributes":{"Date_Installed":null,"LED_Powered":0,"LightID":"L030451","Light_Source":"High Pressure Sodium","Light_Type":"Cobra","Lighting_Type":"400-W High Pressure Sodium Vapor Lamp","Verification_Date":null},"id":"stl-city-public-streetlights:2:137735","sourceLayerId":2,"sourceObjectId":137735,"sourceURL":"https://maps8.stlouis-mo.gov/arcgis/rest/services/STREETS/Streets_Permitting/MapServer/2","title":"Street light L030451"},"type":"Feature"},{"geometry":{"coordinates":[-90.22622788670331,38.721136791050355],"type":"Point"},"id":"stl-city-public-streetlights:2:137736","properties":{"address":null,"attributes":{"Date_Installed":null,"LED_Powered":0,"LightID":"L030452","Light_Source":"High Pressure Sodium","Light_Type":"Cobra","Lighting_Type":"400-W High Pressure Sodium Vapor Lamp","Verification_Date":null},"id":"stl-city-public-streetlights:2:137736","sourceLayerId":2,"sourceObjectId":137736,"sourceURL":"https://maps8.stlouis-mo.gov/arcgis/rest/services/STREETS/Streets_Permitting/MapServer/2","title":"Street light L030452"},"type":"Feature"},{"geometry":{"coordinates":[-90.2263340892461,38.72057399192555],"type":"Point"},"id":"stl-city-public-streetlights:2:137737","properties":{"address":null,"attributes":{"Date_Installed":null,"LED_Powered":0,"LightID":"L030453","Light_Source":"High Pressure Sodium","Light_Type":"Cobra","Lighting_Type":"400-W High Pressure Sodium Vapor Lamp","Verification_Date":null},"id":"stl-city-public-streetlights:2:137737","sourceLayerId":2,"sourceObjectId":137737,"sourceURL":"https://maps8.stlouis-mo.gov/arcgis/rest/services/STREETS/Streets_Permitting/MapServer/2","title":"Street light L030453"},"type":"Feature"},{"geometry":{"coordinates":[-90.22641375798088,38.72007562971982],"type":"Point"},"id":"stl-city-public-streetlights:2:137738","properties":{"address":null,"attributes":{"Date_Installed":null,"LED_Powered":0,"LightID":"L030454","Light_Source":"High Pressure Sodium","Light_Type":"Cobra","Lighting_Type":"400-W High Pressure Sodium Vapor Lamp","Verification_Date":null},"id":"stl-city-public-streetlights:2:137738","sourceLayerId":2,"sourceObjectId":137738,"sourceURL":"https://maps8.stlouis-mo.gov/arcgis/rest/services/STREETS/Streets_Permitting/MapServer/2","title":"Street light L030454"},"type":"Feature"},{"geometry":{"coordinates":[-90.2240450593917,38.72697641695101],"type":"Point"},"id":"stl-city-public-streetlights:2:137747","properties":{"address":null,"attributes":{"Date_Installed":null,"LED_Powered":1,"LightID":"L030463","Light_Source":"LED","Light_Type":"Cobra","Lighting_Type":"LED-Powered Lamp","Verification_Date":null},"id":"stl-city-public-streetlights:2:137747","sourceLayerId":2,"sourceObjectId":137747,"sourceURL":"https://maps8.stlouis-mo.gov/arcgis/rest/services/STREETS/Streets_Permitting/MapServer/2","title":"Street light L030463"},"type":"Feature"},{"geometry":{"coordinates":[-90.22464751328494,38.72652841493376],"type":"Point"},"id":"stl-city-public-streetlights:2:137748","properties":{"address":null,"attributes":{"Date_Installed":null,"LED_Powered":1,"LightID":"L030464","Light_Source":"LED","Light_Type":"Cobra","Lighting_Type":"LED-Powered Lamp","Verification_Date":null},"id":"stl-city-public-streetlights:2:137748","sourceLayerId":2,"sourceObjectId":137748,"sourceURL":"https://maps8.stlouis-mo.gov/arcgis/rest/services/STREETS/Streets_Permitting/MapServer/2","title":"Street light L030464"},"type":"Feature"},{"geometry":{"coordinates":[-90.2250556194702,38.7261308901966],"type":"Point"},"id":"stl-city-public-streetlights:2:137749","properties":{"address":null,"attributes":{"Date_Installed":null,"LED_Powered":1,"LightID":"L030465","Light_Source":"LED","Light_Type":"Cobra","Lighting_Type":"LED-Powered Lamp","Verification_Date":null},"id":"stl-city-public-streetlights:2:137749","sourceLayerId":2,"sourceObjectId":137749,"sourceURL":"https://maps8.stlouis-mo.gov/arcgis/rest/services/STREETS/Streets_Permitting/MapServer/2","title":"Street light L030465"},"type":"Feature"},{"geometry":{"coordinates":[-90.22539807132004,38.725690185797426],"type":"Point"},"id":"stl-city-public-streetlights:2:137750","properties":{"address":null,"attributes":{"Date_Installed":null,"LED_Powered":1,"LightID":"L030466","Light_Source":"LED","Light_Type":"Cobra","Lighting_Type":"LED-Powered Lamp","Verification_Date":null},"id":"stl-city-public-streetlights:2:137750","sourceLayerId":2,"sourceObjectId":137750,"sourceURL":"https://maps8.stlouis-mo.gov/arcgis/rest/services/STREETS/Streets_Permitting/MapServer/2","title":"Street light L030466"},"type":"Feature"},{"geometry":{"coordinates":[-90.22566837747995,38.72522466583871],"type":"Point"},"id":"stl-city-public-streetlights:2:137751","properties":{"address":null,"attributes":{"Date_Installed":null,"LED_Powered":1,"LightID":"L030467","Light_Source":"LED","Light_Type":"Cobra","Lighting_Type":"LED-Powered Lamp","Verification_Date":null},"id":"stl-city-public-streetlights:2:137751","sourceLayerId":2,"sourceObjectId":137751,"sourceURL":"https://maps8.stlouis-mo.gov/arcgis/rest/services/STREETS/Streets_Permitting/MapServer/2","title":"Street light L030467"},"type":"Feature"},{"geometry":{"coordinates":[-90.22584202343832,38.72475229085062],"type":"Point"},"id":"stl-city-public-streetlights:2:137752","properties":{"address":null,"attributes":{"Date_Installed":null,"LED_Powered":1,"LightID":"L030468","Light_Source":"LED","Light_Type":"Cobra","Lighting_Type":"LED-Powered Lamp","Verification_Date":null},"id":"stl-city-public-streetlights:2:137752","sourceLayerId":2,"sourceObjectId":137752,"sourceURL":"https://maps8.stlouis-mo.gov/arcgis/rest/services/STREETS/Streets_Permitting/MapServer/2","title":"Street light L030468"},"type":"Feature"},{"geometry":{"coordinates":[-90.22596680459819,38.72426693022915],"type":"Point"},"id":"stl-city-public-streetlights:2:137753","properties":{"address":null,"attributes":{"Date_Installed":null,"LED_Powered":1,"LightID":"L030469","Light_Source":"LED","Light_Type":"Cobra","Lighting_Type":"LED-Powered Lamp","Verification_Date":null},"id":"stl-city-public-streetlights:2:137753","sourceLayerId":2,"sourceObjectId":137753,"sourceURL":"https://maps8.stlouis-mo.gov/arcgis/rest/services/STREETS/Streets_Permitting/MapServer/2","title":"Street light L030469"},"type":"Feature"},{"geometry":{"coordinates":[-90.22604177834612,38.7237166202956],"type":"Point"},"id":"stl-city-public-streetlights:2:137754","properties":{"address":null,"attributes":{"Date_Installed":null,"LED_Powered":1,"LightID":"L030470","Light_Source":"LED","Light_Type":"Cobra","Lighting_Type":"LED-Powered Lamp","Verification_Date":null},"id":"stl-city-public-streetlights:2:137754","sourceLayerId":2,"sourceObjectId":137754,"sourceURL":"https://maps8.stlouis-mo.gov/arcgis/rest/services/STREETS/Streets_Permitting/MapServer/2","title":"Street light L030470"},"type":"Feature"},{"geometry":{"coordinates":[-90.22615252628636,38.723184294464346],"type":"Point"},"id":"stl-city-public-streetlights:2:137755","properties":{"address":null,"attributes":{"Date_Installed":null,"LED_Powered":1,"LightID":"L030471","Light_Source":"LED","Light_Type":"Cobra","Lighting_Type":"LED-Powered Lamp","Verification_Date":null},"id":"stl-city-public-streetlights:2:137755","sourceLayerId":2,"sourceObjectId":137755,"sourceURL":"https://maps8.stlouis-mo.gov/arcgis/rest/services/STREETS/Streets_Permitting/MapServer/2","title":"Street light L030471"},"type":"Feature"},{"geometry":{"coordinates":[-90.22624224241595,38.72263761782597],"type":"Point"},"id":"stl-city-public-streetlights:2:137756","properties":{"address":null,"attributes":{"Date_Installed":null,"LED_Powered":1,"LightID":"L030472","Light_Source":"LED","Light_Type":"Cobra","Lighting_Type":"LED-Powered Lamp","Verification_Date":null},"id":"stl-city-public-streetlights:2:137756","sourceLayerId":2,"sourceObjectId":137756,"sourceURL":"https://maps8.stlouis-mo.gov/arcgis/rest/services/STREETS/Streets_Permitting/MapServer/2","title":"Street light L030472"},"type":"Feature"},{"geometry":{"coordinates":[-90.22633334273394,38.72208615254514],"type":"Point"},"id":"stl-city-public-streetlights:2:137757","properties":{"address":null,"attributes":{"Date_Installed":null,"LED_Powered":1,"LightID":"L030473","Light_Source":"LED","Light_Type":"Cobra","Lighting_Type":"LED-Powered Lamp","Verification_Date":null},"id":"stl-city-public-streetlights:2:137757","sourceLayerId":2,"sourceObjectId":137757,"sourceURL":"https://maps8.stlouis-mo.gov/arcgis/rest/services/STREETS/Streets_Permitting/MapServer/2","title":"Street light L030473"},"type":"Feature"},{"geometry":{"coordinates":[-90.22642536183267,38.721533117260094],"type":"Point"},"id":"stl-city-public-streetlights:2:137758","properties":{"address":null,"attributes":{"Date_Installed":null,"LED_Powered":1,"LightID":"L030474","Light_Source":"LED","Light_Type":"Cobra","Lighting_Type":"LED-Powered Lamp","Verification_Date":null},"id":"stl-city-public-streetlights:2:137758","sourceLayerId":2,"sourceObjectId":137758,"sourceURL":"https://maps8.stlouis-mo.gov/arcgis/rest/services/STREETS/Streets_Permitting/MapServer/2","title":"Street light L030474"},"type":"Feature"},{"geometry":{"coordinates":[-90.22652021361301,38.72099469888752],"type":"Point"},"id":"stl-city-public-streetlights:2:137759","properties":{"address":null,"attributes":{"Date_Installed":null,"LED_Powered":1,"LightID":"L030475","Light_Source":"LED","Light_Type":"Cobra","Lighting_Type":"LED-Powered Lamp","Verification_Date":null},"id":"stl-city-public-streetlights:2:137759","sourceLayerId":2,"sourceObjectId":137759,"sourceURL":"https://maps8.stlouis-mo.gov/arcgis/rest/services/STREETS/Streets_Permitting/MapServer/2","title":"Street light L030475"},"type":"Feature"},{"geometry":{"coordinates":[-90.22661332532523,38.7204465964001],"type":"Point"},"id":"stl-city-public-streetlights:2:137760","properties":{"address":null,"attributes":{"Date_Installed":null,"LED_Powered":1,"LightID":"L030476","Light_Source":"LED","Light_Type":"Cobra","Lighting_Type":"LED-Powered Lamp","Verification_Date":null},"id":"stl-city-public-streetlights:2:137760","sourceLayerId":2,"sourceObjectId":137760,"sourceURL":"https://maps8.stlouis-mo.gov/arcgis/rest/services/STREETS/Streets_Permitting/MapServer/2","title":"Street light L030476"},"type":"Feature"},{"geometry":{"coordinates":[-90.22737871948038,38.72318978250482],"type":"Point"},"id":"stl-city-public-streetlights:2:137780","properties":{"address":null,"attributes":{"Date_Installed":"8/1/2016","LED_Powered":1,"LightID":"L030496","Light_Source":"LED","Light_Type":"Cobra","Lighting_Type":"LED-Powered Lamp","Verification_Date":null},"id":"stl-city-public-streetlights:2:137780","sourceLayerId":2,"sourceObjectId":137780,"sourceURL":"https://maps8.stlouis-mo.gov/arcgis/rest/services/STREETS/Streets_Permitting/MapServer/2","title":"Street light L030496"},"type":"Feature"},{"geometry":{"coordinates":[-90.22732638112346,38.7235111560858],"type":"Point"},"id":"stl-city-public-streetlights:2:137781","properties":{"address":null,"attributes":{"Date_Installed":"8/1/2016","LED_Powered":1,"LightID":"L030497","Light_Source":"LED","Light_Type":"Cobra","Lighting_Type":"LED-Powered Lamp","Verification_Date":null},"id":"stl-city-public-streetlights:2:137781","sourceLayerId":2,"sourceObjectId":137781,"sourceURL":"https://maps8.stlouis-mo.gov/arcgis/rest/services/STREETS/Streets_Permitting/MapServer/2","title":"Street light L030497"},"type":"Feature"},{"geometry":{"coordinates":[-90.22726447171738,38.723868905390276],"type":"Point"},"id":"stl-city-public-streetlights:2:137782","properties":{"address":null,"attributes":{"Date_Installed":"1/2017","LED_Powered":1,"LightID":"L030498","Light_Source":"LED","Light_Type":"Cobra","Lighting_Type":"LED-Powered Lamp","Verification_Date":null},"id":"stl-city-public-streetlights:2:137782","sourceLayerId":2,"sourceObjectId":137782,"sourceURL":"https://maps8.stlouis-mo.gov/arcgis/rest/services/STREETS/Streets_Permitting/MapServer/2","title":"Street light L030498"},"type":"Feature"},{"geometry":{"coordinates":[-90.22719846658583,38.724223308238436],"type":"Point"},"id":"stl-city-public-streetlights:2:137783","properties":{"address":null,"attributes":{"Date_Installed":"1/2017","LED_Powered":1,"LightID":"L030499","Light_Source":"LED","Light_Type":"Cobra","Lighting_Type":"LED-Powered Lamp","Verification_Date":null},"id":"stl-city-public-streetlights:2:137783","sourceLayerId":2,"sourceObjectId":137783,"sourceURL":"https://maps8.stlouis-mo.gov/arcgis/rest/services/STREETS/Streets_Permitting/MapServer/2","title":"Street light L030499"},"type":"Feature"},{"geometry":{"coordinates":[-90.22713979469114,38.72456947431703],"type":"Point"},"id":"stl-city-public-streetlights:2:137784","properties":{"address":null,"attributes":{"Date_Installed":"1/2017","LED_Powered":1,"LightID":"L030500","Light_Source":"LED","Light_Type":"Cobra","Lighting_Type":"LED-Powered Lamp","Verification_Date":null},"id":"stl-city-public-streetlights:2:137784","sourceLayerId":2,"sourceObjectId":137784,"sourceURL":"https://maps8.stlouis-mo.gov/arcgis/rest/services/STREETS/Streets_Permitting/MapServer/2","title":"Street light L030500"},"type":"Feature"},{"geometry":{"coordinates":[-90.22708563623077,38.72488898495707],"type":"Point"},"id":"stl-city-public-streetlights:2:137785","properties":{"address":null,"attributes":{"Date_Installed":"1/2017","LED_Powered":1,"LightID":"L030501","Light_Source":"LED","Light_Type":"Cobra","Lighting_Type":"LED-Powered Lamp","Verification_Date":null},"id":"stl-city-public-streetlights:2:137785","sourceLayerId":2,"sourceObjectId":137785,"sourceURL":"https://maps8.stlouis-mo.gov/arcgis/rest/services/STREETS/Streets_Permitting/MapServer/2","title":"Street light L030501"},"type":"Feature"},{"geometry":{"coordinates":[-90.22702357507356,38.72524577966485],"type":"Point"},"id":"stl-city-public-streetlights:2:137786","properties":{"address":null,"attributes":{"Date_Installed":"1/2017","LED_Powered":1,"LightID":"L030502","Light_Source":"LED","Light_Type":"Cobra","Lighting_Type":"LED-Powered Lamp","Verification_Date":null},"id":"stl-city-public-streetlights:2:137786","sourceLayerId":2,"sourceObjectId":137786,"sourceURL":"https://maps8.stlouis-mo.gov/arcgis/rest/services/STREETS/Streets_Permitting/MapServer/2","title":"Street light L030502"},"type":"Feature"},{"geometry":{"coordinates":[-90.22696219672596,38.725583150329236],"type":"Point"},"id":"stl-city-public-streetlights:2:137787","properties":{"address":null,"attributes":{"Date_Installed":"1/2017","LED_Powered":1,"LightID":"L030503","Light_Source":"LED","Light_Type":"Cobra","Lighting_Type":"LED-Powered Lamp","Verification_Date":null},"id":"stl-city-public-streetlights:2:137787","sourceLayerId":2,"sourceObjectId":137787,"sourceURL":"https://maps8.stlouis-mo.gov/arcgis/rest/services/STREETS/Streets_Permitting/MapServer/2","title":"Street light L030503"},"type":"Feature"},{"geometry":{"coordinates":[-90.22691351762771,38.72590148176971],"type":"Point"},"id":"stl-city-public-streetlights:2:137788","properties":{"address":null,"attributes":{"Date_Installed":"1/2017","LED_Powered":1,"LightID":"L030504","Light_Source":"LED","Light_Type":"Cobra","Lighting_Type":"LED-Powered Lamp","Verification_Date":null},"id":"stl-city-public-streetlights:2:137788","sourceLayerId":2,"sourceObjectId":137788,"sourceURL":"https://maps8.stlouis-mo.gov/arcgis/rest/services/STREETS/Streets_Permitting/MapServer/2","title":"Street light L030504"},"type":"Feature"},{"geometry":{"coordinates":[-90.22811194000576,38.727958092626125],"type":"Point"},"id":"stl-city-public-streetlights:2:137789","properties":{"address":null,"attributes":{"Date_Installed":"6/25/2018","LED_Powered":1,"LightID":"L030505","Light_Source":"LED","Light_Type":"Cobra","Lighting_Type":"LED-Powered Lamp","Verification_Date":null},"id":"stl-city-public-streetlights:2:137789","sourceLayerId":2,"sourceObjectId":137789,"sourceURL":"https://maps8.stlouis-mo.gov/arcgis/rest/services/STREETS/Streets_Permitting/MapServer/2","title":"Street light L030505"},"type":"Feature"},{"geometry":{"coordinates":[-90.22807191731975,38.72759927187365],"type":"Point"},"id":"stl-city-public-streetlights:2:137790","properties":{"address":null,"attributes":{"Date_Installed":"6/25/2018","LED_Powered":1,"LightID":"L030506","Light_Source":"LED","Light_Type":"Cobra","Lighting_Type":"LED-Powered Lamp","Verification_Date":null},"id":"stl-city-public-streetlights:2:137790","sourceLayerId":2,"sourceObjectId":137790,"sourceURL":"https://maps8.stlouis-mo.gov/arcgis/rest/services/STREETS/Streets_Permitting/MapServer/2","title":"Street light L030506"},"type":"Feature"},{"geometry":{"coordinates":[-90.22803455877161,38.72724403285801],"type":"Point"},"id":"stl-city-public-streetlights:2:137791","properties":{"address":null,"attributes":{"Date_Installed":"6/25/2018","LED_Powered":1,"LightID":"L030507","Light_Source":"LED","Light_Type":"Cobra","Lighting_Type":"LED-Powered Lamp","Verification_Date":null},"id":"stl-city-public-streetlights:2:137791","sourceLayerId":2,"sourceObjectId":137791,"sourceURL":"https://maps8.stlouis-mo.gov/arcgis/rest/services/STREETS/Streets_Permitting/MapServer/2","title":"Street light L030507"},"type":"Feature"},{"geometry":{"coordinates":[-90.22802212284539,38.72688830405715],"type":"Point"},"id":"stl-city-public-streetlights:2:137792","properties":{"address":null,"attributes":{"Date_Installed":"6/25/2018","LED_Powered":1,"LightID":"L030508","Light_Source":"LED","Light_Type":"Cobra","Lighting_Type":"LED-Powered Lamp","Verification_Date":null},"id":"stl-city-public-streetlights:2:137792","sourceLayerId":2,"sourceObjectId":137792,"sourceURL":"https://maps8.stlouis-mo.gov/arcgis/rest/services/STREETS/Streets_Permitting/MapServer/2","title":"Street light L030508"},"type":"Feature"},{"geometry":{"coordinates":[-90.22805162165893,38.726451106608245],"type":"Point"},"id":"stl-city-public-streetlights:2:137793","properties":{"address":null,"attributes":{"Date_Installed":"8/1/2016","LED_Powered":1,"LightID":"L030509","Light_Source":"LED","Light_Type":"Cobra","Lighting_Type":"LED-Powered Lamp","Verification_Date":null},"id":"stl-city-public-streetlights:2:137793","sourceLayerId":2,"sourceObjectId":137793,"sourceURL":"https://maps8.stlouis-mo.gov/arcgis/rest/services/STREETS/Streets_Permitting/MapServer/2","title":"Street light L030509"},"type":"Feature"},{"geometry":{"coordinates":[-90.22812836471836,38.725952594584726],"type":"Point"},"id":"stl-city-public-streetlights:2:137794","properties":{"address":null,"attributes":{"Date_Installed":"8/1/2016","LED_Powered":1,"LightID":"L030510","Light_Source":"LED","Light_Type":"Cobra","Lighting_Type":"LED-Powered Lamp","Verification_Date":null},"id":"stl-city-public-streetlights:2:137794","sourceLayerId":2,"sourceObjectId":137794,"sourceURL":"https://maps8.stlouis-mo.gov/arcgis/rest/services/STREETS/Streets_Permitting/MapServer/2","title":"Street light L030510"},"type":"Feature"},{"geometry":{"coordinates":[-90.22821601833358,38.72546526247353],"type":"Point"},"id":"stl-city-public-streetlights:2:137795","properties":{"address":null,"attributes":{"Date_Installed":"8/1/2016","LED_Powered":1,"LightID":"L030511","Light_Source":"LED","Light_Type":"Cobra","Lighting_Type":"LED-Powered Lamp","Verification_Date":null},"id":"stl-city-public-streetlights:2:137795","sourceLayerId":2,"sourceObjectId":137795,"sourceURL":"https://maps8.stlouis-mo.gov/arcgis/rest/services/STREETS/Streets_Permitting/MapServer/2","title":"Street light L030511"},"type":"Feature"},{"geometry":{"coordinates":[-90.2283126109637,38.72488682743876],"type":"Point"},"id":"stl-city-public-streetlights:2:137796","properties":{"address":null,"attributes":{"Date_Installed":"8/1/2016","LED_Powered":1,"LightID":"L030512","Light_Source":"LED","Light_Type":"Cobra","Lighting_Type":"LED-Powered Lamp","Verification_Date":null},"id":"stl-city-public-streetlights:2:137796","sourceLayerId":2,"sourceObjectId":137796,"sourceURL":"https://maps8.stlouis-mo.gov/arcgis/rest/services/STREETS/Streets_Permitting/MapServer/2","title":"Street light L030512"},"type":"Feature"},{"geometry":{"coordinates":[-90.22838974856688,38.72442380692917],"type":"Point"},"id":"stl-city-public-streetlights:2:137797","properties":{"address":null,"attributes":{"Date_Installed":"8/1/2016","LED_Powered":1,"LightID":"L030513","Light_Source":"LED","Light_Type":"Cobra","Lighting_Type":"LED-Powered Lamp","Verification_Date":null},"id":"stl-city-public-streetlights:2:137797","sourceLayerId":2,"sourceObjectId":137797,"sourceURL":"https://maps8.stlouis-mo.gov/arcgis/rest/services/STREETS/Streets_Permitting/MapServer/2","title":"Street light L030513"},"type":"Feature"},{"geometry":{"coordinates":[-90.22848304846441,38.723890579863685],"type":"Point"},"id":"stl-city-public-streetlights:2:137798","properties":{"address":null,"attributes":{"Date_Installed":"8/1/2016","LED_Powered":1,"LightID":"L030514","Light_Source":"LED","Light_Type":"Cobra","Lighting_Type":"LED-Powered Lamp","Verification_Date":null},"id":"stl-city-public-streetlights:2:137798","sourceLayerId":2,"sourceObjectId":137798,"sourceURL":"https://maps8.stlouis-mo.gov/arcgis/rest/services/STREETS/Streets_Permitting/MapServer/2","title":"Street light L030514"},"type":"Feature"},{"geometry":{"coordinates":[-90.2285910582972,38.723329212823465],"type":"Point"},"id":"stl-city-public-streetlights:2:137799","properties":{"address":null,"attributes":{"Date_Installed":"8/1/2016","LED_Powered":1,"LightID":"L030515","Light_Source":"LED","Light_Type":"Cobra","Lighting_Type":"LED-Powered Lamp","Verification_Date":null},"id":"stl-city-public-streetlights:2:137799","sourceLayerId":2,"sourceObjectId":137799,"sourceURL":"https://maps8.stlouis-mo.gov/arcgis/rest/services/STREETS/Streets_Permitting/MapServer/2","title":"Street light L030515"},"type":"Feature"},{"geometry":{"coordinates":[-90.2286825561752,38.72278911753652],"type":"Point"},"id":"stl-city-public-streetlights:2:137800","properties":{"address":null,"attributes":{"Date_Installed":"8/1/2016","LED_Powered":1,"LightID":"L030516","Light_Source":"LED","Light_Type":"Cobra","Lighting_Type":"LED-Powered Lamp","Verification_Date":null},"id":"stl-city-public-streetlights:2:137800","sourceLayerId":2,"sourceObjectId":137800,"sourceURL":"https://maps8.stlouis-mo.gov/arcgis/rest/services/STREETS/Streets_Permitting/MapServer/2","title":"Street light L030516"},"type":"Feature"},{"geometry":{"coordinates":[-90.22876490207328,38.72225486379779],"type":"Point"},"id":"stl-city-public-streetlights:2:137801","properties":{"address":null,"attributes":{"Date_Installed":"8/1/2016","LED_Powered":1,"LightID":"L030517","Light_Source":"LED","Light_Type":"Cobra","Lighting_Type":"LED-Powered Lamp","Verification_Date":null},"id":"stl-city-public-streetlights:2:137801","sourceLayerId":2,"sourceObjectId":137801,"sourceURL":"https://maps8.stlouis-mo.gov/arcgis/rest/services/STREETS/Streets_Permitting/MapServer/2","title":"Street light L030517"},"type":"Feature"},{"geometry":{"coordinates":[-90.22885317406426,38.721746366234626],"type":"Point"},"id":"stl-city-public-streetlights:2:137802","properties":{"address":null,"attributes":{"Date_Installed":"8/1/2016","LED_Powered":1,"LightID":"L030518","Light_Source":"LED","Light_Type":"Cobra","Lighting_Type":"LED-Powered Lamp","Verification_Date":null},"id":"stl-city-public-streetlights:2:137802","sourceLayerId":2,"sourceObjectId":137802,"sourceURL":"https://maps8.stlouis-mo.gov/arcgis/rest/services/STREETS/Streets_Permitting/MapServer/2","title":"Street light L030518"},"type":"Feature"},{"geometry":{"coordinates":[-90.22893727812871,38.72122913480924],"type":"Point"},"id":"stl-city-public-streetlights:2:137803","properties":{"address":null,"attributes":{"Date_Installed":"8/1/2016","LED_Powered":1,"LightID":"L030519","Light_Source":"LED","Light_Type":"Cobra","Lighting_Type":"LED-Powered Lamp","Verification_Date":null},"id":"stl-city-public-streetlights:2:137803","sourceLayerId":2,"sourceObjectId":137803,"sourceURL":"https://maps8.stlouis-mo.gov/arcgis/rest/services/STREETS/Streets_Permitting/MapServer/2","title":"Street light L030519"},"type":"Feature"},{"geometry":{"coordinates":[-90.22902675118843,38.72074023296937],"type":"Point"},"id":"stl-city-public-streetlights:2:137804","properties":{"address":null,"attributes":{"Date_Installed":"8/1/2016","LED_Powered":1,"LightID":"L030520","Light_Source":"LED","Light_Type":"Cobra","Lighting_Type":"LED-Powered Lamp","Verification_Date":null},"id":"stl-city-public-streetlights:2:137804","sourceLayerId":2,"sourceObjectId":137804,"sourceURL":"https://maps8.stlouis-mo.gov/arcgis/rest/services/STREETS/Streets_Permitting/MapServer/2","title":"Street light L030520"},"type":"Feature"},{"geometry":{"coordinates":[-90.22911438672892,38.72025433028375],"type":"Point"},"id":"stl-city-public-streetlights:2:137805","properties":{"address":null,"attributes":{"Date_Installed":"8/1/2016","LED_Powered":1,"LightID":"L030521","Light_Source":"LED","Light_Type":"Cobra","Lighting_Type":"LED-Powered Lamp","Verification_Date":null},"id":"stl-city-public-streetlights:2:137805","sourceLayerId":2,"sourceObjectId":137805,"sourceURL":"https://maps8.stlouis-mo.gov/arcgis/rest/services/STREETS/Streets_Permitting/MapServer/2","title":"Street light L030521"},"type":"Feature"},{"geometry":{"coordinates":[-90.22884690163488,38.72042699656046],"type":"Point"},"id":"stl-city-public-streetlights:2:137834","properties":{"address":null,"attributes":{"Date_Installed":"8/1/2016","LED_Powered":1,"LightID":"L030550","Light_Source":"LED","Light_Type":"Cobra","Lighting_Type":"LED-Powered Lamp","Verification_Date":null},"id":"stl-city-public-streetlights:2:137834","sourceLayerId":2,"sourceObjectId":137834,"sourceURL":"https://maps8.stlouis-mo.gov/arcgis/rest/services/STREETS/Streets_Permitting/MapServer/2","title":"Street light L030550"},"type":"Feature"},{"geometry":{"coordinates":[-90.22875946449061,38.72094019063961],"type":"Point"},"id":"stl-city-public-streetlights:2:137835","properties":{"address":null,"attributes":{"Date_Installed":"8/1/2016","LED_Powered":1,"LightID":"L030551","Light_Source":"LED","Light_Type":"Cobra","Lighting_Type":"LED-Powered Lamp","Verification_Date":null},"id":"stl-city-public-streetlights:2:137835","sourceLayerId":2,"sourceObjectId":137835,"sourceURL":"https://maps8.stlouis-mo.gov/arcgis/rest/services/STREETS/Streets_Permitting/MapServer/2","title":"Street light L030551"},"type":"Feature"},{"geometry":{"coordinates":[-90.22867351965036,38.72146135091588],"type":"Point"},"id":"stl-city-public-streetlights:2:137836","properties":{"address":null,"attributes":{"Date_Installed":"8/1/2016","LED_Powered":1,"LightID":"L030552","Light_Source":"LED","Light_Type":"Cobra","Lighting_Type":"LED-Powered Lamp","Verification_Date":null},"id":"stl-city-public-streetlights:2:137836","sourceLayerId":2,"sourceObjectId":137836,"sourceURL":"https://maps8.stlouis-mo.gov/arcgis/rest/services/STREETS/Streets_Permitting/MapServer/2","title":"Street light L030552"},"type":"Feature"},{"geometry":{"coordinates":[-90.22858893574043,38.7219598454904],"type":"Point"},"id":"stl-city-public-streetlights:2:137837","properties":{"address":null,"attributes":{"Date_Installed":"8/1/2016","LED_Powered":1,"LightID":"L030553","Light_Source":"LED","Light_Type":"Cobra","Lighting_Type":"LED-Powered Lamp","Verification_Date":null},"id":"stl-city-public-streetlights:2:137837","sourceLayerId":2,"sourceObjectId":137837,"sourceURL":"https://maps8.stlouis-mo.gov/arcgis/rest/services/STREETS/Streets_Permitting/MapServer/2","title":"Street light L030553"},"type":"Feature"},{"geometry":{"coordinates":[-90.22849747504715,38.72249021680993],"type":"Point"},"id":"stl-city-public-streetlights:2:137838","properties":{"address":null,"attributes":{"Date_Installed":"8/1/2016","LED_Powered":1,"LightID":"L030554","Light_Source":"LED","Light_Type":"Cobra","Lighting_Type":"LED-Powered Lamp","Verification_Date":null},"id":"stl-city-public-streetlights:2:137838","sourceLayerId":2,"sourceObjectId":137838,"sourceURL":"https://maps8.stlouis-mo.gov/arcgis/rest/services/STREETS/Streets_Permitting/MapServer/2","title":"Street light L030554"},"type":"Feature"},{"geometry":{"coordinates":[-90.22840606447437,38.723007287589574],"type":"Point"},"id":"stl-city-public-streetlights:2:137839","properties":{"address":null,"attributes":{"Date_Installed":"8/1/2016","LED_Powered":1,"LightID":"L030555","Light_Source":"LED","Light_Type":"Cobra","Lighting_Type":"LED-Powered Lamp","Verification_Date":null},"id":"stl-city-public-streetlights:2:137839","sourceLayerId":2,"sourceObjectId":137839,"sourceURL":"https://maps8.stlouis-mo.gov/arcgis/rest/services/STREETS/Streets_Permitting/MapServer/2","title":"Street light L030555"},"type":"Feature"},{"geometry":{"coordinates":[-90.22830719142064,38.72356595777801],"type":"Point"},"id":"stl-city-public-streetlights:2:137840","properties":{"address":null,"attributes":{"Date_Installed":"8/1/2016","LED_Powered":1,"LightID":"L030556","Light_Source":"LED","Light_Type":"Cobra","Lighting_Type":"LED-Powered Lamp","Verification_Date":null},"id":"stl-city-public-streetlights:2:137840","sourceLayerId":2,"sourceObjectId":137840,"sourceURL":"https://maps8.stlouis-mo.gov/arcgis/rest/services/STREETS/Streets_Permitting/MapServer/2","title":"Street light L030556"},"type":"Feature"}],"layerId":"city-streetlights","retrievedAt":"2026-09-13T21:56:18.173251+00:00","schema":"property-infrastructure-geojson-v1","sourceId":"stl-city-public-streetlights","tileId":"-9023_3872","type":"FeatureCollection"}