{"features":[{"geometry":{"coordinates":[-90.2098505979674,38.68886158852102],"type":"Point"},"id":"stl-city-public-streetlights:2:126398","properties":{"address":null,"attributes":{"Date_Installed":null,"LED_Powered":0,"LightID":"L019126","Light_Source":"LED","Light_Type":"Cobra","Lighting_Type":"LED-Powered Lamp","Verification_Date":null},"id":"stl-city-public-streetlights:2:126398","sourceLayerId":2,"sourceObjectId":126398,"sourceURL":"https://maps8.stlouis-mo.gov/arcgis/rest/services/STREETS/Streets_Permitting/MapServer/2","title":"Street light L019126"},"type":"Feature"},{"geometry":{"coordinates":[-90.20947533622669,38.688433756374025],"type":"Point"},"id":"stl-city-public-streetlights:2:126399","properties":{"address":null,"attributes":{"Date_Installed":null,"LED_Powered":0,"LightID":"L019127","Light_Source":"LED","Light_Type":"Cobra","Lighting_Type":"LED-Powered Lamp","Verification_Date":null},"id":"stl-city-public-streetlights:2:126399","sourceLayerId":2,"sourceObjectId":126399,"sourceURL":"https://maps8.stlouis-mo.gov/arcgis/rest/services/STREETS/Streets_Permitting/MapServer/2","title":"Street light L019127"},"type":"Feature"},{"geometry":{"coordinates":[-90.20947382669861,38.68880702189214],"type":"Point"},"id":"stl-city-public-streetlights:2:126400","properties":{"address":null,"attributes":{"Date_Installed":null,"LED_Powered":0,"LightID":"L019128","Light_Source":"LED","Light_Type":"Cobra","Lighting_Type":"LED-Powered Lamp","Verification_Date":null},"id":"stl-city-public-streetlights:2:126400","sourceLayerId":2,"sourceObjectId":126400,"sourceURL":"https://maps8.stlouis-mo.gov/arcgis/rest/services/STREETS/Streets_Permitting/MapServer/2","title":"Street light L019128"},"type":"Feature"},{"geometry":{"coordinates":[-90.2098926700987,38.68928787808634],"type":"Point"},"id":"stl-city-public-streetlights:2:126401","properties":{"address":null,"attributes":{"Date_Installed":null,"LED_Powered":0,"LightID":"L019129","Light_Source":"LED","Light_Type":"Cobra","Lighting_Type":"LED-Powered Lamp","Verification_Date":null},"id":"stl-city-public-streetlights:2:126401","sourceLayerId":2,"sourceObjectId":126401,"sourceURL":"https://maps8.stlouis-mo.gov/arcgis/rest/services/STREETS/Streets_Permitting/MapServer/2","title":"Street light L019129"},"type":"Feature"},{"geometry":{"coordinates":[-90.20993771786607,38.681789845308586],"type":"Point"},"id":"stl-city-public-streetlights:2:130943","properties":{"address":null,"attributes":{"Date_Installed":null,"LED_Powered":0,"LightID":"L023659","Light_Source":"LED","Light_Type":"Cobra","Lighting_Type":"LED-Powered Lamp","Verification_Date":null},"id":"stl-city-public-streetlights:2:130943","sourceLayerId":2,"sourceObjectId":130943,"sourceURL":"https://maps8.stlouis-mo.gov/arcgis/rest/services/STREETS/Streets_Permitting/MapServer/2","title":"Street light L023659"},"type":"Feature"},{"geometry":{"coordinates":[-90.20965789006715,38.681504312745844],"type":"Point"},"id":"stl-city-public-streetlights:2:130944","properties":{"address":null,"attributes":{"Date_Installed":null,"LED_Powered":0,"LightID":"L023660","Light_Source":"LED","Light_Type":"Cobra","Lighting_Type":"LED-Powered Lamp","Verification_Date":null},"id":"stl-city-public-streetlights:2:130944","sourceLayerId":2,"sourceObjectId":130944,"sourceURL":"https://maps8.stlouis-mo.gov/arcgis/rest/services/STREETS/Streets_Permitting/MapServer/2","title":"Street light L023660"},"type":"Feature"},{"geometry":{"coordinates":[-90.20938833983705,38.68123429751261],"type":"Point"},"id":"stl-city-public-streetlights:2:130945","properties":{"address":null,"attributes":{"Date_Installed":null,"LED_Powered":0,"LightID":"L023661","Light_Source":"LED","Light_Type":"Cobra","Lighting_Type":"LED-Powered Lamp","Verification_Date":null},"id":"stl-city-public-streetlights:2:130945","sourceLayerId":2,"sourceObjectId":130945,"sourceURL":"https://maps8.stlouis-mo.gov/arcgis/rest/services/STREETS/Streets_Permitting/MapServer/2","title":"Street light L023661"},"type":"Feature"},{"geometry":{"coordinates":[-90.2091249605662,38.6809428451878],"type":"Point"},"id":"stl-city-public-streetlights:2:130946","properties":{"address":null,"attributes":{"Date_Installed":null,"LED_Powered":0,"LightID":"L023662","Light_Source":"LED","Light_Type":"Cobra","Lighting_Type":"LED-Powered Lamp","Verification_Date":null},"id":"stl-city-public-streetlights:2:130946","sourceLayerId":2,"sourceObjectId":130946,"sourceURL":"https://maps8.stlouis-mo.gov/arcgis/rest/services/STREETS/Streets_Permitting/MapServer/2","title":"Street light L023662"},"type":"Feature"},{"geometry":{"coordinates":[-90.20881577558367,38.680634628118256],"type":"Point"},"id":"stl-city-public-streetlights:2:130947","properties":{"address":null,"attributes":{"Date_Installed":null,"LED_Powered":0,"LightID":"L023663","Light_Source":"High Pressure Sodium","Light_Type":"Cobra","Lighting_Type":"150-W High Pressure Sodium Vapor Lamp","Verification_Date":null},"id":"stl-city-public-streetlights:2:130947","sourceLayerId":2,"sourceObjectId":130947,"sourceURL":"https://maps8.stlouis-mo.gov/arcgis/rest/services/STREETS/Streets_Permitting/MapServer/2","title":"Street light L023663"},"type":"Feature"},{"geometry":{"coordinates":[-90.20859603030861,38.680382374292385],"type":"Point"},"id":"stl-city-public-streetlights:2:130948","properties":{"address":null,"attributes":{"Date_Installed":null,"LED_Powered":0,"LightID":"L023664","Light_Source":"High Pressure Sodium","Light_Type":"Cobra","Lighting_Type":"150-W High Pressure Sodium Vapor Lamp","Verification_Date":null},"id":"stl-city-public-streetlights:2:130948","sourceLayerId":2,"sourceObjectId":130948,"sourceURL":"https://maps8.stlouis-mo.gov/arcgis/rest/services/STREETS/Streets_Permitting/MapServer/2","title":"Street light L023664"},"type":"Feature"},{"geometry":{"coordinates":[-90.20836542086461,38.68011006994349],"type":"Point"},"id":"stl-city-public-streetlights:2:130949","properties":{"address":null,"attributes":{"Date_Installed":null,"LED_Powered":0,"LightID":"L023665","Light_Source":"High Pressure Sodium","Light_Type":"Cobra","Lighting_Type":"150-W High Pressure Sodium Vapor Lamp","Verification_Date":null},"id":"stl-city-public-streetlights:2:130949","sourceLayerId":2,"sourceObjectId":130949,"sourceURL":"https://maps8.stlouis-mo.gov/arcgis/rest/services/STREETS/Streets_Permitting/MapServer/2","title":"Street light L023665"},"type":"Feature"},{"geometry":{"coordinates":[-90.2095325291116,38.680298436299836],"type":"Point"},"id":"stl-city-public-streetlights:2:130957","properties":{"address":null,"attributes":{"Date_Installed":null,"LED_Powered":0,"LightID":"L023673","Light_Source":"High Pressure Sodium","Light_Type":"Cobra","Lighting_Type":"150-W High Pressure Sodium Vapor Lamp","Verification_Date":null},"id":"stl-city-public-streetlights:2:130957","sourceLayerId":2,"sourceObjectId":130957,"sourceURL":"https://maps8.stlouis-mo.gov/arcgis/rest/services/STREETS/Streets_Permitting/MapServer/2","title":"Street light L023673"},"type":"Feature"},{"geometry":{"coordinates":[-90.20659239816656,38.68182341870045],"type":"Point"},"id":"stl-city-public-streetlights:2:130958","properties":{"address":null,"attributes":{"Date_Installed":null,"LED_Powered":0,"LightID":"L023674","Light_Source":"LED","Light_Type":"Cobra","Lighting_Type":"LED-Powered Lamp","Verification_Date":null},"id":"stl-city-public-streetlights:2:130958","sourceLayerId":2,"sourceObjectId":130958,"sourceURL":"https://maps8.stlouis-mo.gov/arcgis/rest/services/STREETS/Streets_Permitting/MapServer/2","title":"Street light L023674"},"type":"Feature"},{"geometry":{"coordinates":[-90.20637448107442,38.68157116444316],"type":"Point"},"id":"stl-city-public-streetlights:2:130959","properties":{"address":null,"attributes":{"Date_Installed":null,"LED_Powered":0,"LightID":"L023675","Light_Source":"LED","Light_Type":"Cobra","Lighting_Type":"LED-Powered Lamp","Verification_Date":null},"id":"stl-city-public-streetlights:2:130959","sourceLayerId":2,"sourceObjectId":130959,"sourceURL":"https://maps8.stlouis-mo.gov/arcgis/rest/services/STREETS/Streets_Permitting/MapServer/2","title":"Street light L023675"},"type":"Feature"},{"geometry":{"coordinates":[-90.20611478918588,38.6812730408941],"type":"Point"},"id":"stl-city-public-streetlights:2:130960","properties":{"address":null,"attributes":{"Date_Installed":null,"LED_Powered":0,"LightID":"L023676","Light_Source":"LED","Light_Type":"Cobra","Lighting_Type":"LED-Powered Lamp","Verification_Date":null},"id":"stl-city-public-streetlights:2:130960","sourceLayerId":2,"sourceObjectId":130960,"sourceURL":"https://maps8.stlouis-mo.gov/arcgis/rest/services/STREETS/Streets_Permitting/MapServer/2","title":"Street light L023676"},"type":"Feature"},{"geometry":{"coordinates":[-90.2058441974368,38.68096387605749],"type":"Point"},"id":"stl-city-public-streetlights:2:130961","properties":{"address":null,"attributes":{"Date_Installed":null,"LED_Powered":0,"LightID":"L023677","Light_Source":"LED","Light_Type":"Cobra","Lighting_Type":"LED-Powered Lamp","Verification_Date":null},"id":"stl-city-public-streetlights:2:130961","sourceLayerId":2,"sourceObjectId":130961,"sourceURL":"https://maps8.stlouis-mo.gov/arcgis/rest/services/STREETS/Streets_Permitting/MapServer/2","title":"Street light L023677"},"type":"Feature"},{"geometry":{"coordinates":[-90.20554947125947,38.680623329750674],"type":"Point"},"id":"stl-city-public-streetlights:2:130962","properties":{"address":null,"attributes":{"Date_Installed":null,"LED_Powered":0,"LightID":"L023678","Light_Source":"LED","Light_Type":"Cobra","Lighting_Type":"LED-Powered Lamp","Verification_Date":null},"id":"stl-city-public-streetlights:2:130962","sourceLayerId":2,"sourceObjectId":130962,"sourceURL":"https://maps8.stlouis-mo.gov/arcgis/rest/services/STREETS/Streets_Permitting/MapServer/2","title":"Street light L023678"},"type":"Feature"},{"geometry":{"coordinates":[-90.20527712558294,38.680297999132314],"type":"Point"},"id":"stl-city-public-streetlights:2:130963","properties":{"address":null,"attributes":{"Date_Installed":null,"LED_Powered":0,"LightID":"L023679","Light_Source":"LED","Light_Type":"Cobra","Lighting_Type":"LED-Powered Lamp","Verification_Date":null},"id":"stl-city-public-streetlights:2:130963","sourceLayerId":2,"sourceObjectId":130963,"sourceURL":"https://maps8.stlouis-mo.gov/arcgis/rest/services/STREETS/Streets_Permitting/MapServer/2","title":"Street light L023679"},"type":"Feature"},{"geometry":{"coordinates":[-90.2072505370429,38.680170247295145],"type":"Point"},"id":"stl-city-public-streetlights:2:131386","properties":{"address":null,"attributes":{"Date_Installed":null,"LED_Powered":0,"LightID":"L024102","Light_Source":"LED","Light_Type":"Cobra","Lighting_Type":"LED-Powered Lamp","Verification_Date":null},"id":"stl-city-public-streetlights:2:131386","sourceLayerId":2,"sourceObjectId":131386,"sourceURL":"https://maps8.stlouis-mo.gov/arcgis/rest/services/STREETS/Streets_Permitting/MapServer/2","title":"Street light L024102"},"type":"Feature"},{"geometry":{"coordinates":[-90.2064864580745,38.68044602022165],"type":"Point"},"id":"stl-city-public-streetlights:2:131387","properties":{"address":null,"attributes":{"Date_Installed":null,"LED_Powered":0,"LightID":"L024103","Light_Source":"LED","Light_Type":"Cobra","Lighting_Type":"LED-Powered Lamp","Verification_Date":null},"id":"stl-city-public-streetlights:2:131387","sourceLayerId":2,"sourceObjectId":131387,"sourceURL":"https://maps8.stlouis-mo.gov/arcgis/rest/services/STREETS/Streets_Permitting/MapServer/2","title":"Street light L024103"},"type":"Feature"},{"geometry":{"coordinates":[-90.20630040959303,38.680544772736134],"type":"Point"},"id":"stl-city-public-streetlights:2:131388","properties":{"address":null,"attributes":{"Date_Installed":null,"LED_Powered":0,"LightID":"L024104","Light_Source":"LED","Light_Type":"Cobra","Lighting_Type":"LED-Powered Lamp","Verification_Date":null},"id":"stl-city-public-streetlights:2:131388","sourceLayerId":2,"sourceObjectId":131388,"sourceURL":"https://maps8.stlouis-mo.gov/arcgis/rest/services/STREETS/Streets_Permitting/MapServer/2","title":"Street light L024104"},"type":"Feature"},{"geometry":{"coordinates":[-90.20613121859674,38.68064803388464],"type":"Point"},"id":"stl-city-public-streetlights:2:131389","properties":{"address":null,"attributes":{"Date_Installed":null,"LED_Powered":0,"LightID":"L024105","Light_Source":"LED","Light_Type":"Cobra","Lighting_Type":"LED-Powered Lamp","Verification_Date":null},"id":"stl-city-public-streetlights:2:131389","sourceLayerId":2,"sourceObjectId":131389,"sourceURL":"https://maps8.stlouis-mo.gov/arcgis/rest/services/STREETS/Streets_Permitting/MapServer/2","title":"Street light L024105"},"type":"Feature"},{"geometry":{"coordinates":[-90.20989589615681,38.68020017264977],"type":"Point"},"id":"stl-city-public-streetlights:2:131390","properties":{"address":null,"attributes":{"Date_Installed":null,"LED_Powered":0,"LightID":"L024106","Light_Source":"High Pressure Sodium","Light_Type":"Cobra","Lighting_Type":"400-W High Pressure Sodium Vapor Lamp","Verification_Date":null},"id":"stl-city-public-streetlights:2:131390","sourceLayerId":2,"sourceObjectId":131390,"sourceURL":"https://maps8.stlouis-mo.gov/arcgis/rest/services/STREETS/Streets_Permitting/MapServer/2","title":"Street light L024106"},"type":"Feature"},{"geometry":{"coordinates":[-90.20897576354317,38.680694004391846],"type":"Point"},"id":"stl-city-public-streetlights:2:131391","properties":{"address":null,"attributes":{"Date_Installed":null,"LED_Powered":0,"LightID":"L024107","Light_Source":"High Pressure Sodium","Light_Type":"Cobra","Lighting_Type":"400-W High Pressure Sodium Vapor Lamp","Verification_Date":null},"id":"stl-city-public-streetlights:2:131391","sourceLayerId":2,"sourceObjectId":131391,"sourceURL":"https://maps8.stlouis-mo.gov/arcgis/rest/services/STREETS/Streets_Permitting/MapServer/2","title":"Street light L024107"},"type":"Feature"},{"geometry":{"coordinates":[-90.20799138503753,38.6812074103793],"type":"Point"},"id":"stl-city-public-streetlights:2:131392","properties":{"address":null,"attributes":{"Date_Installed":null,"LED_Powered":0,"LightID":"L024108","Light_Source":"High Pressure Sodium","Light_Type":"Cobra","Lighting_Type":"400-W High Pressure Sodium Vapor Lamp","Verification_Date":null},"id":"stl-city-public-streetlights:2:131392","sourceLayerId":2,"sourceObjectId":131392,"sourceURL":"https://maps8.stlouis-mo.gov/arcgis/rest/services/STREETS/Streets_Permitting/MapServer/2","title":"Street light L024108"},"type":"Feature"},{"geometry":{"coordinates":[-90.20711612565046,38.681676218300325],"type":"Point"},"id":"stl-city-public-streetlights:2:131393","properties":{"address":null,"attributes":{"Date_Installed":null,"LED_Powered":0,"LightID":"L024109","Light_Source":"High Pressure Sodium","Light_Type":"Cobra","Lighting_Type":"400-W High Pressure Sodium Vapor Lamp","Verification_Date":null},"id":"stl-city-public-streetlights:2:131393","sourceLayerId":2,"sourceObjectId":131393,"sourceURL":"https://maps8.stlouis-mo.gov/arcgis/rest/services/STREETS/Streets_Permitting/MapServer/2","title":"Street light L024109"},"type":"Feature"},{"geometry":{"coordinates":[-90.20616483446977,38.68217400458562],"type":"Point"},"id":"stl-city-public-streetlights:2:131394","properties":{"address":null,"attributes":{"Date_Installed":null,"LED_Powered":0,"LightID":"L024110","Light_Source":"High Pressure Sodium","Light_Type":"Cobra","Lighting_Type":"400-W High Pressure Sodium Vapor Lamp","Verification_Date":null},"id":"stl-city-public-streetlights:2:131394","sourceLayerId":2,"sourceObjectId":131394,"sourceURL":"https://maps8.stlouis-mo.gov/arcgis/rest/services/STREETS/Streets_Permitting/MapServer/2","title":"Street light L024110"},"type":"Feature"},{"geometry":{"coordinates":[-90.20571652046141,38.68234765389967],"type":"Point"},"id":"stl-city-public-streetlights:2:131395","properties":{"address":null,"attributes":{"Date_Installed":null,"LED_Powered":0,"LightID":"L024111","Light_Source":"High Pressure Sodium","Light_Type":"Cobra","Lighting_Type":"400-W High Pressure Sodium Vapor Lamp","Verification_Date":null},"id":"stl-city-public-streetlights:2:131395","sourceLayerId":2,"sourceObjectId":131395,"sourceURL":"https://maps8.stlouis-mo.gov/arcgis/rest/services/STREETS/Streets_Permitting/MapServer/2","title":"Street light L024111"},"type":"Feature"},{"geometry":{"coordinates":[-90.2048021446611,38.68285639103921],"type":"Point"},"id":"stl-city-public-streetlights:2:131396","properties":{"address":null,"attributes":{"Date_Installed":null,"LED_Powered":0,"LightID":"L024112","Light_Source":"High Pressure Sodium","Light_Type":"Cobra","Lighting_Type":"400-W High Pressure Sodium Vapor Lamp","Verification_Date":null},"id":"stl-city-public-streetlights:2:131396","sourceLayerId":2,"sourceObjectId":131396,"sourceURL":"https://maps8.stlouis-mo.gov/arcgis/rest/services/STREETS/Streets_Permitting/MapServer/2","title":"Street light L024112"},"type":"Feature"},{"geometry":{"coordinates":[-90.2049626648301,38.683044622756086],"type":"Point"},"id":"stl-city-public-streetlights:2:131397","properties":{"address":null,"attributes":{"Date_Installed":null,"LED_Powered":0,"LightID":"L024113","Light_Source":"LED","Light_Type":"Cobra","Lighting_Type":"LED-Powered Lamp","Verification_Date":null},"id":"stl-city-public-streetlights:2:131397","sourceLayerId":2,"sourceObjectId":131397,"sourceURL":"https://maps8.stlouis-mo.gov/arcgis/rest/services/STREETS/Streets_Permitting/MapServer/2","title":"Street light L024113"},"type":"Feature"},{"geometry":{"coordinates":[-90.20538625885604,38.68282592405047],"type":"Point"},"id":"stl-city-public-streetlights:2:131398","properties":{"address":null,"attributes":{"Date_Installed":null,"LED_Powered":0,"LightID":"L024114","Light_Source":"LED","Light_Type":"Cobra","Lighting_Type":"LED-Powered Lamp","Verification_Date":null},"id":"stl-city-public-streetlights:2:131398","sourceLayerId":2,"sourceObjectId":131398,"sourceURL":"https://maps8.stlouis-mo.gov/arcgis/rest/services/STREETS/Streets_Permitting/MapServer/2","title":"Street light L024114"},"type":"Feature"},{"geometry":{"coordinates":[-90.20581899984617,38.6826005721726],"type":"Point"},"id":"stl-city-public-streetlights:2:131399","properties":{"address":null,"attributes":{"Date_Installed":null,"LED_Powered":0,"LightID":"L024115","Light_Source":"LED","Light_Type":"Cobra","Lighting_Type":"LED-Powered Lamp","Verification_Date":null},"id":"stl-city-public-streetlights:2:131399","sourceLayerId":2,"sourceObjectId":131399,"sourceURL":"https://maps8.stlouis-mo.gov/arcgis/rest/services/STREETS/Streets_Permitting/MapServer/2","title":"Street light L024115"},"type":"Feature"},{"geometry":{"coordinates":[-90.20675760247676,38.68203968708319],"type":"Point"},"id":"stl-city-public-streetlights:2:131400","properties":{"address":null,"attributes":{"Date_Installed":null,"LED_Powered":0,"LightID":"L024116","Light_Source":"LED","Light_Type":"Cobra","Lighting_Type":"LED-Powered Lamp","Verification_Date":null},"id":"stl-city-public-streetlights:2:131400","sourceLayerId":2,"sourceObjectId":131400,"sourceURL":"https://maps8.stlouis-mo.gov/arcgis/rest/services/STREETS/Streets_Permitting/MapServer/2","title":"Street light L024116"},"type":"Feature"},{"geometry":{"coordinates":[-90.20767551879534,38.681551681706004],"type":"Point"},"id":"stl-city-public-streetlights:2:131401","properties":{"address":null,"attributes":{"Date_Installed":null,"LED_Powered":0,"LightID":"L024117","Light_Source":"LED","Light_Type":"Cobra","Lighting_Type":"LED-Powered Lamp","Verification_Date":null},"id":"stl-city-public-streetlights:2:131401","sourceLayerId":2,"sourceObjectId":131401,"sourceURL":"https://maps8.stlouis-mo.gov/arcgis/rest/services/STREETS/Streets_Permitting/MapServer/2","title":"Street light L024117"},"type":"Feature"},{"geometry":{"coordinates":[-90.20860995554501,38.68105885447199],"type":"Point"},"id":"stl-city-public-streetlights:2:131402","properties":{"address":null,"attributes":{"Date_Installed":null,"LED_Powered":0,"LightID":"L024118","Light_Source":"LED","Light_Type":"Cobra","Lighting_Type":"LED-Powered Lamp","Verification_Date":null},"id":"stl-city-public-streetlights:2:131402","sourceLayerId":2,"sourceObjectId":131402,"sourceURL":"https://maps8.stlouis-mo.gov/arcgis/rest/services/STREETS/Streets_Permitting/MapServer/2","title":"Street light L024118"},"type":"Feature"},{"geometry":{"coordinates":[-90.20952521473612,38.68058253030117],"type":"Point"},"id":"stl-city-public-streetlights:2:131403","properties":{"address":null,"attributes":{"Date_Installed":null,"LED_Powered":0,"LightID":"L024119","Light_Source":"LED","Light_Type":"Cobra","Lighting_Type":"LED-Powered Lamp","Verification_Date":null},"id":"stl-city-public-streetlights:2:131403","sourceLayerId":2,"sourceObjectId":131403,"sourceURL":"https://maps8.stlouis-mo.gov/arcgis/rest/services/STREETS/Streets_Permitting/MapServer/2","title":"Street light L024119"},"type":"Feature"},{"geometry":{"coordinates":[-90.20997018082763,38.6802572196812],"type":"Point"},"id":"stl-city-public-streetlights:2:131429","properties":{"address":null,"attributes":{"Date_Installed":null,"LED_Powered":0,"LightID":"L024145","Light_Source":"LED","Light_Type":"Cobra","Lighting_Type":"LED-Powered Lamp","Verification_Date":null},"id":"stl-city-public-streetlights:2:131429","sourceLayerId":2,"sourceObjectId":131429,"sourceURL":"https://maps8.stlouis-mo.gov/arcgis/rest/services/STREETS/Streets_Permitting/MapServer/2","title":"Street light L024145"},"type":"Feature"},{"geometry":{"coordinates":[-90.20974842672008,38.68037355004034],"type":"Point"},"id":"stl-city-public-streetlights:2:131430","properties":{"address":null,"attributes":{"Date_Installed":null,"LED_Powered":0,"LightID":"L024146","Light_Source":"High Pressure Sodium","Light_Type":"Cobra","Lighting_Type":"150-W High Pressure Sodium Vapor Lamp","Verification_Date":null},"id":"stl-city-public-streetlights:2:131430","sourceLayerId":2,"sourceObjectId":131430,"sourceURL":"https://maps8.stlouis-mo.gov/arcgis/rest/services/STREETS/Streets_Permitting/MapServer/2","title":"Street light L024146"},"type":"Feature"},{"geometry":{"coordinates":[-90.20953602994683,38.68048494565978],"type":"Point"},"id":"stl-city-public-streetlights:2:131431","properties":{"address":null,"attributes":{"Date_Installed":null,"LED_Powered":0,"LightID":"L024147","Light_Source":"LED","Light_Type":"Cobra","Lighting_Type":"LED-Powered Lamp","Verification_Date":null},"id":"stl-city-public-streetlights:2:131431","sourceLayerId":2,"sourceObjectId":131431,"sourceURL":"https://maps8.stlouis-mo.gov/arcgis/rest/services/STREETS/Streets_Permitting/MapServer/2","title":"Street light L024147"},"type":"Feature"},{"geometry":{"coordinates":[-90.20931521595108,38.68060064961083],"type":"Point"},"id":"stl-city-public-streetlights:2:131432","properties":{"address":null,"attributes":{"Date_Installed":null,"LED_Powered":0,"LightID":"L024148","Light_Source":"LED","Light_Type":"Cobra","Lighting_Type":"LED-Powered Lamp","Verification_Date":null},"id":"stl-city-public-streetlights:2:131432","sourceLayerId":2,"sourceObjectId":131432,"sourceURL":"https://maps8.stlouis-mo.gov/arcgis/rest/services/STREETS/Streets_Permitting/MapServer/2","title":"Street light L024148"},"type":"Feature"},{"geometry":{"coordinates":[-90.20911539537624,38.68070535333297],"type":"Point"},"id":"stl-city-public-streetlights:2:131433","properties":{"address":null,"attributes":{"Date_Installed":null,"LED_Powered":0,"LightID":"L024149","Light_Source":"LED","Light_Type":"Cobra","Lighting_Type":"LED-Powered Lamp","Verification_Date":null},"id":"stl-city-public-streetlights:2:131433","sourceLayerId":2,"sourceObjectId":131433,"sourceURL":"https://maps8.stlouis-mo.gov/arcgis/rest/services/STREETS/Streets_Permitting/MapServer/2","title":"Street light L024149"},"type":"Feature"},{"geometry":{"coordinates":[-90.20890643998949,38.68081561043681],"type":"Point"},"id":"stl-city-public-streetlights:2:131434","properties":{"address":null,"attributes":{"Date_Installed":null,"LED_Powered":0,"LightID":"L024150","Light_Source":"LED","Light_Type":"Cobra","Lighting_Type":"LED-Powered Lamp","Verification_Date":null},"id":"stl-city-public-streetlights:2:131434","sourceLayerId":2,"sourceObjectId":131434,"sourceURL":"https://maps8.stlouis-mo.gov/arcgis/rest/services/STREETS/Streets_Permitting/MapServer/2","title":"Street light L024150"},"type":"Feature"},{"geometry":{"coordinates":[-90.20870851236144,38.680920579425496],"type":"Point"},"id":"stl-city-public-streetlights:2:131435","properties":{"address":null,"attributes":{"Date_Installed":null,"LED_Powered":0,"LightID":"L024151","Light_Source":"LED","Light_Type":"Cobra","Lighting_Type":"LED-Powered Lamp","Verification_Date":null},"id":"stl-city-public-streetlights:2:131435","sourceLayerId":2,"sourceObjectId":131435,"sourceURL":"https://maps8.stlouis-mo.gov/arcgis/rest/services/STREETS/Streets_Permitting/MapServer/2","title":"Street light L024151"},"type":"Feature"},{"geometry":{"coordinates":[-90.2084939776249,38.68103435424967],"type":"Point"},"id":"stl-city-public-streetlights:2:131436","properties":{"address":null,"attributes":{"Date_Installed":null,"LED_Powered":0,"LightID":"L024152","Light_Source":"LED","Light_Type":"Cobra","Lighting_Type":"LED-Powered Lamp","Verification_Date":null},"id":"stl-city-public-streetlights:2:131436","sourceLayerId":2,"sourceObjectId":131436,"sourceURL":"https://maps8.stlouis-mo.gov/arcgis/rest/services/STREETS/Streets_Permitting/MapServer/2","title":"Street light L024152"},"type":"Feature"},{"geometry":{"coordinates":[-90.2082716560682,38.681152258717795],"type":"Point"},"id":"stl-city-public-streetlights:2:131437","properties":{"address":null,"attributes":{"Date_Installed":null,"LED_Powered":0,"LightID":"L024153","Light_Source":"LED","Light_Type":"Cobra","Lighting_Type":"LED-Powered Lamp","Verification_Date":null},"id":"stl-city-public-streetlights:2:131437","sourceLayerId":2,"sourceObjectId":131437,"sourceURL":"https://maps8.stlouis-mo.gov/arcgis/rest/services/STREETS/Streets_Permitting/MapServer/2","title":"Street light L024153"},"type":"Feature"},{"geometry":{"coordinates":[-90.20805372444731,38.68126783322632],"type":"Point"},"id":"stl-city-public-streetlights:2:131438","properties":{"address":null,"attributes":{"Date_Installed":null,"LED_Powered":0,"LightID":"L024154","Light_Source":"LED","Light_Type":"Cobra","Lighting_Type":"LED-Powered Lamp","Verification_Date":null},"id":"stl-city-public-streetlights:2:131438","sourceLayerId":2,"sourceObjectId":131438,"sourceURL":"https://maps8.stlouis-mo.gov/arcgis/rest/services/STREETS/Streets_Permitting/MapServer/2","title":"Street light L024154"},"type":"Feature"},{"geometry":{"coordinates":[-90.20785077673702,38.68137554582069],"type":"Point"},"id":"stl-city-public-streetlights:2:131439","properties":{"address":null,"attributes":{"Date_Installed":null,"LED_Powered":0,"LightID":"L024155","Light_Source":"LED","Light_Type":"Cobra","Lighting_Type":"LED-Powered Lamp","Verification_Date":null},"id":"stl-city-public-streetlights:2:131439","sourceLayerId":2,"sourceObjectId":131439,"sourceURL":"https://maps8.stlouis-mo.gov/arcgis/rest/services/STREETS/Streets_Permitting/MapServer/2","title":"Street light L024155"},"type":"Feature"},{"geometry":{"coordinates":[-90.20766306372677,38.68147537108091],"type":"Point"},"id":"stl-city-public-streetlights:2:131440","properties":{"address":null,"attributes":{"Date_Installed":null,"LED_Powered":0,"LightID":"L024156","Light_Source":"LED","Light_Type":"Cobra","Lighting_Type":"LED-Powered Lamp","Verification_Date":null},"id":"stl-city-public-streetlights:2:131440","sourceLayerId":2,"sourceObjectId":131440,"sourceURL":"https://maps8.stlouis-mo.gov/arcgis/rest/services/STREETS/Streets_Permitting/MapServer/2","title":"Street light L024156"},"type":"Feature"},{"geometry":{"coordinates":[-90.20748059671644,38.6815724065141],"type":"Point"},"id":"stl-city-public-streetlights:2:131441","properties":{"address":null,"attributes":{"Date_Installed":null,"LED_Powered":0,"LightID":"L024157","Light_Source":"LED","Light_Type":"Cobra","Lighting_Type":"LED-Powered Lamp","Verification_Date":null},"id":"stl-city-public-streetlights:2:131441","sourceLayerId":2,"sourceObjectId":131441,"sourceURL":"https://maps8.stlouis-mo.gov/arcgis/rest/services/STREETS/Streets_Permitting/MapServer/2","title":"Street light L024157"},"type":"Feature"},{"geometry":{"coordinates":[-90.20726285589609,38.681688198928526],"type":"Point"},"id":"stl-city-public-streetlights:2:131442","properties":{"address":null,"attributes":{"Date_Installed":null,"LED_Powered":0,"LightID":"L024158","Light_Source":"LED","Light_Type":"Cobra","Lighting_Type":"LED-Powered Lamp","Verification_Date":null},"id":"stl-city-public-streetlights:2:131442","sourceLayerId":2,"sourceObjectId":131442,"sourceURL":"https://maps8.stlouis-mo.gov/arcgis/rest/services/STREETS/Streets_Permitting/MapServer/2","title":"Street light L024158"},"type":"Feature"},{"geometry":{"coordinates":[-90.20709298959217,38.681778325795925],"type":"Point"},"id":"stl-city-public-streetlights:2:131443","properties":{"address":null,"attributes":{"Date_Installed":null,"LED_Powered":0,"LightID":"L024159","Light_Source":"LED","Light_Type":"Cobra","Lighting_Type":"LED-Powered Lamp","Verification_Date":null},"id":"stl-city-public-streetlights:2:131443","sourceLayerId":2,"sourceObjectId":131443,"sourceURL":"https://maps8.stlouis-mo.gov/arcgis/rest/services/STREETS/Streets_Permitting/MapServer/2","title":"Street light L024159"},"type":"Feature"},{"geometry":{"coordinates":[-90.20680246618963,38.68193302702023],"type":"Point"},"id":"stl-city-public-streetlights:2:131444","properties":{"address":null,"attributes":{"Date_Installed":null,"LED_Powered":0,"LightID":"L024160","Light_Source":"LED","Light_Type":"Cobra","Lighting_Type":"LED-Powered Lamp","Verification_Date":null},"id":"stl-city-public-streetlights:2:131444","sourceLayerId":2,"sourceObjectId":131444,"sourceURL":"https://maps8.stlouis-mo.gov/arcgis/rest/services/STREETS/Streets_Permitting/MapServer/2","title":"Street light L024160"},"type":"Feature"},{"geometry":{"coordinates":[-90.20658730713807,38.6820479111446],"type":"Point"},"id":"stl-city-public-streetlights:2:131445","properties":{"address":null,"attributes":{"Date_Installed":null,"LED_Powered":0,"LightID":"L024161","Light_Source":"LED","Light_Type":"Cobra","Lighting_Type":"LED-Powered Lamp","Verification_Date":null},"id":"stl-city-public-streetlights:2:131445","sourceLayerId":2,"sourceObjectId":131445,"sourceURL":"https://maps8.stlouis-mo.gov/arcgis/rest/services/STREETS/Streets_Permitting/MapServer/2","title":"Street light L024161"},"type":"Feature"},{"geometry":{"coordinates":[-90.20638255717198,38.68215738417963],"type":"Point"},"id":"stl-city-public-streetlights:2:131446","properties":{"address":null,"attributes":{"Date_Installed":null,"LED_Powered":0,"LightID":"L024162","Light_Source":"LED","Light_Type":"Cobra","Lighting_Type":"LED-Powered Lamp","Verification_Date":null},"id":"stl-city-public-streetlights:2:131446","sourceLayerId":2,"sourceObjectId":131446,"sourceURL":"https://maps8.stlouis-mo.gov/arcgis/rest/services/STREETS/Streets_Permitting/MapServer/2","title":"Street light L024162"},"type":"Feature"},{"geometry":{"coordinates":[-90.20193239481489,38.680232205936576],"type":"Point"},"id":"stl-city-public-streetlights:2:131453","properties":{"address":null,"attributes":{"Date_Installed":null,"LED_Powered":0,"LightID":"L024169","Light_Source":"High Pressure Sodium","Light_Type":"Cobra","Lighting_Type":"100-W High Pressure Sodium Vapor Lamp","Verification_Date":null},"id":"stl-city-public-streetlights:2:131453","sourceLayerId":2,"sourceObjectId":131453,"sourceURL":"https://maps8.stlouis-mo.gov/arcgis/rest/services/STREETS/Streets_Permitting/MapServer/2","title":"Street light L024169"},"type":"Feature"},{"geometry":{"coordinates":[-90.20230646543186,38.68066177501],"type":"Point"},"id":"stl-city-public-streetlights:2:131454","properties":{"address":null,"attributes":{"Date_Installed":null,"LED_Powered":0,"LightID":"L024170","Light_Source":"High Pressure Sodium","Light_Type":"Cobra","Lighting_Type":"100-W High Pressure Sodium Vapor Lamp","Verification_Date":null},"id":"stl-city-public-streetlights:2:131454","sourceLayerId":2,"sourceObjectId":131454,"sourceURL":"https://maps8.stlouis-mo.gov/arcgis/rest/services/STREETS/Streets_Permitting/MapServer/2","title":"Street light L024170"},"type":"Feature"},{"geometry":{"coordinates":[-90.20270511438184,38.681105421265535],"type":"Point"},"id":"stl-city-public-streetlights:2:131455","properties":{"address":null,"attributes":{"Date_Installed":null,"LED_Powered":0,"LightID":"L024171","Light_Source":"High Pressure Sodium","Light_Type":"Cobra","Lighting_Type":"100-W High Pressure Sodium Vapor Lamp","Verification_Date":null},"id":"stl-city-public-streetlights:2:131455","sourceLayerId":2,"sourceObjectId":131455,"sourceURL":"https://maps8.stlouis-mo.gov/arcgis/rest/services/STREETS/Streets_Permitting/MapServer/2","title":"Street light L024171"},"type":"Feature"},{"geometry":{"coordinates":[-90.20308026753807,38.68154056882655],"type":"Point"},"id":"stl-city-public-streetlights:2:131456","properties":{"address":null,"attributes":{"Date_Installed":null,"LED_Powered":0,"LightID":"L024172","Light_Source":"High Pressure Sodium","Light_Type":"Cobra","Lighting_Type":"100-W High Pressure Sodium Vapor Lamp","Verification_Date":null},"id":"stl-city-public-streetlights:2:131456","sourceLayerId":2,"sourceObjectId":131456,"sourceURL":"https://maps8.stlouis-mo.gov/arcgis/rest/services/STREETS/Streets_Permitting/MapServer/2","title":"Street light L024172"},"type":"Feature"},{"geometry":{"coordinates":[-90.20350162284998,38.68201072796162],"type":"Point"},"id":"stl-city-public-streetlights:2:131457","properties":{"address":null,"attributes":{"Date_Installed":null,"LED_Powered":0,"LightID":"L024173","Light_Source":"High Pressure Sodium","Light_Type":"Cobra","Lighting_Type":"100-W High Pressure Sodium Vapor Lamp","Verification_Date":null},"id":"stl-city-public-streetlights:2:131457","sourceLayerId":2,"sourceObjectId":131457,"sourceURL":"https://maps8.stlouis-mo.gov/arcgis/rest/services/STREETS/Streets_Permitting/MapServer/2","title":"Street light L024173"},"type":"Feature"},{"geometry":{"coordinates":[-90.20385303628555,38.6824086289014],"type":"Point"},"id":"stl-city-public-streetlights:2:131458","properties":{"address":null,"attributes":{"Date_Installed":null,"LED_Powered":0,"LightID":"L024174","Light_Source":"High Pressure Sodium","Light_Type":"Cobra","Lighting_Type":"100-W High Pressure Sodium Vapor Lamp","Verification_Date":null},"id":"stl-city-public-streetlights:2:131458","sourceLayerId":2,"sourceObjectId":131458,"sourceURL":"https://maps8.stlouis-mo.gov/arcgis/rest/services/STREETS/Streets_Permitting/MapServer/2","title":"Street light L024174"},"type":"Feature"},{"geometry":{"coordinates":[-90.20424983865529,38.68286241985132],"type":"Point"},"id":"stl-city-public-streetlights:2:131459","properties":{"address":null,"attributes":{"Date_Installed":null,"LED_Powered":0,"LightID":"L024175","Light_Source":"High Pressure Sodium","Light_Type":"Cobra","Lighting_Type":"100-W High Pressure Sodium Vapor Lamp","Verification_Date":null},"id":"stl-city-public-streetlights:2:131459","sourceLayerId":2,"sourceObjectId":131459,"sourceURL":"https://maps8.stlouis-mo.gov/arcgis/rest/services/STREETS/Streets_Permitting/MapServer/2","title":"Street light L024175"},"type":"Feature"},{"geometry":{"coordinates":[-90.20462939342418,38.683296286109474],"type":"Point"},"id":"stl-city-public-streetlights:2:131460","properties":{"address":null,"attributes":{"Date_Installed":null,"LED_Powered":0,"LightID":"L024176","Light_Source":"High Pressure Sodium","Light_Type":"Cobra","Lighting_Type":"100-W High Pressure Sodium Vapor Lamp","Verification_Date":null},"id":"stl-city-public-streetlights:2:131460","sourceLayerId":2,"sourceObjectId":131460,"sourceURL":"https://maps8.stlouis-mo.gov/arcgis/rest/services/STREETS/Streets_Permitting/MapServer/2","title":"Street light L024176"},"type":"Feature"},{"geometry":{"coordinates":[-90.20504095451192,38.683757261891834],"type":"Point"},"id":"stl-city-public-streetlights:2:131461","properties":{"address":null,"attributes":{"Date_Installed":null,"LED_Powered":0,"LightID":"L024177","Light_Source":"High Pressure Sodium","Light_Type":"Cobra","Lighting_Type":"100-W High Pressure Sodium Vapor Lamp","Verification_Date":null},"id":"stl-city-public-streetlights:2:131461","sourceLayerId":2,"sourceObjectId":131461,"sourceURL":"https://maps8.stlouis-mo.gov/arcgis/rest/services/STREETS/Streets_Permitting/MapServer/2","title":"Street light L024177"},"type":"Feature"},{"geometry":{"coordinates":[-90.20544221900981,38.684209009559694],"type":"Point"},"id":"stl-city-public-streetlights:2:131462","properties":{"address":null,"attributes":{"Date_Installed":null,"LED_Powered":0,"LightID":"L024178","Light_Source":"High Pressure Sodium","Light_Type":"Cobra","Lighting_Type":"100-W High Pressure Sodium Vapor Lamp","Verification_Date":null},"id":"stl-city-public-streetlights:2:131462","sourceLayerId":2,"sourceObjectId":131462,"sourceURL":"https://maps8.stlouis-mo.gov/arcgis/rest/services/STREETS/Streets_Permitting/MapServer/2","title":"Street light L024178"},"type":"Feature"},{"geometry":{"coordinates":[-90.20585222891093,38.68467269558217],"type":"Point"},"id":"stl-city-public-streetlights:2:131463","properties":{"address":null,"attributes":{"Date_Installed":null,"LED_Powered":0,"LightID":"L024179","Light_Source":"High Pressure Sodium","Light_Type":"Cobra","Lighting_Type":"100-W High Pressure Sodium Vapor Lamp","Verification_Date":null},"id":"stl-city-public-streetlights:2:131463","sourceLayerId":2,"sourceObjectId":131463,"sourceURL":"https://maps8.stlouis-mo.gov/arcgis/rest/services/STREETS/Streets_Permitting/MapServer/2","title":"Street light L024179"},"type":"Feature"},{"geometry":{"coordinates":[-90.20623307688261,38.68510756156166],"type":"Point"},"id":"stl-city-public-streetlights:2:131464","properties":{"address":null,"attributes":{"Date_Installed":null,"LED_Powered":0,"LightID":"L024180","Light_Source":"High Pressure Sodium","Light_Type":"Cobra","Lighting_Type":"100-W High Pressure Sodium Vapor Lamp","Verification_Date":null},"id":"stl-city-public-streetlights:2:131464","sourceLayerId":2,"sourceObjectId":131464,"sourceURL":"https://maps8.stlouis-mo.gov/arcgis/rest/services/STREETS/Streets_Permitting/MapServer/2","title":"Street light L024180"},"type":"Feature"},{"geometry":{"coordinates":[-90.20662463378294,38.68555704021265],"type":"Point"},"id":"stl-city-public-streetlights:2:131465","properties":{"address":null,"attributes":{"Date_Installed":null,"LED_Powered":0,"LightID":"L024181","Light_Source":"High Pressure Sodium","Light_Type":"Cobra","Lighting_Type":"100-W High Pressure Sodium Vapor Lamp","Verification_Date":null},"id":"stl-city-public-streetlights:2:131465","sourceLayerId":2,"sourceObjectId":131465,"sourceURL":"https://maps8.stlouis-mo.gov/arcgis/rest/services/STREETS/Streets_Permitting/MapServer/2","title":"Street light L024181"},"type":"Feature"},{"geometry":{"coordinates":[-90.20703068365047,38.68603358387862],"type":"Point"},"id":"stl-city-public-streetlights:2:131466","properties":{"address":null,"attributes":{"Date_Installed":null,"LED_Powered":0,"LightID":"L024182","Light_Source":"High Pressure Sodium","Light_Type":"Cobra","Lighting_Type":"100-W High Pressure Sodium Vapor Lamp","Verification_Date":null},"id":"stl-city-public-streetlights:2:131466","sourceLayerId":2,"sourceObjectId":131466,"sourceURL":"https://maps8.stlouis-mo.gov/arcgis/rest/services/STREETS/Streets_Permitting/MapServer/2","title":"Street light L024182"},"type":"Feature"},{"geometry":{"coordinates":[-90.2074394157206,38.686479955989775],"type":"Point"},"id":"stl-city-public-streetlights:2:131467","properties":{"address":null,"attributes":{"Date_Installed":null,"LED_Powered":0,"LightID":"L024183","Light_Source":"High Pressure Sodium","Light_Type":"Cobra","Lighting_Type":"100-W High Pressure Sodium Vapor Lamp","Verification_Date":null},"id":"stl-city-public-streetlights:2:131467","sourceLayerId":2,"sourceObjectId":131467,"sourceURL":"https://maps8.stlouis-mo.gov/arcgis/rest/services/STREETS/Streets_Permitting/MapServer/2","title":"Street light L024183"},"type":"Feature"},{"geometry":{"coordinates":[-90.2078396884298,38.68694389702246],"type":"Point"},"id":"stl-city-public-streetlights:2:131468","properties":{"address":null,"attributes":{"Date_Installed":null,"LED_Powered":0,"LightID":"L024184","Light_Source":"High Pressure Sodium","Light_Type":"Cobra","Lighting_Type":"100-W High Pressure Sodium Vapor Lamp","Verification_Date":null},"id":"stl-city-public-streetlights:2:131468","sourceLayerId":2,"sourceObjectId":131468,"sourceURL":"https://maps8.stlouis-mo.gov/arcgis/rest/services/STREETS/Streets_Permitting/MapServer/2","title":"Street light L024184"},"type":"Feature"},{"geometry":{"coordinates":[-90.20823128450459,38.68738893704263],"type":"Point"},"id":"stl-city-public-streetlights:2:131469","properties":{"address":null,"attributes":{"Date_Installed":null,"LED_Powered":0,"LightID":"L024185","Light_Source":"High Pressure Sodium","Light_Type":"Cobra","Lighting_Type":"100-W High Pressure Sodium Vapor Lamp","Verification_Date":null},"id":"stl-city-public-streetlights:2:131469","sourceLayerId":2,"sourceObjectId":131469,"sourceURL":"https://maps8.stlouis-mo.gov/arcgis/rest/services/STREETS/Streets_Permitting/MapServer/2","title":"Street light L024185"},"type":"Feature"},{"geometry":{"coordinates":[-90.20863447470826,38.68785559963359],"type":"Point"},"id":"stl-city-public-streetlights:2:131470","properties":{"address":null,"attributes":{"Date_Installed":null,"LED_Powered":0,"LightID":"L024186","Light_Source":"High Pressure Sodium","Light_Type":"Cobra","Lighting_Type":"100-W High Pressure Sodium Vapor Lamp","Verification_Date":null},"id":"stl-city-public-streetlights:2:131470","sourceLayerId":2,"sourceObjectId":131470,"sourceURL":"https://maps8.stlouis-mo.gov/arcgis/rest/services/STREETS/Streets_Permitting/MapServer/2","title":"Street light L024186"},"type":"Feature"},{"geometry":{"coordinates":[-90.20902776662268,38.68828991436467],"type":"Point"},"id":"stl-city-public-streetlights:2:131471","properties":{"address":null,"attributes":{"Date_Installed":null,"LED_Powered":0,"LightID":"L024187","Light_Source":"High Pressure Sodium","Light_Type":"Cobra","Lighting_Type":"100-W High Pressure Sodium Vapor Lamp","Verification_Date":null},"id":"stl-city-public-streetlights:2:131471","sourceLayerId":2,"sourceObjectId":131471,"sourceURL":"https://maps8.stlouis-mo.gov/arcgis/rest/services/STREETS/Streets_Permitting/MapServer/2","title":"Street light L024187"},"type":"Feature"},{"geometry":{"coordinates":[-90.2090546735468,38.68795389587972],"type":"Point"},"id":"stl-city-public-streetlights:2:131472","properties":{"address":null,"attributes":{"Date_Installed":null,"LED_Powered":0,"LightID":"L024188","Light_Source":"LED","Light_Type":"Cobra","Lighting_Type":"LED-Powered Lamp","Verification_Date":null},"id":"stl-city-public-streetlights:2:131472","sourceLayerId":2,"sourceObjectId":131472,"sourceURL":"https://maps8.stlouis-mo.gov/arcgis/rest/services/STREETS/Streets_Permitting/MapServer/2","title":"Street light L024188"},"type":"Feature"},{"geometry":{"coordinates":[-90.20865418664549,38.68749439176966],"type":"Point"},"id":"stl-city-public-streetlights:2:131473","properties":{"address":null,"attributes":{"Date_Installed":null,"LED_Powered":0,"LightID":"L024189","Light_Source":"LED","Light_Type":"Cobra","Lighting_Type":"LED-Powered Lamp","Verification_Date":null},"id":"stl-city-public-streetlights:2:131473","sourceLayerId":2,"sourceObjectId":131473,"sourceURL":"https://maps8.stlouis-mo.gov/arcgis/rest/services/STREETS/Streets_Permitting/MapServer/2","title":"Street light L024189"},"type":"Feature"},{"geometry":{"coordinates":[-90.20824802600104,38.687040736842576],"type":"Point"},"id":"stl-city-public-streetlights:2:131474","properties":{"address":null,"attributes":{"Date_Installed":null,"LED_Powered":0,"LightID":"L024190","Light_Source":"LED","Light_Type":"Cobra","Lighting_Type":"LED-Powered Lamp","Verification_Date":null},"id":"stl-city-public-streetlights:2:131474","sourceLayerId":2,"sourceObjectId":131474,"sourceURL":"https://maps8.stlouis-mo.gov/arcgis/rest/services/STREETS/Streets_Permitting/MapServer/2","title":"Street light L024190"},"type":"Feature"},{"geometry":{"coordinates":[-90.20785028079511,38.68658252412127],"type":"Point"},"id":"stl-city-public-streetlights:2:131475","properties":{"address":null,"attributes":{"Date_Installed":null,"LED_Powered":0,"LightID":"L024191","Light_Source":"LED","Light_Type":"Cobra","Lighting_Type":"LED-Powered Lamp","Verification_Date":null},"id":"stl-city-public-streetlights:2:131475","sourceLayerId":2,"sourceObjectId":131475,"sourceURL":"https://maps8.stlouis-mo.gov/arcgis/rest/services/STREETS/Streets_Permitting/MapServer/2","title":"Street light L024191"},"type":"Feature"},{"geometry":{"coordinates":[-90.20744997447856,38.686127592730074],"type":"Point"},"id":"stl-city-public-streetlights:2:131476","properties":{"address":null,"attributes":{"Date_Installed":null,"LED_Powered":0,"LightID":"L024192","Light_Source":"LED","Light_Type":"Cobra","Lighting_Type":"LED-Powered Lamp","Verification_Date":null},"id":"stl-city-public-streetlights:2:131476","sourceLayerId":2,"sourceObjectId":131476,"sourceURL":"https://maps8.stlouis-mo.gov/arcgis/rest/services/STREETS/Streets_Permitting/MapServer/2","title":"Street light L024192"},"type":"Feature"},{"geometry":{"coordinates":[-90.20704854928815,38.68567966599583],"type":"Point"},"id":"stl-city-public-streetlights:2:131477","properties":{"address":null,"attributes":{"Date_Installed":null,"LED_Powered":0,"LightID":"L024193","Light_Source":"LED","Light_Type":"Cobra","Lighting_Type":"LED-Powered Lamp","Verification_Date":null},"id":"stl-city-public-streetlights:2:131477","sourceLayerId":2,"sourceObjectId":131477,"sourceURL":"https://maps8.stlouis-mo.gov/arcgis/rest/services/STREETS/Streets_Permitting/MapServer/2","title":"Street light L024193"},"type":"Feature"},{"geometry":{"coordinates":[-90.20664244347884,38.68521728048004],"type":"Point"},"id":"stl-city-public-streetlights:2:131478","properties":{"address":null,"attributes":{"Date_Installed":null,"LED_Powered":0,"LightID":"L024194","Light_Source":"LED","Light_Type":"Cobra","Lighting_Type":"LED-Powered Lamp","Verification_Date":null},"id":"stl-city-public-streetlights:2:131478","sourceLayerId":2,"sourceObjectId":131478,"sourceURL":"https://maps8.stlouis-mo.gov/arcgis/rest/services/STREETS/Streets_Permitting/MapServer/2","title":"Street light L024194"},"type":"Feature"},{"geometry":{"coordinates":[-90.20625089183295,38.68476665775857],"type":"Point"},"id":"stl-city-public-streetlights:2:131479","properties":{"address":null,"attributes":{"Date_Installed":null,"LED_Powered":0,"LightID":"L024195","Light_Source":"LED","Light_Type":"Cobra","Lighting_Type":"LED-Powered Lamp","Verification_Date":null},"id":"stl-city-public-streetlights:2:131479","sourceLayerId":2,"sourceObjectId":131479,"sourceURL":"https://maps8.stlouis-mo.gov/arcgis/rest/services/STREETS/Streets_Permitting/MapServer/2","title":"Street light L024195"},"type":"Feature"},{"geometry":{"coordinates":[-90.20584821939904,38.68431514808927],"type":"Point"},"id":"stl-city-public-streetlights:2:131480","properties":{"address":null,"attributes":{"Date_Installed":null,"LED_Powered":0,"LightID":"L024196","Light_Source":"LED","Light_Type":"Cobra","Lighting_Type":"LED-Powered Lamp","Verification_Date":null},"id":"stl-city-public-streetlights:2:131480","sourceLayerId":2,"sourceObjectId":131480,"sourceURL":"https://maps8.stlouis-mo.gov/arcgis/rest/services/STREETS/Streets_Permitting/MapServer/2","title":"Street light L024196"},"type":"Feature"},{"geometry":{"coordinates":[-90.20544510556358,38.68385703062916],"type":"Point"},"id":"stl-city-public-streetlights:2:131481","properties":{"address":null,"attributes":{"Date_Installed":null,"LED_Powered":0,"LightID":"L024197","Light_Source":"LED","Light_Type":"Cobra","Lighting_Type":"LED-Powered Lamp","Verification_Date":null},"id":"stl-city-public-streetlights:2:131481","sourceLayerId":2,"sourceObjectId":131481,"sourceURL":"https://maps8.stlouis-mo.gov/arcgis/rest/services/STREETS/Streets_Permitting/MapServer/2","title":"Street light L024197"},"type":"Feature"},{"geometry":{"coordinates":[-90.20505150695838,38.68340890310452],"type":"Point"},"id":"stl-city-public-streetlights:2:131482","properties":{"address":null,"attributes":{"Date_Installed":null,"LED_Powered":0,"LightID":"L024198","Light_Source":"LED","Light_Type":"Cobra","Lighting_Type":"LED-Powered Lamp","Verification_Date":null},"id":"stl-city-public-streetlights:2:131482","sourceLayerId":2,"sourceObjectId":131482,"sourceURL":"https://maps8.stlouis-mo.gov/arcgis/rest/services/STREETS/Streets_Permitting/MapServer/2","title":"Street light L024198"},"type":"Feature"},{"geometry":{"coordinates":[-90.20465446847588,38.68296641316966],"type":"Point"},"id":"stl-city-public-streetlights:2:131483","properties":{"address":null,"attributes":{"Date_Installed":null,"LED_Powered":0,"LightID":"L024199","Light_Source":"High Pressure Sodium","Light_Type":"Cobra","Lighting_Type":"400-W High Pressure Sodium Vapor Lamp","Verification_Date":null},"id":"stl-city-public-streetlights:2:131483","sourceLayerId":2,"sourceObjectId":131483,"sourceURL":"https://maps8.stlouis-mo.gov/arcgis/rest/services/STREETS/Streets_Permitting/MapServer/2","title":"Street light L024199"},"type":"Feature"},{"geometry":{"coordinates":[-90.20427042365185,38.68251551705657],"type":"Point"},"id":"stl-city-public-streetlights:2:131484","properties":{"address":null,"attributes":{"Date_Installed":null,"LED_Powered":0,"LightID":"L024200","Light_Source":"LED","Light_Type":"Cobra","Lighting_Type":"LED-Powered Lamp","Verification_Date":null},"id":"stl-city-public-streetlights:2:131484","sourceLayerId":2,"sourceObjectId":131484,"sourceURL":"https://maps8.stlouis-mo.gov/arcgis/rest/services/STREETS/Streets_Permitting/MapServer/2","title":"Street light L024200"},"type":"Feature"},{"geometry":{"coordinates":[-90.20388542154573,38.682076916071836],"type":"Point"},"id":"stl-city-public-streetlights:2:131485","properties":{"address":null,"attributes":{"Date_Installed":null,"LED_Powered":0,"LightID":"L024201","Light_Source":"LED","Light_Type":"Cobra","Lighting_Type":"LED-Powered Lamp","Verification_Date":null},"id":"stl-city-public-streetlights:2:131485","sourceLayerId":2,"sourceObjectId":131485,"sourceURL":"https://maps8.stlouis-mo.gov/arcgis/rest/services/STREETS/Streets_Permitting/MapServer/2","title":"Street light L024201"},"type":"Feature"},{"geometry":{"coordinates":[-90.20349585310386,38.68164030397695],"type":"Point"},"id":"stl-city-public-streetlights:2:131486","properties":{"address":null,"attributes":{"Date_Installed":null,"LED_Powered":0,"LightID":"L024202","Light_Source":"LED","Light_Type":"Cobra","Lighting_Type":"LED-Powered Lamp","Verification_Date":null},"id":"stl-city-public-streetlights:2:131486","sourceLayerId":2,"sourceObjectId":131486,"sourceURL":"https://maps8.stlouis-mo.gov/arcgis/rest/services/STREETS/Streets_Permitting/MapServer/2","title":"Street light L024202"},"type":"Feature"},{"geometry":{"coordinates":[-90.20311450707533,38.68120228173122],"type":"Point"},"id":"stl-city-public-streetlights:2:131487","properties":{"address":null,"attributes":{"Date_Installed":null,"LED_Powered":0,"LightID":"L024203","Light_Source":"LED","Light_Type":"Cobra","Lighting_Type":"LED-Powered Lamp","Verification_Date":null},"id":"stl-city-public-streetlights:2:131487","sourceLayerId":2,"sourceObjectId":131487,"sourceURL":"https://maps8.stlouis-mo.gov/arcgis/rest/services/STREETS/Streets_Permitting/MapServer/2","title":"Street light L024203"},"type":"Feature"},{"geometry":{"coordinates":[-90.2027247647107,38.68076580981483],"type":"Point"},"id":"stl-city-public-streetlights:2:131488","properties":{"address":null,"attributes":{"Date_Installed":null,"LED_Powered":0,"LightID":"L024204","Light_Source":"LED","Light_Type":"Cobra","Lighting_Type":"LED-Powered Lamp","Verification_Date":null},"id":"stl-city-public-streetlights:2:131488","sourceLayerId":2,"sourceObjectId":131488,"sourceURL":"https://maps8.stlouis-mo.gov/arcgis/rest/services/STREETS/Streets_Permitting/MapServer/2","title":"Street light L024204"},"type":"Feature"},{"geometry":{"coordinates":[-90.20234251013595,38.68032907005117],"type":"Point"},"id":"stl-city-public-streetlights:2:131489","properties":{"address":null,"attributes":{"Date_Installed":null,"LED_Powered":0,"LightID":"L024205","Light_Source":"LED","Light_Type":"Cobra","Lighting_Type":"LED-Powered Lamp","Verification_Date":null},"id":"stl-city-public-streetlights:2:131489","sourceLayerId":2,"sourceObjectId":131489,"sourceURL":"https://maps8.stlouis-mo.gov/arcgis/rest/services/STREETS/Streets_Permitting/MapServer/2","title":"Street light L024205"},"type":"Feature"}],"layerId":"city-streetlights","retrievedAt":"2026-09-13T21:56:18.173251+00:00","schema":"property-infrastructure-geojson-v1","sourceId":"stl-city-public-streetlights","tileId":"-9021_3868","type":"FeatureCollection"}