{"features":[{"geometry":{"coordinates":[-90.19990324321786,38.59826331356424],"type":"Point"},"id":"stl-city-public-streetlights:2:121246","properties":{"address":null,"attributes":{"Date_Installed":null,"LED_Powered":0,"LightID":"L013966","Light_Source":"LED","Light_Type":"Cobra","Lighting_Type":"LED-Powered Lamp","Verification_Date":null},"id":"stl-city-public-streetlights:2:121246","sourceLayerId":2,"sourceObjectId":121246,"sourceURL":"https://maps8.stlouis-mo.gov/arcgis/rest/services/STREETS/Streets_Permitting/MapServer/2","title":"Street light L013966"},"type":"Feature"},{"geometry":{"coordinates":[-90.19950200965968,38.59804299088987],"type":"Point"},"id":"stl-city-public-streetlights:2:121247","properties":{"address":null,"attributes":{"Date_Installed":null,"LED_Powered":0,"LightID":"L013967","Light_Source":"LED","Light_Type":"Cobra","Lighting_Type":"LED-Powered Lamp","Verification_Date":null},"id":"stl-city-public-streetlights:2:121247","sourceLayerId":2,"sourceObjectId":121247,"sourceURL":"https://maps8.stlouis-mo.gov/arcgis/rest/services/STREETS/Streets_Permitting/MapServer/2","title":"Street light L013967"},"type":"Feature"},{"geometry":{"coordinates":[-90.19908821362125,38.5978130994636],"type":"Point"},"id":"stl-city-public-streetlights:2:121248","properties":{"address":null,"attributes":{"Date_Installed":null,"LED_Powered":0,"LightID":"L013968","Light_Source":"LED","Light_Type":"Cobra","Lighting_Type":"LED-Powered Lamp","Verification_Date":null},"id":"stl-city-public-streetlights:2:121248","sourceLayerId":2,"sourceObjectId":121248,"sourceURL":"https://maps8.stlouis-mo.gov/arcgis/rest/services/STREETS/Streets_Permitting/MapServer/2","title":"Street light L013968"},"type":"Feature"},{"geometry":{"coordinates":[-90.19863546317099,38.597565705479575],"type":"Point"},"id":"stl-city-public-streetlights:2:121249","properties":{"address":null,"attributes":{"Date_Installed":null,"LED_Powered":0,"LightID":"L013969","Light_Source":"LED","Light_Type":"Cobra","Lighting_Type":"LED-Powered Lamp","Verification_Date":null},"id":"stl-city-public-streetlights:2:121249","sourceLayerId":2,"sourceObjectId":121249,"sourceURL":"https://maps8.stlouis-mo.gov/arcgis/rest/services/STREETS/Streets_Permitting/MapServer/2","title":"Street light L013969"},"type":"Feature"}],"layerId":"city-streetlights","retrievedAt":"2026-09-13T21:56:18.173251+00:00","schema":"property-infrastructure-geojson-v1","sourceId":"stl-city-public-streetlights","tileId":"-9020_3859","type":"FeatureCollection"}