{"features":[{"geometry":{"coordinates":[-90.2703286429574,38.62087477398015],"type":"Point"},"id":"stl-city-public-streetlights:2:117620","properties":{"address":null,"attributes":{"Date_Installed":null,"LED_Powered":0,"LightID":"L010345","Light_Source":"LED","Light_Type":"Cobra","Lighting_Type":"LED-Powered Lamp","Verification_Date":null},"id":"stl-city-public-streetlights:2:117620","sourceLayerId":2,"sourceObjectId":117620,"sourceURL":"https://maps8.stlouis-mo.gov/arcgis/rest/services/STREETS/Streets_Permitting/MapServer/2","title":"Street light L010345"},"type":"Feature"},{"geometry":{"coordinates":[-90.27058103098254,38.62090601746434],"type":"Point"},"id":"stl-city-public-streetlights:2:117621","properties":{"address":null,"attributes":{"Date_Installed":null,"LED_Powered":0,"LightID":"L010346","Light_Source":"LED","Light_Type":"Cobra","Lighting_Type":"LED-Powered Lamp","Verification_Date":null},"id":"stl-city-public-streetlights:2:117621","sourceLayerId":2,"sourceObjectId":117621,"sourceURL":"https://maps8.stlouis-mo.gov/arcgis/rest/services/STREETS/Streets_Permitting/MapServer/2","title":"Street light L010346"},"type":"Feature"},{"geometry":{"coordinates":[-90.27093792355309,38.62107681237775],"type":"Point"},"id":"stl-city-public-streetlights:2:117622","properties":{"address":null,"attributes":{"Date_Installed":null,"LED_Powered":0,"LightID":"L010347","Light_Source":"High Pressure Sodium","Light_Type":"Cobra","Lighting_Type":"150-W High Pressure Sodium Vapor Lamp","Verification_Date":null},"id":"stl-city-public-streetlights:2:117622","sourceLayerId":2,"sourceObjectId":117622,"sourceURL":"https://maps8.stlouis-mo.gov/arcgis/rest/services/STREETS/Streets_Permitting/MapServer/2","title":"Street light L010347"},"type":"Feature"},{"geometry":{"coordinates":[-90.27416766621238,38.62010084273381],"type":"Point"},"id":"stl-city-public-streetlights:2:117662","properties":{"address":null,"attributes":{"Date_Installed":null,"LED_Powered":0,"LightID":"L010387","Light_Source":"LED","Light_Type":"Cobra","Lighting_Type":"LED-Powered Lamp","Verification_Date":null},"id":"stl-city-public-streetlights:2:117662","sourceLayerId":2,"sourceObjectId":117662,"sourceURL":"https://maps8.stlouis-mo.gov/arcgis/rest/services/STREETS/Streets_Permitting/MapServer/2","title":"Street light L010387"},"type":"Feature"},{"geometry":{"coordinates":[-90.27651746672389,38.620987286717515],"type":"Point"},"id":"stl-city-public-streetlights:2:118918","properties":{"address":null,"attributes":{"Date_Installed":null,"LED_Powered":0,"LightID":"L011643","Light_Source":"LED","Light_Type":"Cobra","Lighting_Type":"LED-Powered Lamp","Verification_Date":null},"id":"stl-city-public-streetlights:2:118918","sourceLayerId":2,"sourceObjectId":118918,"sourceURL":"https://maps8.stlouis-mo.gov/arcgis/rest/services/STREETS/Streets_Permitting/MapServer/2","title":"Street light L011643"},"type":"Feature"},{"geometry":{"coordinates":[-90.27694876144791,38.621037092999906],"type":"Point"},"id":"stl-city-public-streetlights:2:118919","properties":{"address":null,"attributes":{"Date_Installed":null,"LED_Powered":0,"LightID":"L011644","Light_Source":"LED","Light_Type":"Cobra","Lighting_Type":"LED-Powered Lamp","Verification_Date":null},"id":"stl-city-public-streetlights:2:118919","sourceLayerId":2,"sourceObjectId":118919,"sourceURL":"https://maps8.stlouis-mo.gov/arcgis/rest/services/STREETS/Streets_Permitting/MapServer/2","title":"Street light L011644"},"type":"Feature"},{"geometry":{"coordinates":[-90.27737610239555,38.62108820096903],"type":"Point"},"id":"stl-city-public-streetlights:2:118920","properties":{"address":null,"attributes":{"Date_Installed":null,"LED_Powered":0,"LightID":"L011645","Light_Source":"LED","Light_Type":"Cobra","Lighting_Type":"LED-Powered Lamp","Verification_Date":null},"id":"stl-city-public-streetlights:2:118920","sourceLayerId":2,"sourceObjectId":118920,"sourceURL":"https://maps8.stlouis-mo.gov/arcgis/rest/services/STREETS/Streets_Permitting/MapServer/2","title":"Street light L011645"},"type":"Feature"},{"geometry":{"coordinates":[-90.27779705741344,38.62114096460481],"type":"Point"},"id":"stl-city-public-streetlights:2:118921","properties":{"address":null,"attributes":{"Date_Installed":null,"LED_Powered":0,"LightID":"L011646","Light_Source":"LED","Light_Type":"Cobra","Lighting_Type":"LED-Powered Lamp","Verification_Date":null},"id":"stl-city-public-streetlights:2:118921","sourceLayerId":2,"sourceObjectId":118921,"sourceURL":"https://maps8.stlouis-mo.gov/arcgis/rest/services/STREETS/Streets_Permitting/MapServer/2","title":"Street light L011646"},"type":"Feature"},{"geometry":{"coordinates":[-90.27586798369973,38.62354091030006],"type":"Point"},"id":"stl-city-public-streetlights:2:118922","properties":{"address":null,"attributes":{"Date_Installed":null,"LED_Powered":0,"LightID":"L011647","Light_Source":"LED","Light_Type":"Cobra","Lighting_Type":"LED-Powered Lamp","Verification_Date":null},"id":"stl-city-public-streetlights:2:118922","sourceLayerId":2,"sourceObjectId":118922,"sourceURL":"https://maps8.stlouis-mo.gov/arcgis/rest/services/STREETS/Streets_Permitting/MapServer/2","title":"Street light L011647"},"type":"Feature"},{"geometry":{"coordinates":[-90.27594158871497,38.62317564309146],"type":"Point"},"id":"stl-city-public-streetlights:2:118923","properties":{"address":null,"attributes":{"Date_Installed":null,"LED_Powered":0,"LightID":"L011648","Light_Source":"LED","Light_Type":"Cobra","Lighting_Type":"LED-Powered Lamp","Verification_Date":null},"id":"stl-city-public-streetlights:2:118923","sourceLayerId":2,"sourceObjectId":118923,"sourceURL":"https://maps8.stlouis-mo.gov/arcgis/rest/services/STREETS/Streets_Permitting/MapServer/2","title":"Street light L011648"},"type":"Feature"},{"geometry":{"coordinates":[-90.27603199977972,38.62277930197433],"type":"Point"},"id":"stl-city-public-streetlights:2:118924","properties":{"address":null,"attributes":{"Date_Installed":null,"LED_Powered":0,"LightID":"L011649","Light_Source":"LED","Light_Type":"Cobra","Lighting_Type":"LED-Powered Lamp","Verification_Date":null},"id":"stl-city-public-streetlights:2:118924","sourceLayerId":2,"sourceObjectId":118924,"sourceURL":"https://maps8.stlouis-mo.gov/arcgis/rest/services/STREETS/Streets_Permitting/MapServer/2","title":"Street light L011649"},"type":"Feature"},{"geometry":{"coordinates":[-90.27609864181358,38.62235859478906],"type":"Point"},"id":"stl-city-public-streetlights:2:118925","properties":{"address":null,"attributes":{"Date_Installed":null,"LED_Powered":0,"LightID":"L011650","Light_Source":"LED","Light_Type":"Cobra","Lighting_Type":"LED-Powered Lamp","Verification_Date":null},"id":"stl-city-public-streetlights:2:118925","sourceLayerId":2,"sourceObjectId":118925,"sourceURL":"https://maps8.stlouis-mo.gov/arcgis/rest/services/STREETS/Streets_Permitting/MapServer/2","title":"Street light L011650"},"type":"Feature"},{"geometry":{"coordinates":[-90.2761930039231,38.621861297136576],"type":"Point"},"id":"stl-city-public-streetlights:2:118926","properties":{"address":null,"attributes":{"Date_Installed":null,"LED_Powered":0,"LightID":"L011651","Light_Source":"LED","Light_Type":"Cobra","Lighting_Type":"LED-Powered Lamp","Verification_Date":null},"id":"stl-city-public-streetlights:2:118926","sourceLayerId":2,"sourceObjectId":118926,"sourceURL":"https://maps8.stlouis-mo.gov/arcgis/rest/services/STREETS/Streets_Permitting/MapServer/2","title":"Street light L011651"},"type":"Feature"},{"geometry":{"coordinates":[-90.2762653452474,38.62154129344194],"type":"Point"},"id":"stl-city-public-streetlights:2:118927","properties":{"address":null,"attributes":{"Date_Installed":null,"LED_Powered":0,"LightID":"L011652","Light_Source":"LED","Light_Type":"Cobra","Lighting_Type":"LED-Powered Lamp","Verification_Date":null},"id":"stl-city-public-streetlights:2:118927","sourceLayerId":2,"sourceObjectId":118927,"sourceURL":"https://maps8.stlouis-mo.gov/arcgis/rest/services/STREETS/Streets_Permitting/MapServer/2","title":"Street light L011652"},"type":"Feature"},{"geometry":{"coordinates":[-90.27634354928617,38.621130013450525],"type":"Point"},"id":"stl-city-public-streetlights:2:118928","properties":{"address":null,"attributes":{"Date_Installed":null,"LED_Powered":0,"LightID":"L011653","Light_Source":"LED","Light_Type":"Cobra","Lighting_Type":"LED-Powered Lamp","Verification_Date":null},"id":"stl-city-public-streetlights:2:118928","sourceLayerId":2,"sourceObjectId":118928,"sourceURL":"https://maps8.stlouis-mo.gov/arcgis/rest/services/STREETS/Streets_Permitting/MapServer/2","title":"Street light L011653"},"type":"Feature"},{"geometry":{"coordinates":[-90.27644863079979,38.620632153995885],"type":"Point"},"id":"stl-city-public-streetlights:2:118929","properties":{"address":null,"attributes":{"Date_Installed":null,"LED_Powered":0,"LightID":"L011654","Light_Source":"LED","Light_Type":"Cobra","Lighting_Type":"LED-Powered Lamp","Verification_Date":null},"id":"stl-city-public-streetlights:2:118929","sourceLayerId":2,"sourceObjectId":118929,"sourceURL":"https://maps8.stlouis-mo.gov/arcgis/rest/services/STREETS/Streets_Permitting/MapServer/2","title":"Street light L011654"},"type":"Feature"},{"geometry":{"coordinates":[-90.27659033953131,38.620136516573744],"type":"Point"},"id":"stl-city-public-streetlights:2:118930","properties":{"address":null,"attributes":{"Date_Installed":null,"LED_Powered":0,"LightID":"L011655","Light_Source":"LED","Light_Type":"Cobra","Lighting_Type":"LED-Powered Lamp","Verification_Date":null},"id":"stl-city-public-streetlights:2:118930","sourceLayerId":2,"sourceObjectId":118930,"sourceURL":"https://maps8.stlouis-mo.gov/arcgis/rest/services/STREETS/Streets_Permitting/MapServer/2","title":"Street light L011655"},"type":"Feature"},{"geometry":{"coordinates":[-90.27401083888056,38.629774065121886],"type":"Point"},"id":"stl-city-public-streetlights:2:121637","properties":{"address":null,"attributes":{"Date_Installed":null,"LED_Powered":0,"LightID":"L014357","Light_Source":"High Pressure Sodium","Light_Type":"Cobra","Lighting_Type":"400-W High Pressure Sodium Vapor Lamp","Verification_Date":null},"id":"stl-city-public-streetlights:2:121637","sourceLayerId":2,"sourceObjectId":121637,"sourceURL":"https://maps8.stlouis-mo.gov/arcgis/rest/services/STREETS/Streets_Permitting/MapServer/2","title":"Street light L014357"},"type":"Feature"},{"geometry":{"coordinates":[-90.27455193885284,38.62982516521842],"type":"Point"},"id":"stl-city-public-streetlights:2:121638","properties":{"address":null,"attributes":{"Date_Installed":null,"LED_Powered":0,"LightID":"L014358","Light_Source":"High Pressure Sodium","Light_Type":"Cobra","Lighting_Type":"400-W High Pressure Sodium Vapor Lamp","Verification_Date":null},"id":"stl-city-public-streetlights:2:121638","sourceLayerId":2,"sourceObjectId":121638,"sourceURL":"https://maps8.stlouis-mo.gov/arcgis/rest/services/STREETS/Streets_Permitting/MapServer/2","title":"Street light L014358"},"type":"Feature"},{"geometry":{"coordinates":[-90.27506621323478,38.62990338392388],"type":"Point"},"id":"stl-city-public-streetlights:2:121641","properties":{"address":null,"attributes":{"Date_Installed":null,"LED_Powered":0,"LightID":"L014361","Light_Source":"High Pressure Sodium","Light_Type":"Cobra","Lighting_Type":"400-W High Pressure Sodium Vapor Lamp","Verification_Date":null},"id":"stl-city-public-streetlights:2:121641","sourceLayerId":2,"sourceObjectId":121641,"sourceURL":"https://maps8.stlouis-mo.gov/arcgis/rest/services/STREETS/Streets_Permitting/MapServer/2","title":"Street light L014361"},"type":"Feature"},{"geometry":{"coordinates":[-90.27559025151423,38.62992727283696],"type":"Point"},"id":"stl-city-public-streetlights:2:121642","properties":{"address":null,"attributes":{"Date_Installed":null,"LED_Powered":0,"LightID":"L014362","Light_Source":"High Pressure Sodium","Light_Type":"Cobra","Lighting_Type":"400-W High Pressure Sodium Vapor Lamp","Verification_Date":null},"id":"stl-city-public-streetlights:2:121642","sourceLayerId":2,"sourceObjectId":121642,"sourceURL":"https://maps8.stlouis-mo.gov/arcgis/rest/services/STREETS/Streets_Permitting/MapServer/2","title":"Street light L014362"},"type":"Feature"},{"geometry":{"coordinates":[-90.27611314854978,38.629979224483876],"type":"Point"},"id":"stl-city-public-streetlights:2:121643","properties":{"address":null,"attributes":{"Date_Installed":null,"LED_Powered":0,"LightID":"L014363","Light_Source":"High Pressure Sodium","Light_Type":"Cobra","Lighting_Type":"400-W High Pressure Sodium Vapor Lamp","Verification_Date":null},"id":"stl-city-public-streetlights:2:121643","sourceLayerId":2,"sourceObjectId":121643,"sourceURL":"https://maps8.stlouis-mo.gov/arcgis/rest/services/STREETS/Streets_Permitting/MapServer/2","title":"Street light L014363"},"type":"Feature"},{"geometry":{"coordinates":[-90.27448954855296,38.62817613282907],"type":"Point"},"id":"stl-city-public-streetlights:2:121671","properties":{"address":null,"attributes":{"Date_Installed":null,"LED_Powered":0,"LightID":"L014391","Light_Source":"LED","Light_Type":"Cobra","Lighting_Type":"LED-Powered Lamp","Verification_Date":null},"id":"stl-city-public-streetlights:2:121671","sourceLayerId":2,"sourceObjectId":121671,"sourceURL":"https://maps8.stlouis-mo.gov/arcgis/rest/services/STREETS/Streets_Permitting/MapServer/2","title":"Street light L014391"},"type":"Feature"},{"geometry":{"coordinates":[-90.27404415771329,38.62813843879701],"type":"Point"},"id":"stl-city-public-streetlights:2:121672","properties":{"address":null,"attributes":{"Date_Installed":null,"LED_Powered":0,"LightID":"L014392","Light_Source":"LED","Light_Type":"Cobra","Lighting_Type":"LED-Powered Lamp","Verification_Date":null},"id":"stl-city-public-streetlights:2:121672","sourceLayerId":2,"sourceObjectId":121672,"sourceURL":"https://maps8.stlouis-mo.gov/arcgis/rest/services/STREETS/Streets_Permitting/MapServer/2","title":"Street light L014392"},"type":"Feature"},{"geometry":{"coordinates":[-90.27361027653077,38.62809003482252],"type":"Point"},"id":"stl-city-public-streetlights:2:121673","properties":{"address":null,"attributes":{"Date_Installed":null,"LED_Powered":0,"LightID":"L014393","Light_Source":"LED","Light_Type":"Cobra","Lighting_Type":"LED-Powered Lamp","Verification_Date":null},"id":"stl-city-public-streetlights:2:121673","sourceLayerId":2,"sourceObjectId":121673,"sourceURL":"https://maps8.stlouis-mo.gov/arcgis/rest/services/STREETS/Streets_Permitting/MapServer/2","title":"Street light L014393"},"type":"Feature"},{"geometry":{"coordinates":[-90.27314817123364,38.62804671140351],"type":"Point"},"id":"stl-city-public-streetlights:2:121674","properties":{"address":null,"attributes":{"Date_Installed":null,"LED_Powered":0,"LightID":"L014394","Light_Source":"LED","Light_Type":"Cobra","Lighting_Type":"LED-Powered Lamp","Verification_Date":null},"id":"stl-city-public-streetlights:2:121674","sourceLayerId":2,"sourceObjectId":121674,"sourceURL":"https://maps8.stlouis-mo.gov/arcgis/rest/services/STREETS/Streets_Permitting/MapServer/2","title":"Street light L014394"},"type":"Feature"},{"geometry":{"coordinates":[-90.27275269808435,38.628008558783236],"type":"Point"},"id":"stl-city-public-streetlights:2:121675","properties":{"address":null,"attributes":{"Date_Installed":null,"LED_Powered":0,"LightID":"L014395","Light_Source":"LED","Light_Type":"Cobra","Lighting_Type":"LED-Powered Lamp","Verification_Date":null},"id":"stl-city-public-streetlights:2:121675","sourceLayerId":2,"sourceObjectId":121675,"sourceURL":"https://maps8.stlouis-mo.gov/arcgis/rest/services/STREETS/Streets_Permitting/MapServer/2","title":"Street light L014395"},"type":"Feature"},{"geometry":{"coordinates":[-90.27221279938223,38.627953840130395],"type":"Point"},"id":"stl-city-public-streetlights:2:121676","properties":{"address":null,"attributes":{"Date_Installed":null,"LED_Powered":0,"LightID":"L014396","Light_Source":"LED","Light_Type":"Cobra","Lighting_Type":"LED-Powered Lamp","Verification_Date":null},"id":"stl-city-public-streetlights:2:121676","sourceLayerId":2,"sourceObjectId":121676,"sourceURL":"https://maps8.stlouis-mo.gov/arcgis/rest/services/STREETS/Streets_Permitting/MapServer/2","title":"Street light L014396"},"type":"Feature"},{"geometry":{"coordinates":[-90.2717644226995,38.62791292173239],"type":"Point"},"id":"stl-city-public-streetlights:2:121677","properties":{"address":null,"attributes":{"Date_Installed":null,"LED_Powered":0,"LightID":"L014397","Light_Source":"LED","Light_Type":"Cobra","Lighting_Type":"LED-Powered Lamp","Verification_Date":null},"id":"stl-city-public-streetlights:2:121677","sourceLayerId":2,"sourceObjectId":121677,"sourceURL":"https://maps8.stlouis-mo.gov/arcgis/rest/services/STREETS/Streets_Permitting/MapServer/2","title":"Street light L014397"},"type":"Feature"},{"geometry":{"coordinates":[-90.27447085463412,38.62681234972044],"type":"Point"},"id":"stl-city-public-streetlights:2:121678","properties":{"address":null,"attributes":{"Date_Installed":null,"LED_Powered":0,"LightID":"L014398","Light_Source":"LED","Light_Type":"Cobra","Lighting_Type":"LED-Powered Lamp","Verification_Date":null},"id":"stl-city-public-streetlights:2:121678","sourceLayerId":2,"sourceObjectId":121678,"sourceURL":"https://maps8.stlouis-mo.gov/arcgis/rest/services/STREETS/Streets_Permitting/MapServer/2","title":"Street light L014398"},"type":"Feature"},{"geometry":{"coordinates":[-90.27389038588788,38.626735550015],"type":"Point"},"id":"stl-city-public-streetlights:2:121679","properties":{"address":null,"attributes":{"Date_Installed":null,"LED_Powered":0,"LightID":"L014399","Light_Source":"LED","Light_Type":"Cobra","Lighting_Type":"LED-Powered Lamp","Verification_Date":null},"id":"stl-city-public-streetlights:2:121679","sourceLayerId":2,"sourceObjectId":121679,"sourceURL":"https://maps8.stlouis-mo.gov/arcgis/rest/services/STREETS/Streets_Permitting/MapServer/2","title":"Street light L014399"},"type":"Feature"},{"geometry":{"coordinates":[-90.27359679618296,38.62670574385297],"type":"Point"},"id":"stl-city-public-streetlights:2:121680","properties":{"address":null,"attributes":{"Date_Installed":null,"LED_Powered":0,"LightID":"L014400","Light_Source":"LED","Light_Type":"Cobra","Lighting_Type":"LED-Powered Lamp","Verification_Date":null},"id":"stl-city-public-streetlights:2:121680","sourceLayerId":2,"sourceObjectId":121680,"sourceURL":"https://maps8.stlouis-mo.gov/arcgis/rest/services/STREETS/Streets_Permitting/MapServer/2","title":"Street light L014400"},"type":"Feature"},{"geometry":{"coordinates":[-90.27322205108392,38.62667030226687],"type":"Point"},"id":"stl-city-public-streetlights:2:121681","properties":{"address":null,"attributes":{"Date_Installed":null,"LED_Powered":0,"LightID":"L014401","Light_Source":"LED","Light_Type":"Cobra","Lighting_Type":"LED-Powered Lamp","Verification_Date":null},"id":"stl-city-public-streetlights:2:121681","sourceLayerId":2,"sourceObjectId":121681,"sourceURL":"https://maps8.stlouis-mo.gov/arcgis/rest/services/STREETS/Streets_Permitting/MapServer/2","title":"Street light L014401"},"type":"Feature"},{"geometry":{"coordinates":[-90.27267372553601,38.6266206855697],"type":"Point"},"id":"stl-city-public-streetlights:2:121682","properties":{"address":null,"attributes":{"Date_Installed":null,"LED_Powered":0,"LightID":"L014402","Light_Source":"LED","Light_Type":"Cobra","Lighting_Type":"LED-Powered Lamp","Verification_Date":null},"id":"stl-city-public-streetlights:2:121682","sourceLayerId":2,"sourceObjectId":121682,"sourceURL":"https://maps8.stlouis-mo.gov/arcgis/rest/services/STREETS/Streets_Permitting/MapServer/2","title":"Street light L014402"},"type":"Feature"},{"geometry":{"coordinates":[-90.27222744669068,38.626572622644574],"type":"Point"},"id":"stl-city-public-streetlights:2:121683","properties":{"address":null,"attributes":{"Date_Installed":null,"LED_Powered":0,"LightID":"L014403","Light_Source":"LED","Light_Type":"Cobra","Lighting_Type":"LED-Powered Lamp","Verification_Date":null},"id":"stl-city-public-streetlights:2:121683","sourceLayerId":2,"sourceObjectId":121683,"sourceURL":"https://maps8.stlouis-mo.gov/arcgis/rest/services/STREETS/Streets_Permitting/MapServer/2","title":"Street light L014403"},"type":"Feature"},{"geometry":{"coordinates":[-90.27167557065601,38.62643167637759],"type":"Point"},"id":"stl-city-public-streetlights:2:121684","properties":{"address":null,"attributes":{"Date_Installed":null,"LED_Powered":0,"LightID":"L014404","Light_Source":"High Pressure Sodium","Light_Type":"Cobra","Lighting_Type":"400-W High Pressure Sodium Vapor Lamp","Verification_Date":null},"id":"stl-city-public-streetlights:2:121684","sourceLayerId":2,"sourceObjectId":121684,"sourceURL":"https://maps8.stlouis-mo.gov/arcgis/rest/services/STREETS/Streets_Permitting/MapServer/2","title":"Street light L014404"},"type":"Feature"},{"geometry":{"coordinates":[-90.27515830234213,38.62761854732676],"type":"Point"},"id":"stl-city-public-streetlights:2:121685","properties":{"address":null,"attributes":{"Date_Installed":null,"LED_Powered":0,"LightID":"L014405","Light_Source":"LED","Light_Type":"Cobra","Lighting_Type":"LED-Powered Lamp","Verification_Date":null},"id":"stl-city-public-streetlights:2:121685","sourceLayerId":2,"sourceObjectId":121685,"sourceURL":"https://maps8.stlouis-mo.gov/arcgis/rest/services/STREETS/Streets_Permitting/MapServer/2","title":"Street light L014405"},"type":"Feature"},{"geometry":{"coordinates":[-90.27552282541978,38.62765500092819],"type":"Point"},"id":"stl-city-public-streetlights:2:121686","properties":{"address":null,"attributes":{"Date_Installed":null,"LED_Powered":0,"LightID":"L014406","Light_Source":"LED","Light_Type":"Cobra","Lighting_Type":"LED-Powered Lamp","Verification_Date":null},"id":"stl-city-public-streetlights:2:121686","sourceLayerId":2,"sourceObjectId":121686,"sourceURL":"https://maps8.stlouis-mo.gov/arcgis/rest/services/STREETS/Streets_Permitting/MapServer/2","title":"Street light L014406"},"type":"Feature"},{"geometry":{"coordinates":[-90.27594052584998,38.62769155614016],"type":"Point"},"id":"stl-city-public-streetlights:2:121687","properties":{"address":null,"attributes":{"Date_Installed":null,"LED_Powered":0,"LightID":"L014407","Light_Source":"LED","Light_Type":"Cobra","Lighting_Type":"LED-Powered Lamp","Verification_Date":null},"id":"stl-city-public-streetlights:2:121687","sourceLayerId":2,"sourceObjectId":121687,"sourceURL":"https://maps8.stlouis-mo.gov/arcgis/rest/services/STREETS/Streets_Permitting/MapServer/2","title":"Street light L014407"},"type":"Feature"},{"geometry":{"coordinates":[-90.2764075861203,38.627734162693685],"type":"Point"},"id":"stl-city-public-streetlights:2:121688","properties":{"address":null,"attributes":{"Date_Installed":null,"LED_Powered":0,"LightID":"L014408","Light_Source":"LED","Light_Type":"Cobra","Lighting_Type":"LED-Powered Lamp","Verification_Date":null},"id":"stl-city-public-streetlights:2:121688","sourceLayerId":2,"sourceObjectId":121688,"sourceURL":"https://maps8.stlouis-mo.gov/arcgis/rest/services/STREETS/Streets_Permitting/MapServer/2","title":"Street light L014408"},"type":"Feature"},{"geometry":{"coordinates":[-90.27685943438406,38.62778269777037],"type":"Point"},"id":"stl-city-public-streetlights:2:121689","properties":{"address":null,"attributes":{"Date_Installed":null,"LED_Powered":0,"LightID":"L014409","Light_Source":"LED","Light_Type":"Cobra","Lighting_Type":"LED-Powered Lamp","Verification_Date":null},"id":"stl-city-public-streetlights:2:121689","sourceLayerId":2,"sourceObjectId":121689,"sourceURL":"https://maps8.stlouis-mo.gov/arcgis/rest/services/STREETS/Streets_Permitting/MapServer/2","title":"Street light L014409"},"type":"Feature"},{"geometry":{"coordinates":[-90.27731624007059,38.6278252811401],"type":"Point"},"id":"stl-city-public-streetlights:2:121690","properties":{"address":null,"attributes":{"Date_Installed":null,"LED_Powered":0,"LightID":"L014410","Light_Source":"LED","Light_Type":"Cobra","Lighting_Type":"LED-Powered Lamp","Verification_Date":null},"id":"stl-city-public-streetlights:2:121690","sourceLayerId":2,"sourceObjectId":121690,"sourceURL":"https://maps8.stlouis-mo.gov/arcgis/rest/services/STREETS/Streets_Permitting/MapServer/2","title":"Street light L014410"},"type":"Feature"},{"geometry":{"coordinates":[-90.27776353490655,38.627749855799735],"type":"Point"},"id":"stl-city-public-streetlights:2:121691","properties":{"address":null,"attributes":{"Date_Installed":null,"LED_Powered":0,"LightID":"L014411","Light_Source":"LED","Light_Type":"Cobra","Lighting_Type":"LED-Powered Lamp","Verification_Date":null},"id":"stl-city-public-streetlights:2:121691","sourceLayerId":2,"sourceObjectId":121691,"sourceURL":"https://maps8.stlouis-mo.gov/arcgis/rest/services/STREETS/Streets_Permitting/MapServer/2","title":"Street light L014411"},"type":"Feature"},{"geometry":{"coordinates":[-90.2754139639858,38.62690938892695],"type":"Point"},"id":"stl-city-public-streetlights:2:121692","properties":{"address":null,"attributes":{"Date_Installed":null,"LED_Powered":0,"LightID":"L014412","Light_Source":"LED","Light_Type":"Cobra","Lighting_Type":"LED-Powered Lamp","Verification_Date":null},"id":"stl-city-public-streetlights:2:121692","sourceLayerId":2,"sourceObjectId":121692,"sourceURL":"https://maps8.stlouis-mo.gov/arcgis/rest/services/STREETS/Streets_Permitting/MapServer/2","title":"Street light L014412"},"type":"Feature"},{"geometry":{"coordinates":[-90.27596658993002,38.62696050460665],"type":"Point"},"id":"stl-city-public-streetlights:2:121693","properties":{"address":null,"attributes":{"Date_Installed":null,"LED_Powered":0,"LightID":"L014413","Light_Source":"LED","Light_Type":"Cobra","Lighting_Type":"LED-Powered Lamp","Verification_Date":null},"id":"stl-city-public-streetlights:2:121693","sourceLayerId":2,"sourceObjectId":121693,"sourceURL":"https://maps8.stlouis-mo.gov/arcgis/rest/services/STREETS/Streets_Permitting/MapServer/2","title":"Street light L014413"},"type":"Feature"},{"geometry":{"coordinates":[-90.27653705755671,38.62702023274595],"type":"Point"},"id":"stl-city-public-streetlights:2:121694","properties":{"address":null,"attributes":{"Date_Installed":null,"LED_Powered":0,"LightID":"L014414","Light_Source":"LED","Light_Type":"Cobra","Lighting_Type":"LED-Powered Lamp","Verification_Date":null},"id":"stl-city-public-streetlights:2:121694","sourceLayerId":2,"sourceObjectId":121694,"sourceURL":"https://maps8.stlouis-mo.gov/arcgis/rest/services/STREETS/Streets_Permitting/MapServer/2","title":"Street light L014414"},"type":"Feature"},{"geometry":{"coordinates":[-90.27711883579985,38.627077833726396],"type":"Point"},"id":"stl-city-public-streetlights:2:121695","properties":{"address":null,"attributes":{"Date_Installed":null,"LED_Powered":0,"LightID":"L014415","Light_Source":"LED","Light_Type":"Cobra","Lighting_Type":"LED-Powered Lamp","Verification_Date":null},"id":"stl-city-public-streetlights:2:121695","sourceLayerId":2,"sourceObjectId":121695,"sourceURL":"https://maps8.stlouis-mo.gov/arcgis/rest/services/STREETS/Streets_Permitting/MapServer/2","title":"Street light L014415"},"type":"Feature"},{"geometry":{"coordinates":[-90.27768860981146,38.62712625684876],"type":"Point"},"id":"stl-city-public-streetlights:2:121696","properties":{"address":null,"attributes":{"Date_Installed":null,"LED_Powered":0,"LightID":"L014416","Light_Source":"LED","Light_Type":"Cobra","Lighting_Type":"LED-Powered Lamp","Verification_Date":null},"id":"stl-city-public-streetlights:2:121696","sourceLayerId":2,"sourceObjectId":121696,"sourceURL":"https://maps8.stlouis-mo.gov/arcgis/rest/services/STREETS/Streets_Permitting/MapServer/2","title":"Street light L014416"},"type":"Feature"},{"geometry":{"coordinates":[-90.27452261865487,38.62917617605078],"type":"Point"},"id":"stl-city-public-streetlights:2:121697","properties":{"address":null,"attributes":{"Date_Installed":null,"LED_Powered":0,"LightID":"L014417","Light_Source":"LED","Light_Type":"Cobra","Lighting_Type":"LED-Powered Lamp","Verification_Date":null},"id":"stl-city-public-streetlights:2:121697","sourceLayerId":2,"sourceObjectId":121697,"sourceURL":"https://maps8.stlouis-mo.gov/arcgis/rest/services/STREETS/Streets_Permitting/MapServer/2","title":"Street light L014417"},"type":"Feature"},{"geometry":{"coordinates":[-90.27460993749831,38.62877284588675],"type":"Point"},"id":"stl-city-public-streetlights:2:121698","properties":{"address":null,"attributes":{"Date_Installed":null,"LED_Powered":0,"LightID":"L014418","Light_Source":"LED","Light_Type":"Cobra","Lighting_Type":"LED-Powered Lamp","Verification_Date":null},"id":"stl-city-public-streetlights:2:121698","sourceLayerId":2,"sourceObjectId":121698,"sourceURL":"https://maps8.stlouis-mo.gov/arcgis/rest/services/STREETS/Streets_Permitting/MapServer/2","title":"Street light L014418"},"type":"Feature"},{"geometry":{"coordinates":[-90.27469565372822,38.628376329587844],"type":"Point"},"id":"stl-city-public-streetlights:2:121699","properties":{"address":null,"attributes":{"Date_Installed":null,"LED_Powered":0,"LightID":"L014419","Light_Source":"LED","Light_Type":"Cobra","Lighting_Type":"LED-Powered Lamp","Verification_Date":null},"id":"stl-city-public-streetlights:2:121699","sourceLayerId":2,"sourceObjectId":121699,"sourceURL":"https://maps8.stlouis-mo.gov/arcgis/rest/services/STREETS/Streets_Permitting/MapServer/2","title":"Street light L014419"},"type":"Feature"},{"geometry":{"coordinates":[-90.27477186966284,38.627985802955976],"type":"Point"},"id":"stl-city-public-streetlights:2:121700","properties":{"address":null,"attributes":{"Date_Installed":null,"LED_Powered":0,"LightID":"L014420","Light_Source":"LED","Light_Type":"Cobra","Lighting_Type":"LED-Powered Lamp","Verification_Date":null},"id":"stl-city-public-streetlights:2:121700","sourceLayerId":2,"sourceObjectId":121700,"sourceURL":"https://maps8.stlouis-mo.gov/arcgis/rest/services/STREETS/Streets_Permitting/MapServer/2","title":"Street light L014420"},"type":"Feature"},{"geometry":{"coordinates":[-90.27485339263018,38.62756930384733],"type":"Point"},"id":"stl-city-public-streetlights:2:121701","properties":{"address":null,"attributes":{"Date_Installed":null,"LED_Powered":0,"LightID":"L014421","Light_Source":"LED","Light_Type":"Cobra","Lighting_Type":"LED-Powered Lamp","Verification_Date":null},"id":"stl-city-public-streetlights:2:121701","sourceLayerId":2,"sourceObjectId":121701,"sourceURL":"https://maps8.stlouis-mo.gov/arcgis/rest/services/STREETS/Streets_Permitting/MapServer/2","title":"Street light L014421"},"type":"Feature"},{"geometry":{"coordinates":[-90.27494464748851,38.62714996394069],"type":"Point"},"id":"stl-city-public-streetlights:2:121702","properties":{"address":null,"attributes":{"Date_Installed":null,"LED_Powered":0,"LightID":"L014422","Light_Source":"LED","Light_Type":"Cobra","Lighting_Type":"LED-Powered Lamp","Verification_Date":null},"id":"stl-city-public-streetlights:2:121702","sourceLayerId":2,"sourceObjectId":121702,"sourceURL":"https://maps8.stlouis-mo.gov/arcgis/rest/services/STREETS/Streets_Permitting/MapServer/2","title":"Street light L014422"},"type":"Feature"},{"geometry":{"coordinates":[-90.27504098307207,38.62666007766694],"type":"Point"},"id":"stl-city-public-streetlights:2:121703","properties":{"address":null,"attributes":{"Date_Installed":null,"LED_Powered":0,"LightID":"L014423","Light_Source":"LED","Light_Type":"Cobra","Lighting_Type":"LED-Powered Lamp","Verification_Date":null},"id":"stl-city-public-streetlights:2:121703","sourceLayerId":2,"sourceObjectId":121703,"sourceURL":"https://maps8.stlouis-mo.gov/arcgis/rest/services/STREETS/Streets_Permitting/MapServer/2","title":"Street light L014423"},"type":"Feature"},{"geometry":{"coordinates":[-90.27512741901171,38.626226425727715],"type":"Point"},"id":"stl-city-public-streetlights:2:121704","properties":{"address":null,"attributes":{"Date_Installed":null,"LED_Powered":0,"LightID":"L014424","Light_Source":"LED","Light_Type":"Cobra","Lighting_Type":"LED-Powered Lamp","Verification_Date":null},"id":"stl-city-public-streetlights:2:121704","sourceLayerId":2,"sourceObjectId":121704,"sourceURL":"https://maps8.stlouis-mo.gov/arcgis/rest/services/STREETS/Streets_Permitting/MapServer/2","title":"Street light L014424"},"type":"Feature"},{"geometry":{"coordinates":[-90.27522131193732,38.625739395763226],"type":"Point"},"id":"stl-city-public-streetlights:2:121705","properties":{"address":null,"attributes":{"Date_Installed":null,"LED_Powered":0,"LightID":"L014425","Light_Source":"LED","Light_Type":"Cobra","Lighting_Type":"LED-Powered Lamp","Verification_Date":null},"id":"stl-city-public-streetlights:2:121705","sourceLayerId":2,"sourceObjectId":121705,"sourceURL":"https://maps8.stlouis-mo.gov/arcgis/rest/services/STREETS/Streets_Permitting/MapServer/2","title":"Street light L014425"},"type":"Feature"},{"geometry":{"coordinates":[-90.27530023599579,38.62537533119973],"type":"Point"},"id":"stl-city-public-streetlights:2:121706","properties":{"address":null,"attributes":{"Date_Installed":null,"LED_Powered":0,"LightID":"L014426","Light_Source":"LED","Light_Type":"Cobra","Lighting_Type":"LED-Powered Lamp","Verification_Date":null},"id":"stl-city-public-streetlights:2:121706","sourceLayerId":2,"sourceObjectId":121706,"sourceURL":"https://maps8.stlouis-mo.gov/arcgis/rest/services/STREETS/Streets_Permitting/MapServer/2","title":"Street light L014426"},"type":"Feature"},{"geometry":{"coordinates":[-90.2753966406172,38.62491035427396],"type":"Point"},"id":"stl-city-public-streetlights:2:121707","properties":{"address":null,"attributes":{"Date_Installed":null,"LED_Powered":0,"LightID":"L014427","Light_Source":"LED","Light_Type":"Cobra","Lighting_Type":"LED-Powered Lamp","Verification_Date":null},"id":"stl-city-public-streetlights:2:121707","sourceLayerId":2,"sourceObjectId":121707,"sourceURL":"https://maps8.stlouis-mo.gov/arcgis/rest/services/STREETS/Streets_Permitting/MapServer/2","title":"Street light L014427"},"type":"Feature"},{"geometry":{"coordinates":[-90.27548288239852,38.62448897711943],"type":"Point"},"id":"stl-city-public-streetlights:2:121708","properties":{"address":null,"attributes":{"Date_Installed":null,"LED_Powered":0,"LightID":"L014428","Light_Source":"LED","Light_Type":"Cobra","Lighting_Type":"LED-Powered Lamp","Verification_Date":null},"id":"stl-city-public-streetlights:2:121708","sourceLayerId":2,"sourceObjectId":121708,"sourceURL":"https://maps8.stlouis-mo.gov/arcgis/rest/services/STREETS/Streets_Permitting/MapServer/2","title":"Street light L014428"},"type":"Feature"},{"geometry":{"coordinates":[-90.27556748346608,38.624076368708906],"type":"Point"},"id":"stl-city-public-streetlights:2:121709","properties":{"address":null,"attributes":{"Date_Installed":null,"LED_Powered":0,"LightID":"L014429","Light_Source":"High Pressure Sodium","Light_Type":"Cobra","Lighting_Type":"400-W High Pressure Sodium Vapor Lamp","Verification_Date":1659595324000},"id":"stl-city-public-streetlights:2:121709","sourceLayerId":2,"sourceObjectId":121709,"sourceURL":"https://maps8.stlouis-mo.gov/arcgis/rest/services/STREETS/Streets_Permitting/MapServer/2","title":"Street light L014429"},"type":"Feature"},{"geometry":{"coordinates":[-90.27474944973429,38.629421648174095],"type":"Point"},"id":"stl-city-public-streetlights:2:121710","properties":{"address":null,"attributes":{"Date_Installed":null,"LED_Powered":0,"LightID":"L014430","Light_Source":"LED","Light_Type":"Cobra","Lighting_Type":"LED-Powered Lamp","Verification_Date":null},"id":"stl-city-public-streetlights:2:121710","sourceLayerId":2,"sourceObjectId":121710,"sourceURL":"https://maps8.stlouis-mo.gov/arcgis/rest/services/STREETS/Streets_Permitting/MapServer/2","title":"Street light L014430"},"type":"Feature"},{"geometry":{"coordinates":[-90.27483186253208,38.62901277874444],"type":"Point"},"id":"stl-city-public-streetlights:2:121711","properties":{"address":null,"attributes":{"Date_Installed":null,"LED_Powered":0,"LightID":"L014431","Light_Source":"LED","Light_Type":"Cobra","Lighting_Type":"LED-Powered Lamp","Verification_Date":null},"id":"stl-city-public-streetlights:2:121711","sourceLayerId":2,"sourceObjectId":121711,"sourceURL":"https://maps8.stlouis-mo.gov/arcgis/rest/services/STREETS/Streets_Permitting/MapServer/2","title":"Street light L014431"},"type":"Feature"},{"geometry":{"coordinates":[-90.2749153291101,38.62860671212555],"type":"Point"},"id":"stl-city-public-streetlights:2:121712","properties":{"address":null,"attributes":{"Date_Installed":null,"LED_Powered":0,"LightID":"L014432","Light_Source":"LED","Light_Type":"Cobra","Lighting_Type":"LED-Powered Lamp","Verification_Date":null},"id":"stl-city-public-streetlights:2:121712","sourceLayerId":2,"sourceObjectId":121712,"sourceURL":"https://maps8.stlouis-mo.gov/arcgis/rest/services/STREETS/Streets_Permitting/MapServer/2","title":"Street light L014432"},"type":"Feature"},{"geometry":{"coordinates":[-90.27495856465693,38.628238944218566],"type":"Point"},"id":"stl-city-public-streetlights:2:121713","properties":{"address":null,"attributes":{"Date_Installed":null,"LED_Powered":0,"LightID":"L014433","Light_Source":"LED","Light_Type":"Cobra","Lighting_Type":"LED-Powered Lamp","Verification_Date":null},"id":"stl-city-public-streetlights:2:121713","sourceLayerId":2,"sourceObjectId":121713,"sourceURL":"https://maps8.stlouis-mo.gov/arcgis/rest/services/STREETS/Streets_Permitting/MapServer/2","title":"Street light L014433"},"type":"Feature"},{"geometry":{"coordinates":[-90.27505212765732,38.62776132914419],"type":"Point"},"id":"stl-city-public-streetlights:2:121714","properties":{"address":null,"attributes":{"Date_Installed":null,"LED_Powered":0,"LightID":"L014434","Light_Source":"LED","Light_Type":"Cobra","Lighting_Type":"LED-Powered Lamp","Verification_Date":null},"id":"stl-city-public-streetlights:2:121714","sourceLayerId":2,"sourceObjectId":121714,"sourceURL":"https://maps8.stlouis-mo.gov/arcgis/rest/services/STREETS/Streets_Permitting/MapServer/2","title":"Street light L014434"},"type":"Feature"},{"geometry":{"coordinates":[-90.27512620237775,38.627394394272606],"type":"Point"},"id":"stl-city-public-streetlights:2:121715","properties":{"address":null,"attributes":{"Date_Installed":null,"LED_Powered":0,"LightID":"L014435","Light_Source":"LED","Light_Type":"Cobra","Lighting_Type":"LED-Powered Lamp","Verification_Date":null},"id":"stl-city-public-streetlights:2:121715","sourceLayerId":2,"sourceObjectId":121715,"sourceURL":"https://maps8.stlouis-mo.gov/arcgis/rest/services/STREETS/Streets_Permitting/MapServer/2","title":"Street light L014435"},"type":"Feature"},{"geometry":{"coordinates":[-90.2752174840417,38.62696551915322],"type":"Point"},"id":"stl-city-public-streetlights:2:121716","properties":{"address":null,"attributes":{"Date_Installed":null,"LED_Powered":0,"LightID":"L014436","Light_Source":"LED","Light_Type":"Cobra","Lighting_Type":"LED-Powered Lamp","Verification_Date":null},"id":"stl-city-public-streetlights:2:121716","sourceLayerId":2,"sourceObjectId":121716,"sourceURL":"https://maps8.stlouis-mo.gov/arcgis/rest/services/STREETS/Streets_Permitting/MapServer/2","title":"Street light L014436"},"type":"Feature"},{"geometry":{"coordinates":[-90.27142260413326,38.62549331904464],"type":"Point"},"id":"stl-city-public-streetlights:2:121717","properties":{"address":null,"attributes":{"Date_Installed":null,"LED_Powered":0,"LightID":"L014437","Light_Source":"LED","Light_Type":"Cobra","Lighting_Type":"LED-Powered Lamp","Verification_Date":null},"id":"stl-city-public-streetlights:2:121717","sourceLayerId":2,"sourceObjectId":121717,"sourceURL":"https://maps8.stlouis-mo.gov/arcgis/rest/services/STREETS/Streets_Permitting/MapServer/2","title":"Street light L014437"},"type":"Feature"},{"geometry":{"coordinates":[-90.27148241227918,38.62506442757426],"type":"Point"},"id":"stl-city-public-streetlights:2:121718","properties":{"address":null,"attributes":{"Date_Installed":null,"LED_Powered":0,"LightID":"L014438","Light_Source":"LED","Light_Type":"Cobra","Lighting_Type":"LED-Powered Lamp","Verification_Date":null},"id":"stl-city-public-streetlights:2:121718","sourceLayerId":2,"sourceObjectId":121718,"sourceURL":"https://maps8.stlouis-mo.gov/arcgis/rest/services/STREETS/Streets_Permitting/MapServer/2","title":"Street light L014438"},"type":"Feature"},{"geometry":{"coordinates":[-90.27154310138897,38.6246207883584],"type":"Point"},"id":"stl-city-public-streetlights:2:121719","properties":{"address":null,"attributes":{"Date_Installed":null,"LED_Powered":0,"LightID":"L014439","Light_Source":"LED","Light_Type":"Cobra","Lighting_Type":"LED-Powered Lamp","Verification_Date":1659595243000},"id":"stl-city-public-streetlights:2:121719","sourceLayerId":2,"sourceObjectId":121719,"sourceURL":"https://maps8.stlouis-mo.gov/arcgis/rest/services/STREETS/Streets_Permitting/MapServer/2","title":"Street light L014439"},"type":"Feature"},{"geometry":{"coordinates":[-90.27148846173807,38.62455252017734],"type":"Point"},"id":"stl-city-public-streetlights:2:121720","properties":{"address":null,"attributes":{"Date_Installed":null,"LED_Powered":0,"LightID":"L014440","Light_Source":"LED","Light_Type":"Cobra","Lighting_Type":"LED-Powered Lamp","Verification_Date":1659595243000},"id":"stl-city-public-streetlights:2:121720","sourceLayerId":2,"sourceObjectId":121720,"sourceURL":"https://maps8.stlouis-mo.gov/arcgis/rest/services/STREETS/Streets_Permitting/MapServer/2","title":"Street light L014440"},"type":"Feature"},{"geometry":{"coordinates":[-90.27076392141795,38.62474536765582],"type":"Point"},"id":"stl-city-public-streetlights:2:121721","properties":{"address":null,"attributes":{"Date_Installed":null,"LED_Powered":0,"LightID":"L014441","Light_Source":"LED","Light_Type":"Cobra","Lighting_Type":"LED-Powered Lamp","Verification_Date":1659595243000},"id":"stl-city-public-streetlights:2:121721","sourceLayerId":2,"sourceObjectId":121721,"sourceURL":"https://maps8.stlouis-mo.gov/arcgis/rest/services/STREETS/Streets_Permitting/MapServer/2","title":"Street light L014441"},"type":"Feature"},{"geometry":{"coordinates":[-90.27043028069913,38.624844229643536],"type":"Point"},"id":"stl-city-public-streetlights:2:121722","properties":{"address":null,"attributes":{"Date_Installed":null,"LED_Powered":0,"LightID":"L014442","Light_Source":"LED","Light_Type":"Cobra","Lighting_Type":"LED-Powered Lamp","Verification_Date":1659595243000},"id":"stl-city-public-streetlights:2:121722","sourceLayerId":2,"sourceObjectId":121722,"sourceURL":"https://maps8.stlouis-mo.gov/arcgis/rest/services/STREETS/Streets_Permitting/MapServer/2","title":"Street light L014442"},"type":"Feature"},{"geometry":{"coordinates":[-90.27004555864801,38.624953119925756],"type":"Point"},"id":"stl-city-public-streetlights:2:121723","properties":{"address":null,"attributes":{"Date_Installed":null,"LED_Powered":0,"LightID":"L014443","Light_Source":"LED","Light_Type":"Cobra","Lighting_Type":"LED-Powered Lamp","Verification_Date":1659595243000},"id":"stl-city-public-streetlights:2:121723","sourceLayerId":2,"sourceObjectId":121723,"sourceURL":"https://maps8.stlouis-mo.gov/arcgis/rest/services/STREETS/Streets_Permitting/MapServer/2","title":"Street light L014443"},"type":"Feature"},{"geometry":{"coordinates":[-90.27557744232715,38.62050804150805],"type":"Point"},"id":"stl-city-public-streetlights:2:126373","properties":{"address":null,"attributes":{"Date_Installed":null,"LED_Powered":0,"LightID":"L019101","Light_Source":"LED","Light_Type":"Cobra","Lighting_Type":"LED-Powered Lamp","Verification_Date":null},"id":"stl-city-public-streetlights:2:126373","sourceLayerId":2,"sourceObjectId":126373,"sourceURL":"https://maps8.stlouis-mo.gov/arcgis/rest/services/STREETS/Streets_Permitting/MapServer/2","title":"Street light L019101"},"type":"Feature"},{"geometry":{"coordinates":[-90.27505812707857,38.62043076845105],"type":"Point"},"id":"stl-city-public-streetlights:2:126374","properties":{"address":null,"attributes":{"Date_Installed":null,"LED_Powered":0,"LightID":"L019102","Light_Source":"LED","Light_Type":"Cobra","Lighting_Type":"LED-Powered Lamp","Verification_Date":null},"id":"stl-city-public-streetlights:2:126374","sourceLayerId":2,"sourceObjectId":126374,"sourceURL":"https://maps8.stlouis-mo.gov/arcgis/rest/services/STREETS/Streets_Permitting/MapServer/2","title":"Street light L019102"},"type":"Feature"},{"geometry":{"coordinates":[-90.27458407274555,38.620357155934045],"type":"Point"},"id":"stl-city-public-streetlights:2:126375","properties":{"address":null,"attributes":{"Date_Installed":null,"LED_Powered":0,"LightID":"L019103","Light_Source":"LED","Light_Type":"Cobra","Lighting_Type":"LED-Powered Lamp","Verification_Date":null},"id":"stl-city-public-streetlights:2:126375","sourceLayerId":2,"sourceObjectId":126375,"sourceURL":"https://maps8.stlouis-mo.gov/arcgis/rest/services/STREETS/Streets_Permitting/MapServer/2","title":"Street light L019103"},"type":"Feature"},{"geometry":{"coordinates":[-90.27410551656422,38.62026565549216],"type":"Point"},"id":"stl-city-public-streetlights:2:126376","properties":{"address":null,"attributes":{"Date_Installed":null,"LED_Powered":0,"LightID":"L019104","Light_Source":"LED","Light_Type":"Cobra","Lighting_Type":"LED-Powered Lamp","Verification_Date":null},"id":"stl-city-public-streetlights:2:126376","sourceLayerId":2,"sourceObjectId":126376,"sourceURL":"https://maps8.stlouis-mo.gov/arcgis/rest/services/STREETS/Streets_Permitting/MapServer/2","title":"Street light L019104"},"type":"Feature"},{"geometry":{"coordinates":[-90.27363935809738,38.620193842662836],"type":"Point"},"id":"stl-city-public-streetlights:2:126377","properties":{"address":null,"attributes":{"Date_Installed":null,"LED_Powered":0,"LightID":"L019105","Light_Source":"LED","Light_Type":"Cobra","Lighting_Type":"LED-Powered Lamp","Verification_Date":null},"id":"stl-city-public-streetlights:2:126377","sourceLayerId":2,"sourceObjectId":126377,"sourceURL":"https://maps8.stlouis-mo.gov/arcgis/rest/services/STREETS/Streets_Permitting/MapServer/2","title":"Street light L019105"},"type":"Feature"},{"geometry":{"coordinates":[-90.27315267852883,38.62014244656555],"type":"Point"},"id":"stl-city-public-streetlights:2:126378","properties":{"address":null,"attributes":{"Date_Installed":null,"LED_Powered":0,"LightID":"L019106","Light_Source":"LED","Light_Type":"Cobra","Lighting_Type":"LED-Powered Lamp","Verification_Date":null},"id":"stl-city-public-streetlights:2:126378","sourceLayerId":2,"sourceObjectId":126378,"sourceURL":"https://maps8.stlouis-mo.gov/arcgis/rest/services/STREETS/Streets_Permitting/MapServer/2","title":"Street light L019106"},"type":"Feature"},{"geometry":{"coordinates":[-90.27267408049578,38.6200655995136],"type":"Point"},"id":"stl-city-public-streetlights:2:126379","properties":{"address":null,"attributes":{"Date_Installed":null,"LED_Powered":0,"LightID":"L019107","Light_Source":"LED","Light_Type":"Cobra","Lighting_Type":"LED-Powered Lamp","Verification_Date":null},"id":"stl-city-public-streetlights:2:126379","sourceLayerId":2,"sourceObjectId":126379,"sourceURL":"https://maps8.stlouis-mo.gov/arcgis/rest/services/STREETS/Streets_Permitting/MapServer/2","title":"Street light L019107"},"type":"Feature"},{"geometry":{"coordinates":[-90.27229018776762,38.62000561757413],"type":"Point"},"id":"stl-city-public-streetlights:2:126380","properties":{"address":null,"attributes":{"Date_Installed":null,"LED_Powered":0,"LightID":"L019108","Light_Source":"LED","Light_Type":"Cobra","Lighting_Type":"LED-Powered Lamp","Verification_Date":null},"id":"stl-city-public-streetlights:2:126380","sourceLayerId":2,"sourceObjectId":126380,"sourceURL":"https://maps8.stlouis-mo.gov/arcgis/rest/services/STREETS/Streets_Permitting/MapServer/2","title":"Street light L019108"},"type":"Feature"},{"geometry":{"coordinates":[-90.27182043416445,38.6200359301079],"type":"Point"},"id":"stl-city-public-streetlights:2:126381","properties":{"address":null,"attributes":{"Date_Installed":null,"LED_Powered":0,"LightID":"L019109","Light_Source":"LED","Light_Type":"Cobra","Lighting_Type":"LED-Powered Lamp","Verification_Date":null},"id":"stl-city-public-streetlights:2:126381","sourceLayerId":2,"sourceObjectId":126381,"sourceURL":"https://maps8.stlouis-mo.gov/arcgis/rest/services/STREETS/Streets_Permitting/MapServer/2","title":"Street light L019109"},"type":"Feature"},{"geometry":{"coordinates":[-90.27732853815438,38.623907448537686],"type":"Point"},"id":"stl-city-public-streetlights:2:133119","properties":{"address":null,"attributes":{"Date_Installed":null,"LED_Powered":0,"LightID":"L025835","Light_Source":"LED","Light_Type":"Cobra","Lighting_Type":"LED-Powered Lamp","Verification_Date":1659595682000},"id":"stl-city-public-streetlights:2:133119","sourceLayerId":2,"sourceObjectId":133119,"sourceURL":"https://maps8.stlouis-mo.gov/arcgis/rest/services/STREETS/Streets_Permitting/MapServer/2","title":"Street light L025835"},"type":"Feature"},{"geometry":{"coordinates":[-90.27759224650838,38.6241147300553],"type":"Point"},"id":"stl-city-public-streetlights:2:133120","properties":{"address":null,"attributes":{"Date_Installed":null,"LED_Powered":0,"LightID":"L025836","Light_Source":"LED","Light_Type":"Cobra","Lighting_Type":"LED-Powered Lamp","Verification_Date":null},"id":"stl-city-public-streetlights:2:133120","sourceLayerId":2,"sourceObjectId":133120,"sourceURL":"https://maps8.stlouis-mo.gov/arcgis/rest/services/STREETS/Streets_Permitting/MapServer/2","title":"Street light L025836"},"type":"Feature"},{"geometry":{"coordinates":[-90.27781902416615,38.62438433033014],"type":"Point"},"id":"stl-city-public-streetlights:2:133121","properties":{"address":null,"attributes":{"Date_Installed":null,"LED_Powered":0,"LightID":"L025837","Light_Source":"LED","Light_Type":"Cobra","Lighting_Type":"LED-Powered Lamp","Verification_Date":null},"id":"stl-city-public-streetlights:2:133121","sourceLayerId":2,"sourceObjectId":133121,"sourceURL":"https://maps8.stlouis-mo.gov/arcgis/rest/services/STREETS/Streets_Permitting/MapServer/2","title":"Street light L025837"},"type":"Feature"},{"geometry":{"coordinates":[-90.27797323964748,38.62462715581253],"type":"Point"},"id":"stl-city-public-streetlights:2:133122","properties":{"address":null,"attributes":{"Date_Installed":null,"LED_Powered":0,"LightID":"L025838","Light_Source":"LED","Light_Type":"Cobra","Lighting_Type":"LED-Powered Lamp","Verification_Date":null},"id":"stl-city-public-streetlights:2:133122","sourceLayerId":2,"sourceObjectId":133122,"sourceURL":"https://maps8.stlouis-mo.gov/arcgis/rest/services/STREETS/Streets_Permitting/MapServer/2","title":"Street light L025838"},"type":"Feature"},{"geometry":{"coordinates":[-90.27838467182566,38.625263318698444],"type":"Point"},"id":"stl-city-public-streetlights:2:133123","properties":{"address":null,"attributes":{"Date_Installed":null,"LED_Powered":0,"LightID":"L025839","Light_Source":"LED","Light_Type":"Cobra","Lighting_Type":"LED-Powered Lamp","Verification_Date":null},"id":"stl-city-public-streetlights:2:133123","sourceLayerId":2,"sourceObjectId":133123,"sourceURL":"https://maps8.stlouis-mo.gov/arcgis/rest/services/STREETS/Streets_Permitting/MapServer/2","title":"Street light L025839"},"type":"Feature"},{"geometry":{"coordinates":[-90.27868686799478,38.625486472244866],"type":"Point"},"id":"stl-city-public-streetlights:2:133124","properties":{"address":null,"attributes":{"Date_Installed":null,"LED_Powered":0,"LightID":"L025840","Light_Source":"LED","Light_Type":"Cobra","Lighting_Type":"LED-Powered Lamp","Verification_Date":null},"id":"stl-city-public-streetlights:2:133124","sourceLayerId":2,"sourceObjectId":133124,"sourceURL":"https://maps8.stlouis-mo.gov/arcgis/rest/services/STREETS/Streets_Permitting/MapServer/2","title":"Street light L025840"},"type":"Feature"},{"geometry":{"coordinates":[-90.27909589423518,38.62557377045017],"type":"Point"},"id":"stl-city-public-streetlights:2:133125","properties":{"address":null,"attributes":{"Date_Installed":null,"LED_Powered":0,"LightID":"L025841","Light_Source":"LED","Light_Type":"Cobra","Lighting_Type":"LED-Powered Lamp","Verification_Date":null},"id":"stl-city-public-streetlights:2:133125","sourceLayerId":2,"sourceObjectId":133125,"sourceURL":"https://maps8.stlouis-mo.gov/arcgis/rest/services/STREETS/Streets_Permitting/MapServer/2","title":"Street light L025841"},"type":"Feature"},{"geometry":{"coordinates":[-90.27959163995793,38.62562190037691],"type":"Point"},"id":"stl-city-public-streetlights:2:133126","properties":{"address":null,"attributes":{"Date_Installed":null,"LED_Powered":0,"LightID":"L025842","Light_Source":"LED","Light_Type":"Cobra","Lighting_Type":"LED-Powered Lamp","Verification_Date":null},"id":"stl-city-public-streetlights:2:133126","sourceLayerId":2,"sourceObjectId":133126,"sourceURL":"https://maps8.stlouis-mo.gov/arcgis/rest/services/STREETS/Streets_Permitting/MapServer/2","title":"Street light L025842"},"type":"Feature"},{"geometry":{"coordinates":[-90.27992262178672,38.62565434469404],"type":"Point"},"id":"stl-city-public-streetlights:2:133127","properties":{"address":null,"attributes":{"Date_Installed":null,"LED_Powered":0,"LightID":"L025843","Light_Source":"LED","Light_Type":"Cobra","Lighting_Type":"LED-Powered Lamp","Verification_Date":null},"id":"stl-city-public-streetlights:2:133127","sourceLayerId":2,"sourceObjectId":133127,"sourceURL":"https://maps8.stlouis-mo.gov/arcgis/rest/services/STREETS/Streets_Permitting/MapServer/2","title":"Street light L025843"},"type":"Feature"},{"geometry":{"coordinates":[-90.27531624578104,38.626476591340335],"type":"Point"},"id":"stl-city-public-streetlights:2:133136","properties":{"address":null,"attributes":{"Date_Installed":null,"LED_Powered":0,"LightID":"L025852","Light_Source":"LED","Light_Type":"Cobra","Lighting_Type":"LED-Powered Lamp","Verification_Date":null},"id":"stl-city-public-streetlights:2:133136","sourceLayerId":2,"sourceObjectId":133136,"sourceURL":"https://maps8.stlouis-mo.gov/arcgis/rest/services/STREETS/Streets_Permitting/MapServer/2","title":"Street light L025852"},"type":"Feature"},{"geometry":{"coordinates":[-90.27540025158468,38.6260419813738],"type":"Point"},"id":"stl-city-public-streetlights:2:133137","properties":{"address":null,"attributes":{"Date_Installed":null,"LED_Powered":0,"LightID":"L025853","Light_Source":"LED","Light_Type":"Cobra","Lighting_Type":"LED-Powered Lamp","Verification_Date":null},"id":"stl-city-public-streetlights:2:133137","sourceLayerId":2,"sourceObjectId":133137,"sourceURL":"https://maps8.stlouis-mo.gov/arcgis/rest/services/STREETS/Streets_Permitting/MapServer/2","title":"Street light L025853"},"type":"Feature"},{"geometry":{"coordinates":[-90.27548914439348,38.62559879969607],"type":"Point"},"id":"stl-city-public-streetlights:2:133138","properties":{"address":null,"attributes":{"Date_Installed":null,"LED_Powered":0,"LightID":"L025854","Light_Source":"LED","Light_Type":"Cobra","Lighting_Type":"LED-Powered Lamp","Verification_Date":null},"id":"stl-city-public-streetlights:2:133138","sourceLayerId":2,"sourceObjectId":133138,"sourceURL":"https://maps8.stlouis-mo.gov/arcgis/rest/services/STREETS/Streets_Permitting/MapServer/2","title":"Street light L025854"},"type":"Feature"},{"geometry":{"coordinates":[-90.27558533150729,38.62515467876282],"type":"Point"},"id":"stl-city-public-streetlights:2:133139","properties":{"address":null,"attributes":{"Date_Installed":null,"LED_Powered":0,"LightID":"L025855","Light_Source":"LED","Light_Type":"Cobra","Lighting_Type":"LED-Powered Lamp","Verification_Date":null},"id":"stl-city-public-streetlights:2:133139","sourceLayerId":2,"sourceObjectId":133139,"sourceURL":"https://maps8.stlouis-mo.gov/arcgis/rest/services/STREETS/Streets_Permitting/MapServer/2","title":"Street light L025855"},"type":"Feature"},{"geometry":{"coordinates":[-90.27566930143033,38.62473055661686],"type":"Point"},"id":"stl-city-public-streetlights:2:133140","properties":{"address":null,"attributes":{"Date_Installed":null,"LED_Powered":0,"LightID":"L025856","Light_Source":"LED","Light_Type":"Cobra","Lighting_Type":"LED-Powered Lamp","Verification_Date":null},"id":"stl-city-public-streetlights:2:133140","sourceLayerId":2,"sourceObjectId":133140,"sourceURL":"https://maps8.stlouis-mo.gov/arcgis/rest/services/STREETS/Streets_Permitting/MapServer/2","title":"Street light L025856"},"type":"Feature"},{"geometry":{"coordinates":[-90.2757434222525,38.62436595815968],"type":"Point"},"id":"stl-city-public-streetlights:2:133141","properties":{"address":null,"attributes":{"Date_Installed":null,"LED_Powered":0,"LightID":"L025857","Light_Source":"LED","Light_Type":"Cobra","Lighting_Type":"LED-Powered Lamp","Verification_Date":null},"id":"stl-city-public-streetlights:2:133141","sourceLayerId":2,"sourceObjectId":133141,"sourceURL":"https://maps8.stlouis-mo.gov/arcgis/rest/services/STREETS/Streets_Permitting/MapServer/2","title":"Street light L025857"},"type":"Feature"},{"geometry":{"coordinates":[-90.27966908566502,38.623511137240506],"type":"Point"},"id":"stl-city-public-streetlights:2:133214","properties":{"address":null,"attributes":{"Date_Installed":null,"LED_Powered":0,"LightID":"L025930","Light_Source":"LED","Light_Type":"Cobra","Lighting_Type":"LED-Powered Lamp","Verification_Date":1659595682000},"id":"stl-city-public-streetlights:2:133214","sourceLayerId":2,"sourceObjectId":133214,"sourceURL":"https://maps8.stlouis-mo.gov/arcgis/rest/services/STREETS/Streets_Permitting/MapServer/2","title":"Street light L025930"},"type":"Feature"},{"geometry":{"coordinates":[-90.27917636875263,38.6235697988124],"type":"Point"},"id":"stl-city-public-streetlights:2:133215","properties":{"address":null,"attributes":{"Date_Installed":null,"LED_Powered":0,"LightID":"L025931","Light_Source":"LED","Light_Type":"Cobra","Lighting_Type":"LED-Powered Lamp","Verification_Date":1659595682000},"id":"stl-city-public-streetlights:2:133215","sourceLayerId":2,"sourceObjectId":133215,"sourceURL":"https://maps8.stlouis-mo.gov/arcgis/rest/services/STREETS/Streets_Permitting/MapServer/2","title":"Street light L025931"},"type":"Feature"},{"geometry":{"coordinates":[-90.27882227157376,38.62360726747468],"type":"Point"},"id":"stl-city-public-streetlights:2:133216","properties":{"address":null,"attributes":{"Date_Installed":null,"LED_Powered":0,"LightID":"L025932","Light_Source":"LED","Light_Type":"Cobra","Lighting_Type":"LED-Powered Lamp","Verification_Date":1659595682000},"id":"stl-city-public-streetlights:2:133216","sourceLayerId":2,"sourceObjectId":133216,"sourceURL":"https://maps8.stlouis-mo.gov/arcgis/rest/services/STREETS/Streets_Permitting/MapServer/2","title":"Street light L025932"},"type":"Feature"},{"geometry":{"coordinates":[-90.2784070537072,38.62366011377305],"type":"Point"},"id":"stl-city-public-streetlights:2:133217","properties":{"address":null,"attributes":{"Date_Installed":null,"LED_Powered":0,"LightID":"L025933","Light_Source":"LED","Light_Type":"Cobra","Lighting_Type":"LED-Powered Lamp","Verification_Date":1659595682000},"id":"stl-city-public-streetlights:2:133217","sourceLayerId":2,"sourceObjectId":133217,"sourceURL":"https://maps8.stlouis-mo.gov/arcgis/rest/services/STREETS/Streets_Permitting/MapServer/2","title":"Street light L025933"},"type":"Feature"},{"geometry":{"coordinates":[-90.27794805826203,38.62372002500612],"type":"Point"},"id":"stl-city-public-streetlights:2:133218","properties":{"address":null,"attributes":{"Date_Installed":null,"LED_Powered":0,"LightID":"L025934","Light_Source":"LED","Light_Type":"Cobra","Lighting_Type":"LED-Powered Lamp","Verification_Date":1659595682000},"id":"stl-city-public-streetlights:2:133218","sourceLayerId":2,"sourceObjectId":133218,"sourceURL":"https://maps8.stlouis-mo.gov/arcgis/rest/services/STREETS/Streets_Permitting/MapServer/2","title":"Street light L025934"},"type":"Feature"},{"geometry":{"coordinates":[-90.27753117810357,38.62376928939831],"type":"Point"},"id":"stl-city-public-streetlights:2:133219","properties":{"address":null,"attributes":{"Date_Installed":null,"LED_Powered":0,"LightID":"L025935","Light_Source":"LED","Light_Type":"Cobra","Lighting_Type":"LED-Powered Lamp","Verification_Date":1659595682000},"id":"stl-city-public-streetlights:2:133219","sourceLayerId":2,"sourceObjectId":133219,"sourceURL":"https://maps8.stlouis-mo.gov/arcgis/rest/services/STREETS/Streets_Permitting/MapServer/2","title":"Street light L025935"},"type":"Feature"},{"geometry":{"coordinates":[-90.27710509956724,38.623845349836266],"type":"Point"},"id":"stl-city-public-streetlights:2:133220","properties":{"address":null,"attributes":{"Date_Installed":null,"LED_Powered":0,"LightID":"L025936","Light_Source":"LED","Light_Type":"Cobra","Lighting_Type":"LED-Powered Lamp","Verification_Date":1659595682000},"id":"stl-city-public-streetlights:2:133220","sourceLayerId":2,"sourceObjectId":133220,"sourceURL":"https://maps8.stlouis-mo.gov/arcgis/rest/services/STREETS/Streets_Permitting/MapServer/2","title":"Street light L025936"},"type":"Feature"},{"geometry":{"coordinates":[-90.27672217086048,38.62387084021113],"type":"Point"},"id":"stl-city-public-streetlights:2:133221","properties":{"address":null,"attributes":{"Date_Installed":null,"LED_Powered":0,"LightID":"L025937","Light_Source":"LED","Light_Type":"Cobra","Lighting_Type":"LED-Powered Lamp","Verification_Date":1659595682000},"id":"stl-city-public-streetlights:2:133221","sourceLayerId":2,"sourceObjectId":133221,"sourceURL":"https://maps8.stlouis-mo.gov/arcgis/rest/services/STREETS/Streets_Permitting/MapServer/2","title":"Street light L025937"},"type":"Feature"},{"geometry":{"coordinates":[-90.27629298764961,38.62391888392973],"type":"Point"},"id":"stl-city-public-streetlights:2:133222","properties":{"address":null,"attributes":{"Date_Installed":null,"LED_Powered":0,"LightID":"L025938","Light_Source":"LED","Light_Type":"Cobra","Lighting_Type":"LED-Powered Lamp","Verification_Date":1659595682000},"id":"stl-city-public-streetlights:2:133222","sourceLayerId":2,"sourceObjectId":133222,"sourceURL":"https://maps8.stlouis-mo.gov/arcgis/rest/services/STREETS/Streets_Permitting/MapServer/2","title":"Street light L025938"},"type":"Feature"},{"geometry":{"coordinates":[-90.27588113026648,38.623964576401036],"type":"Point"},"id":"stl-city-public-streetlights:2:133223","properties":{"address":null,"attributes":{"Date_Installed":null,"LED_Powered":0,"LightID":"L025939","Light_Source":"LED","Light_Type":"Cobra","Lighting_Type":"LED-Powered Lamp","Verification_Date":1659595682000},"id":"stl-city-public-streetlights:2:133223","sourceLayerId":2,"sourceObjectId":133223,"sourceURL":"https://maps8.stlouis-mo.gov/arcgis/rest/services/STREETS/Streets_Permitting/MapServer/2","title":"Street light L025939"},"type":"Feature"},{"geometry":{"coordinates":[-90.27532331921823,38.62402428891567],"type":"Point"},"id":"stl-city-public-streetlights:2:133224","properties":{"address":null,"attributes":{"Date_Installed":null,"LED_Powered":0,"LightID":"L025940","Light_Source":"LED","Light_Type":"Cobra","Lighting_Type":"LED-Powered Lamp","Verification_Date":1659595324000},"id":"stl-city-public-streetlights:2:133224","sourceLayerId":2,"sourceObjectId":133224,"sourceURL":"https://maps8.stlouis-mo.gov/arcgis/rest/services/STREETS/Streets_Permitting/MapServer/2","title":"Street light L025940"},"type":"Feature"},{"geometry":{"coordinates":[-90.27498166748725,38.62406439234129],"type":"Point"},"id":"stl-city-public-streetlights:2:133225","properties":{"address":null,"attributes":{"Date_Installed":null,"LED_Powered":0,"LightID":"L025941","Light_Source":"LED","Light_Type":"Cobra","Lighting_Type":"LED-Powered Lamp","Verification_Date":1659595324000},"id":"stl-city-public-streetlights:2:133225","sourceLayerId":2,"sourceObjectId":133225,"sourceURL":"https://maps8.stlouis-mo.gov/arcgis/rest/services/STREETS/Streets_Permitting/MapServer/2","title":"Street light L025941"},"type":"Feature"},{"geometry":{"coordinates":[-90.27447222449354,38.62412562351861],"type":"Point"},"id":"stl-city-public-streetlights:2:133226","properties":{"address":null,"attributes":{"Date_Installed":null,"LED_Powered":0,"LightID":"L025942","Light_Source":"LED","Light_Type":"Cobra","Lighting_Type":"LED-Powered Lamp","Verification_Date":1659595324000},"id":"stl-city-public-streetlights:2:133226","sourceLayerId":2,"sourceObjectId":133226,"sourceURL":"https://maps8.stlouis-mo.gov/arcgis/rest/services/STREETS/Streets_Permitting/MapServer/2","title":"Street light L025942"},"type":"Feature"},{"geometry":{"coordinates":[-90.27404350986173,38.624178189568944],"type":"Point"},"id":"stl-city-public-streetlights:2:133227","properties":{"address":null,"attributes":{"Date_Installed":null,"LED_Powered":0,"LightID":"L025943","Light_Source":"LED","Light_Type":"Cobra","Lighting_Type":"LED-Powered Lamp","Verification_Date":1659595324000},"id":"stl-city-public-streetlights:2:133227","sourceLayerId":2,"sourceObjectId":133227,"sourceURL":"https://maps8.stlouis-mo.gov/arcgis/rest/services/STREETS/Streets_Permitting/MapServer/2","title":"Street light L025943"},"type":"Feature"},{"geometry":{"coordinates":[-90.27362406192609,38.62422099909941],"type":"Point"},"id":"stl-city-public-streetlights:2:133228","properties":{"address":null,"attributes":{"Date_Installed":null,"LED_Powered":0,"LightID":"L025944","Light_Source":"LED","Light_Type":"Cobra","Lighting_Type":"LED-Powered Lamp","Verification_Date":1659595324000},"id":"stl-city-public-streetlights:2:133228","sourceLayerId":2,"sourceObjectId":133228,"sourceURL":"https://maps8.stlouis-mo.gov/arcgis/rest/services/STREETS/Streets_Permitting/MapServer/2","title":"Street light L025944"},"type":"Feature"},{"geometry":{"coordinates":[-90.2732211199235,38.62427098949753],"type":"Point"},"id":"stl-city-public-streetlights:2:133229","properties":{"address":null,"attributes":{"Date_Installed":null,"LED_Powered":0,"LightID":"L025945","Light_Source":"LED","Light_Type":"Cobra","Lighting_Type":"LED-Powered Lamp","Verification_Date":1659595324000},"id":"stl-city-public-streetlights:2:133229","sourceLayerId":2,"sourceObjectId":133229,"sourceURL":"https://maps8.stlouis-mo.gov/arcgis/rest/services/STREETS/Streets_Permitting/MapServer/2","title":"Street light L025945"},"type":"Feature"},{"geometry":{"coordinates":[-90.2727660900202,38.62432391697087],"type":"Point"},"id":"stl-city-public-streetlights:2:133230","properties":{"address":null,"attributes":{"Date_Installed":null,"LED_Powered":0,"LightID":"L025946","Light_Source":"LED","Light_Type":"Cobra","Lighting_Type":"LED-Powered Lamp","Verification_Date":1659595324000},"id":"stl-city-public-streetlights:2:133230","sourceLayerId":2,"sourceObjectId":133230,"sourceURL":"https://maps8.stlouis-mo.gov/arcgis/rest/services/STREETS/Streets_Permitting/MapServer/2","title":"Street light L025946"},"type":"Feature"},{"geometry":{"coordinates":[-90.27235060108306,38.624372986316644],"type":"Point"},"id":"stl-city-public-streetlights:2:133231","properties":{"address":null,"attributes":{"Date_Installed":null,"LED_Powered":0,"LightID":"L025947","Light_Source":"LED","Light_Type":"Cobra","Lighting_Type":"LED-Powered Lamp","Verification_Date":1659595324000},"id":"stl-city-public-streetlights:2:133231","sourceLayerId":2,"sourceObjectId":133231,"sourceURL":"https://maps8.stlouis-mo.gov/arcgis/rest/services/STREETS/Streets_Permitting/MapServer/2","title":"Street light L025947"},"type":"Feature"},{"geometry":{"coordinates":[-90.27192376448338,38.624445511113564],"type":"Point"},"id":"stl-city-public-streetlights:2:133232","properties":{"address":null,"attributes":{"Date_Installed":null,"LED_Powered":0,"LightID":"L025948","Light_Source":"LED","Light_Type":"Cobra","Lighting_Type":"LED-Powered Lamp","Verification_Date":1659595324000},"id":"stl-city-public-streetlights:2:133232","sourceLayerId":2,"sourceObjectId":133232,"sourceURL":"https://maps8.stlouis-mo.gov/arcgis/rest/services/STREETS/Streets_Permitting/MapServer/2","title":"Street light L025948"},"type":"Feature"},{"geometry":{"coordinates":[-90.27795862733225,38.6299832178775],"type":"Point"},"id":"stl-city-public-streetlights:2:133286","properties":{"address":null,"attributes":{"Date_Installed":null,"LED_Powered":0,"LightID":"L026002","Light_Source":"LED","Light_Type":"Cobra","Lighting_Type":"LED-Powered Lamp","Verification_Date":null},"id":"stl-city-public-streetlights:2:133286","sourceLayerId":2,"sourceObjectId":133286,"sourceURL":"https://maps8.stlouis-mo.gov/arcgis/rest/services/STREETS/Streets_Permitting/MapServer/2","title":"Street light L026002"},"type":"Feature"},{"geometry":{"coordinates":[-90.27743954335583,38.62992597818367],"type":"Point"},"id":"stl-city-public-streetlights:2:133287","properties":{"address":null,"attributes":{"Date_Installed":null,"LED_Powered":0,"LightID":"L026003","Light_Source":"LED","Light_Type":"Cobra","Lighting_Type":"LED-Powered Lamp","Verification_Date":null},"id":"stl-city-public-streetlights:2:133287","sourceLayerId":2,"sourceObjectId":133287,"sourceURL":"https://maps8.stlouis-mo.gov/arcgis/rest/services/STREETS/Streets_Permitting/MapServer/2","title":"Street light L026003"},"type":"Feature"},{"geometry":{"coordinates":[-90.27691337532194,38.62988016399856],"type":"Point"},"id":"stl-city-public-streetlights:2:133288","properties":{"address":null,"attributes":{"Date_Installed":null,"LED_Powered":0,"LightID":"L026004","Light_Source":"LED","Light_Type":"Cobra","Lighting_Type":"LED-Powered Lamp","Verification_Date":null},"id":"stl-city-public-streetlights:2:133288","sourceLayerId":2,"sourceObjectId":133288,"sourceURL":"https://maps8.stlouis-mo.gov/arcgis/rest/services/STREETS/Streets_Permitting/MapServer/2","title":"Street light L026004"},"type":"Feature"},{"geometry":{"coordinates":[-90.27638960231586,38.62980670277313],"type":"Point"},"id":"stl-city-public-streetlights:2:133289","properties":{"address":null,"attributes":{"Date_Installed":null,"LED_Powered":0,"LightID":"L026005","Light_Source":"LED","Light_Type":"Cobra","Lighting_Type":"LED-Powered Lamp","Verification_Date":null},"id":"stl-city-public-streetlights:2:133289","sourceLayerId":2,"sourceObjectId":133289,"sourceURL":"https://maps8.stlouis-mo.gov/arcgis/rest/services/STREETS/Streets_Permitting/MapServer/2","title":"Street light L026005"},"type":"Feature"},{"geometry":{"coordinates":[-90.2758863094145,38.62975383677114],"type":"Point"},"id":"stl-city-public-streetlights:2:133290","properties":{"address":null,"attributes":{"Date_Installed":null,"LED_Powered":0,"LightID":"L026006","Light_Source":"LED","Light_Type":"Cobra","Lighting_Type":"LED-Powered Lamp","Verification_Date":null},"id":"stl-city-public-streetlights:2:133290","sourceLayerId":2,"sourceObjectId":133290,"sourceURL":"https://maps8.stlouis-mo.gov/arcgis/rest/services/STREETS/Streets_Permitting/MapServer/2","title":"Street light L026006"},"type":"Feature"},{"geometry":{"coordinates":[-90.27535363797513,38.62972182819193],"type":"Point"},"id":"stl-city-public-streetlights:2:133291","properties":{"address":null,"attributes":{"Date_Installed":null,"LED_Powered":0,"LightID":"L026007","Light_Source":"LED","Light_Type":"Cobra","Lighting_Type":"LED-Powered Lamp","Verification_Date":null},"id":"stl-city-public-streetlights:2:133291","sourceLayerId":2,"sourceObjectId":133291,"sourceURL":"https://maps8.stlouis-mo.gov/arcgis/rest/services/STREETS/Streets_Permitting/MapServer/2","title":"Street light L026007"},"type":"Feature"},{"geometry":{"coordinates":[-90.27483196317183,38.62967792046156],"type":"Point"},"id":"stl-city-public-streetlights:2:133292","properties":{"address":null,"attributes":{"Date_Installed":null,"LED_Powered":0,"LightID":"L026008","Light_Source":"LED","Light_Type":"Cobra","Lighting_Type":"LED-Powered Lamp","Verification_Date":null},"id":"stl-city-public-streetlights:2:133292","sourceLayerId":2,"sourceObjectId":133292,"sourceURL":"https://maps8.stlouis-mo.gov/arcgis/rest/services/STREETS/Streets_Permitting/MapServer/2","title":"Street light L026008"},"type":"Feature"},{"geometry":{"coordinates":[-90.27430189311403,38.629598239641425],"type":"Point"},"id":"stl-city-public-streetlights:2:133293","properties":{"address":null,"attributes":{"Date_Installed":null,"LED_Powered":0,"LightID":"L026009","Light_Source":"LED","Light_Type":"Cobra","Lighting_Type":"LED-Powered Lamp","Verification_Date":null},"id":"stl-city-public-streetlights:2:133293","sourceLayerId":2,"sourceObjectId":133293,"sourceURL":"https://maps8.stlouis-mo.gov/arcgis/rest/services/STREETS/Streets_Permitting/MapServer/2","title":"Street light L026009"},"type":"Feature"},{"geometry":{"coordinates":[-90.27374128179282,38.629568077009985],"type":"Point"},"id":"stl-city-public-streetlights:2:133294","properties":{"address":null,"attributes":{"Date_Installed":null,"LED_Powered":1,"LightID":"L026010","Light_Source":"LED","Light_Type":"Cobra","Lighting_Type":"LED-Powered Lamp","Verification_Date":null},"id":"stl-city-public-streetlights:2:133294","sourceLayerId":2,"sourceObjectId":133294,"sourceURL":"https://maps8.stlouis-mo.gov/arcgis/rest/services/STREETS/Streets_Permitting/MapServer/2","title":"Street light L026010"},"type":"Feature"},{"geometry":{"coordinates":[-90.27318808337445,38.62951456595431],"type":"Point"},"id":"stl-city-public-streetlights:2:133295","properties":{"address":null,"attributes":{"Date_Installed":null,"LED_Powered":1,"LightID":"L026011","Light_Source":"LED","Light_Type":"Cobra","Lighting_Type":"LED-Powered Lamp","Verification_Date":null},"id":"stl-city-public-streetlights:2:133295","sourceLayerId":2,"sourceObjectId":133295,"sourceURL":"https://maps8.stlouis-mo.gov/arcgis/rest/services/STREETS/Streets_Permitting/MapServer/2","title":"Street light L026011"},"type":"Feature"},{"geometry":{"coordinates":[-90.27264378582986,38.62946202362348],"type":"Point"},"id":"stl-city-public-streetlights:2:133296","properties":{"address":null,"attributes":{"Date_Installed":null,"LED_Powered":0,"LightID":"L026012","Light_Source":"LED","Light_Type":"Cobra","Lighting_Type":"LED-Powered Lamp","Verification_Date":null},"id":"stl-city-public-streetlights:2:133296","sourceLayerId":2,"sourceObjectId":133296,"sourceURL":"https://maps8.stlouis-mo.gov/arcgis/rest/services/STREETS/Streets_Permitting/MapServer/2","title":"Street light L026012"},"type":"Feature"},{"geometry":{"coordinates":[-90.27212095384839,38.62940093958142],"type":"Point"},"id":"stl-city-public-streetlights:2:133297","properties":{"address":null,"attributes":{"Date_Installed":null,"LED_Powered":0,"LightID":"L026013","Light_Source":"LED","Light_Type":"Cobra","Lighting_Type":"LED-Powered Lamp","Verification_Date":null},"id":"stl-city-public-streetlights:2:133297","sourceLayerId":2,"sourceObjectId":133297,"sourceURL":"https://maps8.stlouis-mo.gov/arcgis/rest/services/STREETS/Streets_Permitting/MapServer/2","title":"Street light L026013"},"type":"Feature"},{"geometry":{"coordinates":[-90.27159587440765,38.62935891798023],"type":"Point"},"id":"stl-city-public-streetlights:2:133298","properties":{"address":null,"attributes":{"Date_Installed":null,"LED_Powered":0,"LightID":"L026014","Light_Source":"LED","Light_Type":"Cobra","Lighting_Type":"LED-Powered Lamp","Verification_Date":null},"id":"stl-city-public-streetlights:2:133298","sourceLayerId":2,"sourceObjectId":133298,"sourceURL":"https://maps8.stlouis-mo.gov/arcgis/rest/services/STREETS/Streets_Permitting/MapServer/2","title":"Street light L026014"},"type":"Feature"},{"geometry":{"coordinates":[-90.27109591461452,38.62931098377441],"type":"Point"},"id":"stl-city-public-streetlights:2:133299","properties":{"address":null,"attributes":{"Date_Installed":null,"LED_Powered":0,"LightID":"L026015","Light_Source":"LED","Light_Type":"Cobra","Lighting_Type":"LED-Powered Lamp","Verification_Date":null},"id":"stl-city-public-streetlights:2:133299","sourceLayerId":2,"sourceObjectId":133299,"sourceURL":"https://maps8.stlouis-mo.gov/arcgis/rest/services/STREETS/Streets_Permitting/MapServer/2","title":"Street light L026015"},"type":"Feature"},{"geometry":{"coordinates":[-90.2705469913834,38.62925675328953],"type":"Point"},"id":"stl-city-public-streetlights:2:133300","properties":{"address":null,"attributes":{"Date_Installed":null,"LED_Powered":0,"LightID":"L026016","Light_Source":"LED","Light_Type":"Cobra","Lighting_Type":"LED-Powered Lamp","Verification_Date":null},"id":"stl-city-public-streetlights:2:133300","sourceLayerId":2,"sourceObjectId":133300,"sourceURL":"https://maps8.stlouis-mo.gov/arcgis/rest/services/STREETS/Streets_Permitting/MapServer/2","title":"Street light L026016"},"type":"Feature"},{"geometry":{"coordinates":[-90.27003276117924,38.629205449653995],"type":"Point"},"id":"stl-city-public-streetlights:2:133301","properties":{"address":null,"attributes":{"Date_Installed":null,"LED_Powered":0,"LightID":"L026017","Light_Source":"LED","Light_Type":"Cobra","Lighting_Type":"LED-Powered Lamp","Verification_Date":null},"id":"stl-city-public-streetlights:2:133301","sourceLayerId":2,"sourceObjectId":133301,"sourceURL":"https://maps8.stlouis-mo.gov/arcgis/rest/services/STREETS/Streets_Permitting/MapServer/2","title":"Street light L026017"},"type":"Feature"},{"geometry":{"coordinates":[-90.27028201024315,38.62941069203247],"type":"Point"},"id":"stl-city-public-streetlights:2:133320","properties":{"address":null,"attributes":{"Date_Installed":null,"LED_Powered":0,"LightID":"L026036","Light_Source":"LED","Light_Type":"Cobra","Lighting_Type":"LED-Powered Lamp","Verification_Date":null},"id":"stl-city-public-streetlights:2:133320","sourceLayerId":2,"sourceObjectId":133320,"sourceURL":"https://maps8.stlouis-mo.gov/arcgis/rest/services/STREETS/Streets_Permitting/MapServer/2","title":"Street light L026036"},"type":"Feature"},{"geometry":{"coordinates":[-90.27080159589896,38.62946033661311],"type":"Point"},"id":"stl-city-public-streetlights:2:133321","properties":{"address":null,"attributes":{"Date_Installed":null,"LED_Powered":0,"LightID":"L026037","Light_Source":"High Pressure Sodium","Light_Type":"Cobra","Lighting_Type":"400-W High Pressure Sodium Vapor Lamp","Verification_Date":null},"id":"stl-city-public-streetlights:2:133321","sourceLayerId":2,"sourceObjectId":133321,"sourceURL":"https://maps8.stlouis-mo.gov/arcgis/rest/services/STREETS/Streets_Permitting/MapServer/2","title":"Street light L026037"},"type":"Feature"},{"geometry":{"coordinates":[-90.27132555383504,38.62951094057504],"type":"Point"},"id":"stl-city-public-streetlights:2:133322","properties":{"address":null,"attributes":{"Date_Installed":null,"LED_Powered":0,"LightID":"L026038","Light_Source":"High Pressure Sodium","Light_Type":"Cobra","Lighting_Type":"400-W High Pressure Sodium Vapor Lamp","Verification_Date":null},"id":"stl-city-public-streetlights:2:133322","sourceLayerId":2,"sourceObjectId":133322,"sourceURL":"https://maps8.stlouis-mo.gov/arcgis/rest/services/STREETS/Streets_Permitting/MapServer/2","title":"Street light L026038"},"type":"Feature"},{"geometry":{"coordinates":[-90.27184318333303,38.62956439108092],"type":"Point"},"id":"stl-city-public-streetlights:2:133323","properties":{"address":null,"attributes":{"Date_Installed":null,"LED_Powered":0,"LightID":"L026039","Light_Source":"High Pressure Sodium","Light_Type":"Cobra","Lighting_Type":"400-W High Pressure Sodium Vapor Lamp","Verification_Date":null},"id":"stl-city-public-streetlights:2:133323","sourceLayerId":2,"sourceObjectId":133323,"sourceURL":"https://maps8.stlouis-mo.gov/arcgis/rest/services/STREETS/Streets_Permitting/MapServer/2","title":"Street light L026039"},"type":"Feature"},{"geometry":{"coordinates":[-90.2723694584189,38.6296130877006],"type":"Point"},"id":"stl-city-public-streetlights:2:133324","properties":{"address":null,"attributes":{"Date_Installed":null,"LED_Powered":0,"LightID":"L026040","Light_Source":"High Pressure Sodium","Light_Type":"Cobra","Lighting_Type":"400-W High Pressure Sodium Vapor Lamp","Verification_Date":null},"id":"stl-city-public-streetlights:2:133324","sourceLayerId":2,"sourceObjectId":133324,"sourceURL":"https://maps8.stlouis-mo.gov/arcgis/rest/services/STREETS/Streets_Permitting/MapServer/2","title":"Street light L026040"},"type":"Feature"},{"geometry":{"coordinates":[-90.27290811711123,38.62966657440664],"type":"Point"},"id":"stl-city-public-streetlights:2:133325","properties":{"address":null,"attributes":{"Date_Installed":null,"LED_Powered":0,"LightID":"L026041","Light_Source":"High Pressure Sodium","Light_Type":"Cobra","Lighting_Type":"400-W High Pressure Sodium Vapor Lamp","Verification_Date":null},"id":"stl-city-public-streetlights:2:133325","sourceLayerId":2,"sourceObjectId":133325,"sourceURL":"https://maps8.stlouis-mo.gov/arcgis/rest/services/STREETS/Streets_Permitting/MapServer/2","title":"Street light L026041"},"type":"Feature"},{"geometry":{"coordinates":[-90.27346366303493,38.62972295075951],"type":"Point"},"id":"stl-city-public-streetlights:2:133326","properties":{"address":null,"attributes":{"Date_Installed":null,"LED_Powered":0,"LightID":"L026042","Light_Source":"High Pressure Sodium","Light_Type":"Cobra","Lighting_Type":"400-W High Pressure Sodium Vapor Lamp","Verification_Date":null},"id":"stl-city-public-streetlights:2:133326","sourceLayerId":2,"sourceObjectId":133326,"sourceURL":"https://maps8.stlouis-mo.gov/arcgis/rest/services/STREETS/Streets_Permitting/MapServer/2","title":"Street light L026042"},"type":"Feature"}],"layerId":"city-streetlights","retrievedAt":"2026-09-13T21:56:18.173251+00:00","schema":"property-infrastructure-geojson-v1","sourceId":"stl-city-public-streetlights","tileId":"-9028_3862","type":"FeatureCollection"}