{"features":[{"geometry":{"coordinates":[-90.22968169086178,38.71496306948135],"type":"Point"},"id":"stl-city-public-streetlights:2:122082","properties":{"address":null,"attributes":{"Date_Installed":"6/25/2018","LED_Powered":1,"LightID":"L014802","Light_Source":"LED","Light_Type":"Cobra","Lighting_Type":"LED-Powered Lamp","Verification_Date":null},"id":"stl-city-public-streetlights:2:122082","sourceLayerId":2,"sourceObjectId":122082,"sourceURL":"https://maps8.stlouis-mo.gov/arcgis/rest/services/STREETS/Streets_Permitting/MapServer/2","title":"Street light L014802"},"type":"Feature"},{"geometry":{"coordinates":[-90.22930822025269,38.71517076847635],"type":"Point"},"id":"stl-city-public-streetlights:2:122083","properties":{"address":null,"attributes":{"Date_Installed":"6/25/2018","LED_Powered":1,"LightID":"L014803","Light_Source":"LED","Light_Type":"Cobra","Lighting_Type":"LED-Powered Lamp","Verification_Date":null},"id":"stl-city-public-streetlights:2:122083","sourceLayerId":2,"sourceObjectId":122083,"sourceURL":"https://maps8.stlouis-mo.gov/arcgis/rest/services/STREETS/Streets_Permitting/MapServer/2","title":"Street light L014803"},"type":"Feature"},{"geometry":{"coordinates":[-90.22893203704737,38.715362385626],"type":"Point"},"id":"stl-city-public-streetlights:2:122084","properties":{"address":null,"attributes":{"Date_Installed":"6/25/2018","LED_Powered":1,"LightID":"L014804","Light_Source":"LED","Light_Type":"Cobra","Lighting_Type":"LED-Powered Lamp","Verification_Date":null},"id":"stl-city-public-streetlights:2:122084","sourceLayerId":2,"sourceObjectId":122084,"sourceURL":"https://maps8.stlouis-mo.gov/arcgis/rest/services/STREETS/Streets_Permitting/MapServer/2","title":"Street light L014804"},"type":"Feature"},{"geometry":{"coordinates":[-90.22853090828107,38.71557119454048],"type":"Point"},"id":"stl-city-public-streetlights:2:122085","properties":{"address":null,"attributes":{"Date_Installed":"6/25/2018","LED_Powered":1,"LightID":"L014805","Light_Source":"LED","Light_Type":"Cobra","Lighting_Type":"LED-Powered Lamp","Verification_Date":null},"id":"stl-city-public-streetlights:2:122085","sourceLayerId":2,"sourceObjectId":122085,"sourceURL":"https://maps8.stlouis-mo.gov/arcgis/rest/services/STREETS/Streets_Permitting/MapServer/2","title":"Street light L014805"},"type":"Feature"},{"geometry":{"coordinates":[-90.22816719414313,38.71577176134906],"type":"Point"},"id":"stl-city-public-streetlights:2:122086","properties":{"address":null,"attributes":{"Date_Installed":"6/25/2018","LED_Powered":1,"LightID":"L014806","Light_Source":"LED","Light_Type":"Cobra","Lighting_Type":"LED-Powered Lamp","Verification_Date":null},"id":"stl-city-public-streetlights:2:122086","sourceLayerId":2,"sourceObjectId":122086,"sourceURL":"https://maps8.stlouis-mo.gov/arcgis/rest/services/STREETS/Streets_Permitting/MapServer/2","title":"Street light L014806"},"type":"Feature"},{"geometry":{"coordinates":[-90.22780303618724,38.7159687513028],"type":"Point"},"id":"stl-city-public-streetlights:2:122087","properties":{"address":null,"attributes":{"Date_Installed":"6/25/2018","LED_Powered":1,"LightID":"L014807","Light_Source":"LED","Light_Type":"Cobra","Lighting_Type":"LED-Powered Lamp","Verification_Date":null},"id":"stl-city-public-streetlights:2:122087","sourceLayerId":2,"sourceObjectId":122087,"sourceURL":"https://maps8.stlouis-mo.gov/arcgis/rest/services/STREETS/Streets_Permitting/MapServer/2","title":"Street light L014807"},"type":"Feature"},{"geometry":{"coordinates":[-90.2274723499954,38.71614341241866],"type":"Point"},"id":"stl-city-public-streetlights:2:122088","properties":{"address":null,"attributes":{"Date_Installed":"6/25/2018","LED_Powered":1,"LightID":"L014808","Light_Source":"LED","Light_Type":"Cobra","Lighting_Type":"LED-Powered Lamp","Verification_Date":null},"id":"stl-city-public-streetlights:2:122088","sourceLayerId":2,"sourceObjectId":122088,"sourceURL":"https://maps8.stlouis-mo.gov/arcgis/rest/services/STREETS/Streets_Permitting/MapServer/2","title":"Street light L014808"},"type":"Feature"},{"geometry":{"coordinates":[-90.22930879679079,38.71716782533158],"type":"Point"},"id":"stl-city-public-streetlights:2:122089","properties":{"address":null,"attributes":{"Date_Installed":"6/25/2018","LED_Powered":1,"LightID":"L014809","Light_Source":"LED","Light_Type":"Cobra","Lighting_Type":"LED-Powered Lamp","Verification_Date":null},"id":"stl-city-public-streetlights:2:122089","sourceLayerId":2,"sourceObjectId":122089,"sourceURL":"https://maps8.stlouis-mo.gov/arcgis/rest/services/STREETS/Streets_Permitting/MapServer/2","title":"Street light L014809"},"type":"Feature"},{"geometry":{"coordinates":[-90.22894599870708,38.71736601290057],"type":"Point"},"id":"stl-city-public-streetlights:2:122090","properties":{"address":null,"attributes":{"Date_Installed":"6/25/2018","LED_Powered":1,"LightID":"L014810","Light_Source":"LED","Light_Type":"Cobra","Lighting_Type":"LED-Powered Lamp","Verification_Date":null},"id":"stl-city-public-streetlights:2:122090","sourceLayerId":2,"sourceObjectId":122090,"sourceURL":"https://maps8.stlouis-mo.gov/arcgis/rest/services/STREETS/Streets_Permitting/MapServer/2","title":"Street light L014810"},"type":"Feature"},{"geometry":{"coordinates":[-90.22855548569264,38.71757128615679],"type":"Point"},"id":"stl-city-public-streetlights:2:122091","properties":{"address":null,"attributes":{"Date_Installed":"6/25/2018","LED_Powered":1,"LightID":"L014811","Light_Source":"LED","Light_Type":"Cobra","Lighting_Type":"LED-Powered Lamp","Verification_Date":null},"id":"stl-city-public-streetlights:2:122091","sourceLayerId":2,"sourceObjectId":122091,"sourceURL":"https://maps8.stlouis-mo.gov/arcgis/rest/services/STREETS/Streets_Permitting/MapServer/2","title":"Street light L014811"},"type":"Feature"},{"geometry":{"coordinates":[-90.22818809835654,38.71777506235326],"type":"Point"},"id":"stl-city-public-streetlights:2:122092","properties":{"address":null,"attributes":{"Date_Installed":"6/25/2018","LED_Powered":1,"LightID":"L014812","Light_Source":"LED","Light_Type":"Cobra","Lighting_Type":"LED-Powered Lamp","Verification_Date":null},"id":"stl-city-public-streetlights:2:122092","sourceLayerId":2,"sourceObjectId":122092,"sourceURL":"https://maps8.stlouis-mo.gov/arcgis/rest/services/STREETS/Streets_Permitting/MapServer/2","title":"Street light L014812"},"type":"Feature"},{"geometry":{"coordinates":[-90.2278219253206,38.71797919786034],"type":"Point"},"id":"stl-city-public-streetlights:2:122093","properties":{"address":null,"attributes":{"Date_Installed":"6/25/2018","LED_Powered":1,"LightID":"L014813","Light_Source":"LED","Light_Type":"Cobra","Lighting_Type":"LED-Powered Lamp","Verification_Date":null},"id":"stl-city-public-streetlights:2:122093","sourceLayerId":2,"sourceObjectId":122093,"sourceURL":"https://maps8.stlouis-mo.gov/arcgis/rest/services/STREETS/Streets_Permitting/MapServer/2","title":"Street light L014813"},"type":"Feature"},{"geometry":{"coordinates":[-90.22750792692703,38.718143767490126],"type":"Point"},"id":"stl-city-public-streetlights:2:122094","properties":{"address":null,"attributes":{"Date_Installed":"6/25/2018","LED_Powered":1,"LightID":"L014814","Light_Source":"LED","Light_Type":"Cobra","Lighting_Type":"LED-Powered Lamp","Verification_Date":null},"id":"stl-city-public-streetlights:2:122094","sourceLayerId":2,"sourceObjectId":122094,"sourceURL":"https://maps8.stlouis-mo.gov/arcgis/rest/services/STREETS/Streets_Permitting/MapServer/2","title":"Street light L014814"},"type":"Feature"},{"geometry":{"coordinates":[-90.22712074273173,38.71835142739404],"type":"Point"},"id":"stl-city-public-streetlights:2:122095","properties":{"address":null,"attributes":{"Date_Installed":"6/25/2018","LED_Powered":1,"LightID":"L014815","Light_Source":"LED","Light_Type":"Cobra","Lighting_Type":"LED-Powered Lamp","Verification_Date":null},"id":"stl-city-public-streetlights:2:122095","sourceLayerId":2,"sourceObjectId":122095,"sourceURL":"https://maps8.stlouis-mo.gov/arcgis/rest/services/STREETS/Streets_Permitting/MapServer/2","title":"Street light L014815"},"type":"Feature"},{"geometry":{"coordinates":[-90.22964841769121,38.71844188443223],"type":"Point"},"id":"stl-city-public-streetlights:2:122096","properties":{"address":null,"attributes":{"Date_Installed":"6/25/2018","LED_Powered":1,"LightID":"L014816","Light_Source":"LED","Light_Type":"Cobra","Lighting_Type":"LED-Powered Lamp","Verification_Date":null},"id":"stl-city-public-streetlights:2:122096","sourceLayerId":2,"sourceObjectId":122096,"sourceURL":"https://maps8.stlouis-mo.gov/arcgis/rest/services/STREETS/Streets_Permitting/MapServer/2","title":"Street light L014816"},"type":"Feature"},{"geometry":{"coordinates":[-90.22939798506029,38.719320719377585],"type":"Point"},"id":"stl-city-public-streetlights:2:122104","properties":{"address":null,"attributes":{"Date_Installed":"2/14/2018","LED_Powered":1,"LightID":"L014824","Light_Source":"LED","Light_Type":"Cobra","Lighting_Type":"LED-Powered Lamp","Verification_Date":null},"id":"stl-city-public-streetlights:2:122104","sourceLayerId":2,"sourceObjectId":122104,"sourceURL":"https://maps8.stlouis-mo.gov/arcgis/rest/services/STREETS/Streets_Permitting/MapServer/2","title":"Street light L014824"},"type":"Feature"},{"geometry":{"coordinates":[-90.22982560035747,38.71936413595637],"type":"Point"},"id":"stl-city-public-streetlights:2:122105","properties":{"address":null,"attributes":{"Date_Installed":"2/14/2018","LED_Powered":1,"LightID":"L014825","Light_Source":"LED","Light_Type":"Cobra","Lighting_Type":"LED-Powered Lamp","Verification_Date":null},"id":"stl-city-public-streetlights:2:122105","sourceLayerId":2,"sourceObjectId":122105,"sourceURL":"https://maps8.stlouis-mo.gov/arcgis/rest/services/STREETS/Streets_Permitting/MapServer/2","title":"Street light L014825"},"type":"Feature"},{"geometry":{"coordinates":[-90.22882749773277,38.71959557850925],"type":"Point"},"id":"stl-city-public-streetlights:2:122112","properties":{"address":null,"attributes":{"Date_Installed":"6/25/2018","LED_Powered":1,"LightID":"L014832","Light_Source":"LED","Light_Type":"Cobra","Lighting_Type":"LED-Powered Lamp","Verification_Date":null},"id":"stl-city-public-streetlights:2:122112","sourceLayerId":2,"sourceObjectId":122112,"sourceURL":"https://maps8.stlouis-mo.gov/arcgis/rest/services/STREETS/Streets_Permitting/MapServer/2","title":"Street light L014832"},"type":"Feature"},{"geometry":{"coordinates":[-90.2284250107914,38.71978621214588],"type":"Point"},"id":"stl-city-public-streetlights:2:122113","properties":{"address":null,"attributes":{"Date_Installed":"6/25/2018","LED_Powered":1,"LightID":"L014833","Light_Source":"LED","Light_Type":"Cobra","Lighting_Type":"LED-Powered Lamp","Verification_Date":null},"id":"stl-city-public-streetlights:2:122113","sourceLayerId":2,"sourceObjectId":122113,"sourceURL":"https://maps8.stlouis-mo.gov/arcgis/rest/services/STREETS/Streets_Permitting/MapServer/2","title":"Street light L014833"},"type":"Feature"},{"geometry":{"coordinates":[-90.22805109307969,38.71996804351331],"type":"Point"},"id":"stl-city-public-streetlights:2:122114","properties":{"address":null,"attributes":{"Date_Installed":"6/25/2018","LED_Powered":1,"LightID":"L014834","Light_Source":"LED","Light_Type":"Cobra","Lighting_Type":"LED-Powered Lamp","Verification_Date":null},"id":"stl-city-public-streetlights:2:122114","sourceLayerId":2,"sourceObjectId":122114,"sourceURL":"https://maps8.stlouis-mo.gov/arcgis/rest/services/STREETS/Streets_Permitting/MapServer/2","title":"Street light L014834"},"type":"Feature"},{"geometry":{"coordinates":[-90.2284926115692,38.711292034374594],"type":"Point"},"id":"stl-city-public-streetlights:2:126106","properties":{"address":null,"attributes":{"Date_Installed":"6/25/2018","LED_Powered":1,"LightID":"L018834","Light_Source":"LED","Light_Type":"Cobra","Lighting_Type":"LED-Powered Lamp","Verification_Date":null},"id":"stl-city-public-streetlights:2:126106","sourceLayerId":2,"sourceObjectId":126106,"sourceURL":"https://maps8.stlouis-mo.gov/arcgis/rest/services/STREETS/Streets_Permitting/MapServer/2","title":"Street light L018834"},"type":"Feature"},{"geometry":{"coordinates":[-90.22876767798023,38.711599963106515],"type":"Point"},"id":"stl-city-public-streetlights:2:126107","properties":{"address":null,"attributes":{"Date_Installed":"6/25/2018","LED_Powered":1,"LightID":"L018835","Light_Source":"LED","Light_Type":"Cobra","Lighting_Type":"LED-Powered Lamp","Verification_Date":null},"id":"stl-city-public-streetlights:2:126107","sourceLayerId":2,"sourceObjectId":126107,"sourceURL":"https://maps8.stlouis-mo.gov/arcgis/rest/services/STREETS/Streets_Permitting/MapServer/2","title":"Street light L018835"},"type":"Feature"},{"geometry":{"coordinates":[-90.2290439294729,38.71191714233624],"type":"Point"},"id":"stl-city-public-streetlights:2:126108","properties":{"address":null,"attributes":{"Date_Installed":"6/25/2018","LED_Powered":1,"LightID":"L018836","Light_Source":"LED","Light_Type":"Cobra","Lighting_Type":"LED-Powered Lamp","Verification_Date":null},"id":"stl-city-public-streetlights:2:126108","sourceLayerId":2,"sourceObjectId":126108,"sourceURL":"https://maps8.stlouis-mo.gov/arcgis/rest/services/STREETS/Streets_Permitting/MapServer/2","title":"Street light L018836"},"type":"Feature"},{"geometry":{"coordinates":[-90.22930567466734,38.712209116791804],"type":"Point"},"id":"stl-city-public-streetlights:2:126109","properties":{"address":null,"attributes":{"Date_Installed":"6/25/2018","LED_Powered":1,"LightID":"L018837","Light_Source":"LED","Light_Type":"Cobra","Lighting_Type":"LED-Powered Lamp","Verification_Date":null},"id":"stl-city-public-streetlights:2:126109","sourceLayerId":2,"sourceObjectId":126109,"sourceURL":"https://maps8.stlouis-mo.gov/arcgis/rest/services/STREETS/Streets_Permitting/MapServer/2","title":"Street light L018837"},"type":"Feature"},{"geometry":{"coordinates":[-90.22957052016267,38.712518641513284],"type":"Point"},"id":"stl-city-public-streetlights:2:126110","properties":{"address":null,"attributes":{"Date_Installed":"6/25/2018","LED_Powered":1,"LightID":"L018838","Light_Source":"LED","Light_Type":"Cobra","Lighting_Type":"LED-Powered Lamp","Verification_Date":null},"id":"stl-city-public-streetlights:2:126110","sourceLayerId":2,"sourceObjectId":126110,"sourceURL":"https://maps8.stlouis-mo.gov/arcgis/rest/services/STREETS/Streets_Permitting/MapServer/2","title":"Street light L018838"},"type":"Feature"},{"geometry":{"coordinates":[-90.22981044441617,38.71278997028047],"type":"Point"},"id":"stl-city-public-streetlights:2:126111","properties":{"address":null,"attributes":{"Date_Installed":"6/25/2018","LED_Powered":1,"LightID":"L018839","Light_Source":"LED","Light_Type":"Cobra","Lighting_Type":"LED-Powered Lamp","Verification_Date":null},"id":"stl-city-public-streetlights:2:126111","sourceLayerId":2,"sourceObjectId":126111,"sourceURL":"https://maps8.stlouis-mo.gov/arcgis/rest/services/STREETS/Streets_Permitting/MapServer/2","title":"Street light L018839"},"type":"Feature"},{"geometry":{"coordinates":[-90.22754508765739,38.7150012092326],"type":"Point"},"id":"stl-city-public-streetlights:2:126113","properties":{"address":null,"attributes":{"Date_Installed":null,"LED_Powered":1,"LightID":"L018841","Light_Source":"LED","Light_Type":"Cobra","Lighting_Type":"LED-Powered Lamp","Verification_Date":null},"id":"stl-city-public-streetlights:2:126113","sourceLayerId":2,"sourceObjectId":126113,"sourceURL":"https://maps8.stlouis-mo.gov/arcgis/rest/services/STREETS/Streets_Permitting/MapServer/2","title":"Street light L018841"},"type":"Feature"},{"geometry":{"coordinates":[-90.22765349342795,38.71445409770261],"type":"Point"},"id":"stl-city-public-streetlights:2:126114","properties":{"address":null,"attributes":{"Date_Installed":null,"LED_Powered":1,"LightID":"L018842","Light_Source":"LED","Light_Type":"Cobra","Lighting_Type":"LED-Powered Lamp","Verification_Date":null},"id":"stl-city-public-streetlights:2:126114","sourceLayerId":2,"sourceObjectId":126114,"sourceURL":"https://maps8.stlouis-mo.gov/arcgis/rest/services/STREETS/Streets_Permitting/MapServer/2","title":"Street light L018842"},"type":"Feature"},{"geometry":{"coordinates":[-90.22773467459973,38.71390558752818],"type":"Point"},"id":"stl-city-public-streetlights:2:126115","properties":{"address":null,"attributes":{"Date_Installed":null,"LED_Powered":1,"LightID":"L018843","Light_Source":"LED","Light_Type":"Cobra","Lighting_Type":"LED-Powered Lamp","Verification_Date":null},"id":"stl-city-public-streetlights:2:126115","sourceLayerId":2,"sourceObjectId":126115,"sourceURL":"https://maps8.stlouis-mo.gov/arcgis/rest/services/STREETS/Streets_Permitting/MapServer/2","title":"Street light L018843"},"type":"Feature"},{"geometry":{"coordinates":[-90.22783021740028,38.713360018707625],"type":"Point"},"id":"stl-city-public-streetlights:2:126116","properties":{"address":null,"attributes":{"Date_Installed":null,"LED_Powered":1,"LightID":"L018844","Light_Source":"LED","Light_Type":"Cobra","Lighting_Type":"LED-Powered Lamp","Verification_Date":null},"id":"stl-city-public-streetlights:2:126116","sourceLayerId":2,"sourceObjectId":126116,"sourceURL":"https://maps8.stlouis-mo.gov/arcgis/rest/services/STREETS/Streets_Permitting/MapServer/2","title":"Street light L018844"},"type":"Feature"},{"geometry":{"coordinates":[-90.22792355609425,38.71281372933056],"type":"Point"},"id":"stl-city-public-streetlights:2:126117","properties":{"address":null,"attributes":{"Date_Installed":null,"LED_Powered":1,"LightID":"L018845","Light_Source":"LED","Light_Type":"Cobra","Lighting_Type":"LED-Powered Lamp","Verification_Date":null},"id":"stl-city-public-streetlights:2:126117","sourceLayerId":2,"sourceObjectId":126117,"sourceURL":"https://maps8.stlouis-mo.gov/arcgis/rest/services/STREETS/Streets_Permitting/MapServer/2","title":"Street light L018845"},"type":"Feature"},{"geometry":{"coordinates":[-90.22818283322903,38.71222467545187],"type":"Point"},"id":"stl-city-public-streetlights:2:126118","properties":{"address":null,"attributes":{"Date_Installed":"6/25/2018","LED_Powered":1,"LightID":"L018846","Light_Source":"LED","Light_Type":"Cobra","Lighting_Type":"LED-Powered Lamp","Verification_Date":null},"id":"stl-city-public-streetlights:2:126118","sourceLayerId":2,"sourceObjectId":126118,"sourceURL":"https://maps8.stlouis-mo.gov/arcgis/rest/services/STREETS/Streets_Permitting/MapServer/2","title":"Street light L018846"},"type":"Feature"},{"geometry":{"coordinates":[-90.22803430858328,38.71216756037408],"type":"Point"},"id":"stl-city-public-streetlights:2:126119","properties":{"address":null,"attributes":{"Date_Installed":null,"LED_Powered":1,"LightID":"L018847","Light_Source":"LED","Light_Type":"Cobra","Lighting_Type":"LED-Powered Lamp","Verification_Date":null},"id":"stl-city-public-streetlights:2:126119","sourceLayerId":2,"sourceObjectId":126119,"sourceURL":"https://maps8.stlouis-mo.gov/arcgis/rest/services/STREETS/Streets_Permitting/MapServer/2","title":"Street light L018847"},"type":"Feature"},{"geometry":{"coordinates":[-90.22812931922486,38.711628902338866],"type":"Point"},"id":"stl-city-public-streetlights:2:126120","properties":{"address":null,"attributes":{"Date_Installed":null,"LED_Powered":1,"LightID":"L018848","Light_Source":"LED","Light_Type":"Cobra","Lighting_Type":"LED-Powered Lamp","Verification_Date":null},"id":"stl-city-public-streetlights:2:126120","sourceLayerId":2,"sourceObjectId":126120,"sourceURL":"https://maps8.stlouis-mo.gov/arcgis/rest/services/STREETS/Streets_Permitting/MapServer/2","title":"Street light L018848"},"type":"Feature"},{"geometry":{"coordinates":[-90.22816200555843,38.7106076250877],"type":"Point"},"id":"stl-city-public-streetlights:2:126121","properties":{"address":null,"attributes":{"Date_Installed":null,"LED_Powered":1,"LightID":"L018849","Light_Source":"LED","Light_Type":"Cobra","Lighting_Type":"LED-Powered Lamp","Verification_Date":null},"id":"stl-city-public-streetlights:2:126121","sourceLayerId":2,"sourceObjectId":126121,"sourceURL":"https://maps8.stlouis-mo.gov/arcgis/rest/services/STREETS/Streets_Permitting/MapServer/2","title":"Street light L018849"},"type":"Feature"},{"geometry":{"coordinates":[-90.22804089660147,38.71005697544281],"type":"Point"},"id":"stl-city-public-streetlights:2:126122","properties":{"address":null,"attributes":{"Date_Installed":null,"LED_Powered":1,"LightID":"L018850","Light_Source":"LED","Light_Type":"Cobra","Lighting_Type":"LED-Powered Lamp","Verification_Date":null},"id":"stl-city-public-streetlights:2:126122","sourceLayerId":2,"sourceObjectId":126122,"sourceURL":"https://maps8.stlouis-mo.gov/arcgis/rest/services/STREETS/Streets_Permitting/MapServer/2","title":"Street light L018850"},"type":"Feature"},{"geometry":{"coordinates":[-90.22775010220677,38.710445413201185],"type":"Point"},"id":"stl-city-public-streetlights:2:126157","properties":{"address":null,"attributes":{"Date_Installed":null,"LED_Powered":0,"LightID":"L018885","Light_Source":"LED","Light_Type":"Cobra","Lighting_Type":"LED-Powered Lamp","Verification_Date":null},"id":"stl-city-public-streetlights:2:126157","sourceLayerId":2,"sourceObjectId":126157,"sourceURL":"https://maps8.stlouis-mo.gov/arcgis/rest/services/STREETS/Streets_Permitting/MapServer/2","title":"Street light L018885"},"type":"Feature"},{"geometry":{"coordinates":[-90.22788028310325,38.711102386918],"type":"Point"},"id":"stl-city-public-streetlights:2:126158","properties":{"address":null,"attributes":{"Date_Installed":null,"LED_Powered":0,"LightID":"L018886","Light_Source":"LED","Light_Type":"Cobra","Lighting_Type":"LED-Powered Lamp","Verification_Date":null},"id":"stl-city-public-streetlights:2:126158","sourceLayerId":2,"sourceObjectId":126158,"sourceURL":"https://maps8.stlouis-mo.gov/arcgis/rest/services/STREETS/Streets_Permitting/MapServer/2","title":"Street light L018886"},"type":"Feature"},{"geometry":{"coordinates":[-90.2278755524253,38.71148100678491],"type":"Point"},"id":"stl-city-public-streetlights:2:126159","properties":{"address":null,"attributes":{"Date_Installed":null,"LED_Powered":0,"LightID":"L018887","Light_Source":"LED","Light_Type":"Cobra","Lighting_Type":"LED-Powered Lamp","Verification_Date":null},"id":"stl-city-public-streetlights:2:126159","sourceLayerId":2,"sourceObjectId":126159,"sourceURL":"https://maps8.stlouis-mo.gov/arcgis/rest/services/STREETS/Streets_Permitting/MapServer/2","title":"Street light L018887"},"type":"Feature"},{"geometry":{"coordinates":[-90.22780195481181,38.711956120610374],"type":"Point"},"id":"stl-city-public-streetlights:2:126160","properties":{"address":null,"attributes":{"Date_Installed":null,"LED_Powered":0,"LightID":"L018888","Light_Source":"LED","Light_Type":"Cobra","Lighting_Type":"LED-Powered Lamp","Verification_Date":null},"id":"stl-city-public-streetlights:2:126160","sourceLayerId":2,"sourceObjectId":126160,"sourceURL":"https://maps8.stlouis-mo.gov/arcgis/rest/services/STREETS/Streets_Permitting/MapServer/2","title":"Street light L018888"},"type":"Feature"},{"geometry":{"coordinates":[-90.22772302548798,38.71242521578248],"type":"Point"},"id":"stl-city-public-streetlights:2:126161","properties":{"address":null,"attributes":{"Date_Installed":null,"LED_Powered":0,"LightID":"L018889","Light_Source":"LED","Light_Type":"Cobra","Lighting_Type":"LED-Powered Lamp","Verification_Date":null},"id":"stl-city-public-streetlights:2:126161","sourceLayerId":2,"sourceObjectId":126161,"sourceURL":"https://maps8.stlouis-mo.gov/arcgis/rest/services/STREETS/Streets_Permitting/MapServer/2","title":"Street light L018889"},"type":"Feature"},{"geometry":{"coordinates":[-90.22752556575428,38.7135721027603],"type":"Point"},"id":"stl-city-public-streetlights:2:126162","properties":{"address":null,"attributes":{"Date_Installed":null,"LED_Powered":0,"LightID":"L018890","Light_Source":"LED","Light_Type":"Cobra","Lighting_Type":"LED-Powered Lamp","Verification_Date":null},"id":"stl-city-public-streetlights:2:126162","sourceLayerId":2,"sourceObjectId":126162,"sourceURL":"https://maps8.stlouis-mo.gov/arcgis/rest/services/STREETS/Streets_Permitting/MapServer/2","title":"Street light L018890"},"type":"Feature"},{"geometry":{"coordinates":[-90.22743442983239,38.71413800177372],"type":"Point"},"id":"stl-city-public-streetlights:2:126163","properties":{"address":null,"attributes":{"Date_Installed":null,"LED_Powered":0,"LightID":"L018891","Light_Source":"LED","Light_Type":"Cobra","Lighting_Type":"LED-Powered Lamp","Verification_Date":null},"id":"stl-city-public-streetlights:2:126163","sourceLayerId":2,"sourceObjectId":126163,"sourceURL":"https://maps8.stlouis-mo.gov/arcgis/rest/services/STREETS/Streets_Permitting/MapServer/2","title":"Street light L018891"},"type":"Feature"},{"geometry":{"coordinates":[-90.22733369792839,38.71470696468817],"type":"Point"},"id":"stl-city-public-streetlights:2:126164","properties":{"address":null,"attributes":{"Date_Installed":null,"LED_Powered":0,"LightID":"L018892","Light_Source":"LED","Light_Type":"Cobra","Lighting_Type":"LED-Powered Lamp","Verification_Date":null},"id":"stl-city-public-streetlights:2:126164","sourceLayerId":2,"sourceObjectId":126164,"sourceURL":"https://maps8.stlouis-mo.gov/arcgis/rest/services/STREETS/Streets_Permitting/MapServer/2","title":"Street light L018892"},"type":"Feature"},{"geometry":{"coordinates":[-90.22723914755099,38.71524981823918],"type":"Point"},"id":"stl-city-public-streetlights:2:126165","properties":{"address":null,"attributes":{"Date_Installed":null,"LED_Powered":0,"LightID":"L018893","Light_Source":"LED","Light_Type":"Cobra","Lighting_Type":"LED-Powered Lamp","Verification_Date":null},"id":"stl-city-public-streetlights:2:126165","sourceLayerId":2,"sourceObjectId":126165,"sourceURL":"https://maps8.stlouis-mo.gov/arcgis/rest/services/STREETS/Streets_Permitting/MapServer/2","title":"Street light L018893"},"type":"Feature"},{"geometry":{"coordinates":[-90.22981172867149,38.71468195306134],"type":"Point"},"id":"stl-city-public-streetlights:2:126190","properties":{"address":null,"attributes":{"Date_Installed":null,"LED_Powered":1,"LightID":"L018918","Light_Source":"LED","Light_Type":"Cobra","Lighting_Type":"LED-Powered Lamp","Verification_Date":null},"id":"stl-city-public-streetlights:2:126190","sourceLayerId":2,"sourceObjectId":126190,"sourceURL":"https://maps8.stlouis-mo.gov/arcgis/rest/services/STREETS/Streets_Permitting/MapServer/2","title":"Street light L018918"},"type":"Feature"},{"geometry":{"coordinates":[-90.22989398116178,38.71416771954967],"type":"Point"},"id":"stl-city-public-streetlights:2:126191","properties":{"address":null,"attributes":{"Date_Installed":null,"LED_Powered":1,"LightID":"L018919","Light_Source":"LED","Light_Type":"Cobra","Lighting_Type":"LED-Powered Lamp","Verification_Date":null},"id":"stl-city-public-streetlights:2:126191","sourceLayerId":2,"sourceObjectId":126191,"sourceURL":"https://maps8.stlouis-mo.gov/arcgis/rest/services/STREETS/Streets_Permitting/MapServer/2","title":"Street light L018919"},"type":"Feature"},{"geometry":{"coordinates":[-90.22998169616406,38.71365693089167],"type":"Point"},"id":"stl-city-public-streetlights:2:126192","properties":{"address":null,"attributes":{"Date_Installed":null,"LED_Powered":1,"LightID":"L018920","Light_Source":"LED","Light_Type":"Cobra","Lighting_Type":"LED-Powered Lamp","Verification_Date":null},"id":"stl-city-public-streetlights:2:126192","sourceLayerId":2,"sourceObjectId":126192,"sourceURL":"https://maps8.stlouis-mo.gov/arcgis/rest/services/STREETS/Streets_Permitting/MapServer/2","title":"Street light L018920"},"type":"Feature"},{"geometry":{"coordinates":[-90.22650056709992,38.719571420312924],"type":"Point"},"id":"stl-city-public-streetlights:2:137739","properties":{"address":null,"attributes":{"Date_Installed":null,"LED_Powered":0,"LightID":"L030455","Light_Source":"High Pressure Sodium","Light_Type":"Cobra","Lighting_Type":"400-W High Pressure Sodium Vapor Lamp","Verification_Date":null},"id":"stl-city-public-streetlights:2:137739","sourceLayerId":2,"sourceObjectId":137739,"sourceURL":"https://maps8.stlouis-mo.gov/arcgis/rest/services/STREETS/Streets_Permitting/MapServer/2","title":"Street light L030455"},"type":"Feature"},{"geometry":{"coordinates":[-90.22659913470991,38.719015135187966],"type":"Point"},"id":"stl-city-public-streetlights:2:137740","properties":{"address":null,"attributes":{"Date_Installed":null,"LED_Powered":0,"LightID":"L030456","Light_Source":"High Pressure Sodium","Light_Type":"Cobra","Lighting_Type":"400-W High Pressure Sodium Vapor Lamp","Verification_Date":null},"id":"stl-city-public-streetlights:2:137740","sourceLayerId":2,"sourceObjectId":137740,"sourceURL":"https://maps8.stlouis-mo.gov/arcgis/rest/services/STREETS/Streets_Permitting/MapServer/2","title":"Street light L030456"},"type":"Feature"},{"geometry":{"coordinates":[-90.22670152834341,38.718392248038455],"type":"Point"},"id":"stl-city-public-streetlights:2:137741","properties":{"address":null,"attributes":{"Date_Installed":null,"LED_Powered":0,"LightID":"L030457","Light_Source":"High Pressure Sodium","Light_Type":"Cobra","Lighting_Type":"400-W High Pressure Sodium Vapor Lamp","Verification_Date":null},"id":"stl-city-public-streetlights:2:137741","sourceLayerId":2,"sourceObjectId":137741,"sourceURL":"https://maps8.stlouis-mo.gov/arcgis/rest/services/STREETS/Streets_Permitting/MapServer/2","title":"Street light L030457"},"type":"Feature"},{"geometry":{"coordinates":[-90.22677953948092,38.717959156351405],"type":"Point"},"id":"stl-city-public-streetlights:2:137742","properties":{"address":null,"attributes":{"Date_Installed":null,"LED_Powered":0,"LightID":"L030458","Light_Source":"High Pressure Sodium","Light_Type":"Cobra","Lighting_Type":"400-W High Pressure Sodium Vapor Lamp","Verification_Date":null},"id":"stl-city-public-streetlights:2:137742","sourceLayerId":2,"sourceObjectId":137742,"sourceURL":"https://maps8.stlouis-mo.gov/arcgis/rest/services/STREETS/Streets_Permitting/MapServer/2","title":"Street light L030458"},"type":"Feature"},{"geometry":{"coordinates":[-90.22687087571344,38.7174073574238],"type":"Point"},"id":"stl-city-public-streetlights:2:137743","properties":{"address":null,"attributes":{"Date_Installed":null,"LED_Powered":0,"LightID":"L030459","Light_Source":"High Pressure Sodium","Light_Type":"Cobra","Lighting_Type":"400-W High Pressure Sodium Vapor Lamp","Verification_Date":null},"id":"stl-city-public-streetlights:2:137743","sourceLayerId":2,"sourceObjectId":137743,"sourceURL":"https://maps8.stlouis-mo.gov/arcgis/rest/services/STREETS/Streets_Permitting/MapServer/2","title":"Street light L030459"},"type":"Feature"},{"geometry":{"coordinates":[-90.22696284830776,38.71686352090726],"type":"Point"},"id":"stl-city-public-streetlights:2:137744","properties":{"address":null,"attributes":{"Date_Installed":null,"LED_Powered":0,"LightID":"L030460","Light_Source":"High Pressure Sodium","Light_Type":"Cobra","Lighting_Type":"400-W High Pressure Sodium Vapor Lamp","Verification_Date":null},"id":"stl-city-public-streetlights:2:137744","sourceLayerId":2,"sourceObjectId":137744,"sourceURL":"https://maps8.stlouis-mo.gov/arcgis/rest/services/STREETS/Streets_Permitting/MapServer/2","title":"Street light L030460"},"type":"Feature"},{"geometry":{"coordinates":[-90.22705985059795,38.716316860045865],"type":"Point"},"id":"stl-city-public-streetlights:2:137745","properties":{"address":null,"attributes":{"Date_Installed":null,"LED_Powered":0,"LightID":"L030461","Light_Source":"High Pressure Sodium","Light_Type":"Cobra","Lighting_Type":"400-W High Pressure Sodium Vapor Lamp","Verification_Date":null},"id":"stl-city-public-streetlights:2:137745","sourceLayerId":2,"sourceObjectId":137745,"sourceURL":"https://maps8.stlouis-mo.gov/arcgis/rest/services/STREETS/Streets_Permitting/MapServer/2","title":"Street light L030461"},"type":"Feature"},{"geometry":{"coordinates":[-90.22714814188504,38.7157805829543],"type":"Point"},"id":"stl-city-public-streetlights:2:137746","properties":{"address":null,"attributes":{"Date_Installed":null,"LED_Powered":0,"LightID":"L030462","Light_Source":"High Pressure Sodium","Light_Type":"Cobra","Lighting_Type":"400-W High Pressure Sodium Vapor Lamp","Verification_Date":null},"id":"stl-city-public-streetlights:2:137746","sourceLayerId":2,"sourceObjectId":137746,"sourceURL":"https://maps8.stlouis-mo.gov/arcgis/rest/services/STREETS/Streets_Permitting/MapServer/2","title":"Street light L030462"},"type":"Feature"},{"geometry":{"coordinates":[-90.22670832241715,38.719903986332234],"type":"Point"},"id":"stl-city-public-streetlights:2:137761","properties":{"address":null,"attributes":{"Date_Installed":null,"LED_Powered":1,"LightID":"L030477","Light_Source":"LED","Light_Type":"Cobra","Lighting_Type":"LED-Powered Lamp","Verification_Date":null},"id":"stl-city-public-streetlights:2:137761","sourceLayerId":2,"sourceObjectId":137761,"sourceURL":"https://maps8.stlouis-mo.gov/arcgis/rest/services/STREETS/Streets_Permitting/MapServer/2","title":"Street light L030477"},"type":"Feature"},{"geometry":{"coordinates":[-90.22679863613416,38.71935759592375],"type":"Point"},"id":"stl-city-public-streetlights:2:137762","properties":{"address":null,"attributes":{"Date_Installed":null,"LED_Powered":1,"LightID":"L030478","Light_Source":"LED","Light_Type":"Cobra","Lighting_Type":"LED-Powered Lamp","Verification_Date":null},"id":"stl-city-public-streetlights:2:137762","sourceLayerId":2,"sourceObjectId":137762,"sourceURL":"https://maps8.stlouis-mo.gov/arcgis/rest/services/STREETS/Streets_Permitting/MapServer/2","title":"Street light L030478"},"type":"Feature"},{"geometry":{"coordinates":[-90.22689316677278,38.718822275306266],"type":"Point"},"id":"stl-city-public-streetlights:2:137763","properties":{"address":null,"attributes":{"Date_Installed":null,"LED_Powered":1,"LightID":"L030479","Light_Source":"LED","Light_Type":"Cobra","Lighting_Type":"LED-Powered Lamp","Verification_Date":null},"id":"stl-city-public-streetlights:2:137763","sourceLayerId":2,"sourceObjectId":137763,"sourceURL":"https://maps8.stlouis-mo.gov/arcgis/rest/services/STREETS/Streets_Permitting/MapServer/2","title":"Street light L030479"},"type":"Feature"},{"geometry":{"coordinates":[-90.22698410664363,38.71827045202337],"type":"Point"},"id":"stl-city-public-streetlights:2:137764","properties":{"address":null,"attributes":{"Date_Installed":null,"LED_Powered":1,"LightID":"L030480","Light_Source":"LED","Light_Type":"Cobra","Lighting_Type":"LED-Powered Lamp","Verification_Date":null},"id":"stl-city-public-streetlights:2:137764","sourceLayerId":2,"sourceObjectId":137764,"sourceURL":"https://maps8.stlouis-mo.gov/arcgis/rest/services/STREETS/Streets_Permitting/MapServer/2","title":"Street light L030480"},"type":"Feature"},{"geometry":{"coordinates":[-90.22708466084512,38.71772913906642],"type":"Point"},"id":"stl-city-public-streetlights:2:137765","properties":{"address":null,"attributes":{"Date_Installed":null,"LED_Powered":1,"LightID":"L030481","Light_Source":"LED","Light_Type":"Cobra","Lighting_Type":"LED-Powered Lamp","Verification_Date":null},"id":"stl-city-public-streetlights:2:137765","sourceLayerId":2,"sourceObjectId":137765,"sourceURL":"https://maps8.stlouis-mo.gov/arcgis/rest/services/STREETS/Streets_Permitting/MapServer/2","title":"Street light L030481"},"type":"Feature"},{"geometry":{"coordinates":[-90.22717097630843,38.7171767317793],"type":"Point"},"id":"stl-city-public-streetlights:2:137766","properties":{"address":null,"attributes":{"Date_Installed":null,"LED_Powered":1,"LightID":"L030482","Light_Source":"LED","Light_Type":"Cobra","Lighting_Type":"LED-Powered Lamp","Verification_Date":null},"id":"stl-city-public-streetlights:2:137766","sourceLayerId":2,"sourceObjectId":137766,"sourceURL":"https://maps8.stlouis-mo.gov/arcgis/rest/services/STREETS/Streets_Permitting/MapServer/2","title":"Street light L030482"},"type":"Feature"},{"geometry":{"coordinates":[-90.22726629360427,38.71663290370457],"type":"Point"},"id":"stl-city-public-streetlights:2:137767","properties":{"address":null,"attributes":{"Date_Installed":null,"LED_Powered":1,"LightID":"L030483","Light_Source":"LED","Light_Type":"Cobra","Lighting_Type":"LED-Powered Lamp","Verification_Date":null},"id":"stl-city-public-streetlights:2:137767","sourceLayerId":2,"sourceObjectId":137767,"sourceURL":"https://maps8.stlouis-mo.gov/arcgis/rest/services/STREETS/Streets_Permitting/MapServer/2","title":"Street light L030483"},"type":"Feature"},{"geometry":{"coordinates":[-90.22825773472493,38.715984706753495],"type":"Point"},"id":"stl-city-public-streetlights:2:137768","properties":{"address":null,"attributes":{"Date_Installed":"6/25/2018","LED_Powered":1,"LightID":"L030484","Light_Source":"LED","Light_Type":"Cobra","Lighting_Type":"LED-Powered Lamp","Verification_Date":null},"id":"stl-city-public-streetlights:2:137768","sourceLayerId":2,"sourceObjectId":137768,"sourceURL":"https://maps8.stlouis-mo.gov/arcgis/rest/services/STREETS/Streets_Permitting/MapServer/2","title":"Street light L030484"},"type":"Feature"},{"geometry":{"coordinates":[-90.22819798438033,38.71633767027999],"type":"Point"},"id":"stl-city-public-streetlights:2:137769","properties":{"address":null,"attributes":{"Date_Installed":"6/25/2018","LED_Powered":1,"LightID":"L030485","Light_Source":"LED","Light_Type":"Cobra","Lighting_Type":"LED-Powered Lamp","Verification_Date":null},"id":"stl-city-public-streetlights:2:137769","sourceLayerId":2,"sourceObjectId":137769,"sourceURL":"https://maps8.stlouis-mo.gov/arcgis/rest/services/STREETS/Streets_Permitting/MapServer/2","title":"Street light L030485"},"type":"Feature"},{"geometry":{"coordinates":[-90.22813454953281,38.716699350181386],"type":"Point"},"id":"stl-city-public-streetlights:2:137770","properties":{"address":null,"attributes":{"Date_Installed":"6/25/2018","LED_Powered":1,"LightID":"L030486","Light_Source":"LED","Light_Type":"Cobra","Lighting_Type":"LED-Powered Lamp","Verification_Date":null},"id":"stl-city-public-streetlights:2:137770","sourceLayerId":2,"sourceObjectId":137770,"sourceURL":"https://maps8.stlouis-mo.gov/arcgis/rest/services/STREETS/Streets_Permitting/MapServer/2","title":"Street light L030486"},"type":"Feature"},{"geometry":{"coordinates":[-90.22807664727785,38.717046168511686],"type":"Point"},"id":"stl-city-public-streetlights:2:137771","properties":{"address":null,"attributes":{"Date_Installed":"6/25/2018","LED_Powered":1,"LightID":"L030487","Light_Source":"LED","Light_Type":"Cobra","Lighting_Type":"LED-Powered Lamp","Verification_Date":null},"id":"stl-city-public-streetlights:2:137771","sourceLayerId":2,"sourceObjectId":137771,"sourceURL":"https://maps8.stlouis-mo.gov/arcgis/rest/services/STREETS/Streets_Permitting/MapServer/2","title":"Street light L030487"},"type":"Feature"},{"geometry":{"coordinates":[-90.22801133095348,38.717422144446004],"type":"Point"},"id":"stl-city-public-streetlights:2:137772","properties":{"address":null,"attributes":{"Date_Installed":"6/25/2018","LED_Powered":1,"LightID":"L030488","Light_Source":"LED","Light_Type":"Cobra","Lighting_Type":"LED-Powered Lamp","Verification_Date":null},"id":"stl-city-public-streetlights:2:137772","sourceLayerId":2,"sourceObjectId":137772,"sourceURL":"https://maps8.stlouis-mo.gov/arcgis/rest/services/STREETS/Streets_Permitting/MapServer/2","title":"Street light L030488"},"type":"Feature"},{"geometry":{"coordinates":[-90.22795344152617,38.71776495920369],"type":"Point"},"id":"stl-city-public-streetlights:2:137773","properties":{"address":null,"attributes":{"Date_Installed":"6/25/2018","LED_Powered":1,"LightID":"L030489","Light_Source":"LED","Light_Type":"Cobra","Lighting_Type":"LED-Powered Lamp","Verification_Date":null},"id":"stl-city-public-streetlights:2:137773","sourceLayerId":2,"sourceObjectId":137773,"sourceURL":"https://maps8.stlouis-mo.gov/arcgis/rest/services/STREETS/Streets_Permitting/MapServer/2","title":"Street light L030489"},"type":"Feature"},{"geometry":{"coordinates":[-90.22789364639647,38.71812893467771],"type":"Point"},"id":"stl-city-public-streetlights:2:137774","properties":{"address":null,"attributes":{"Date_Installed":"6/25/2018","LED_Powered":1,"LightID":"L030490","Light_Source":"LED","Light_Type":"Cobra","Lighting_Type":"LED-Powered Lamp","Verification_Date":null},"id":"stl-city-public-streetlights:2:137774","sourceLayerId":2,"sourceObjectId":137774,"sourceURL":"https://maps8.stlouis-mo.gov/arcgis/rest/services/STREETS/Streets_Permitting/MapServer/2","title":"Street light L030490"},"type":"Feature"},{"geometry":{"coordinates":[-90.22783395153266,38.71846631014186],"type":"Point"},"id":"stl-city-public-streetlights:2:137775","properties":{"address":null,"attributes":{"Date_Installed":"6/25/2018","LED_Powered":1,"LightID":"L030491","Light_Source":"LED","Light_Type":"Cobra","Lighting_Type":"LED-Powered Lamp","Verification_Date":null},"id":"stl-city-public-streetlights:2:137775","sourceLayerId":2,"sourceObjectId":137775,"sourceURL":"https://maps8.stlouis-mo.gov/arcgis/rest/services/STREETS/Streets_Permitting/MapServer/2","title":"Street light L030491"},"type":"Feature"},{"geometry":{"coordinates":[-90.22776841667279,38.7188349431916],"type":"Point"},"id":"stl-city-public-streetlights:2:137776","properties":{"address":null,"attributes":{"Date_Installed":"6/25/2018","LED_Powered":1,"LightID":"L030492","Light_Source":"LED","Light_Type":"Cobra","Lighting_Type":"LED-Powered Lamp","Verification_Date":null},"id":"stl-city-public-streetlights:2:137776","sourceLayerId":2,"sourceObjectId":137776,"sourceURL":"https://maps8.stlouis-mo.gov/arcgis/rest/services/STREETS/Streets_Permitting/MapServer/2","title":"Street light L030492"},"type":"Feature"},{"geometry":{"coordinates":[-90.22770705410132,38.7191948158627],"type":"Point"},"id":"stl-city-public-streetlights:2:137777","properties":{"address":null,"attributes":{"Date_Installed":"6/25/2018","LED_Powered":1,"LightID":"L030493","Light_Source":"LED","Light_Type":"Cobra","Lighting_Type":"LED-Powered Lamp","Verification_Date":null},"id":"stl-city-public-streetlights:2:137777","sourceLayerId":2,"sourceObjectId":137777,"sourceURL":"https://maps8.stlouis-mo.gov/arcgis/rest/services/STREETS/Streets_Permitting/MapServer/2","title":"Street light L030493"},"type":"Feature"},{"geometry":{"coordinates":[-90.22764727711234,38.719553357072876],"type":"Point"},"id":"stl-city-public-streetlights:2:137778","properties":{"address":null,"attributes":{"Date_Installed":"6/25/2018","LED_Powered":1,"LightID":"L030494","Light_Source":"LED","Light_Type":"Cobra","Lighting_Type":"LED-Powered Lamp","Verification_Date":null},"id":"stl-city-public-streetlights:2:137778","sourceLayerId":2,"sourceObjectId":137778,"sourceURL":"https://maps8.stlouis-mo.gov/arcgis/rest/services/STREETS/Streets_Permitting/MapServer/2","title":"Street light L030494"},"type":"Feature"},{"geometry":{"coordinates":[-90.22757954284229,38.71992408296385],"type":"Point"},"id":"stl-city-public-streetlights:2:137779","properties":{"address":null,"attributes":{"Date_Installed":"6/25/2018","LED_Powered":1,"LightID":"L030495","Light_Source":"LED","Light_Type":"Cobra","Lighting_Type":"LED-Powered Lamp","Verification_Date":null},"id":"stl-city-public-streetlights:2:137779","sourceLayerId":2,"sourceObjectId":137779,"sourceURL":"https://maps8.stlouis-mo.gov/arcgis/rest/services/STREETS/Streets_Permitting/MapServer/2","title":"Street light L030495"},"type":"Feature"},{"geometry":{"coordinates":[-90.2292059408375,38.71969721506169],"type":"Point"},"id":"stl-city-public-streetlights:2:137806","properties":{"address":null,"attributes":{"Date_Installed":"8/1/2016","LED_Powered":1,"LightID":"L030522","Light_Source":"LED","Light_Type":"Cobra","Lighting_Type":"LED-Powered Lamp","Verification_Date":null},"id":"stl-city-public-streetlights:2:137806","sourceLayerId":2,"sourceObjectId":137806,"sourceURL":"https://maps8.stlouis-mo.gov/arcgis/rest/services/STREETS/Streets_Permitting/MapServer/2","title":"Street light L030522"},"type":"Feature"},{"geometry":{"coordinates":[-90.22929723501242,38.71920831709959],"type":"Point"},"id":"stl-city-public-streetlights:2:137807","properties":{"address":null,"attributes":{"Date_Installed":"8/1/2016","LED_Powered":1,"LightID":"L030523","Light_Source":"LED","Light_Type":"Cobra","Lighting_Type":"LED-Powered Lamp","Verification_Date":null},"id":"stl-city-public-streetlights:2:137807","sourceLayerId":2,"sourceObjectId":137807,"sourceURL":"https://maps8.stlouis-mo.gov/arcgis/rest/services/STREETS/Streets_Permitting/MapServer/2","title":"Street light L030523"},"type":"Feature"},{"geometry":{"coordinates":[-90.22936495800414,38.71867674578738],"type":"Point"},"id":"stl-city-public-streetlights:2:137808","properties":{"address":null,"attributes":{"Date_Installed":"8/1/2016","LED_Powered":1,"LightID":"L030524","Light_Source":"LED","Light_Type":"Cobra","Lighting_Type":"LED-Powered Lamp","Verification_Date":null},"id":"stl-city-public-streetlights:2:137808","sourceLayerId":2,"sourceObjectId":137808,"sourceURL":"https://maps8.stlouis-mo.gov/arcgis/rest/services/STREETS/Streets_Permitting/MapServer/2","title":"Street light L030524"},"type":"Feature"},{"geometry":{"coordinates":[-90.22944901213032,38.71817109797277],"type":"Point"},"id":"stl-city-public-streetlights:2:137809","properties":{"address":null,"attributes":{"Date_Installed":"8/1/2016","LED_Powered":1,"LightID":"L030525","Light_Source":"LED","Light_Type":"Cobra","Lighting_Type":"LED-Powered Lamp","Verification_Date":null},"id":"stl-city-public-streetlights:2:137809","sourceLayerId":2,"sourceObjectId":137809,"sourceURL":"https://maps8.stlouis-mo.gov/arcgis/rest/services/STREETS/Streets_Permitting/MapServer/2","title":"Street light L030525"},"type":"Feature"},{"geometry":{"coordinates":[-90.2295487487546,38.717621152371635],"type":"Point"},"id":"stl-city-public-streetlights:2:137810","properties":{"address":null,"attributes":{"Date_Installed":"8/1/2016","LED_Powered":1,"LightID":"L030526","Light_Source":"LED","Light_Type":"Cobra","Lighting_Type":"LED-Powered Lamp","Verification_Date":null},"id":"stl-city-public-streetlights:2:137810","sourceLayerId":2,"sourceObjectId":137810,"sourceURL":"https://maps8.stlouis-mo.gov/arcgis/rest/services/STREETS/Streets_Permitting/MapServer/2","title":"Street light L030526"},"type":"Feature"},{"geometry":{"coordinates":[-90.22963097483327,38.71711535686373],"type":"Point"},"id":"stl-city-public-streetlights:2:137811","properties":{"address":null,"attributes":{"Date_Installed":"8/1/2016","LED_Powered":1,"LightID":"L030527","Light_Source":"LED","Light_Type":"Cobra","Lighting_Type":"LED-Powered Lamp","Verification_Date":null},"id":"stl-city-public-streetlights:2:137811","sourceLayerId":2,"sourceObjectId":137811,"sourceURL":"https://maps8.stlouis-mo.gov/arcgis/rest/services/STREETS/Streets_Permitting/MapServer/2","title":"Street light L030527"},"type":"Feature"},{"geometry":{"coordinates":[-90.22971133602759,38.71661956838912],"type":"Point"},"id":"stl-city-public-streetlights:2:137812","properties":{"address":null,"attributes":{"Date_Installed":"8/1/2016","LED_Powered":1,"LightID":"L030528","Light_Source":"LED","Light_Type":"Cobra","Lighting_Type":"LED-Powered Lamp","Verification_Date":null},"id":"stl-city-public-streetlights:2:137812","sourceLayerId":2,"sourceObjectId":137812,"sourceURL":"https://maps8.stlouis-mo.gov/arcgis/rest/services/STREETS/Streets_Permitting/MapServer/2","title":"Street light L030528"},"type":"Feature"},{"geometry":{"coordinates":[-90.22980831490129,38.7160734771998],"type":"Point"},"id":"stl-city-public-streetlights:2:137813","properties":{"address":null,"attributes":{"Date_Installed":"8/1/2016","LED_Powered":1,"LightID":"L030529","Light_Source":"LED","Light_Type":"Cobra","Lighting_Type":"LED-Powered Lamp","Verification_Date":null},"id":"stl-city-public-streetlights:2:137813","sourceLayerId":2,"sourceObjectId":137813,"sourceURL":"https://maps8.stlouis-mo.gov/arcgis/rest/services/STREETS/Streets_Permitting/MapServer/2","title":"Street light L030529"},"type":"Feature"},{"geometry":{"coordinates":[-90.229903419195,38.71554020463411],"type":"Point"},"id":"stl-city-public-streetlights:2:137814","properties":{"address":null,"attributes":{"Date_Installed":"8/1/2016","LED_Powered":1,"LightID":"L030530","Light_Source":"LED","Light_Type":"Cobra","Lighting_Type":"LED-Powered Lamp","Verification_Date":null},"id":"stl-city-public-streetlights:2:137814","sourceLayerId":2,"sourceObjectId":137814,"sourceURL":"https://maps8.stlouis-mo.gov/arcgis/rest/services/STREETS/Streets_Permitting/MapServer/2","title":"Street light L030530"},"type":"Feature"},{"geometry":{"coordinates":[-90.22998933070792,38.715023882341086],"type":"Point"},"id":"stl-city-public-streetlights:2:137815","properties":{"address":null,"attributes":{"Date_Installed":"8/1/2016","LED_Powered":1,"LightID":"L030531","Light_Source":"LED","Light_Type":"Cobra","Lighting_Type":"LED-Powered Lamp","Verification_Date":null},"id":"stl-city-public-streetlights:2:137815","sourceLayerId":2,"sourceObjectId":137815,"sourceURL":"https://maps8.stlouis-mo.gov/arcgis/rest/services/STREETS/Streets_Permitting/MapServer/2","title":"Street light L030531"},"type":"Feature"},{"geometry":{"coordinates":[-90.22745238246144,38.715539324111234],"type":"Point"},"id":"stl-city-public-streetlights:2:137816","properties":{"address":null,"attributes":{"Date_Installed":null,"LED_Powered":1,"LightID":"L030532","Light_Source":"LED","Light_Type":"Cobra","Lighting_Type":"LED-Powered Lamp","Verification_Date":null},"id":"stl-city-public-streetlights:2:137816","sourceLayerId":2,"sourceObjectId":137816,"sourceURL":"https://maps8.stlouis-mo.gov/arcgis/rest/services/STREETS/Streets_Permitting/MapServer/2","title":"Street light L030532"},"type":"Feature"},{"geometry":{"coordinates":[-90.22735738057655,38.71608110368312],"type":"Point"},"id":"stl-city-public-streetlights:2:137817","properties":{"address":null,"attributes":{"Date_Installed":null,"LED_Powered":1,"LightID":"L030533","Light_Source":"LED","Light_Type":"Cobra","Lighting_Type":"LED-Powered Lamp","Verification_Date":null},"id":"stl-city-public-streetlights:2:137817","sourceLayerId":2,"sourceObjectId":137817,"sourceURL":"https://maps8.stlouis-mo.gov/arcgis/rest/services/STREETS/Streets_Permitting/MapServer/2","title":"Street light L030533"},"type":"Feature"},{"geometry":{"coordinates":[-90.22906025479644,38.71558477337812],"type":"Point"},"id":"stl-city-public-streetlights:2:137818","properties":{"address":null,"attributes":{"Date_Installed":"6/25/2018","LED_Powered":1,"LightID":"L030534","Light_Source":"LED","Light_Type":"Cobra","Lighting_Type":"LED-Powered Lamp","Verification_Date":null},"id":"stl-city-public-streetlights:2:137818","sourceLayerId":2,"sourceObjectId":137818,"sourceURL":"https://maps8.stlouis-mo.gov/arcgis/rest/services/STREETS/Streets_Permitting/MapServer/2","title":"Street light L030534"},"type":"Feature"},{"geometry":{"coordinates":[-90.2289975457625,38.71591666077077],"type":"Point"},"id":"stl-city-public-streetlights:2:137819","properties":{"address":null,"attributes":{"Date_Installed":"6/25/2018","LED_Powered":1,"LightID":"L030535","Light_Source":"LED","Light_Type":"Cobra","Lighting_Type":"LED-Powered Lamp","Verification_Date":null},"id":"stl-city-public-streetlights:2:137819","sourceLayerId":2,"sourceObjectId":137819,"sourceURL":"https://maps8.stlouis-mo.gov/arcgis/rest/services/STREETS/Streets_Permitting/MapServer/2","title":"Street light L030535"},"type":"Feature"},{"geometry":{"coordinates":[-90.22894772670581,38.71621890129688],"type":"Point"},"id":"stl-city-public-streetlights:2:137820","properties":{"address":null,"attributes":{"Date_Installed":"6/25/2018","LED_Powered":1,"LightID":"L030536","Light_Source":"LED","Light_Type":"Cobra","Lighting_Type":"LED-Powered Lamp","Verification_Date":null},"id":"stl-city-public-streetlights:2:137820","sourceLayerId":2,"sourceObjectId":137820,"sourceURL":"https://maps8.stlouis-mo.gov/arcgis/rest/services/STREETS/Streets_Permitting/MapServer/2","title":"Street light L030536"},"type":"Feature"},{"geometry":{"coordinates":[-90.2288985124188,38.71656214120439],"type":"Point"},"id":"stl-city-public-streetlights:2:137821","properties":{"address":null,"attributes":{"Date_Installed":"6/25/2018","LED_Powered":1,"LightID":"L030537","Light_Source":"LED","Light_Type":"Cobra","Lighting_Type":"LED-Powered Lamp","Verification_Date":null},"id":"stl-city-public-streetlights:2:137821","sourceLayerId":2,"sourceObjectId":137821,"sourceURL":"https://maps8.stlouis-mo.gov/arcgis/rest/services/STREETS/Streets_Permitting/MapServer/2","title":"Street light L030537"},"type":"Feature"},{"geometry":{"coordinates":[-90.22883642175171,38.71689093086972],"type":"Point"},"id":"stl-city-public-streetlights:2:137822","properties":{"address":null,"attributes":{"Date_Installed":"6/25/2018","LED_Powered":1,"LightID":"L030538","Light_Source":"LED","Light_Type":"Cobra","Lighting_Type":"LED-Powered Lamp","Verification_Date":null},"id":"stl-city-public-streetlights:2:137822","sourceLayerId":2,"sourceObjectId":137822,"sourceURL":"https://maps8.stlouis-mo.gov/arcgis/rest/services/STREETS/Streets_Permitting/MapServer/2","title":"Street light L030538"},"type":"Feature"},{"geometry":{"coordinates":[-90.22877581667377,38.71722901917787],"type":"Point"},"id":"stl-city-public-streetlights:2:137823","properties":{"address":null,"attributes":{"Date_Installed":"6/25/2018","LED_Powered":1,"LightID":"L030539","Light_Source":"LED","Light_Type":"Cobra","Lighting_Type":"LED-Powered Lamp","Verification_Date":null},"id":"stl-city-public-streetlights:2:137823","sourceLayerId":2,"sourceObjectId":137823,"sourceURL":"https://maps8.stlouis-mo.gov/arcgis/rest/services/STREETS/Streets_Permitting/MapServer/2","title":"Street light L030539"},"type":"Feature"},{"geometry":{"coordinates":[-90.22976047855752,38.71520355162881],"type":"Point"},"id":"stl-city-public-streetlights:2:137824","properties":{"address":null,"attributes":{"Date_Installed":"8/1/2016","LED_Powered":1,"LightID":"L030540","Light_Source":"LED","Light_Type":"Cobra","Lighting_Type":"LED-Powered Lamp","Verification_Date":null},"id":"stl-city-public-streetlights:2:137824","sourceLayerId":2,"sourceObjectId":137824,"sourceURL":"https://maps8.stlouis-mo.gov/arcgis/rest/services/STREETS/Streets_Permitting/MapServer/2","title":"Street light L030540"},"type":"Feature"},{"geometry":{"coordinates":[-90.22967457953992,38.715716060350836],"type":"Point"},"id":"stl-city-public-streetlights:2:137825","properties":{"address":null,"attributes":{"Date_Installed":"8/1/2016","LED_Powered":1,"LightID":"L030541","Light_Source":"LED","Light_Type":"Cobra","Lighting_Type":"LED-Powered Lamp","Verification_Date":null},"id":"stl-city-public-streetlights:2:137825","sourceLayerId":2,"sourceObjectId":137825,"sourceURL":"https://maps8.stlouis-mo.gov/arcgis/rest/services/STREETS/Streets_Permitting/MapServer/2","title":"Street light L030541"},"type":"Feature"},{"geometry":{"coordinates":[-90.22958126876054,38.71625744115089],"type":"Point"},"id":"stl-city-public-streetlights:2:137826","properties":{"address":null,"attributes":{"Date_Installed":"8/1/2016","LED_Powered":1,"LightID":"L030542","Light_Source":"LED","Light_Type":"Cobra","Lighting_Type":"LED-Powered Lamp","Verification_Date":null},"id":"stl-city-public-streetlights:2:137826","sourceLayerId":2,"sourceObjectId":137826,"sourceURL":"https://maps8.stlouis-mo.gov/arcgis/rest/services/STREETS/Streets_Permitting/MapServer/2","title":"Street light L030542"},"type":"Feature"},{"geometry":{"coordinates":[-90.2294916769517,38.71678038046582],"type":"Point"},"id":"stl-city-public-streetlights:2:137827","properties":{"address":null,"attributes":{"Date_Installed":"8/1/2016","LED_Powered":1,"LightID":"L030543","Light_Source":"LED","Light_Type":"Cobra","Lighting_Type":"LED-Powered Lamp","Verification_Date":null},"id":"stl-city-public-streetlights:2:137827","sourceLayerId":2,"sourceObjectId":137827,"sourceURL":"https://maps8.stlouis-mo.gov/arcgis/rest/services/STREETS/Streets_Permitting/MapServer/2","title":"Street light L030543"},"type":"Feature"},{"geometry":{"coordinates":[-90.2294038968144,38.71730647152064],"type":"Point"},"id":"stl-city-public-streetlights:2:137828","properties":{"address":null,"attributes":{"Date_Installed":"8/1/2016","LED_Powered":1,"LightID":"L030544","Light_Source":"LED","Light_Type":"Cobra","Lighting_Type":"LED-Powered Lamp","Verification_Date":null},"id":"stl-city-public-streetlights:2:137828","sourceLayerId":2,"sourceObjectId":137828,"sourceURL":"https://maps8.stlouis-mo.gov/arcgis/rest/services/STREETS/Streets_Permitting/MapServer/2","title":"Street light L030544"},"type":"Feature"},{"geometry":{"coordinates":[-90.22931064605132,38.71783083272411],"type":"Point"},"id":"stl-city-public-streetlights:2:137829","properties":{"address":null,"attributes":{"Date_Installed":"8/1/2016","LED_Powered":1,"LightID":"L030545","Light_Source":"LED","Light_Type":"Cobra","Lighting_Type":"LED-Powered Lamp","Verification_Date":null},"id":"stl-city-public-streetlights:2:137829","sourceLayerId":2,"sourceObjectId":137829,"sourceURL":"https://maps8.stlouis-mo.gov/arcgis/rest/services/STREETS/Streets_Permitting/MapServer/2","title":"Street light L030545"},"type":"Feature"},{"geometry":{"coordinates":[-90.22921450003048,38.71839651842751],"type":"Point"},"id":"stl-city-public-streetlights:2:137830","properties":{"address":null,"attributes":{"Date_Installed":"8/1/2016","LED_Powered":1,"LightID":"L030546","Light_Source":"LED","Light_Type":"Cobra","Lighting_Type":"LED-Powered Lamp","Verification_Date":null},"id":"stl-city-public-streetlights:2:137830","sourceLayerId":2,"sourceObjectId":137830,"sourceURL":"https://maps8.stlouis-mo.gov/arcgis/rest/services/STREETS/Streets_Permitting/MapServer/2","title":"Street light L030546"},"type":"Feature"},{"geometry":{"coordinates":[-90.22913415972292,38.718885012952974],"type":"Point"},"id":"stl-city-public-streetlights:2:137831","properties":{"address":null,"attributes":{"Date_Installed":"8/1/2016","LED_Powered":1,"LightID":"L030547","Light_Source":"LED","Light_Type":"Cobra","Lighting_Type":"LED-Powered Lamp","Verification_Date":null},"id":"stl-city-public-streetlights:2:137831","sourceLayerId":2,"sourceObjectId":137831,"sourceURL":"https://maps8.stlouis-mo.gov/arcgis/rest/services/STREETS/Streets_Permitting/MapServer/2","title":"Street light L030547"},"type":"Feature"},{"geometry":{"coordinates":[-90.22902270931627,38.7193935996068],"type":"Point"},"id":"stl-city-public-streetlights:2:137832","properties":{"address":null,"attributes":{"Date_Installed":"8/1/2016","LED_Powered":1,"LightID":"L030548","Light_Source":"LED","Light_Type":"Cobra","Lighting_Type":"LED-Powered Lamp","Verification_Date":null},"id":"stl-city-public-streetlights:2:137832","sourceLayerId":2,"sourceObjectId":137832,"sourceURL":"https://maps8.stlouis-mo.gov/arcgis/rest/services/STREETS/Streets_Permitting/MapServer/2","title":"Street light L030548"},"type":"Feature"},{"geometry":{"coordinates":[-90.22893368726429,38.71992459696382],"type":"Point"},"id":"stl-city-public-streetlights:2:137833","properties":{"address":null,"attributes":{"Date_Installed":"8/1/2016","LED_Powered":1,"LightID":"L030549","Light_Source":"LED","Light_Type":"Cobra","Lighting_Type":"LED-Powered Lamp","Verification_Date":null},"id":"stl-city-public-streetlights:2:137833","sourceLayerId":2,"sourceObjectId":137833,"sourceURL":"https://maps8.stlouis-mo.gov/arcgis/rest/services/STREETS/Streets_Permitting/MapServer/2","title":"Street light L030549"},"type":"Feature"},{"geometry":{"coordinates":[-90.22978542750398,38.71147789655167],"type":"Point"},"id":"stl-city-public-streetlights:2:152052","properties":{"address":null,"attributes":{"Date_Installed":"8/1/2016","LED_Powered":1,"LightID":"L044906","Light_Source":"LED","Light_Type":"Cobra","Lighting_Type":"LED-Powered Lamp","Verification_Date":null},"id":"stl-city-public-streetlights:2:152052","sourceLayerId":2,"sourceObjectId":152052,"sourceURL":"https://maps8.stlouis-mo.gov/arcgis/rest/services/STREETS/Streets_Permitting/MapServer/2","title":"Street light L044906"},"type":"Feature"},{"geometry":{"coordinates":[-90.22937399143206,38.71169051343967],"type":"Point"},"id":"stl-city-public-streetlights:2:152053","properties":{"address":null,"attributes":{"Date_Installed":"8/1/2016","LED_Powered":1,"LightID":"L044907","Light_Source":"LED","Light_Type":"Cobra","Lighting_Type":"LED-Powered Lamp","Verification_Date":null},"id":"stl-city-public-streetlights:2:152053","sourceLayerId":2,"sourceObjectId":152053,"sourceURL":"https://maps8.stlouis-mo.gov/arcgis/rest/services/STREETS/Streets_Permitting/MapServer/2","title":"Street light L044907"},"type":"Feature"},{"geometry":{"coordinates":[-90.22895620779192,38.711923660475875],"type":"Point"},"id":"stl-city-public-streetlights:2:152054","properties":{"address":null,"attributes":{"Date_Installed":"8/1/2016","LED_Powered":1,"LightID":"L044908","Light_Source":"LED","Light_Type":"Cobra","Lighting_Type":"LED-Powered Lamp","Verification_Date":null},"id":"stl-city-public-streetlights:2:152054","sourceLayerId":2,"sourceObjectId":152054,"sourceURL":"https://maps8.stlouis-mo.gov/arcgis/rest/services/STREETS/Streets_Permitting/MapServer/2","title":"Street light L044908"},"type":"Feature"},{"geometry":{"coordinates":[-90.2285501613053,38.71214153094505],"type":"Point"},"id":"stl-city-public-streetlights:2:152055","properties":{"address":null,"attributes":{"Date_Installed":"8/1/2016","LED_Powered":1,"LightID":"L044909","Light_Source":"LED","Light_Type":"Cobra","Lighting_Type":"LED-Powered Lamp","Verification_Date":null},"id":"stl-city-public-streetlights:2:152055","sourceLayerId":2,"sourceObjectId":152055,"sourceURL":"https://maps8.stlouis-mo.gov/arcgis/rest/services/STREETS/Streets_Permitting/MapServer/2","title":"Street light L044909"},"type":"Feature"},{"geometry":{"coordinates":[-90.22969777560667,38.710364681720556],"type":"Point"},"id":"stl-city-public-streetlights:2:152057","properties":{"address":null,"attributes":{"Date_Installed":"8/1/2016","LED_Powered":1,"LightID":"L044911","Light_Source":"LED","Light_Type":"Cobra","Lighting_Type":"LED-Powered Lamp","Verification_Date":null},"id":"stl-city-public-streetlights:2:152057","sourceLayerId":2,"sourceObjectId":152057,"sourceURL":"https://maps8.stlouis-mo.gov/arcgis/rest/services/STREETS/Streets_Permitting/MapServer/2","title":"Street light L044911"},"type":"Feature"},{"geometry":{"coordinates":[-90.2292406494797,38.710594116453],"type":"Point"},"id":"stl-city-public-streetlights:2:152058","properties":{"address":null,"attributes":{"Date_Installed":"8/1/2016","LED_Powered":1,"LightID":"L044912","Light_Source":"LED","Light_Type":"Cobra","Lighting_Type":"LED-Powered Lamp","Verification_Date":null},"id":"stl-city-public-streetlights:2:152058","sourceLayerId":2,"sourceObjectId":152058,"sourceURL":"https://maps8.stlouis-mo.gov/arcgis/rest/services/STREETS/Streets_Permitting/MapServer/2","title":"Street light L044912"},"type":"Feature"},{"geometry":{"coordinates":[-90.22880956183154,38.710823609778934],"type":"Point"},"id":"stl-city-public-streetlights:2:152059","properties":{"address":null,"attributes":{"Date_Installed":"8/1/2016","LED_Powered":1,"LightID":"L044913","Light_Source":"LED","Light_Type":"Cobra","Lighting_Type":"LED-Powered Lamp","Verification_Date":null},"id":"stl-city-public-streetlights:2:152059","sourceLayerId":2,"sourceObjectId":152059,"sourceURL":"https://maps8.stlouis-mo.gov/arcgis/rest/services/STREETS/Streets_Permitting/MapServer/2","title":"Street light L044913"},"type":"Feature"},{"geometry":{"coordinates":[-90.22835079164341,38.71106697828017],"type":"Point"},"id":"stl-city-public-streetlights:2:152060","properties":{"address":null,"attributes":{"Date_Installed":"8/1/2016","LED_Powered":1,"LightID":"L044914","Light_Source":"LED","Light_Type":"Cobra","Lighting_Type":"LED-Powered Lamp","Verification_Date":null},"id":"stl-city-public-streetlights:2:152060","sourceLayerId":2,"sourceObjectId":152060,"sourceURL":"https://maps8.stlouis-mo.gov/arcgis/rest/services/STREETS/Streets_Permitting/MapServer/2","title":"Street light L044914"},"type":"Feature"},{"geometry":{"coordinates":[-90.22773234560593,38.71147831942113],"type":"Point"},"id":"stl-city-public-streetlights:2:152061","properties":{"address":null,"attributes":{"Date_Installed":null,"LED_Powered":0,"LightID":"L044915","Light_Source":"LED","Light_Type":"Cobra","Lighting_Type":"LED-Powered Lamp","Verification_Date":null},"id":"stl-city-public-streetlights:2:152061","sourceLayerId":2,"sourceObjectId":152061,"sourceURL":"https://maps8.stlouis-mo.gov/arcgis/rest/services/STREETS/Streets_Permitting/MapServer/2","title":"Street light L044915"},"type":"Feature"},{"geometry":{"coordinates":[-90.22749914015785,38.711604105370604],"type":"Point"},"id":"stl-city-public-streetlights:2:152062","properties":{"address":null,"attributes":{"Date_Installed":null,"LED_Powered":0,"LightID":"L044916","Light_Source":"LED","Light_Type":"Cobra","Lighting_Type":"LED-Powered Lamp","Verification_Date":null},"id":"stl-city-public-streetlights:2:152062","sourceLayerId":2,"sourceObjectId":152062,"sourceURL":"https://maps8.stlouis-mo.gov/arcgis/rest/services/STREETS/Streets_Permitting/MapServer/2","title":"Street light L044916"},"type":"Feature"},{"geometry":{"coordinates":[-90.22724916130899,38.71174057847838],"type":"Point"},"id":"stl-city-public-streetlights:2:152063","properties":{"address":null,"attributes":{"Date_Installed":null,"LED_Powered":0,"LightID":"L044917","Light_Source":"LED","Light_Type":"Cobra","Lighting_Type":"LED-Powered Lamp","Verification_Date":null},"id":"stl-city-public-streetlights:2:152063","sourceLayerId":2,"sourceObjectId":152063,"sourceURL":"https://maps8.stlouis-mo.gov/arcgis/rest/services/STREETS/Streets_Permitting/MapServer/2","title":"Street light L044917"},"type":"Feature"},{"geometry":{"coordinates":[-90.22680180060303,38.71198194319057],"type":"Point"},"id":"stl-city-public-streetlights:2:152064","properties":{"address":null,"attributes":{"Date_Installed":null,"LED_Powered":0,"LightID":"L044918","Light_Source":"LED","Light_Type":"Cobra","Lighting_Type":"LED-Powered Lamp","Verification_Date":null},"id":"stl-city-public-streetlights:2:152064","sourceLayerId":2,"sourceObjectId":152064,"sourceURL":"https://maps8.stlouis-mo.gov/arcgis/rest/services/STREETS/Streets_Permitting/MapServer/2","title":"Street light L044918"},"type":"Feature"},{"geometry":{"coordinates":[-90.22628893213226,38.712248300852885],"type":"Point"},"id":"stl-city-public-streetlights:2:152065","properties":{"address":null,"attributes":{"Date_Installed":null,"LED_Powered":0,"LightID":"L044919","Light_Source":"LED","Light_Type":"Cobra","Lighting_Type":"LED-Powered Lamp","Verification_Date":null},"id":"stl-city-public-streetlights:2:152065","sourceLayerId":2,"sourceObjectId":152065,"sourceURL":"https://maps8.stlouis-mo.gov/arcgis/rest/services/STREETS/Streets_Permitting/MapServer/2","title":"Street light L044919"},"type":"Feature"},{"geometry":{"coordinates":[-90.22580180824727,38.71250398987264],"type":"Point"},"id":"stl-city-public-streetlights:2:152066","properties":{"address":null,"attributes":{"Date_Installed":null,"LED_Powered":0,"LightID":"L044920","Light_Source":"High Pressure Sodium","Light_Type":"Cobra","Lighting_Type":"150-W High Pressure Sodium Vapor Lamp","Verification_Date":null},"id":"stl-city-public-streetlights:2:152066","sourceLayerId":2,"sourceObjectId":152066,"sourceURL":"https://maps8.stlouis-mo.gov/arcgis/rest/services/STREETS/Streets_Permitting/MapServer/2","title":"Street light L044920"},"type":"Feature"},{"geometry":{"coordinates":[-90.22532091063833,38.71276147881503],"type":"Point"},"id":"stl-city-public-streetlights:2:152067","properties":{"address":null,"attributes":{"Date_Installed":null,"LED_Powered":0,"LightID":"L044921","Light_Source":"LED","Light_Type":"Cobra","Lighting_Type":"LED-Powered Lamp","Verification_Date":null},"id":"stl-city-public-streetlights:2:152067","sourceLayerId":2,"sourceObjectId":152067,"sourceURL":"https://maps8.stlouis-mo.gov/arcgis/rest/services/STREETS/Streets_Permitting/MapServer/2","title":"Street light L044921"},"type":"Feature"},{"geometry":{"coordinates":[-90.22506592966582,38.712990776309056],"type":"Point"},"id":"stl-city-public-streetlights:2:152068","properties":{"address":null,"attributes":{"Date_Installed":null,"LED_Powered":0,"LightID":"L044922","Light_Source":"High Pressure Sodium","Light_Type":"Cobra","Lighting_Type":"150-W High Pressure Sodium Vapor Lamp","Verification_Date":null},"id":"stl-city-public-streetlights:2:152068","sourceLayerId":2,"sourceObjectId":152068,"sourceURL":"https://maps8.stlouis-mo.gov/arcgis/rest/services/STREETS/Streets_Permitting/MapServer/2","title":"Street light L044922"},"type":"Feature"},{"geometry":{"coordinates":[-90.22855975070112,38.710104349264014],"type":"Point"},"id":"stl-city-public-streetlights:2:152073","properties":{"address":null,"attributes":{"Date_Installed":"8/1/2016","LED_Powered":1,"LightID":"L044927","Light_Source":"LED","Light_Type":"Cobra","Lighting_Type":"LED-Powered Lamp","Verification_Date":null},"id":"stl-city-public-streetlights:2:152073","sourceLayerId":2,"sourceObjectId":152073,"sourceURL":"https://maps8.stlouis-mo.gov/arcgis/rest/services/STREETS/Streets_Permitting/MapServer/2","title":"Street light L044927"},"type":"Feature"},{"geometry":{"coordinates":[-90.22824179432173,38.71027951888394],"type":"Point"},"id":"stl-city-public-streetlights:2:152074","properties":{"address":null,"attributes":{"Date_Installed":"8/1/2016","LED_Powered":1,"LightID":"L044928","Light_Source":"LED","Light_Type":"Cobra","Lighting_Type":"LED-Powered Lamp","Verification_Date":null},"id":"stl-city-public-streetlights:2:152074","sourceLayerId":2,"sourceObjectId":152074,"sourceURL":"https://maps8.stlouis-mo.gov/arcgis/rest/services/STREETS/Streets_Permitting/MapServer/2","title":"Street light L044928"},"type":"Feature"},{"geometry":{"coordinates":[-90.22985003300224,38.71452634742621],"type":"Point"},"id":"stl-city-public-streetlights:2:158341","properties":{"address":null,"attributes":{"Date_Installed":null,"LED_Powered":0,"LightID":"L051044","Light_Source":"High Pressure Sodium","Light_Type":"Decorative","Lighting_Type":"King Luminaire (Historic Light Fixture)","Verification_Date":null},"id":"stl-city-public-streetlights:2:158341","sourceLayerId":2,"sourceObjectId":158341,"sourceURL":"https://maps8.stlouis-mo.gov/arcgis/rest/services/STREETS/Streets_Permitting/MapServer/2","title":"Street light L051044"},"type":"Feature"},{"geometry":{"coordinates":[-90.22630966571354,38.71466061207831],"type":"Point"},"id":"stl-city-public-streetlights:2:160949","properties":{"address":null,"attributes":{"Date_Installed":null,"LED_Powered":null,"LightID":null,"Light_Source":"LED","Light_Type":"Cobra","Lighting_Type":"LED-Powered Lamp","Verification_Date":null},"id":"stl-city-public-streetlights:2:160949","sourceLayerId":2,"sourceObjectId":160949,"sourceURL":"https://maps8.stlouis-mo.gov/arcgis/rest/services/STREETS/Streets_Permitting/MapServer/2","title":"Street light 160949"},"type":"Feature"}],"layerId":"city-streetlights","retrievedAt":"2026-09-13T21:56:18.173251+00:00","schema":"property-infrastructure-geojson-v1","sourceId":"stl-city-public-streetlights","tileId":"-9023_3871","type":"FeatureCollection"}