{"features":[{"geometry":{"coordinates":[-90.25996604344475,38.53758885109676],"type":"Point"},"id":"stl-city-public-streetlights:2:107619","properties":{"address":null,"attributes":{"Date_Installed":null,"LED_Powered":0,"LightID":"L000363","Light_Source":"High Pressure Sodium","Light_Type":"Cobra","Lighting_Type":"150-W High Pressure Sodium Vapor Lamp","Verification_Date":null},"id":"stl-city-public-streetlights:2:107619","sourceLayerId":2,"sourceObjectId":107619,"sourceURL":"https://maps8.stlouis-mo.gov/arcgis/rest/services/STREETS/Streets_Permitting/MapServer/2","title":"Street light L000363"},"type":"Feature"},{"geometry":{"coordinates":[-90.2598677496941,38.53992704936432],"type":"Point"},"id":"stl-city-public-streetlights:2:107705","properties":{"address":null,"attributes":{"Date_Installed":null,"LED_Powered":0,"LightID":"L000449","Light_Source":"LED","Light_Type":"Cobra","Lighting_Type":"LED-Powered Lamp","Verification_Date":null},"id":"stl-city-public-streetlights:2:107705","sourceLayerId":2,"sourceObjectId":107705,"sourceURL":"https://maps8.stlouis-mo.gov/arcgis/rest/services/STREETS/Streets_Permitting/MapServer/2","title":"Street light L000449"},"type":"Feature"},{"geometry":{"coordinates":[-90.25786062611637,38.53979395297153],"type":"Point"},"id":"stl-city-public-streetlights:2:107710","properties":{"address":null,"attributes":{"Date_Installed":null,"LED_Powered":0,"LightID":"L000454","Light_Source":"LED","Light_Type":"Cobra","Lighting_Type":"LED-Powered Lamp","Verification_Date":null},"id":"stl-city-public-streetlights:2:107710","sourceLayerId":2,"sourceObjectId":107710,"sourceURL":"https://maps8.stlouis-mo.gov/arcgis/rest/services/STREETS/Streets_Permitting/MapServer/2","title":"Street light L000454"},"type":"Feature"}],"layerId":"city-streetlights","retrievedAt":"2026-09-13T21:56:18.173251+00:00","schema":"property-infrastructure-geojson-v1","sourceId":"stl-city-public-streetlights","tileId":"-9026_3853","type":"FeatureCollection"}