{"features":[{"geometry":{"coordinates":[-90.19022697419459,38.756201477683234],"type":"Point"},"id":"stl-city-public-streetlights:2:120506","properties":{"address":null,"attributes":{"Date_Installed":null,"LED_Powered":0,"LightID":"L013231","Light_Source":"LED","Light_Type":"Cobra","Lighting_Type":"LED-Powered Lamp","Verification_Date":null},"id":"stl-city-public-streetlights:2:120506","sourceLayerId":2,"sourceObjectId":120506,"sourceURL":"https://maps8.stlouis-mo.gov/arcgis/rest/services/STREETS/Streets_Permitting/MapServer/2","title":"Street light L013231"},"type":"Feature"},{"geometry":{"coordinates":[-90.19061446954224,38.75599394347552],"type":"Point"},"id":"stl-city-public-streetlights:2:120507","properties":{"address":null,"attributes":{"Date_Installed":null,"LED_Powered":0,"LightID":"L013232","Light_Source":"LED","Light_Type":"Cobra","Lighting_Type":"LED-Powered Lamp","Verification_Date":null},"id":"stl-city-public-streetlights:2:120507","sourceLayerId":2,"sourceObjectId":120507,"sourceURL":"https://maps8.stlouis-mo.gov/arcgis/rest/services/STREETS/Streets_Permitting/MapServer/2","title":"Street light L013232"},"type":"Feature"},{"geometry":{"coordinates":[-90.19100648569665,38.75579619166455],"type":"Point"},"id":"stl-city-public-streetlights:2:120508","properties":{"address":null,"attributes":{"Date_Installed":null,"LED_Powered":0,"LightID":"L013233","Light_Source":"LED","Light_Type":"Cobra","Lighting_Type":"LED-Powered Lamp","Verification_Date":null},"id":"stl-city-public-streetlights:2:120508","sourceLayerId":2,"sourceObjectId":120508,"sourceURL":"https://maps8.stlouis-mo.gov/arcgis/rest/services/STREETS/Streets_Permitting/MapServer/2","title":"Street light L013233"},"type":"Feature"},{"geometry":{"coordinates":[-90.19139998177312,38.755607737617304],"type":"Point"},"id":"stl-city-public-streetlights:2:120509","properties":{"address":null,"attributes":{"Date_Installed":null,"LED_Powered":0,"LightID":"L013234","Light_Source":"LED","Light_Type":"Cobra","Lighting_Type":"LED-Powered Lamp","Verification_Date":null},"id":"stl-city-public-streetlights:2:120509","sourceLayerId":2,"sourceObjectId":120509,"sourceURL":"https://maps8.stlouis-mo.gov/arcgis/rest/services/STREETS/Streets_Permitting/MapServer/2","title":"Street light L013234"},"type":"Feature"},{"geometry":{"coordinates":[-90.19179044912852,38.755415461766376],"type":"Point"},"id":"stl-city-public-streetlights:2:120510","properties":{"address":null,"attributes":{"Date_Installed":null,"LED_Powered":0,"LightID":"L013235","Light_Source":"LED","Light_Type":"Cobra","Lighting_Type":"LED-Powered Lamp","Verification_Date":null},"id":"stl-city-public-streetlights:2:120510","sourceLayerId":2,"sourceObjectId":120510,"sourceURL":"https://maps8.stlouis-mo.gov/arcgis/rest/services/STREETS/Streets_Permitting/MapServer/2","title":"Street light L013235"},"type":"Feature"},{"geometry":{"coordinates":[-90.19217801135417,38.75519004473533],"type":"Point"},"id":"stl-city-public-streetlights:2:120511","properties":{"address":null,"attributes":{"Date_Installed":null,"LED_Powered":0,"LightID":"L013236","Light_Source":"LED","Light_Type":"Cobra","Lighting_Type":"LED-Powered Lamp","Verification_Date":null},"id":"stl-city-public-streetlights:2:120511","sourceLayerId":2,"sourceObjectId":120511,"sourceURL":"https://maps8.stlouis-mo.gov/arcgis/rest/services/STREETS/Streets_Permitting/MapServer/2","title":"Street light L013236"},"type":"Feature"},{"geometry":{"coordinates":[-90.19243965367991,38.75486919204862],"type":"Point"},"id":"stl-city-public-streetlights:2:120512","properties":{"address":null,"attributes":{"Date_Installed":null,"LED_Powered":0,"LightID":"L013237","Light_Source":"LED","Light_Type":"Cobra","Lighting_Type":"LED-Powered Lamp","Verification_Date":null},"id":"stl-city-public-streetlights:2:120512","sourceLayerId":2,"sourceObjectId":120512,"sourceURL":"https://maps8.stlouis-mo.gov/arcgis/rest/services/STREETS/Streets_Permitting/MapServer/2","title":"Street light L013237"},"type":"Feature"},{"geometry":{"coordinates":[-90.19261911815975,38.75454550024896],"type":"Point"},"id":"stl-city-public-streetlights:2:120513","properties":{"address":null,"attributes":{"Date_Installed":null,"LED_Powered":0,"LightID":"L013238","Light_Source":"LED","Light_Type":"Cobra","Lighting_Type":"LED-Powered Lamp","Verification_Date":null},"id":"stl-city-public-streetlights:2:120513","sourceLayerId":2,"sourceObjectId":120513,"sourceURL":"https://maps8.stlouis-mo.gov/arcgis/rest/services/STREETS/Streets_Permitting/MapServer/2","title":"Street light L013238"},"type":"Feature"},{"geometry":{"coordinates":[-90.19280634144582,38.754186551349335],"type":"Point"},"id":"stl-city-public-streetlights:2:120514","properties":{"address":null,"attributes":{"Date_Installed":null,"LED_Powered":0,"LightID":"L013239","Light_Source":"LED","Light_Type":"Cobra","Lighting_Type":"LED-Powered Lamp","Verification_Date":null},"id":"stl-city-public-streetlights:2:120514","sourceLayerId":2,"sourceObjectId":120514,"sourceURL":"https://maps8.stlouis-mo.gov/arcgis/rest/services/STREETS/Streets_Permitting/MapServer/2","title":"Street light L013239"},"type":"Feature"},{"geometry":{"coordinates":[-90.19299230072708,38.753838086742306],"type":"Point"},"id":"stl-city-public-streetlights:2:120515","properties":{"address":null,"attributes":{"Date_Installed":null,"LED_Powered":0,"LightID":"L013240","Light_Source":"LED","Light_Type":"Cobra","Lighting_Type":"LED-Powered Lamp","Verification_Date":null},"id":"stl-city-public-streetlights:2:120515","sourceLayerId":2,"sourceObjectId":120515,"sourceURL":"https://maps8.stlouis-mo.gov/arcgis/rest/services/STREETS/Streets_Permitting/MapServer/2","title":"Street light L013240"},"type":"Feature"},{"geometry":{"coordinates":[-90.19313068470562,38.75351009173476],"type":"Point"},"id":"stl-city-public-streetlights:2:120516","properties":{"address":null,"attributes":{"Date_Installed":null,"LED_Powered":0,"LightID":"L013241","Light_Source":"LED","Light_Type":"Cobra","Lighting_Type":"LED-Powered Lamp","Verification_Date":null},"id":"stl-city-public-streetlights:2:120516","sourceLayerId":2,"sourceObjectId":120516,"sourceURL":"https://maps8.stlouis-mo.gov/arcgis/rest/services/STREETS/Streets_Permitting/MapServer/2","title":"Street light L013241"},"type":"Feature"},{"geometry":{"coordinates":[-90.19318684679665,38.75318988859797],"type":"Point"},"id":"stl-city-public-streetlights:2:120517","properties":{"address":null,"attributes":{"Date_Installed":null,"LED_Powered":0,"LightID":"L013242","Light_Source":"LED","Light_Type":"Cobra","Lighting_Type":"LED-Powered Lamp","Verification_Date":null},"id":"stl-city-public-streetlights:2:120517","sourceLayerId":2,"sourceObjectId":120517,"sourceURL":"https://maps8.stlouis-mo.gov/arcgis/rest/services/STREETS/Streets_Permitting/MapServer/2","title":"Street light L013242"},"type":"Feature"},{"geometry":{"coordinates":[-90.19331709484946,38.75284199245679],"type":"Point"},"id":"stl-city-public-streetlights:2:120518","properties":{"address":null,"attributes":{"Date_Installed":null,"LED_Powered":0,"LightID":"L013243","Light_Source":"LED","Light_Type":"Cobra","Lighting_Type":"LED-Powered Lamp","Verification_Date":null},"id":"stl-city-public-streetlights:2:120518","sourceLayerId":2,"sourceObjectId":120518,"sourceURL":"https://maps8.stlouis-mo.gov/arcgis/rest/services/STREETS/Streets_Permitting/MapServer/2","title":"Street light L013243"},"type":"Feature"},{"geometry":{"coordinates":[-90.19353134307951,38.7525463966627],"type":"Point"},"id":"stl-city-public-streetlights:2:120519","properties":{"address":null,"attributes":{"Date_Installed":null,"LED_Powered":0,"LightID":"L013244","Light_Source":"LED","Light_Type":"Cobra","Lighting_Type":"LED-Powered Lamp","Verification_Date":null},"id":"stl-city-public-streetlights:2:120519","sourceLayerId":2,"sourceObjectId":120519,"sourceURL":"https://maps8.stlouis-mo.gov/arcgis/rest/services/STREETS/Streets_Permitting/MapServer/2","title":"Street light L013244"},"type":"Feature"},{"geometry":{"coordinates":[-90.19375173749404,38.752258087490965],"type":"Point"},"id":"stl-city-public-streetlights:2:120520","properties":{"address":null,"attributes":{"Date_Installed":null,"LED_Powered":0,"LightID":"L013245","Light_Source":"LED","Light_Type":"Cobra","Lighting_Type":"LED-Powered Lamp","Verification_Date":null},"id":"stl-city-public-streetlights:2:120520","sourceLayerId":2,"sourceObjectId":120520,"sourceURL":"https://maps8.stlouis-mo.gov/arcgis/rest/services/STREETS/Streets_Permitting/MapServer/2","title":"Street light L013245"},"type":"Feature"},{"geometry":{"coordinates":[-90.19398130056872,38.75196083912441],"type":"Point"},"id":"stl-city-public-streetlights:2:120521","properties":{"address":null,"attributes":{"Date_Installed":null,"LED_Powered":0,"LightID":"L013246","Light_Source":"LED","Light_Type":"Cobra","Lighting_Type":"LED-Powered Lamp","Verification_Date":null},"id":"stl-city-public-streetlights:2:120521","sourceLayerId":2,"sourceObjectId":120521,"sourceURL":"https://maps8.stlouis-mo.gov/arcgis/rest/services/STREETS/Streets_Permitting/MapServer/2","title":"Street light L013246"},"type":"Feature"},{"geometry":{"coordinates":[-90.19422738899974,38.751642563044086],"type":"Point"},"id":"stl-city-public-streetlights:2:120522","properties":{"address":null,"attributes":{"Date_Installed":null,"LED_Powered":0,"LightID":"L013247","Light_Source":"LED","Light_Type":"Cobra","Lighting_Type":"LED-Powered Lamp","Verification_Date":null},"id":"stl-city-public-streetlights:2:120522","sourceLayerId":2,"sourceObjectId":120522,"sourceURL":"https://maps8.stlouis-mo.gov/arcgis/rest/services/STREETS/Streets_Permitting/MapServer/2","title":"Street light L013247"},"type":"Feature"},{"geometry":{"coordinates":[-90.19446612132953,38.75133542178458],"type":"Point"},"id":"stl-city-public-streetlights:2:120523","properties":{"address":null,"attributes":{"Date_Installed":null,"LED_Powered":0,"LightID":"L013248","Light_Source":"LED","Light_Type":"Cobra","Lighting_Type":"LED-Powered Lamp","Verification_Date":null},"id":"stl-city-public-streetlights:2:120523","sourceLayerId":2,"sourceObjectId":120523,"sourceURL":"https://maps8.stlouis-mo.gov/arcgis/rest/services/STREETS/Streets_Permitting/MapServer/2","title":"Street light L013248"},"type":"Feature"},{"geometry":{"coordinates":[-90.19470485763122,38.75102713592228],"type":"Point"},"id":"stl-city-public-streetlights:2:120524","properties":{"address":null,"attributes":{"Date_Installed":null,"LED_Powered":0,"LightID":"L013249","Light_Source":"LED","Light_Type":"Cobra","Lighting_Type":"LED-Powered Lamp","Verification_Date":null},"id":"stl-city-public-streetlights:2:120524","sourceLayerId":2,"sourceObjectId":120524,"sourceURL":"https://maps8.stlouis-mo.gov/arcgis/rest/services/STREETS/Streets_Permitting/MapServer/2","title":"Street light L013249"},"type":"Feature"},{"geometry":{"coordinates":[-90.19536942281509,38.75121738602443],"type":"Point"},"id":"stl-city-public-streetlights:2:120525","properties":{"address":null,"attributes":{"Date_Installed":null,"LED_Powered":0,"LightID":"L013250","Light_Source":"LED","Light_Type":"Cobra","Lighting_Type":"LED-Powered Lamp","Verification_Date":null},"id":"stl-city-public-streetlights:2:120525","sourceLayerId":2,"sourceObjectId":120525,"sourceURL":"https://maps8.stlouis-mo.gov/arcgis/rest/services/STREETS/Streets_Permitting/MapServer/2","title":"Street light L013250"},"type":"Feature"},{"geometry":{"coordinates":[-90.19497336805742,38.751085257527905],"type":"Point"},"id":"stl-city-public-streetlights:2:120526","properties":{"address":null,"attributes":{"Date_Installed":null,"LED_Powered":0,"LightID":"L013251","Light_Source":"LED","Light_Type":"Cobra","Lighting_Type":"LED-Powered Lamp","Verification_Date":null},"id":"stl-city-public-streetlights:2:120526","sourceLayerId":2,"sourceObjectId":120526,"sourceURL":"https://maps8.stlouis-mo.gov/arcgis/rest/services/STREETS/Streets_Permitting/MapServer/2","title":"Street light L013251"},"type":"Feature"},{"geometry":{"coordinates":[-90.19494119916875,38.75071691273641],"type":"Point"},"id":"stl-city-public-streetlights:2:120527","properties":{"address":null,"attributes":{"Date_Installed":null,"LED_Powered":0,"LightID":"L013252","Light_Source":"LED","Light_Type":"Cobra","Lighting_Type":"LED-Powered Lamp","Verification_Date":null},"id":"stl-city-public-streetlights:2:120527","sourceLayerId":2,"sourceObjectId":120527,"sourceURL":"https://maps8.stlouis-mo.gov/arcgis/rest/services/STREETS/Streets_Permitting/MapServer/2","title":"Street light L013252"},"type":"Feature"},{"geometry":{"coordinates":[-90.19517250662446,38.75043673349687],"type":"Point"},"id":"stl-city-public-streetlights:2:120528","properties":{"address":null,"attributes":{"Date_Installed":null,"LED_Powered":0,"LightID":"L013253","Light_Source":"LED","Light_Type":"Cobra","Lighting_Type":"LED-Powered Lamp","Verification_Date":null},"id":"stl-city-public-streetlights:2:120528","sourceLayerId":2,"sourceObjectId":120528,"sourceURL":"https://maps8.stlouis-mo.gov/arcgis/rest/services/STREETS/Streets_Permitting/MapServer/2","title":"Street light L013253"},"type":"Feature"},{"geometry":{"coordinates":[-90.19541309788721,38.750119870169456],"type":"Point"},"id":"stl-city-public-streetlights:2:120529","properties":{"address":null,"attributes":{"Date_Installed":null,"LED_Powered":0,"LightID":"L013254","Light_Source":"LED","Light_Type":"Cobra","Lighting_Type":"LED-Powered Lamp","Verification_Date":null},"id":"stl-city-public-streetlights:2:120529","sourceLayerId":2,"sourceObjectId":120529,"sourceURL":"https://maps8.stlouis-mo.gov/arcgis/rest/services/STREETS/Streets_Permitting/MapServer/2","title":"Street light L013254"},"type":"Feature"},{"geometry":{"coordinates":[-90.19632540200787,38.75074908356452],"type":"Point"},"id":"stl-city-public-streetlights:2:120549","properties":{"address":null,"attributes":{"Date_Installed":null,"LED_Powered":0,"LightID":"L013274","Light_Source":"LED","Light_Type":"Cobra","Lighting_Type":"LED-Powered Lamp","Verification_Date":null},"id":"stl-city-public-streetlights:2:120549","sourceLayerId":2,"sourceObjectId":120549,"sourceURL":"https://maps8.stlouis-mo.gov/arcgis/rest/services/STREETS/Streets_Permitting/MapServer/2","title":"Street light L013274"},"type":"Feature"},{"geometry":{"coordinates":[-90.19590410058619,38.75071000667733],"type":"Point"},"id":"stl-city-public-streetlights:2:120550","properties":{"address":null,"attributes":{"Date_Installed":null,"LED_Powered":0,"LightID":"L013275","Light_Source":"LED","Light_Type":"Cobra","Lighting_Type":"LED-Powered Lamp","Verification_Date":null},"id":"stl-city-public-streetlights:2:120550","sourceLayerId":2,"sourceObjectId":120550,"sourceURL":"https://maps8.stlouis-mo.gov/arcgis/rest/services/STREETS/Streets_Permitting/MapServer/2","title":"Street light L013275"},"type":"Feature"},{"geometry":{"coordinates":[-90.1954913389775,38.750516639375306],"type":"Point"},"id":"stl-city-public-streetlights:2:120551","properties":{"address":null,"attributes":{"Date_Installed":null,"LED_Powered":0,"LightID":"L013276","Light_Source":"LED","Light_Type":"Cobra","Lighting_Type":"LED-Powered Lamp","Verification_Date":null},"id":"stl-city-public-streetlights:2:120551","sourceLayerId":2,"sourceObjectId":120551,"sourceURL":"https://maps8.stlouis-mo.gov/arcgis/rest/services/STREETS/Streets_Permitting/MapServer/2","title":"Street light L013276"},"type":"Feature"},{"geometry":{"coordinates":[-90.19653609385207,38.75045704844908],"type":"Point"},"id":"stl-city-public-streetlights:2:120552","properties":{"address":null,"attributes":{"Date_Installed":null,"LED_Powered":0,"LightID":"L013277","Light_Source":"LED","Light_Type":"Cobra","Lighting_Type":"LED-Powered Lamp","Verification_Date":null},"id":"stl-city-public-streetlights:2:120552","sourceLayerId":2,"sourceObjectId":120552,"sourceURL":"https://maps8.stlouis-mo.gov/arcgis/rest/services/STREETS/Streets_Permitting/MapServer/2","title":"Street light L013277"},"type":"Feature"},{"geometry":{"coordinates":[-90.1963306774026,38.7502115221287],"type":"Point"},"id":"stl-city-public-streetlights:2:120553","properties":{"address":null,"attributes":{"Date_Installed":null,"LED_Powered":0,"LightID":"L013278","Light_Source":"LED","Light_Type":"Cobra","Lighting_Type":"LED-Powered Lamp","Verification_Date":null},"id":"stl-city-public-streetlights:2:120553","sourceLayerId":2,"sourceObjectId":120553,"sourceURL":"https://maps8.stlouis-mo.gov/arcgis/rest/services/STREETS/Streets_Permitting/MapServer/2","title":"Street light L013278"},"type":"Feature"},{"geometry":{"coordinates":[-90.19592440353699,38.75001382198698],"type":"Point"},"id":"stl-city-public-streetlights:2:120554","properties":{"address":null,"attributes":{"Date_Installed":null,"LED_Powered":0,"LightID":"L013279","Light_Source":"LED","Light_Type":"Cobra","Lighting_Type":"LED-Powered Lamp","Verification_Date":null},"id":"stl-city-public-streetlights:2:120554","sourceLayerId":2,"sourceObjectId":120554,"sourceURL":"https://maps8.stlouis-mo.gov/arcgis/rest/services/STREETS/Streets_Permitting/MapServer/2","title":"Street light L013279"},"type":"Feature"},{"geometry":{"coordinates":[-90.1900916601316,38.75404810699807],"type":"Point"},"id":"stl-city-public-streetlights:2:137570","properties":{"address":null,"attributes":{"Date_Installed":null,"LED_Powered":1,"LightID":"L030286","Light_Source":"LED","Light_Type":"Cobra","Lighting_Type":"LED-Powered Lamp","Verification_Date":null},"id":"stl-city-public-streetlights:2:137570","sourceLayerId":2,"sourceObjectId":137570,"sourceURL":"https://maps8.stlouis-mo.gov/arcgis/rest/services/STREETS/Streets_Permitting/MapServer/2","title":"Street light L030286"},"type":"Feature"},{"geometry":{"coordinates":[-90.19040431840203,38.75371639082377],"type":"Point"},"id":"stl-city-public-streetlights:2:137594","properties":{"address":null,"attributes":{"Date_Installed":null,"LED_Powered":1,"LightID":"L030310","Light_Source":"LED","Light_Type":"Cobra","Lighting_Type":"LED-Powered Lamp","Verification_Date":null},"id":"stl-city-public-streetlights:2:137594","sourceLayerId":2,"sourceObjectId":137594,"sourceURL":"https://maps8.stlouis-mo.gov/arcgis/rest/services/STREETS/Streets_Permitting/MapServer/2","title":"Street light L030310"},"type":"Feature"},{"geometry":{"coordinates":[-90.19073972836267,38.753387215885994],"type":"Point"},"id":"stl-city-public-streetlights:2:137595","properties":{"address":null,"attributes":{"Date_Installed":null,"LED_Powered":1,"LightID":"L030311","Light_Source":"LED","Light_Type":"Cobra","Lighting_Type":"LED-Powered Lamp","Verification_Date":null},"id":"stl-city-public-streetlights:2:137595","sourceLayerId":2,"sourceObjectId":137595,"sourceURL":"https://maps8.stlouis-mo.gov/arcgis/rest/services/STREETS/Streets_Permitting/MapServer/2","title":"Street light L030311"},"type":"Feature"},{"geometry":{"coordinates":[-90.19109530655565,38.753052128596856],"type":"Point"},"id":"stl-city-public-streetlights:2:137596","properties":{"address":null,"attributes":{"Date_Installed":null,"LED_Powered":1,"LightID":"L030312","Light_Source":"LED","Light_Type":"Cobra","Lighting_Type":"LED-Powered Lamp","Verification_Date":null},"id":"stl-city-public-streetlights:2:137596","sourceLayerId":2,"sourceObjectId":137596,"sourceURL":"https://maps8.stlouis-mo.gov/arcgis/rest/services/STREETS/Streets_Permitting/MapServer/2","title":"Street light L030312"},"type":"Feature"},{"geometry":{"coordinates":[-90.1914505376229,38.75272073736057],"type":"Point"},"id":"stl-city-public-streetlights:2:137597","properties":{"address":null,"attributes":{"Date_Installed":null,"LED_Powered":1,"LightID":"L030313","Light_Source":"LED","Light_Type":"Cobra","Lighting_Type":"LED-Powered Lamp","Verification_Date":null},"id":"stl-city-public-streetlights:2:137597","sourceLayerId":2,"sourceObjectId":137597,"sourceURL":"https://maps8.stlouis-mo.gov/arcgis/rest/services/STREETS/Streets_Permitting/MapServer/2","title":"Street light L030313"},"type":"Feature"},{"geometry":{"coordinates":[-90.1918022349266,38.75238526737082],"type":"Point"},"id":"stl-city-public-streetlights:2:137598","properties":{"address":null,"attributes":{"Date_Installed":null,"LED_Powered":1,"LightID":"L030314","Light_Source":"LED","Light_Type":"Cobra","Lighting_Type":"LED-Powered Lamp","Verification_Date":null},"id":"stl-city-public-streetlights:2:137598","sourceLayerId":2,"sourceObjectId":137598,"sourceURL":"https://maps8.stlouis-mo.gov/arcgis/rest/services/STREETS/Streets_Permitting/MapServer/2","title":"Street light L030314"},"type":"Feature"},{"geometry":{"coordinates":[-90.19201125699298,38.75204628002564],"type":"Point"},"id":"stl-city-public-streetlights:2:137599","properties":{"address":null,"attributes":{"Date_Installed":null,"LED_Powered":0,"LightID":"L030315","Light_Source":"High Pressure Sodium","Light_Type":"Cobra","Lighting_Type":"70-W High Pressure Sodium Vapor Lamp","Verification_Date":null},"id":"stl-city-public-streetlights:2:137599","sourceLayerId":2,"sourceObjectId":137599,"sourceURL":"https://maps8.stlouis-mo.gov/arcgis/rest/services/STREETS/Streets_Permitting/MapServer/2","title":"Street light L030315"},"type":"Feature"},{"geometry":{"coordinates":[-90.19205471949411,38.751900973232395],"type":"Point"},"id":"stl-city-public-streetlights:2:137600","properties":{"address":null,"attributes":{"Date_Installed":null,"LED_Powered":0,"LightID":"L030316","Light_Source":"High Pressure Sodium","Light_Type":"Cobra","Lighting_Type":"400-W High Pressure Sodium Vapor Lamp (Twin Lights)","Verification_Date":null},"id":"stl-city-public-streetlights:2:137600","sourceLayerId":2,"sourceObjectId":137600,"sourceURL":"https://maps8.stlouis-mo.gov/arcgis/rest/services/STREETS/Streets_Permitting/MapServer/2","title":"Street light L030316"},"type":"Feature"},{"geometry":{"coordinates":[-90.19244560681467,38.75171910571007],"type":"Point"},"id":"stl-city-public-streetlights:2:137601","properties":{"address":null,"attributes":{"Date_Installed":null,"LED_Powered":1,"LightID":"L030317","Light_Source":"LED","Light_Type":"Cobra","Lighting_Type":"LED-Powered Lamp","Verification_Date":null},"id":"stl-city-public-streetlights:2:137601","sourceLayerId":2,"sourceObjectId":137601,"sourceURL":"https://maps8.stlouis-mo.gov/arcgis/rest/services/STREETS/Streets_Permitting/MapServer/2","title":"Street light L030317"},"type":"Feature"},{"geometry":{"coordinates":[-90.19279668267941,38.7513728539004],"type":"Point"},"id":"stl-city-public-streetlights:2:137602","properties":{"address":null,"attributes":{"Date_Installed":null,"LED_Powered":1,"LightID":"L030318","Light_Source":"LED","Light_Type":"Cobra","Lighting_Type":"LED-Powered Lamp","Verification_Date":null},"id":"stl-city-public-streetlights:2:137602","sourceLayerId":2,"sourceObjectId":137602,"sourceURL":"https://maps8.stlouis-mo.gov/arcgis/rest/services/STREETS/Streets_Permitting/MapServer/2","title":"Street light L030318"},"type":"Feature"},{"geometry":{"coordinates":[-90.19320341847788,38.75107132942193],"type":"Point"},"id":"stl-city-public-streetlights:2:137603","properties":{"address":null,"attributes":{"Date_Installed":null,"LED_Powered":1,"LightID":"L030319","Light_Source":"LED","Light_Type":"Cobra","Lighting_Type":"LED-Powered Lamp","Verification_Date":null},"id":"stl-city-public-streetlights:2:137603","sourceLayerId":2,"sourceObjectId":137603,"sourceURL":"https://maps8.stlouis-mo.gov/arcgis/rest/services/STREETS/Streets_Permitting/MapServer/2","title":"Street light L030319"},"type":"Feature"},{"geometry":{"coordinates":[-90.19355073502162,38.750748434031976],"type":"Point"},"id":"stl-city-public-streetlights:2:137604","properties":{"address":null,"attributes":{"Date_Installed":null,"LED_Powered":1,"LightID":"L030320","Light_Source":"LED","Light_Type":"Cobra","Lighting_Type":"LED-Powered Lamp","Verification_Date":null},"id":"stl-city-public-streetlights:2:137604","sourceLayerId":2,"sourceObjectId":137604,"sourceURL":"https://maps8.stlouis-mo.gov/arcgis/rest/services/STREETS/Streets_Permitting/MapServer/2","title":"Street light L030320"},"type":"Feature"},{"geometry":{"coordinates":[-90.19386532960979,38.75038880355101],"type":"Point"},"id":"stl-city-public-streetlights:2:137605","properties":{"address":null,"attributes":{"Date_Installed":null,"LED_Powered":1,"LightID":"L030321","Light_Source":"LED","Light_Type":"Cobra","Lighting_Type":"LED-Powered Lamp","Verification_Date":null},"id":"stl-city-public-streetlights:2:137605","sourceLayerId":2,"sourceObjectId":137605,"sourceURL":"https://maps8.stlouis-mo.gov/arcgis/rest/services/STREETS/Streets_Permitting/MapServer/2","title":"Street light L030321"},"type":"Feature"},{"geometry":{"coordinates":[-90.19415678485814,38.75003054314107],"type":"Point"},"id":"stl-city-public-streetlights:2:137606","properties":{"address":null,"attributes":{"Date_Installed":null,"LED_Powered":1,"LightID":"L030322","Light_Source":"LED","Light_Type":"Cobra","Lighting_Type":"LED-Powered Lamp","Verification_Date":null},"id":"stl-city-public-streetlights:2:137606","sourceLayerId":2,"sourceObjectId":137606,"sourceURL":"https://maps8.stlouis-mo.gov/arcgis/rest/services/STREETS/Streets_Permitting/MapServer/2","title":"Street light L030322"},"type":"Feature"},{"geometry":{"coordinates":[-90.19143830267035,38.753835575017746],"type":"Point"},"id":"stl-city-public-streetlights:2:151439","properties":{"address":null,"attributes":{"Date_Installed":null,"LED_Powered":0,"LightID":"L044304","Light_Source":"LED","Light_Type":"Cobra","Lighting_Type":"LED-Powered Lamp","Verification_Date":null},"id":"stl-city-public-streetlights:2:151439","sourceLayerId":2,"sourceObjectId":151439,"sourceURL":"https://maps8.stlouis-mo.gov/arcgis/rest/services/STREETS/Streets_Permitting/MapServer/2","title":"Street light L044304"},"type":"Feature"},{"geometry":{"coordinates":[-90.19139976682332,38.75351799923169],"type":"Point"},"id":"stl-city-public-streetlights:2:151440","properties":{"address":null,"attributes":{"Date_Installed":null,"LED_Powered":0,"LightID":"L044305","Light_Source":"LED","Light_Type":"Cobra","Lighting_Type":"LED-Powered Lamp","Verification_Date":null},"id":"stl-city-public-streetlights:2:151440","sourceLayerId":2,"sourceObjectId":151440,"sourceURL":"https://maps8.stlouis-mo.gov/arcgis/rest/services/STREETS/Streets_Permitting/MapServer/2","title":"Street light L044305"},"type":"Feature"},{"geometry":{"coordinates":[-90.19130799882431,38.75321223199992],"type":"Point"},"id":"stl-city-public-streetlights:2:151441","properties":{"address":null,"attributes":{"Date_Installed":null,"LED_Powered":0,"LightID":"L044306","Light_Source":"High Pressure Sodium","Light_Type":"Cobra","Lighting_Type":"150-W High Pressure Sodium Vapor Lamp","Verification_Date":null},"id":"stl-city-public-streetlights:2:151441","sourceLayerId":2,"sourceObjectId":151441,"sourceURL":"https://maps8.stlouis-mo.gov/arcgis/rest/services/STREETS/Streets_Permitting/MapServer/2","title":"Street light L044306"},"type":"Feature"},{"geometry":{"coordinates":[-90.19124126500022,38.754253409152064],"type":"Point"},"id":"stl-city-public-streetlights:2:151442","properties":{"address":null,"attributes":{"Date_Installed":null,"LED_Powered":0,"LightID":"L044307","Light_Source":"High Pressure Sodium","Light_Type":"Cobra","Lighting_Type":"150-W High Pressure Sodium Vapor Lamp","Verification_Date":null},"id":"stl-city-public-streetlights:2:151442","sourceLayerId":2,"sourceObjectId":151442,"sourceURL":"https://maps8.stlouis-mo.gov/arcgis/rest/services/STREETS/Streets_Permitting/MapServer/2","title":"Street light L044307"},"type":"Feature"},{"geometry":{"coordinates":[-90.19101898167554,38.754587533059336],"type":"Point"},"id":"stl-city-public-streetlights:2:151443","properties":{"address":null,"attributes":{"Date_Installed":null,"LED_Powered":0,"LightID":"L044308","Light_Source":"High Pressure Sodium","Light_Type":"Cobra","Lighting_Type":"150-W High Pressure Sodium Vapor Lamp","Verification_Date":null},"id":"stl-city-public-streetlights:2:151443","sourceLayerId":2,"sourceObjectId":151443,"sourceURL":"https://maps8.stlouis-mo.gov/arcgis/rest/services/STREETS/Streets_Permitting/MapServer/2","title":"Street light L044308"},"type":"Feature"},{"geometry":{"coordinates":[-90.1910390894436,38.755007187391456],"type":"Point"},"id":"stl-city-public-streetlights:2:151444","properties":{"address":null,"attributes":{"Date_Installed":null,"LED_Powered":0,"LightID":"L044309","Light_Source":"High Pressure Sodium","Light_Type":"Cobra","Lighting_Type":"150-W High Pressure Sodium Vapor Lamp","Verification_Date":null},"id":"stl-city-public-streetlights:2:151444","sourceLayerId":2,"sourceObjectId":151444,"sourceURL":"https://maps8.stlouis-mo.gov/arcgis/rest/services/STREETS/Streets_Permitting/MapServer/2","title":"Street light L044309"},"type":"Feature"},{"geometry":{"coordinates":[-90.19087113113565,38.75541404579031],"type":"Point"},"id":"stl-city-public-streetlights:2:151445","properties":{"address":null,"attributes":{"Date_Installed":null,"LED_Powered":0,"LightID":"L044310","Light_Source":"High Pressure Sodium","Light_Type":"Cobra","Lighting_Type":"150-W High Pressure Sodium Vapor Lamp","Verification_Date":null},"id":"stl-city-public-streetlights:2:151445","sourceLayerId":2,"sourceObjectId":151445,"sourceURL":"https://maps8.stlouis-mo.gov/arcgis/rest/services/STREETS/Streets_Permitting/MapServer/2","title":"Street light L044310"},"type":"Feature"},{"geometry":{"coordinates":[-90.19044229469586,38.75572419584944],"type":"Point"},"id":"stl-city-public-streetlights:2:151446","properties":{"address":null,"attributes":{"Date_Installed":null,"LED_Powered":0,"LightID":"L044311","Light_Source":"High Pressure Sodium","Light_Type":"Cobra","Lighting_Type":"150-W High Pressure Sodium Vapor Lamp","Verification_Date":null},"id":"stl-city-public-streetlights:2:151446","sourceLayerId":2,"sourceObjectId":151446,"sourceURL":"https://maps8.stlouis-mo.gov/arcgis/rest/services/STREETS/Streets_Permitting/MapServer/2","title":"Street light L044311"},"type":"Feature"},{"geometry":{"coordinates":[-90.19006881701019,38.75370018062402],"type":"Point"},"id":"stl-city-public-streetlights:2:151459","properties":{"address":null,"attributes":{"Date_Installed":null,"LED_Powered":0,"LightID":"L044324","Light_Source":"LED","Light_Type":"Cobra","Lighting_Type":"LED-Powered Lamp","Verification_Date":null},"id":"stl-city-public-streetlights:2:151459","sourceLayerId":2,"sourceObjectId":151459,"sourceURL":"https://maps8.stlouis-mo.gov/arcgis/rest/services/STREETS/Streets_Permitting/MapServer/2","title":"Street light L044324"},"type":"Feature"},{"geometry":{"coordinates":[-90.19070598298735,38.753192263745426],"type":"Point"},"id":"stl-city-public-streetlights:2:151460","properties":{"address":null,"attributes":{"Date_Installed":null,"LED_Powered":0,"LightID":"L044325","Light_Source":"LED","Light_Type":"Cobra","Lighting_Type":"LED-Powered Lamp","Verification_Date":null},"id":"stl-city-public-streetlights:2:151460","sourceLayerId":2,"sourceObjectId":151460,"sourceURL":"https://maps8.stlouis-mo.gov/arcgis/rest/services/STREETS/Streets_Permitting/MapServer/2","title":"Street light L044325"},"type":"Feature"},{"geometry":{"coordinates":[-90.19013341272392,38.752981470523196],"type":"Point"},"id":"stl-city-public-streetlights:2:151461","properties":{"address":null,"attributes":{"Date_Installed":null,"LED_Powered":0,"LightID":"L044326","Light_Source":"LED","Light_Type":"Cobra","Lighting_Type":"LED-Powered Lamp","Verification_Date":null},"id":"stl-city-public-streetlights:2:151461","sourceLayerId":2,"sourceObjectId":151461,"sourceURL":"https://maps8.stlouis-mo.gov/arcgis/rest/services/STREETS/Streets_Permitting/MapServer/2","title":"Street light L044326"},"type":"Feature"},{"geometry":{"coordinates":[-90.1903471648755,38.75238814955545],"type":"Point"},"id":"stl-city-public-streetlights:2:151464","properties":{"address":null,"attributes":{"Date_Installed":null,"LED_Powered":0,"LightID":"L044329","Light_Source":"LED","Light_Type":"Cobra","Lighting_Type":"LED-Powered Lamp","Verification_Date":null},"id":"stl-city-public-streetlights:2:151464","sourceLayerId":2,"sourceObjectId":151464,"sourceURL":"https://maps8.stlouis-mo.gov/arcgis/rest/services/STREETS/Streets_Permitting/MapServer/2","title":"Street light L044329"},"type":"Feature"},{"geometry":{"coordinates":[-90.19072485916669,38.75197798567294],"type":"Point"},"id":"stl-city-public-streetlights:2:151465","properties":{"address":null,"attributes":{"Date_Installed":null,"LED_Powered":0,"LightID":"L044330","Light_Source":"LED","Light_Type":"Cobra","Lighting_Type":"LED-Powered Lamp","Verification_Date":null},"id":"stl-city-public-streetlights:2:151465","sourceLayerId":2,"sourceObjectId":151465,"sourceURL":"https://maps8.stlouis-mo.gov/arcgis/rest/services/STREETS/Streets_Permitting/MapServer/2","title":"Street light L044330"},"type":"Feature"},{"geometry":{"coordinates":[-90.19133606930087,38.7517674650255],"type":"Point"},"id":"stl-city-public-streetlights:2:151466","properties":{"address":null,"attributes":{"Date_Installed":null,"LED_Powered":0,"LightID":"L044331","Light_Source":"LED","Light_Type":"Cobra","Lighting_Type":"LED-Powered Lamp","Verification_Date":null},"id":"stl-city-public-streetlights:2:151466","sourceLayerId":2,"sourceObjectId":151466,"sourceURL":"https://maps8.stlouis-mo.gov/arcgis/rest/services/STREETS/Streets_Permitting/MapServer/2","title":"Street light L044331"},"type":"Feature"},{"geometry":{"coordinates":[-90.19076600137548,38.75168444030076],"type":"Point"},"id":"stl-city-public-streetlights:2:151467","properties":{"address":null,"attributes":{"Date_Installed":null,"LED_Powered":0,"LightID":"L044332","Light_Source":"LED","Light_Type":"Cobra","Lighting_Type":"LED-Powered Lamp","Verification_Date":null},"id":"stl-city-public-streetlights:2:151467","sourceLayerId":2,"sourceObjectId":151467,"sourceURL":"https://maps8.stlouis-mo.gov/arcgis/rest/services/STREETS/Streets_Permitting/MapServer/2","title":"Street light L044332"},"type":"Feature"},{"geometry":{"coordinates":[-90.1904380876769,38.75149288768511],"type":"Point"},"id":"stl-city-public-streetlights:2:151468","properties":{"address":null,"attributes":{"Date_Installed":null,"LED_Powered":0,"LightID":"L044333","Light_Source":"LED","Light_Type":"Cobra","Lighting_Type":"LED-Powered Lamp","Verification_Date":null},"id":"stl-city-public-streetlights:2:151468","sourceLayerId":2,"sourceObjectId":151468,"sourceURL":"https://maps8.stlouis-mo.gov/arcgis/rest/services/STREETS/Streets_Permitting/MapServer/2","title":"Street light L044333"},"type":"Feature"},{"geometry":{"coordinates":[-90.192982480748,38.75173688046808],"type":"Point"},"id":"stl-city-public-streetlights:2:159627","properties":{"address":null,"attributes":{"Date_Installed":null,"LED_Powered":0,"LightID":"L052558","Light_Source":"LED","Light_Type":"Cobra","Lighting_Type":"LED-Powered Lamp","Verification_Date":null},"id":"stl-city-public-streetlights:2:159627","sourceLayerId":2,"sourceObjectId":159627,"sourceURL":"https://maps8.stlouis-mo.gov/arcgis/rest/services/STREETS/Streets_Permitting/MapServer/2","title":"Street light L052558"},"type":"Feature"},{"geometry":{"coordinates":[-90.19323771227786,38.75136906454937],"type":"Point"},"id":"stl-city-public-streetlights:2:159630","properties":{"address":null,"attributes":{"Date_Installed":null,"LED_Powered":0,"LightID":"L052561","Light_Source":"LED","Light_Type":"Cobra","Lighting_Type":"LED-Powered Lamp","Verification_Date":null},"id":"stl-city-public-streetlights:2:159630","sourceLayerId":2,"sourceObjectId":159630,"sourceURL":"https://maps8.stlouis-mo.gov/arcgis/rest/services/STREETS/Streets_Permitting/MapServer/2","title":"Street light L052561"},"type":"Feature"},{"geometry":{"coordinates":[-90.19158006213318,38.753962392652284],"type":"Point"},"id":"stl-city-public-streetlights:2:159631","properties":{"address":null,"attributes":{"Date_Installed":null,"LED_Powered":0,"LightID":"L052562","Light_Source":"High Pressure Sodium","Light_Type":"Cobra","Lighting_Type":"150-W High Pressure Sodium Vapor Lamp","Verification_Date":null},"id":"stl-city-public-streetlights:2:159631","sourceLayerId":2,"sourceObjectId":159631,"sourceURL":"https://maps8.stlouis-mo.gov/arcgis/rest/services/STREETS/Streets_Permitting/MapServer/2","title":"Street light L052562"},"type":"Feature"},{"geometry":{"coordinates":[-90.19193492861065,38.75366871579258],"type":"Point"},"id":"stl-city-public-streetlights:2:159633","properties":{"address":null,"attributes":{"Date_Installed":null,"LED_Powered":0,"LightID":"L052564","Light_Source":"High Pressure Sodium","Light_Type":"Cobra","Lighting_Type":"150-W High Pressure Sodium Vapor Lamp","Verification_Date":null},"id":"stl-city-public-streetlights:2:159633","sourceLayerId":2,"sourceObjectId":159633,"sourceURL":"https://maps8.stlouis-mo.gov/arcgis/rest/services/STREETS/Streets_Permitting/MapServer/2","title":"Street light L052564"},"type":"Feature"},{"geometry":{"coordinates":[-90.19219544123892,38.75327634225352],"type":"Point"},"id":"stl-city-public-streetlights:2:159634","properties":{"address":null,"attributes":{"Date_Installed":null,"LED_Powered":0,"LightID":"L052565","Light_Source":"High Pressure Sodium","Light_Type":"Cobra","Lighting_Type":"150-W High Pressure Sodium Vapor Lamp","Verification_Date":null},"id":"stl-city-public-streetlights:2:159634","sourceLayerId":2,"sourceObjectId":159634,"sourceURL":"https://maps8.stlouis-mo.gov/arcgis/rest/services/STREETS/Streets_Permitting/MapServer/2","title":"Street light L052565"},"type":"Feature"},{"geometry":{"coordinates":[-90.1923920816569,38.752886412561445],"type":"Point"},"id":"stl-city-public-streetlights:2:159635","properties":{"address":null,"attributes":{"Date_Installed":null,"LED_Powered":0,"LightID":"L052566","Light_Source":"High Pressure Sodium","Light_Type":"Cobra","Lighting_Type":"150-W High Pressure Sodium Vapor Lamp","Verification_Date":null},"id":"stl-city-public-streetlights:2:159635","sourceLayerId":2,"sourceObjectId":159635,"sourceURL":"https://maps8.stlouis-mo.gov/arcgis/rest/services/STREETS/Streets_Permitting/MapServer/2","title":"Street light L052566"},"type":"Feature"},{"geometry":{"coordinates":[-90.19258040889677,38.75250536035034],"type":"Point"},"id":"stl-city-public-streetlights:2:159636","properties":{"address":null,"attributes":{"Date_Installed":null,"LED_Powered":0,"LightID":"L052567","Light_Source":"High Pressure Sodium","Light_Type":"Cobra","Lighting_Type":"150-W High Pressure Sodium Vapor Lamp","Verification_Date":null},"id":"stl-city-public-streetlights:2:159636","sourceLayerId":2,"sourceObjectId":159636,"sourceURL":"https://maps8.stlouis-mo.gov/arcgis/rest/services/STREETS/Streets_Permitting/MapServer/2","title":"Street light L052567"},"type":"Feature"}],"layerId":"city-streetlights","retrievedAt":"2026-09-13T21:56:18.173251+00:00","schema":"property-infrastructure-geojson-v1","sourceId":"stl-city-public-streetlights","tileId":"-9020_3875","type":"FeatureCollection"}