{"features":[{"geometry":{"coordinates":[-90.26080865808913,38.70708784047597],"type":"Point"},"id":"stl-city-public-streetlights:2:126695","properties":{"address":null,"attributes":{"Date_Installed":"4/23/2018","LED_Powered":1,"LightID":"L019411","Light_Source":"LED","Light_Type":"Cobra","Lighting_Type":"LED-Powered Lamp","Verification_Date":null},"id":"stl-city-public-streetlights:2:126695","sourceLayerId":2,"sourceObjectId":126695,"sourceURL":"https://maps8.stlouis-mo.gov/arcgis/rest/services/STREETS/Streets_Permitting/MapServer/2","title":"Street light L019411"},"type":"Feature"},{"geometry":{"coordinates":[-90.2603952640462,38.7069010743059],"type":"Point"},"id":"stl-city-public-streetlights:2:126696","properties":{"address":null,"attributes":{"Date_Installed":"4/23/2018","LED_Powered":1,"LightID":"L019412","Light_Source":"LED","Light_Type":"Cobra","Lighting_Type":"LED-Powered Lamp","Verification_Date":null},"id":"stl-city-public-streetlights:2:126696","sourceLayerId":2,"sourceObjectId":126696,"sourceURL":"https://maps8.stlouis-mo.gov/arcgis/rest/services/STREETS/Streets_Permitting/MapServer/2","title":"Street light L019412"},"type":"Feature"},{"geometry":{"coordinates":[-90.26011351051754,38.70500161167786],"type":"Point"},"id":"stl-city-public-streetlights:2:126739","properties":{"address":null,"attributes":{"Date_Installed":"4/23/2018","LED_Powered":1,"LightID":"L019455","Light_Source":"LED","Light_Type":"Cobra","Lighting_Type":"LED-Powered Lamp","Verification_Date":null},"id":"stl-city-public-streetlights:2:126739","sourceLayerId":2,"sourceObjectId":126739,"sourceURL":"https://maps8.stlouis-mo.gov/arcgis/rest/services/STREETS/Streets_Permitting/MapServer/2","title":"Street light L019455"},"type":"Feature"},{"geometry":{"coordinates":[-90.26004329331107,38.705077444171025],"type":"Point"},"id":"stl-city-public-streetlights:2:126740","properties":{"address":null,"attributes":{"Date_Installed":"4/23/2018","LED_Powered":1,"LightID":"L019456","Light_Source":"LED","Light_Type":"Cobra","Lighting_Type":"LED-Powered Lamp","Verification_Date":null},"id":"stl-city-public-streetlights:2:126740","sourceLayerId":2,"sourceObjectId":126740,"sourceURL":"https://maps8.stlouis-mo.gov/arcgis/rest/services/STREETS/Streets_Permitting/MapServer/2","title":"Street light L019456"},"type":"Feature"},{"geometry":{"coordinates":[-90.26049294901668,38.7051735898799],"type":"Point"},"id":"stl-city-public-streetlights:2:126741","properties":{"address":null,"attributes":{"Date_Installed":"4/23/2018","LED_Powered":1,"LightID":"L019457","Light_Source":"LED","Light_Type":"Cobra","Lighting_Type":"LED-Powered Lamp","Verification_Date":null},"id":"stl-city-public-streetlights:2:126741","sourceLayerId":2,"sourceObjectId":126741,"sourceURL":"https://maps8.stlouis-mo.gov/arcgis/rest/services/STREETS/Streets_Permitting/MapServer/2","title":"Street light L019457"},"type":"Feature"},{"geometry":{"coordinates":[-90.26041044118519,38.70524028051801],"type":"Point"},"id":"stl-city-public-streetlights:2:126742","properties":{"address":null,"attributes":{"Date_Installed":"4/23/2018","LED_Powered":1,"LightID":"L019458","Light_Source":"LED","Light_Type":"Cobra","Lighting_Type":"LED-Powered Lamp","Verification_Date":null},"id":"stl-city-public-streetlights:2:126742","sourceLayerId":2,"sourceObjectId":126742,"sourceURL":"https://maps8.stlouis-mo.gov/arcgis/rest/services/STREETS/Streets_Permitting/MapServer/2","title":"Street light L019458"},"type":"Feature"},{"geometry":{"coordinates":[-90.26093035768896,38.70536551283457],"type":"Point"},"id":"stl-city-public-streetlights:2:126743","properties":{"address":null,"attributes":{"Date_Installed":"4/23/2018","LED_Powered":1,"LightID":"L019459","Light_Source":"LED","Light_Type":"Cobra","Lighting_Type":"LED-Powered Lamp","Verification_Date":null},"id":"stl-city-public-streetlights:2:126743","sourceLayerId":2,"sourceObjectId":126743,"sourceURL":"https://maps8.stlouis-mo.gov/arcgis/rest/services/STREETS/Streets_Permitting/MapServer/2","title":"Street light L019459"},"type":"Feature"},{"geometry":{"coordinates":[-90.26091517637819,38.70546651000647],"type":"Point"},"id":"stl-city-public-streetlights:2:126744","properties":{"address":null,"attributes":{"Date_Installed":"4/23/2018","LED_Powered":1,"LightID":"L019460","Light_Source":"LED","Light_Type":"Cobra","Lighting_Type":"LED-Powered Lamp","Verification_Date":null},"id":"stl-city-public-streetlights:2:126744","sourceLayerId":2,"sourceObjectId":126744,"sourceURL":"https://maps8.stlouis-mo.gov/arcgis/rest/services/STREETS/Streets_Permitting/MapServer/2","title":"Street light L019460"},"type":"Feature"},{"geometry":{"coordinates":[-90.26137697636719,38.70557137513311],"type":"Point"},"id":"stl-city-public-streetlights:2:126745","properties":{"address":null,"attributes":{"Date_Installed":"4/23/2018","LED_Powered":1,"LightID":"L019461","Light_Source":"LED","Light_Type":"Cobra","Lighting_Type":"LED-Powered Lamp","Verification_Date":null},"id":"stl-city-public-streetlights:2:126745","sourceLayerId":2,"sourceObjectId":126745,"sourceURL":"https://maps8.stlouis-mo.gov/arcgis/rest/services/STREETS/Streets_Permitting/MapServer/2","title":"Street light L019461"},"type":"Feature"},{"geometry":{"coordinates":[-90.26133106974629,38.70565470647047],"type":"Point"},"id":"stl-city-public-streetlights:2:126746","properties":{"address":null,"attributes":{"Date_Installed":"4/23/2018","LED_Powered":1,"LightID":"L019462","Light_Source":"LED","Light_Type":"Cobra","Lighting_Type":"LED-Powered Lamp","Verification_Date":null},"id":"stl-city-public-streetlights:2:126746","sourceLayerId":2,"sourceObjectId":126746,"sourceURL":"https://maps8.stlouis-mo.gov/arcgis/rest/services/STREETS/Streets_Permitting/MapServer/2","title":"Street light L019462"},"type":"Feature"},{"geometry":{"coordinates":[-90.26184035270701,38.70577400957112],"type":"Point"},"id":"stl-city-public-streetlights:2:126747","properties":{"address":null,"attributes":{"Date_Installed":"4/23/2018","LED_Powered":1,"LightID":"L019463","Light_Source":"LED","Light_Type":"Cobra","Lighting_Type":"LED-Powered Lamp","Verification_Date":null},"id":"stl-city-public-streetlights:2:126747","sourceLayerId":2,"sourceObjectId":126747,"sourceURL":"https://maps8.stlouis-mo.gov/arcgis/rest/services/STREETS/Streets_Permitting/MapServer/2","title":"Street light L019463"},"type":"Feature"},{"geometry":{"coordinates":[-90.26178063263711,38.70585320133473],"type":"Point"},"id":"stl-city-public-streetlights:2:126748","properties":{"address":null,"attributes":{"Date_Installed":"4/23/2018","LED_Powered":1,"LightID":"L019464","Light_Source":"LED","Light_Type":"Cobra","Lighting_Type":"LED-Powered Lamp","Verification_Date":null},"id":"stl-city-public-streetlights:2:126748","sourceLayerId":2,"sourceObjectId":126748,"sourceURL":"https://maps8.stlouis-mo.gov/arcgis/rest/services/STREETS/Streets_Permitting/MapServer/2","title":"Street light L019464"},"type":"Feature"},{"geometry":{"coordinates":[-90.2629033460521,38.70459750420229],"type":"Point"},"id":"stl-city-public-streetlights:2:126749","properties":{"address":null,"attributes":{"Date_Installed":"4/23/2018","LED_Powered":1,"LightID":"L019465","Light_Source":"LED","Light_Type":"Cobra","Lighting_Type":"LED-Powered Lamp","Verification_Date":null},"id":"stl-city-public-streetlights:2:126749","sourceLayerId":2,"sourceObjectId":126749,"sourceURL":"https://maps8.stlouis-mo.gov/arcgis/rest/services/STREETS/Streets_Permitting/MapServer/2","title":"Street light L019465"},"type":"Feature"},{"geometry":{"coordinates":[-90.26252609587333,38.70442976877597],"type":"Point"},"id":"stl-city-public-streetlights:2:126750","properties":{"address":null,"attributes":{"Date_Installed":"4/23/2018","LED_Powered":1,"LightID":"L019466","Light_Source":"LED","Light_Type":"Cobra","Lighting_Type":"LED-Powered Lamp","Verification_Date":null},"id":"stl-city-public-streetlights:2:126750","sourceLayerId":2,"sourceObjectId":126750,"sourceURL":"https://maps8.stlouis-mo.gov/arcgis/rest/services/STREETS/Streets_Permitting/MapServer/2","title":"Street light L019466"},"type":"Feature"},{"geometry":{"coordinates":[-90.26215523425576,38.70426264060558],"type":"Point"},"id":"stl-city-public-streetlights:2:126751","properties":{"address":null,"attributes":{"Date_Installed":"4/23/2018","LED_Powered":1,"LightID":"L019467","Light_Source":"LED","Light_Type":"Cobra","Lighting_Type":"LED-Powered Lamp","Verification_Date":null},"id":"stl-city-public-streetlights:2:126751","sourceLayerId":2,"sourceObjectId":126751,"sourceURL":"https://maps8.stlouis-mo.gov/arcgis/rest/services/STREETS/Streets_Permitting/MapServer/2","title":"Street light L019467"},"type":"Feature"},{"geometry":{"coordinates":[-90.26180867398713,38.70410628663126],"type":"Point"},"id":"stl-city-public-streetlights:2:126752","properties":{"address":null,"attributes":{"Date_Installed":"4/23/2018","LED_Powered":1,"LightID":"L019468","Light_Source":"LED","Light_Type":"Cobra","Lighting_Type":"LED-Powered Lamp","Verification_Date":null},"id":"stl-city-public-streetlights:2:126752","sourceLayerId":2,"sourceObjectId":126752,"sourceURL":"https://maps8.stlouis-mo.gov/arcgis/rest/services/STREETS/Streets_Permitting/MapServer/2","title":"Street light L019468"},"type":"Feature"},{"geometry":{"coordinates":[-90.26141321031868,38.703929096313495],"type":"Point"},"id":"stl-city-public-streetlights:2:126753","properties":{"address":null,"attributes":{"Date_Installed":"4/23/2018","LED_Powered":1,"LightID":"L019469","Light_Source":"LED","Light_Type":"Cobra","Lighting_Type":"LED-Powered Lamp","Verification_Date":null},"id":"stl-city-public-streetlights:2:126753","sourceLayerId":2,"sourceObjectId":126753,"sourceURL":"https://maps8.stlouis-mo.gov/arcgis/rest/services/STREETS/Streets_Permitting/MapServer/2","title":"Street light L019469"},"type":"Feature"},{"geometry":{"coordinates":[-90.26109018406606,38.70378577890288],"type":"Point"},"id":"stl-city-public-streetlights:2:126754","properties":{"address":null,"attributes":{"Date_Installed":"4/23/2018","LED_Powered":1,"LightID":"L019470","Light_Source":"LED","Light_Type":"Cobra","Lighting_Type":"LED-Powered Lamp","Verification_Date":null},"id":"stl-city-public-streetlights:2:126754","sourceLayerId":2,"sourceObjectId":126754,"sourceURL":"https://maps8.stlouis-mo.gov/arcgis/rest/services/STREETS/Streets_Permitting/MapServer/2","title":"Street light L019470"},"type":"Feature"},{"geometry":{"coordinates":[-90.2607510635057,38.703634562090414],"type":"Point"},"id":"stl-city-public-streetlights:2:126755","properties":{"address":null,"attributes":{"Date_Installed":"4/23/2018","LED_Powered":1,"LightID":"L019471","Light_Source":"LED","Light_Type":"Cobra","Lighting_Type":"LED-Powered Lamp","Verification_Date":null},"id":"stl-city-public-streetlights:2:126755","sourceLayerId":2,"sourceObjectId":126755,"sourceURL":"https://maps8.stlouis-mo.gov/arcgis/rest/services/STREETS/Streets_Permitting/MapServer/2","title":"Street light L019471"},"type":"Feature"},{"geometry":{"coordinates":[-90.26040687445459,38.703480545684926],"type":"Point"},"id":"stl-city-public-streetlights:2:126756","properties":{"address":null,"attributes":{"Date_Installed":"4/23/2018","LED_Powered":1,"LightID":"L019472","Light_Source":"LED","Light_Type":"Cobra","Lighting_Type":"LED-Powered Lamp","Verification_Date":null},"id":"stl-city-public-streetlights:2:126756","sourceLayerId":2,"sourceObjectId":126756,"sourceURL":"https://maps8.stlouis-mo.gov/arcgis/rest/services/STREETS/Streets_Permitting/MapServer/2","title":"Street light L019472"},"type":"Feature"},{"geometry":{"coordinates":[-90.2600548923706,38.70332851402791],"type":"Point"},"id":"stl-city-public-streetlights:2:126757","properties":{"address":null,"attributes":{"Date_Installed":"4/23/2018","LED_Powered":1,"LightID":"L019473","Light_Source":"LED","Light_Type":"Cobra","Lighting_Type":"LED-Powered Lamp","Verification_Date":null},"id":"stl-city-public-streetlights:2:126757","sourceLayerId":2,"sourceObjectId":126757,"sourceURL":"https://maps8.stlouis-mo.gov/arcgis/rest/services/STREETS/Streets_Permitting/MapServer/2","title":"Street light L019473"},"type":"Feature"},{"geometry":{"coordinates":[-90.26355604025586,38.70088344985159],"type":"Point"},"id":"stl-city-public-streetlights:2:126892","properties":{"address":null,"attributes":{"Date_Installed":"4/23/2018","LED_Powered":1,"LightID":"L019608","Light_Source":"LED","Light_Type":"Cobra","Lighting_Type":"LED-Powered Lamp","Verification_Date":null},"id":"stl-city-public-streetlights:2:126892","sourceLayerId":2,"sourceObjectId":126892,"sourceURL":"https://maps8.stlouis-mo.gov/arcgis/rest/services/STREETS/Streets_Permitting/MapServer/2","title":"Street light L019608"},"type":"Feature"},{"geometry":{"coordinates":[-90.26333507052925,38.701221089613064],"type":"Point"},"id":"stl-city-public-streetlights:2:126893","properties":{"address":null,"attributes":{"Date_Installed":"4/23/2018","LED_Powered":1,"LightID":"L019609","Light_Source":"LED","Light_Type":"Cobra","Lighting_Type":"LED-Powered Lamp","Verification_Date":null},"id":"stl-city-public-streetlights:2:126893","sourceLayerId":2,"sourceObjectId":126893,"sourceURL":"https://maps8.stlouis-mo.gov/arcgis/rest/services/STREETS/Streets_Permitting/MapServer/2","title":"Street light L019609"},"type":"Feature"},{"geometry":{"coordinates":[-90.26313063098668,38.701664904995624],"type":"Point"},"id":"stl-city-public-streetlights:2:126894","properties":{"address":null,"attributes":{"Date_Installed":"4/23/2018","LED_Powered":1,"LightID":"L019610","Light_Source":"LED","Light_Type":"Cobra","Lighting_Type":"LED-Powered Lamp","Verification_Date":null},"id":"stl-city-public-streetlights:2:126894","sourceLayerId":2,"sourceObjectId":126894,"sourceURL":"https://maps8.stlouis-mo.gov/arcgis/rest/services/STREETS/Streets_Permitting/MapServer/2","title":"Street light L019610"},"type":"Feature"},{"geometry":{"coordinates":[-90.26293510249403,38.70205255557777],"type":"Point"},"id":"stl-city-public-streetlights:2:126895","properties":{"address":null,"attributes":{"Date_Installed":"4/23/2018","LED_Powered":1,"LightID":"L019611","Light_Source":"LED","Light_Type":"Cobra","Lighting_Type":"LED-Powered Lamp","Verification_Date":null},"id":"stl-city-public-streetlights:2:126895","sourceLayerId":2,"sourceObjectId":126895,"sourceURL":"https://maps8.stlouis-mo.gov/arcgis/rest/services/STREETS/Streets_Permitting/MapServer/2","title":"Street light L019611"},"type":"Feature"},{"geometry":{"coordinates":[-90.2627049929735,38.70238335137955],"type":"Point"},"id":"stl-city-public-streetlights:2:126896","properties":{"address":null,"attributes":{"Date_Installed":"4/23/2018","LED_Powered":1,"LightID":"L019612","Light_Source":"LED","Light_Type":"Cobra","Lighting_Type":"LED-Powered Lamp","Verification_Date":null},"id":"stl-city-public-streetlights:2:126896","sourceLayerId":2,"sourceObjectId":126896,"sourceURL":"https://maps8.stlouis-mo.gov/arcgis/rest/services/STREETS/Streets_Permitting/MapServer/2","title":"Street light L019612"},"type":"Feature"},{"geometry":{"coordinates":[-90.26245863050701,38.70272537198703],"type":"Point"},"id":"stl-city-public-streetlights:2:126897","properties":{"address":null,"attributes":{"Date_Installed":"4/23/2018","LED_Powered":1,"LightID":"L019613","Light_Source":"LED","Light_Type":"Cobra","Lighting_Type":"LED-Powered Lamp","Verification_Date":null},"id":"stl-city-public-streetlights:2:126897","sourceLayerId":2,"sourceObjectId":126897,"sourceURL":"https://maps8.stlouis-mo.gov/arcgis/rest/services/STREETS/Streets_Permitting/MapServer/2","title":"Street light L019613"},"type":"Feature"},{"geometry":{"coordinates":[-90.26219935800083,38.70307999973659],"type":"Point"},"id":"stl-city-public-streetlights:2:126898","properties":{"address":null,"attributes":{"Date_Installed":"4/23/2018","LED_Powered":1,"LightID":"L019614","Light_Source":"LED","Light_Type":"Cobra","Lighting_Type":"LED-Powered Lamp","Verification_Date":null},"id":"stl-city-public-streetlights:2:126898","sourceLayerId":2,"sourceObjectId":126898,"sourceURL":"https://maps8.stlouis-mo.gov/arcgis/rest/services/STREETS/Streets_Permitting/MapServer/2","title":"Street light L019614"},"type":"Feature"},{"geometry":{"coordinates":[-90.2619648543564,38.70340359335782],"type":"Point"},"id":"stl-city-public-streetlights:2:126899","properties":{"address":null,"attributes":{"Date_Installed":"4/23/2018","LED_Powered":1,"LightID":"L019615","Light_Source":"LED","Light_Type":"Cobra","Lighting_Type":"LED-Powered Lamp","Verification_Date":null},"id":"stl-city-public-streetlights:2:126899","sourceLayerId":2,"sourceObjectId":126899,"sourceURL":"https://maps8.stlouis-mo.gov/arcgis/rest/services/STREETS/Streets_Permitting/MapServer/2","title":"Street light L019615"},"type":"Feature"},{"geometry":{"coordinates":[-90.26171458256873,38.70374846466468],"type":"Point"},"id":"stl-city-public-streetlights:2:126900","properties":{"address":null,"attributes":{"Date_Installed":"4/23/2018","LED_Powered":1,"LightID":"L019616","Light_Source":"LED","Light_Type":"Cobra","Lighting_Type":"LED-Powered Lamp","Verification_Date":null},"id":"stl-city-public-streetlights:2:126900","sourceLayerId":2,"sourceObjectId":126900,"sourceURL":"https://maps8.stlouis-mo.gov/arcgis/rest/services/STREETS/Streets_Permitting/MapServer/2","title":"Street light L019616"},"type":"Feature"},{"geometry":{"coordinates":[-90.26047840290602,38.70544793549864],"type":"Point"},"id":"stl-city-public-streetlights:2:126901","properties":{"address":null,"attributes":{"Date_Installed":"4/23/2018","LED_Powered":1,"LightID":"L019617","Light_Source":"LED","Light_Type":"Cobra","Lighting_Type":"LED-Powered Lamp","Verification_Date":null},"id":"stl-city-public-streetlights:2:126901","sourceLayerId":2,"sourceObjectId":126901,"sourceURL":"https://maps8.stlouis-mo.gov/arcgis/rest/services/STREETS/Streets_Permitting/MapServer/2","title":"Street light L019617"},"type":"Feature"},{"geometry":{"coordinates":[-90.26024385232492,38.70577197946648],"type":"Point"},"id":"stl-city-public-streetlights:2:126902","properties":{"address":null,"attributes":{"Date_Installed":"4/23/2018","LED_Powered":1,"LightID":"L019618","Light_Source":"LED","Light_Type":"Cobra","Lighting_Type":"LED-Powered Lamp","Verification_Date":null},"id":"stl-city-public-streetlights:2:126902","sourceLayerId":2,"sourceObjectId":126902,"sourceURL":"https://maps8.stlouis-mo.gov/arcgis/rest/services/STREETS/Streets_Permitting/MapServer/2","title":"Street light L019618"},"type":"Feature"},{"geometry":{"coordinates":[-90.2600083711358,38.70610069299299],"type":"Point"},"id":"stl-city-public-streetlights:2:126903","properties":{"address":null,"attributes":{"Date_Installed":"4/23/2018","LED_Powered":1,"LightID":"L019619","Light_Source":"LED","Light_Type":"Cobra","Lighting_Type":"LED-Powered Lamp","Verification_Date":null},"id":"stl-city-public-streetlights:2:126903","sourceLayerId":2,"sourceObjectId":126903,"sourceURL":"https://maps8.stlouis-mo.gov/arcgis/rest/services/STREETS/Streets_Permitting/MapServer/2","title":"Street light L019619"},"type":"Feature"},{"geometry":{"coordinates":[-90.26146751955399,38.70406976864342],"type":"Point"},"id":"stl-city-public-streetlights:2:126941","properties":{"address":null,"attributes":{"Date_Installed":"4/23/2018","LED_Powered":1,"LightID":"L019657","Light_Source":"LED","Light_Type":"Cobra","Lighting_Type":"LED-Powered Lamp","Verification_Date":null},"id":"stl-city-public-streetlights:2:126941","sourceLayerId":2,"sourceObjectId":126941,"sourceURL":"https://maps8.stlouis-mo.gov/arcgis/rest/services/STREETS/Streets_Permitting/MapServer/2","title":"Street light L019657"},"type":"Feature"},{"geometry":{"coordinates":[-90.26122633558445,38.70439711367117],"type":"Point"},"id":"stl-city-public-streetlights:2:126942","properties":{"address":null,"attributes":{"Date_Installed":"4/23/2018","LED_Powered":1,"LightID":"L019658","Light_Source":"LED","Light_Type":"Cobra","Lighting_Type":"LED-Powered Lamp","Verification_Date":null},"id":"stl-city-public-streetlights:2:126942","sourceLayerId":2,"sourceObjectId":126942,"sourceURL":"https://maps8.stlouis-mo.gov/arcgis/rest/services/STREETS/Streets_Permitting/MapServer/2","title":"Street light L019658"},"type":"Feature"},{"geometry":{"coordinates":[-90.26098603422199,38.7047283932242],"type":"Point"},"id":"stl-city-public-streetlights:2:126943","properties":{"address":null,"attributes":{"Date_Installed":"4/23/2018","LED_Powered":1,"LightID":"L019659","Light_Source":"LED","Light_Type":"Cobra","Lighting_Type":"LED-Powered Lamp","Verification_Date":null},"id":"stl-city-public-streetlights:2:126943","sourceLayerId":2,"sourceObjectId":126943,"sourceURL":"https://maps8.stlouis-mo.gov/arcgis/rest/services/STREETS/Streets_Permitting/MapServer/2","title":"Street light L019659"},"type":"Feature"},{"geometry":{"coordinates":[-90.26073451533617,38.705088300877385],"type":"Point"},"id":"stl-city-public-streetlights:2:126944","properties":{"address":null,"attributes":{"Date_Installed":"4/23/2018","LED_Powered":1,"LightID":"L019660","Light_Source":"LED","Light_Type":"Cobra","Lighting_Type":"LED-Powered Lamp","Verification_Date":null},"id":"stl-city-public-streetlights:2:126944","sourceLayerId":2,"sourceObjectId":126944,"sourceURL":"https://maps8.stlouis-mo.gov/arcgis/rest/services/STREETS/Streets_Permitting/MapServer/2","title":"Street light L019660"},"type":"Feature"},{"geometry":{"coordinates":[-90.26617412587574,38.70085473842083],"type":"Point"},"id":"stl-city-public-streetlights:2:126945","properties":{"address":null,"attributes":{"Date_Installed":null,"LED_Powered":0,"LightID":"L019661","Light_Source":"LED","Light_Type":"Cobra","Lighting_Type":"LED-Powered Lamp","Verification_Date":null},"id":"stl-city-public-streetlights:2:126945","sourceLayerId":2,"sourceObjectId":126945,"sourceURL":"https://maps8.stlouis-mo.gov/arcgis/rest/services/STREETS/Streets_Permitting/MapServer/2","title":"Street light L019661"},"type":"Feature"},{"geometry":{"coordinates":[-90.26538690560436,38.700511057847585],"type":"Point"},"id":"stl-city-public-streetlights:2:126946","properties":{"address":null,"attributes":{"Date_Installed":null,"LED_Powered":0,"LightID":"L019662","Light_Source":"LED","Light_Type":"Cobra","Lighting_Type":"LED-Powered Lamp","Verification_Date":null},"id":"stl-city-public-streetlights:2:126946","sourceLayerId":2,"sourceObjectId":126946,"sourceURL":"https://maps8.stlouis-mo.gov/arcgis/rest/services/STREETS/Streets_Permitting/MapServer/2","title":"Street light L019662"},"type":"Feature"},{"geometry":{"coordinates":[-90.26633230784087,38.70017199286085],"type":"Point"},"id":"stl-city-public-streetlights:2:126950","properties":{"address":null,"attributes":{"Date_Installed":null,"LED_Powered":0,"LightID":"L019666","Light_Source":"LED","Light_Type":"Cobra","Lighting_Type":"LED-Powered Lamp","Verification_Date":null},"id":"stl-city-public-streetlights:2:126950","sourceLayerId":2,"sourceObjectId":126950,"sourceURL":"https://maps8.stlouis-mo.gov/arcgis/rest/services/STREETS/Streets_Permitting/MapServer/2","title":"Street light L019666"},"type":"Feature"},{"geometry":{"coordinates":[-90.2617859776552,38.700235239016905],"type":"Point"},"id":"stl-city-public-streetlights:2:128127","properties":{"address":null,"attributes":{"Date_Installed":"4/23/2018","LED_Powered":1,"LightID":"L020843","Light_Source":"LED","Light_Type":"Cobra","Lighting_Type":"LED-Powered Lamp","Verification_Date":null},"id":"stl-city-public-streetlights:2:128127","sourceLayerId":2,"sourceObjectId":128127,"sourceURL":"https://maps8.stlouis-mo.gov/arcgis/rest/services/STREETS/Streets_Permitting/MapServer/2","title":"Street light L020843"},"type":"Feature"},{"geometry":{"coordinates":[-90.26157514296246,38.70052322340246],"type":"Point"},"id":"stl-city-public-streetlights:2:128128","properties":{"address":null,"attributes":{"Date_Installed":"4/23/2018","LED_Powered":1,"LightID":"L020844","Light_Source":"LED","Light_Type":"Cobra","Lighting_Type":"LED-Powered Lamp","Verification_Date":null},"id":"stl-city-public-streetlights:2:128128","sourceLayerId":2,"sourceObjectId":128128,"sourceURL":"https://maps8.stlouis-mo.gov/arcgis/rest/services/STREETS/Streets_Permitting/MapServer/2","title":"Street light L020844"},"type":"Feature"},{"geometry":{"coordinates":[-90.26402963695361,38.70023702142249],"type":"Point"},"id":"stl-city-public-streetlights:2:151062","properties":{"address":null,"attributes":{"Date_Installed":null,"LED_Powered":0,"LightID":"L043927","Light_Source":"High Pressure Sodium","Light_Type":"Decorative","Lighting_Type":"GE Americana Series (Historic Light Fixture)","Verification_Date":null},"id":"stl-city-public-streetlights:2:151062","sourceLayerId":2,"sourceObjectId":151062,"sourceURL":"https://maps8.stlouis-mo.gov/arcgis/rest/services/STREETS/Streets_Permitting/MapServer/2","title":"Street light L043927"},"type":"Feature"},{"geometry":{"coordinates":[-90.2639490014263,38.70033839958537],"type":"Point"},"id":"stl-city-public-streetlights:2:151063","properties":{"address":null,"attributes":{"Date_Installed":null,"LED_Powered":0,"LightID":"L043928","Light_Source":"High Pressure Sodium","Light_Type":"Decorative","Lighting_Type":"GE Americana Series (Historic Light Fixture)","Verification_Date":null},"id":"stl-city-public-streetlights:2:151063","sourceLayerId":2,"sourceObjectId":151063,"sourceURL":"https://maps8.stlouis-mo.gov/arcgis/rest/services/STREETS/Streets_Permitting/MapServer/2","title":"Street light L043928"},"type":"Feature"},{"geometry":{"coordinates":[-90.26386650004982,38.70045264569827],"type":"Point"},"id":"stl-city-public-streetlights:2:151064","properties":{"address":null,"attributes":{"Date_Installed":null,"LED_Powered":0,"LightID":"L043929","Light_Source":"High Pressure Sodium","Light_Type":"Decorative","Lighting_Type":"GE Americana Series (Historic Light Fixture)","Verification_Date":null},"id":"stl-city-public-streetlights:2:151064","sourceLayerId":2,"sourceObjectId":151064,"sourceURL":"https://maps8.stlouis-mo.gov/arcgis/rest/services/STREETS/Streets_Permitting/MapServer/2","title":"Street light L043929"},"type":"Feature"},{"geometry":{"coordinates":[-90.26378403019633,38.70055687943253],"type":"Point"},"id":"stl-city-public-streetlights:2:151065","properties":{"address":null,"attributes":{"Date_Installed":null,"LED_Powered":0,"LightID":"L043930","Light_Source":"High Pressure Sodium","Light_Type":"Decorative","Lighting_Type":"King Luminaire (Historic Light Fixtures)","Verification_Date":null},"id":"stl-city-public-streetlights:2:151065","sourceLayerId":2,"sourceObjectId":151065,"sourceURL":"https://maps8.stlouis-mo.gov/arcgis/rest/services/STREETS/Streets_Permitting/MapServer/2","title":"Street light L043930"},"type":"Feature"},{"geometry":{"coordinates":[-90.26372898780187,38.70064543735805],"type":"Point"},"id":"stl-city-public-streetlights:2:151066","properties":{"address":null,"attributes":{"Date_Installed":null,"LED_Powered":0,"LightID":"L043931","Light_Source":"High Pressure Sodium","Light_Type":"Decorative","Lighting_Type":"King Luminaire (Historic Light Fixtures)","Verification_Date":null},"id":"stl-city-public-streetlights:2:151066","sourceLayerId":2,"sourceObjectId":151066,"sourceURL":"https://maps8.stlouis-mo.gov/arcgis/rest/services/STREETS/Streets_Permitting/MapServer/2","title":"Street light L043931"},"type":"Feature"},{"geometry":{"coordinates":[-90.26411186228658,38.700762052690976],"type":"Point"},"id":"stl-city-public-streetlights:2:151067","properties":{"address":null,"attributes":{"Date_Installed":null,"LED_Powered":0,"LightID":"L043932","Light_Source":"High Pressure Sodium","Light_Type":"Decorative","Lighting_Type":"King Luminaire (Historic Light Fixtures)","Verification_Date":null},"id":"stl-city-public-streetlights:2:151067","sourceLayerId":2,"sourceObjectId":151067,"sourceURL":"https://maps8.stlouis-mo.gov/arcgis/rest/services/STREETS/Streets_Permitting/MapServer/2","title":"Street light L043932"},"type":"Feature"},{"geometry":{"coordinates":[-90.26417783681084,38.70067923722192],"type":"Point"},"id":"stl-city-public-streetlights:2:151068","properties":{"address":null,"attributes":{"Date_Installed":null,"LED_Powered":0,"LightID":"L043933","Light_Source":"High Pressure Sodium","Light_Type":"Decorative","Lighting_Type":"King Luminaire (Historic Light Fixtures)","Verification_Date":null},"id":"stl-city-public-streetlights:2:151068","sourceLayerId":2,"sourceObjectId":151068,"sourceURL":"https://maps8.stlouis-mo.gov/arcgis/rest/services/STREETS/Streets_Permitting/MapServer/2","title":"Street light L043933"},"type":"Feature"},{"geometry":{"coordinates":[-90.2642255645032,38.700594954328224],"type":"Point"},"id":"stl-city-public-streetlights:2:151069","properties":{"address":null,"attributes":{"Date_Installed":null,"LED_Powered":0,"LightID":"L043934","Light_Source":"High Pressure Sodium","Light_Type":"Decorative","Lighting_Type":"GE Americana Series (Historic Light Fixture)","Verification_Date":null},"id":"stl-city-public-streetlights:2:151069","sourceLayerId":2,"sourceObjectId":151069,"sourceURL":"https://maps8.stlouis-mo.gov/arcgis/rest/services/STREETS/Streets_Permitting/MapServer/2","title":"Street light L043934"},"type":"Feature"},{"geometry":{"coordinates":[-90.26428606665198,38.70051069716409],"type":"Point"},"id":"stl-city-public-streetlights:2:151070","properties":{"address":null,"attributes":{"Date_Installed":null,"LED_Powered":0,"LightID":"L043935","Light_Source":"High Pressure Sodium","Light_Type":"Decorative","Lighting_Type":"GE Americana Series (Historic Light Fixture)","Verification_Date":null},"id":"stl-city-public-streetlights:2:151070","sourceLayerId":2,"sourceObjectId":151070,"sourceURL":"https://maps8.stlouis-mo.gov/arcgis/rest/services/STREETS/Streets_Permitting/MapServer/2","title":"Street light L043935"},"type":"Feature"},{"geometry":{"coordinates":[-90.26435939713305,38.70041073464906],"type":"Point"},"id":"stl-city-public-streetlights:2:151071","properties":{"address":null,"attributes":{"Date_Installed":null,"LED_Powered":0,"LightID":"L043936","Light_Source":"High Pressure Sodium","Light_Type":"Decorative","Lighting_Type":"GE Americana Series (Historic Light Fixture)","Verification_Date":null},"id":"stl-city-public-streetlights:2:151071","sourceLayerId":2,"sourceObjectId":151071,"sourceURL":"https://maps8.stlouis-mo.gov/arcgis/rest/services/STREETS/Streets_Permitting/MapServer/2","title":"Street light L043936"},"type":"Feature"},{"geometry":{"coordinates":[-90.26383749704763,38.70113191106725],"type":"Point"},"id":"stl-city-public-streetlights:2:151433","properties":{"address":null,"attributes":{"Date_Installed":"4/23/2018","LED_Powered":1,"LightID":"L044299","Light_Source":"LED","Light_Type":"Cobra","Lighting_Type":"LED-Powered Lamp","Verification_Date":null},"id":"stl-city-public-streetlights:2:151433","sourceLayerId":2,"sourceObjectId":151433,"sourceURL":"https://maps8.stlouis-mo.gov/arcgis/rest/services/STREETS/Streets_Permitting/MapServer/2","title":"Street light L044299"},"type":"Feature"},{"geometry":{"coordinates":[-90.26361454756025,38.70144285156861],"type":"Point"},"id":"stl-city-public-streetlights:2:151434","properties":{"address":null,"attributes":{"Date_Installed":"4/23/2018","LED_Powered":1,"LightID":"L044300","Light_Source":"LED","Light_Type":"Cobra","Lighting_Type":"LED-Powered Lamp","Verification_Date":null},"id":"stl-city-public-streetlights:2:151434","sourceLayerId":2,"sourceObjectId":151434,"sourceURL":"https://maps8.stlouis-mo.gov/arcgis/rest/services/STREETS/Streets_Permitting/MapServer/2","title":"Street light L044300"},"type":"Feature"},{"geometry":{"coordinates":[-90.26332136780017,38.70179769892694],"type":"Point"},"id":"stl-city-public-streetlights:2:151435","properties":{"address":null,"attributes":{"Date_Installed":"4/23/2018","LED_Powered":1,"LightID":"L044301","Light_Source":"LED","Light_Type":"Cobra","Lighting_Type":"LED-Powered Lamp","Verification_Date":null},"id":"stl-city-public-streetlights:2:151435","sourceLayerId":2,"sourceObjectId":151435,"sourceURL":"https://maps8.stlouis-mo.gov/arcgis/rest/services/STREETS/Streets_Permitting/MapServer/2","title":"Street light L044301"},"type":"Feature"},{"geometry":{"coordinates":[-90.26023747832781,38.70193937883271],"type":"Point"},"id":"stl-city-public-streetlights:2:152276","properties":{"address":null,"attributes":{"Date_Installed":"4/23/2018","LED_Powered":1,"LightID":"L045130","Light_Source":"LED","Light_Type":"Cobra","Lighting_Type":"LED-Powered Lamp","Verification_Date":null},"id":"stl-city-public-streetlights:2:152276","sourceLayerId":2,"sourceObjectId":152276,"sourceURL":"https://maps8.stlouis-mo.gov/arcgis/rest/services/STREETS/Streets_Permitting/MapServer/2","title":"Street light L045130"},"type":"Feature"},{"geometry":{"coordinates":[-90.26063779573043,38.70211658490827],"type":"Point"},"id":"stl-city-public-streetlights:2:152277","properties":{"address":null,"attributes":{"Date_Installed":"4/23/2018","LED_Powered":1,"LightID":"L045131","Light_Source":"LED","Light_Type":"Cobra","Lighting_Type":"LED-Powered Lamp","Verification_Date":null},"id":"stl-city-public-streetlights:2:152277","sourceLayerId":2,"sourceObjectId":152277,"sourceURL":"https://maps8.stlouis-mo.gov/arcgis/rest/services/STREETS/Streets_Permitting/MapServer/2","title":"Street light L045131"},"type":"Feature"},{"geometry":{"coordinates":[-90.26103279109923,38.70229377783359],"type":"Point"},"id":"stl-city-public-streetlights:2:152278","properties":{"address":null,"attributes":{"Date_Installed":"4/23/2018","LED_Powered":1,"LightID":"L045132","Light_Source":"LED","Light_Type":"Cobra","Lighting_Type":"LED-Powered Lamp","Verification_Date":null},"id":"stl-city-public-streetlights:2:152278","sourceLayerId":2,"sourceObjectId":152278,"sourceURL":"https://maps8.stlouis-mo.gov/arcgis/rest/services/STREETS/Streets_Permitting/MapServer/2","title":"Street light L045132"},"type":"Feature"},{"geometry":{"coordinates":[-90.2614074402111,38.7024617515481],"type":"Point"},"id":"stl-city-public-streetlights:2:152279","properties":{"address":null,"attributes":{"Date_Installed":"4/23/2018","LED_Powered":1,"LightID":"L045133","Light_Source":"LED","Light_Type":"Cobra","Lighting_Type":"LED-Powered Lamp","Verification_Date":null},"id":"stl-city-public-streetlights:2:152279","sourceLayerId":2,"sourceObjectId":152279,"sourceURL":"https://maps8.stlouis-mo.gov/arcgis/rest/services/STREETS/Streets_Permitting/MapServer/2","title":"Street light L045133"},"type":"Feature"},{"geometry":{"coordinates":[-90.2618126176934,38.70264229946658],"type":"Point"},"id":"stl-city-public-streetlights:2:152280","properties":{"address":null,"attributes":{"Date_Installed":"4/23/2018","LED_Powered":1,"LightID":"L045134","Light_Source":"LED","Light_Type":"Cobra","Lighting_Type":"LED-Powered Lamp","Verification_Date":null},"id":"stl-city-public-streetlights:2:152280","sourceLayerId":2,"sourceObjectId":152280,"sourceURL":"https://maps8.stlouis-mo.gov/arcgis/rest/services/STREETS/Streets_Permitting/MapServer/2","title":"Street light L045134"},"type":"Feature"},{"geometry":{"coordinates":[-90.26221369768369,38.70282140704875],"type":"Point"},"id":"stl-city-public-streetlights:2:152281","properties":{"address":null,"attributes":{"Date_Installed":"4/23/2018","LED_Powered":1,"LightID":"L045135","Light_Source":"LED","Light_Type":"Cobra","Lighting_Type":"LED-Powered Lamp","Verification_Date":null},"id":"stl-city-public-streetlights:2:152281","sourceLayerId":2,"sourceObjectId":152281,"sourceURL":"https://maps8.stlouis-mo.gov/arcgis/rest/services/STREETS/Streets_Permitting/MapServer/2","title":"Street light L045135"},"type":"Feature"},{"geometry":{"coordinates":[-90.262477182649,38.70322268897271],"type":"Point"},"id":"stl-city-public-streetlights:2:152282","properties":{"address":null,"attributes":{"Date_Installed":"4/23/2018","LED_Powered":1,"LightID":"L045136","Light_Source":"LED","Light_Type":"Cobra","Lighting_Type":"LED-Powered Lamp","Verification_Date":null},"id":"stl-city-public-streetlights:2:152282","sourceLayerId":2,"sourceObjectId":152282,"sourceURL":"https://maps8.stlouis-mo.gov/arcgis/rest/services/STREETS/Streets_Permitting/MapServer/2","title":"Street light L045136"},"type":"Feature"},{"geometry":{"coordinates":[-90.26285037637183,38.703396255859516],"type":"Point"},"id":"stl-city-public-streetlights:2:152283","properties":{"address":null,"attributes":{"Date_Installed":"4/23/2018","LED_Powered":1,"LightID":"L045137","Light_Source":"LED","Light_Type":"Cobra","Lighting_Type":"LED-Powered Lamp","Verification_Date":null},"id":"stl-city-public-streetlights:2:152283","sourceLayerId":2,"sourceObjectId":152283,"sourceURL":"https://maps8.stlouis-mo.gov/arcgis/rest/services/STREETS/Streets_Permitting/MapServer/2","title":"Street light L045137"},"type":"Feature"},{"geometry":{"coordinates":[-90.26323576143834,38.703562993245704],"type":"Point"},"id":"stl-city-public-streetlights:2:152284","properties":{"address":null,"attributes":{"Date_Installed":"4/23/2018","LED_Powered":1,"LightID":"L045138","Light_Source":"LED","Light_Type":"Cobra","Lighting_Type":"LED-Powered Lamp","Verification_Date":null},"id":"stl-city-public-streetlights:2:152284","sourceLayerId":2,"sourceObjectId":152284,"sourceURL":"https://maps8.stlouis-mo.gov/arcgis/rest/services/STREETS/Streets_Permitting/MapServer/2","title":"Street light L045138"},"type":"Feature"},{"geometry":{"coordinates":[-90.2636075932393,38.70373542344754],"type":"Point"},"id":"stl-city-public-streetlights:2:152285","properties":{"address":null,"attributes":{"Date_Installed":"4/23/2018","LED_Powered":1,"LightID":"L045139","Light_Source":"LED","Light_Type":"Cobra","Lighting_Type":"LED-Powered Lamp","Verification_Date":null},"id":"stl-city-public-streetlights:2:152285","sourceLayerId":2,"sourceObjectId":152285,"sourceURL":"https://maps8.stlouis-mo.gov/arcgis/rest/services/STREETS/Streets_Permitting/MapServer/2","title":"Street light L045139"},"type":"Feature"},{"geometry":{"coordinates":[-90.26420632463655,38.70287329855601],"type":"Point"},"id":"stl-city-public-streetlights:2:152286","properties":{"address":null,"attributes":{"Date_Installed":"4/23/2018","LED_Powered":1,"LightID":"L045140","Light_Source":"LED","Light_Type":"Cobra","Lighting_Type":"LED-Powered Lamp","Verification_Date":null},"id":"stl-city-public-streetlights:2:152286","sourceLayerId":2,"sourceObjectId":152286,"sourceURL":"https://maps8.stlouis-mo.gov/arcgis/rest/services/STREETS/Streets_Permitting/MapServer/2","title":"Street light L045140"},"type":"Feature"},{"geometry":{"coordinates":[-90.26383650493383,38.7027038237801],"type":"Point"},"id":"stl-city-public-streetlights:2:152287","properties":{"address":null,"attributes":{"Date_Installed":"4/23/2018","LED_Powered":1,"LightID":"L045141","Light_Source":"LED","Light_Type":"Cobra","Lighting_Type":"LED-Powered Lamp","Verification_Date":null},"id":"stl-city-public-streetlights:2:152287","sourceLayerId":2,"sourceObjectId":152287,"sourceURL":"https://maps8.stlouis-mo.gov/arcgis/rest/services/STREETS/Streets_Permitting/MapServer/2","title":"Street light L045141"},"type":"Feature"},{"geometry":{"coordinates":[-90.26343977989735,38.702532393450255],"type":"Point"},"id":"stl-city-public-streetlights:2:152288","properties":{"address":null,"attributes":{"Date_Installed":"4/23/2018","LED_Powered":1,"LightID":"L045142","Light_Source":"LED","Light_Type":"Cobra","Lighting_Type":"LED-Powered Lamp","Verification_Date":null},"id":"stl-city-public-streetlights:2:152288","sourceLayerId":2,"sourceObjectId":152288,"sourceURL":"https://maps8.stlouis-mo.gov/arcgis/rest/services/STREETS/Streets_Permitting/MapServer/2","title":"Street light L045142"},"type":"Feature"},{"geometry":{"coordinates":[-90.26310603035743,38.702376986291775],"type":"Point"},"id":"stl-city-public-streetlights:2:152289","properties":{"address":null,"attributes":{"Date_Installed":"4/23/2018","LED_Powered":1,"LightID":"L045143","Light_Source":"LED","Light_Type":"Cobra","Lighting_Type":"LED-Powered Lamp","Verification_Date":null},"id":"stl-city-public-streetlights:2:152289","sourceLayerId":2,"sourceObjectId":152289,"sourceURL":"https://maps8.stlouis-mo.gov/arcgis/rest/services/STREETS/Streets_Permitting/MapServer/2","title":"Street light L045143"},"type":"Feature"},{"geometry":{"coordinates":[-90.26266904585735,38.70208898350636],"type":"Point"},"id":"stl-city-public-streetlights:2:152290","properties":{"address":null,"attributes":{"Date_Installed":"4/23/2018","LED_Powered":1,"LightID":"L045144","Light_Source":"LED","Light_Type":"Cobra","Lighting_Type":"LED-Powered Lamp","Verification_Date":null},"id":"stl-city-public-streetlights:2:152290","sourceLayerId":2,"sourceObjectId":152290,"sourceURL":"https://maps8.stlouis-mo.gov/arcgis/rest/services/STREETS/Streets_Permitting/MapServer/2","title":"Street light L045144"},"type":"Feature"},{"geometry":{"coordinates":[-90.26229728220285,38.70192214038206],"type":"Point"},"id":"stl-city-public-streetlights:2:152291","properties":{"address":null,"attributes":{"Date_Installed":"4/23/2018","LED_Powered":1,"LightID":"L045145","Light_Source":"LED","Light_Type":"Cobra","Lighting_Type":"LED-Powered Lamp","Verification_Date":null},"id":"stl-city-public-streetlights:2:152291","sourceLayerId":2,"sourceObjectId":152291,"sourceURL":"https://maps8.stlouis-mo.gov/arcgis/rest/services/STREETS/Streets_Permitting/MapServer/2","title":"Street light L045145"},"type":"Feature"},{"geometry":{"coordinates":[-90.26189538732456,38.70174303050436],"type":"Point"},"id":"stl-city-public-streetlights:2:152292","properties":{"address":null,"attributes":{"Date_Installed":"4/23/2018","LED_Powered":1,"LightID":"L045146","Light_Source":"LED","Light_Type":"Cobra","Lighting_Type":"LED-Powered Lamp","Verification_Date":null},"id":"stl-city-public-streetlights:2:152292","sourceLayerId":2,"sourceObjectId":152292,"sourceURL":"https://maps8.stlouis-mo.gov/arcgis/rest/services/STREETS/Streets_Permitting/MapServer/2","title":"Street light L045146"},"type":"Feature"},{"geometry":{"coordinates":[-90.2615051622463,38.70156770962247],"type":"Point"},"id":"stl-city-public-streetlights:2:152293","properties":{"address":null,"attributes":{"Date_Installed":"4/23/2018","LED_Powered":1,"LightID":"L045147","Light_Source":"LED","Light_Type":"Cobra","Lighting_Type":"LED-Powered Lamp","Verification_Date":null},"id":"stl-city-public-streetlights:2:152293","sourceLayerId":2,"sourceObjectId":152293,"sourceURL":"https://maps8.stlouis-mo.gov/arcgis/rest/services/STREETS/Streets_Permitting/MapServer/2","title":"Street light L045147"},"type":"Feature"},{"geometry":{"coordinates":[-90.26112901359915,38.70140395195809],"type":"Point"},"id":"stl-city-public-streetlights:2:152294","properties":{"address":null,"attributes":{"Date_Installed":"4/23/2018","LED_Powered":1,"LightID":"L045148","Light_Source":"LED","Light_Type":"Cobra","Lighting_Type":"LED-Powered Lamp","Verification_Date":null},"id":"stl-city-public-streetlights:2:152294","sourceLayerId":2,"sourceObjectId":152294,"sourceURL":"https://maps8.stlouis-mo.gov/arcgis/rest/services/STREETS/Streets_Permitting/MapServer/2","title":"Street light L045148"},"type":"Feature"},{"geometry":{"coordinates":[-90.26071328262286,38.70121526311931],"type":"Point"},"id":"stl-city-public-streetlights:2:152295","properties":{"address":null,"attributes":{"Date_Installed":"4/23/2018","LED_Powered":1,"LightID":"L045149","Light_Source":"LED","Light_Type":"Cobra","Lighting_Type":"LED-Powered Lamp","Verification_Date":null},"id":"stl-city-public-streetlights:2:152295","sourceLayerId":2,"sourceObjectId":152295,"sourceURL":"https://maps8.stlouis-mo.gov/arcgis/rest/services/STREETS/Streets_Permitting/MapServer/2","title":"Street light L045149"},"type":"Feature"},{"geometry":{"coordinates":[-90.26035604852868,38.70105513077158],"type":"Point"},"id":"stl-city-public-streetlights:2:152296","properties":{"address":null,"attributes":{"Date_Installed":"4/23/2018","LED_Powered":1,"LightID":"L045150","Light_Source":"LED","Light_Type":"Cobra","Lighting_Type":"LED-Powered Lamp","Verification_Date":null},"id":"stl-city-public-streetlights:2:152296","sourceLayerId":2,"sourceObjectId":152296,"sourceURL":"https://maps8.stlouis-mo.gov/arcgis/rest/services/STREETS/Streets_Permitting/MapServer/2","title":"Street light L045150"},"type":"Feature"},{"geometry":{"coordinates":[-90.26477477636192,38.70220334830941],"type":"Point"},"id":"stl-city-public-streetlights:2:152302","properties":{"address":null,"attributes":{"Date_Installed":"4/23/2018","LED_Powered":1,"LightID":"L045156","Light_Source":"LED","Light_Type":"Cobra","Lighting_Type":"LED-Powered Lamp","Verification_Date":null},"id":"stl-city-public-streetlights:2:152302","sourceLayerId":2,"sourceObjectId":152302,"sourceURL":"https://maps8.stlouis-mo.gov/arcgis/rest/services/STREETS/Streets_Permitting/MapServer/2","title":"Street light L045156"},"type":"Feature"},{"geometry":{"coordinates":[-90.2644018146812,38.70203590857612],"type":"Point"},"id":"stl-city-public-streetlights:2:152303","properties":{"address":null,"attributes":{"Date_Installed":"4/23/2018","LED_Powered":1,"LightID":"L045157","Light_Source":"LED","Light_Type":"Cobra","Lighting_Type":"LED-Powered Lamp","Verification_Date":null},"id":"stl-city-public-streetlights:2:152303","sourceLayerId":2,"sourceObjectId":152303,"sourceURL":"https://maps8.stlouis-mo.gov/arcgis/rest/services/STREETS/Streets_Permitting/MapServer/2","title":"Street light L045157"},"type":"Feature"},{"geometry":{"coordinates":[-90.2640499063371,38.701876049596784],"type":"Point"},"id":"stl-city-public-streetlights:2:152304","properties":{"address":null,"attributes":{"Date_Installed":"4/23/2018","LED_Powered":1,"LightID":"L045158","Light_Source":"LED","Light_Type":"Cobra","Lighting_Type":"LED-Powered Lamp","Verification_Date":null},"id":"stl-city-public-streetlights:2:152304","sourceLayerId":2,"sourceObjectId":152304,"sourceURL":"https://maps8.stlouis-mo.gov/arcgis/rest/services/STREETS/Streets_Permitting/MapServer/2","title":"Street light L045158"},"type":"Feature"},{"geometry":{"coordinates":[-90.26365656750062,38.70170220795262],"type":"Point"},"id":"stl-city-public-streetlights:2:152305","properties":{"address":null,"attributes":{"Date_Installed":"4/23/2018","LED_Powered":1,"LightID":"L045159","Light_Source":"LED","Light_Type":"Cobra","Lighting_Type":"LED-Powered Lamp","Verification_Date":null},"id":"stl-city-public-streetlights:2:152305","sourceLayerId":2,"sourceObjectId":152305,"sourceURL":"https://maps8.stlouis-mo.gov/arcgis/rest/services/STREETS/Streets_Permitting/MapServer/2","title":"Street light L045159"},"type":"Feature"},{"geometry":{"coordinates":[-90.26304371069544,38.70142702361352],"type":"Point"},"id":"stl-city-public-streetlights:2:152306","properties":{"address":null,"attributes":{"Date_Installed":"4/23/2018","LED_Powered":1,"LightID":"L045160","Light_Source":"LED","Light_Type":"Cobra","Lighting_Type":"LED-Powered Lamp","Verification_Date":null},"id":"stl-city-public-streetlights:2:152306","sourceLayerId":2,"sourceObjectId":152306,"sourceURL":"https://maps8.stlouis-mo.gov/arcgis/rest/services/STREETS/Streets_Permitting/MapServer/2","title":"Street light L045160"},"type":"Feature"},{"geometry":{"coordinates":[-90.26263397644942,38.70124539772996],"type":"Point"},"id":"stl-city-public-streetlights:2:152307","properties":{"address":null,"attributes":{"Date_Installed":"4/23/2018","LED_Powered":1,"LightID":"L045161","Light_Source":"LED","Light_Type":"Cobra","Lighting_Type":"LED-Powered Lamp","Verification_Date":null},"id":"stl-city-public-streetlights:2:152307","sourceLayerId":2,"sourceObjectId":152307,"sourceURL":"https://maps8.stlouis-mo.gov/arcgis/rest/services/STREETS/Streets_Permitting/MapServer/2","title":"Street light L045161"},"type":"Feature"},{"geometry":{"coordinates":[-90.26220238843277,38.70105061636303],"type":"Point"},"id":"stl-city-public-streetlights:2:152308","properties":{"address":null,"attributes":{"Date_Installed":"4/23/2018","LED_Powered":1,"LightID":"L045162","Light_Source":"LED","Light_Type":"Cobra","Lighting_Type":"LED-Powered Lamp","Verification_Date":null},"id":"stl-city-public-streetlights:2:152308","sourceLayerId":2,"sourceObjectId":152308,"sourceURL":"https://maps8.stlouis-mo.gov/arcgis/rest/services/STREETS/Streets_Permitting/MapServer/2","title":"Street light L045162"},"type":"Feature"},{"geometry":{"coordinates":[-90.26174679114162,38.700850063896254],"type":"Point"},"id":"stl-city-public-streetlights:2:152309","properties":{"address":null,"attributes":{"Date_Installed":"4/23/2018","LED_Powered":1,"LightID":"L045163","Light_Source":"LED","Light_Type":"Cobra","Lighting_Type":"LED-Powered Lamp","Verification_Date":null},"id":"stl-city-public-streetlights:2:152309","sourceLayerId":2,"sourceObjectId":152309,"sourceURL":"https://maps8.stlouis-mo.gov/arcgis/rest/services/STREETS/Streets_Permitting/MapServer/2","title":"Street light L045163"},"type":"Feature"},{"geometry":{"coordinates":[-90.26131930450005,38.700657910080395],"type":"Point"},"id":"stl-city-public-streetlights:2:152310","properties":{"address":null,"attributes":{"Date_Installed":"4/23/2018","LED_Powered":1,"LightID":"L045164","Light_Source":"LED","Light_Type":"Cobra","Lighting_Type":"LED-Powered Lamp","Verification_Date":null},"id":"stl-city-public-streetlights:2:152310","sourceLayerId":2,"sourceObjectId":152310,"sourceURL":"https://maps8.stlouis-mo.gov/arcgis/rest/services/STREETS/Streets_Permitting/MapServer/2","title":"Street light L045164"},"type":"Feature"},{"geometry":{"coordinates":[-90.26088916474009,38.70046396102613],"type":"Point"},"id":"stl-city-public-streetlights:2:152311","properties":{"address":null,"attributes":{"Date_Installed":"4/23/2018","LED_Powered":1,"LightID":"L045165","Light_Source":"LED","Light_Type":"Cobra","Lighting_Type":"LED-Powered Lamp","Verification_Date":null},"id":"stl-city-public-streetlights:2:152311","sourceLayerId":2,"sourceObjectId":152311,"sourceURL":"https://maps8.stlouis-mo.gov/arcgis/rest/services/STREETS/Streets_Permitting/MapServer/2","title":"Street light L045165"},"type":"Feature"},{"geometry":{"coordinates":[-90.26049128085018,38.70028974086657],"type":"Point"},"id":"stl-city-public-streetlights:2:152312","properties":{"address":null,"attributes":{"Date_Installed":"4/23/2018","LED_Powered":1,"LightID":"L045166","Light_Source":"LED","Light_Type":"Cobra","Lighting_Type":"LED-Powered Lamp","Verification_Date":null},"id":"stl-city-public-streetlights:2:152312","sourceLayerId":2,"sourceObjectId":152312,"sourceURL":"https://maps8.stlouis-mo.gov/arcgis/rest/services/STREETS/Streets_Permitting/MapServer/2","title":"Street light L045166"},"type":"Feature"},{"geometry":{"coordinates":[-90.26006760268781,38.70009759026442],"type":"Point"},"id":"stl-city-public-streetlights:2:152313","properties":{"address":null,"attributes":{"Date_Installed":"4/23/2018","LED_Powered":1,"LightID":"L045167","Light_Source":"LED","Light_Type":"Cobra","Lighting_Type":"LED-Powered Lamp","Verification_Date":null},"id":"stl-city-public-streetlights:2:152313","sourceLayerId":2,"sourceObjectId":152313,"sourceURL":"https://maps8.stlouis-mo.gov/arcgis/rest/services/STREETS/Streets_Permitting/MapServer/2","title":"Street light L045167"},"type":"Feature"},{"geometry":{"coordinates":[-90.26264762474077,38.70097000299035],"type":"Point"},"id":"stl-city-public-streetlights:2:152316","properties":{"address":null,"attributes":{"Date_Installed":"4/23/2018","LED_Powered":1,"LightID":"L045170","Light_Source":"LED","Light_Type":"Cobra","Lighting_Type":"LED-Powered Lamp","Verification_Date":null},"id":"stl-city-public-streetlights:2:152316","sourceLayerId":2,"sourceObjectId":152316,"sourceURL":"https://maps8.stlouis-mo.gov/arcgis/rest/services/STREETS/Streets_Permitting/MapServer/2","title":"Street light L045170"},"type":"Feature"},{"geometry":{"coordinates":[-90.26282732339978,38.700714370812825],"type":"Point"},"id":"stl-city-public-streetlights:2:152317","properties":{"address":null,"attributes":{"Date_Installed":"4/23/2018","LED_Powered":1,"LightID":"L045171","Light_Source":"LED","Light_Type":"Cobra","Lighting_Type":"LED-Powered Lamp","Verification_Date":null},"id":"stl-city-public-streetlights:2:152317","sourceLayerId":2,"sourceObjectId":152317,"sourceURL":"https://maps8.stlouis-mo.gov/arcgis/rest/services/STREETS/Streets_Permitting/MapServer/2","title":"Street light L045171"},"type":"Feature"},{"geometry":{"coordinates":[-90.2629559344075,38.70045434390653],"type":"Point"},"id":"stl-city-public-streetlights:2:152318","properties":{"address":null,"attributes":{"Date_Installed":"4/23/2018","LED_Powered":1,"LightID":"L045172","Light_Source":"LED","Light_Type":"Cobra","Lighting_Type":"LED-Powered Lamp","Verification_Date":null},"id":"stl-city-public-streetlights:2:152318","sourceLayerId":2,"sourceObjectId":152318,"sourceURL":"https://maps8.stlouis-mo.gov/arcgis/rest/services/STREETS/Streets_Permitting/MapServer/2","title":"Street light L045172"},"type":"Feature"},{"geometry":{"coordinates":[-90.26065453453666,38.70041347767868],"type":"Point"},"id":"stl-city-public-streetlights:2:152319","properties":{"address":null,"attributes":{"Date_Installed":"4/23/2018","LED_Powered":1,"LightID":"L045173","Light_Source":"LED","Light_Type":"Cobra","Lighting_Type":"LED-Powered Lamp","Verification_Date":null},"id":"stl-city-public-streetlights:2:152319","sourceLayerId":2,"sourceObjectId":152319,"sourceURL":"https://maps8.stlouis-mo.gov/arcgis/rest/services/STREETS/Streets_Permitting/MapServer/2","title":"Street light L045173"},"type":"Feature"},{"geometry":{"coordinates":[-90.26049193759094,38.70064673576293],"type":"Point"},"id":"stl-city-public-streetlights:2:152320","properties":{"address":null,"attributes":{"Date_Installed":"4/23/2018","LED_Powered":1,"LightID":"L045174","Light_Source":"LED","Light_Type":"Cobra","Lighting_Type":"LED-Powered Lamp","Verification_Date":null},"id":"stl-city-public-streetlights:2:152320","sourceLayerId":2,"sourceObjectId":152320,"sourceURL":"https://maps8.stlouis-mo.gov/arcgis/rest/services/STREETS/Streets_Permitting/MapServer/2","title":"Street light L045174"},"type":"Feature"},{"geometry":{"coordinates":[-90.26028067716153,38.70093876817229],"type":"Point"},"id":"stl-city-public-streetlights:2:152321","properties":{"address":null,"attributes":{"Date_Installed":"4/23/2018","LED_Powered":1,"LightID":"L045175","Light_Source":"LED","Light_Type":"Cobra","Lighting_Type":"LED-Powered Lamp","Verification_Date":null},"id":"stl-city-public-streetlights:2:152321","sourceLayerId":2,"sourceObjectId":152321,"sourceURL":"https://maps8.stlouis-mo.gov/arcgis/rest/services/STREETS/Streets_Permitting/MapServer/2","title":"Street light L045175"},"type":"Feature"},{"geometry":{"coordinates":[-90.26003347018606,38.70127696769047],"type":"Point"},"id":"stl-city-public-streetlights:2:152322","properties":{"address":null,"attributes":{"Date_Installed":"4/23/2018","LED_Powered":1,"LightID":"L045176","Light_Source":"LED","Light_Type":"Cobra","Lighting_Type":"LED-Powered Lamp","Verification_Date":null},"id":"stl-city-public-streetlights:2:152322","sourceLayerId":2,"sourceObjectId":152322,"sourceURL":"https://maps8.stlouis-mo.gov/arcgis/rest/services/STREETS/Streets_Permitting/MapServer/2","title":"Street light L045176"},"type":"Feature"}],"layerId":"city-streetlights","retrievedAt":"2026-09-13T21:56:18.173251+00:00","schema":"property-infrastructure-geojson-v1","sourceId":"stl-city-public-streetlights","tileId":"-9027_3870","type":"FeatureCollection"}