{"features":[{"geometry":{"coordinates":[-90.21927797759851,38.69996120845136],"type":"Point"},"id":"stl-city-public-streetlights:2:126141","properties":{"address":null,"attributes":{"Date_Installed":null,"LED_Powered":0,"LightID":"L018869","Light_Source":"High Pressure Sodium","Light_Type":"Cobra","Lighting_Type":"150-W High Pressure Sodium Vapor Lamp","Verification_Date":null},"id":"stl-city-public-streetlights:2:126141","sourceLayerId":2,"sourceObjectId":126141,"sourceURL":"https://maps8.stlouis-mo.gov/arcgis/rest/services/STREETS/Streets_Permitting/MapServer/2","title":"Street light L018869"},"type":"Feature"},{"geometry":{"coordinates":[-90.21064743272628,38.6901369697229],"type":"Point"},"id":"stl-city-public-streetlights:2:126403","properties":{"address":null,"attributes":{"Date_Installed":null,"LED_Powered":0,"LightID":"L019131","Light_Source":"High Pressure Sodium","Light_Type":"Cobra","Lighting_Type":"400-W High Pressure Sodium Vapor Lamp","Verification_Date":null},"id":"stl-city-public-streetlights:2:126403","sourceLayerId":2,"sourceObjectId":126403,"sourceURL":"https://maps8.stlouis-mo.gov/arcgis/rest/services/STREETS/Streets_Permitting/MapServer/2","title":"Street light L019131"},"type":"Feature"},{"geometry":{"coordinates":[-90.2110288822731,38.690572678886774],"type":"Point"},"id":"stl-city-public-streetlights:2:126404","properties":{"address":null,"attributes":{"Date_Installed":null,"LED_Powered":0,"LightID":"L019132","Light_Source":"High Pressure Sodium","Light_Type":"Cobra","Lighting_Type":"400-W High Pressure Sodium Vapor Lamp","Verification_Date":null},"id":"stl-city-public-streetlights:2:126404","sourceLayerId":2,"sourceObjectId":126404,"sourceURL":"https://maps8.stlouis-mo.gov/arcgis/rest/services/STREETS/Streets_Permitting/MapServer/2","title":"Street light L019132"},"type":"Feature"},{"geometry":{"coordinates":[-90.2114530246834,38.69105668744452],"type":"Point"},"id":"stl-city-public-streetlights:2:126405","properties":{"address":null,"attributes":{"Date_Installed":null,"LED_Powered":0,"LightID":"L019133","Light_Source":"High Pressure Sodium","Light_Type":"Cobra","Lighting_Type":"400-W High Pressure Sodium Vapor Lamp","Verification_Date":null},"id":"stl-city-public-streetlights:2:126405","sourceLayerId":2,"sourceObjectId":126405,"sourceURL":"https://maps8.stlouis-mo.gov/arcgis/rest/services/STREETS/Streets_Permitting/MapServer/2","title":"Street light L019133"},"type":"Feature"},{"geometry":{"coordinates":[-90.21182712649576,38.69147654914816],"type":"Point"},"id":"stl-city-public-streetlights:2:126406","properties":{"address":null,"attributes":{"Date_Installed":null,"LED_Powered":0,"LightID":"L019134","Light_Source":"High Pressure Sodium","Light_Type":"Cobra","Lighting_Type":"400-W High Pressure Sodium Vapor Lamp","Verification_Date":null},"id":"stl-city-public-streetlights:2:126406","sourceLayerId":2,"sourceObjectId":126406,"sourceURL":"https://maps8.stlouis-mo.gov/arcgis/rest/services/STREETS/Streets_Permitting/MapServer/2","title":"Street light L019134"},"type":"Feature"},{"geometry":{"coordinates":[-90.21223016353449,38.69193242507212],"type":"Point"},"id":"stl-city-public-streetlights:2:126407","properties":{"address":null,"attributes":{"Date_Installed":null,"LED_Powered":0,"LightID":"L019135","Light_Source":"High Pressure Sodium","Light_Type":"Cobra","Lighting_Type":"400-W High Pressure Sodium Vapor Lamp","Verification_Date":null},"id":"stl-city-public-streetlights:2:126407","sourceLayerId":2,"sourceObjectId":126407,"sourceURL":"https://maps8.stlouis-mo.gov/arcgis/rest/services/STREETS/Streets_Permitting/MapServer/2","title":"Street light L019135"},"type":"Feature"},{"geometry":{"coordinates":[-90.21264268446119,38.69240610446324],"type":"Point"},"id":"stl-city-public-streetlights:2:126408","properties":{"address":null,"attributes":{"Date_Installed":null,"LED_Powered":0,"LightID":"L019136","Light_Source":"High Pressure Sodium","Light_Type":"Cobra","Lighting_Type":"400-W High Pressure Sodium Vapor Lamp","Verification_Date":null},"id":"stl-city-public-streetlights:2:126408","sourceLayerId":2,"sourceObjectId":126408,"sourceURL":"https://maps8.stlouis-mo.gov/arcgis/rest/services/STREETS/Streets_Permitting/MapServer/2","title":"Street light L019136"},"type":"Feature"},{"geometry":{"coordinates":[-90.21304869746182,38.69286575050108],"type":"Point"},"id":"stl-city-public-streetlights:2:126409","properties":{"address":null,"attributes":{"Date_Installed":null,"LED_Powered":0,"LightID":"L019137","Light_Source":"High Pressure Sodium","Light_Type":"Cobra","Lighting_Type":"400-W High Pressure Sodium Vapor Lamp","Verification_Date":null},"id":"stl-city-public-streetlights:2:126409","sourceLayerId":2,"sourceObjectId":126409,"sourceURL":"https://maps8.stlouis-mo.gov/arcgis/rest/services/STREETS/Streets_Permitting/MapServer/2","title":"Street light L019137"},"type":"Feature"},{"geometry":{"coordinates":[-90.21344465596842,38.69333094781445],"type":"Point"},"id":"stl-city-public-streetlights:2:126410","properties":{"address":null,"attributes":{"Date_Installed":null,"LED_Powered":0,"LightID":"L019138","Light_Source":"High Pressure Sodium","Light_Type":"Cobra","Lighting_Type":"400-W High Pressure Sodium Vapor Lamp","Verification_Date":null},"id":"stl-city-public-streetlights:2:126410","sourceLayerId":2,"sourceObjectId":126410,"sourceURL":"https://maps8.stlouis-mo.gov/arcgis/rest/services/STREETS/Streets_Permitting/MapServer/2","title":"Street light L019138"},"type":"Feature"},{"geometry":{"coordinates":[-90.21385981092959,38.69378889810236],"type":"Point"},"id":"stl-city-public-streetlights:2:126411","properties":{"address":null,"attributes":{"Date_Installed":null,"LED_Powered":0,"LightID":"L019139","Light_Source":"High Pressure Sodium","Light_Type":"Cobra","Lighting_Type":"400-W High Pressure Sodium Vapor Lamp","Verification_Date":null},"id":"stl-city-public-streetlights:2:126411","sourceLayerId":2,"sourceObjectId":126411,"sourceURL":"https://maps8.stlouis-mo.gov/arcgis/rest/services/STREETS/Streets_Permitting/MapServer/2","title":"Street light L019139"},"type":"Feature"},{"geometry":{"coordinates":[-90.2142492797093,38.694236914982994],"type":"Point"},"id":"stl-city-public-streetlights:2:126412","properties":{"address":null,"attributes":{"Date_Installed":null,"LED_Powered":0,"LightID":"L019140","Light_Source":"High Pressure Sodium","Light_Type":"Cobra","Lighting_Type":"400-W High Pressure Sodium Vapor Lamp","Verification_Date":null},"id":"stl-city-public-streetlights:2:126412","sourceLayerId":2,"sourceObjectId":126412,"sourceURL":"https://maps8.stlouis-mo.gov/arcgis/rest/services/STREETS/Streets_Permitting/MapServer/2","title":"Street light L019140"},"type":"Feature"},{"geometry":{"coordinates":[-90.21465075766915,38.694694828084856],"type":"Point"},"id":"stl-city-public-streetlights:2:126413","properties":{"address":null,"attributes":{"Date_Installed":null,"LED_Powered":0,"LightID":"L019141","Light_Source":"High Pressure Sodium","Light_Type":"Cobra","Lighting_Type":"400-W High Pressure Sodium Vapor Lamp","Verification_Date":null},"id":"stl-city-public-streetlights:2:126413","sourceLayerId":2,"sourceObjectId":126413,"sourceURL":"https://maps8.stlouis-mo.gov/arcgis/rest/services/STREETS/Streets_Permitting/MapServer/2","title":"Street light L019141"},"type":"Feature"},{"geometry":{"coordinates":[-90.21503902041444,38.69512710816687],"type":"Point"},"id":"stl-city-public-streetlights:2:126414","properties":{"address":null,"attributes":{"Date_Installed":null,"LED_Powered":0,"LightID":"L019142","Light_Source":"High Pressure Sodium","Light_Type":"Cobra","Lighting_Type":"400-W High Pressure Sodium Vapor Lamp","Verification_Date":null},"id":"stl-city-public-streetlights:2:126414","sourceLayerId":2,"sourceObjectId":126414,"sourceURL":"https://maps8.stlouis-mo.gov/arcgis/rest/services/STREETS/Streets_Permitting/MapServer/2","title":"Street light L019142"},"type":"Feature"},{"geometry":{"coordinates":[-90.21537417228399,38.695516353263955],"type":"Point"},"id":"stl-city-public-streetlights:2:126415","properties":{"address":null,"attributes":{"Date_Installed":null,"LED_Powered":0,"LightID":"L019143","Light_Source":"High Pressure Sodium","Light_Type":"Cobra","Lighting_Type":"400-W High Pressure Sodium Vapor Lamp","Verification_Date":null},"id":"stl-city-public-streetlights:2:126415","sourceLayerId":2,"sourceObjectId":126415,"sourceURL":"https://maps8.stlouis-mo.gov/arcgis/rest/services/STREETS/Streets_Permitting/MapServer/2","title":"Street light L019143"},"type":"Feature"},{"geometry":{"coordinates":[-90.21578110753079,38.69598214217171],"type":"Point"},"id":"stl-city-public-streetlights:2:126416","properties":{"address":null,"attributes":{"Date_Installed":null,"LED_Powered":0,"LightID":"L019144","Light_Source":"High Pressure Sodium","Light_Type":"Cobra","Lighting_Type":"400-W High Pressure Sodium Vapor Lamp","Verification_Date":null},"id":"stl-city-public-streetlights:2:126416","sourceLayerId":2,"sourceObjectId":126416,"sourceURL":"https://maps8.stlouis-mo.gov/arcgis/rest/services/STREETS/Streets_Permitting/MapServer/2","title":"Street light L019144"},"type":"Feature"},{"geometry":{"coordinates":[-90.21617264625591,38.69642028930268],"type":"Point"},"id":"stl-city-public-streetlights:2:126417","properties":{"address":null,"attributes":{"Date_Installed":null,"LED_Powered":0,"LightID":"L019145","Light_Source":"High Pressure Sodium","Light_Type":"Cobra","Lighting_Type":"400-W High Pressure Sodium Vapor Lamp","Verification_Date":null},"id":"stl-city-public-streetlights:2:126417","sourceLayerId":2,"sourceObjectId":126417,"sourceURL":"https://maps8.stlouis-mo.gov/arcgis/rest/services/STREETS/Streets_Permitting/MapServer/2","title":"Street light L019145"},"type":"Feature"},{"geometry":{"coordinates":[-90.21653687859903,38.69684263864479],"type":"Point"},"id":"stl-city-public-streetlights:2:126418","properties":{"address":null,"attributes":{"Date_Installed":null,"LED_Powered":0,"LightID":"L019146","Light_Source":"High Pressure Sodium","Light_Type":"Cobra","Lighting_Type":"400-W High Pressure Sodium Vapor Lamp","Verification_Date":null},"id":"stl-city-public-streetlights:2:126418","sourceLayerId":2,"sourceObjectId":126418,"sourceURL":"https://maps8.stlouis-mo.gov/arcgis/rest/services/STREETS/Streets_Permitting/MapServer/2","title":"Street light L019146"},"type":"Feature"},{"geometry":{"coordinates":[-90.21693843638936,38.6972876721503],"type":"Point"},"id":"stl-city-public-streetlights:2:126419","properties":{"address":null,"attributes":{"Date_Installed":null,"LED_Powered":0,"LightID":"L019147","Light_Source":"High Pressure Sodium","Light_Type":"Cobra","Lighting_Type":"400-W High Pressure Sodium Vapor Lamp","Verification_Date":null},"id":"stl-city-public-streetlights:2:126419","sourceLayerId":2,"sourceObjectId":126419,"sourceURL":"https://maps8.stlouis-mo.gov/arcgis/rest/services/STREETS/Streets_Permitting/MapServer/2","title":"Street light L019147"},"type":"Feature"},{"geometry":{"coordinates":[-90.21732245717332,38.69773838334705],"type":"Point"},"id":"stl-city-public-streetlights:2:126420","properties":{"address":null,"attributes":{"Date_Installed":null,"LED_Powered":0,"LightID":"L019148","Light_Source":"High Pressure Sodium","Light_Type":"Cobra","Lighting_Type":"400-W High Pressure Sodium Vapor Lamp","Verification_Date":null},"id":"stl-city-public-streetlights:2:126420","sourceLayerId":2,"sourceObjectId":126420,"sourceURL":"https://maps8.stlouis-mo.gov/arcgis/rest/services/STREETS/Streets_Permitting/MapServer/2","title":"Street light L019148"},"type":"Feature"},{"geometry":{"coordinates":[-90.21773313836209,38.69818644055639],"type":"Point"},"id":"stl-city-public-streetlights:2:126421","properties":{"address":null,"attributes":{"Date_Installed":null,"LED_Powered":0,"LightID":"L019149","Light_Source":"High Pressure Sodium","Light_Type":"Cobra","Lighting_Type":"400-W High Pressure Sodium Vapor Lamp","Verification_Date":null},"id":"stl-city-public-streetlights:2:126421","sourceLayerId":2,"sourceObjectId":126421,"sourceURL":"https://maps8.stlouis-mo.gov/arcgis/rest/services/STREETS/Streets_Permitting/MapServer/2","title":"Street light L019149"},"type":"Feature"},{"geometry":{"coordinates":[-90.21811518925328,38.698630136395835],"type":"Point"},"id":"stl-city-public-streetlights:2:126422","properties":{"address":null,"attributes":{"Date_Installed":null,"LED_Powered":0,"LightID":"L019150","Light_Source":"High Pressure Sodium","Light_Type":"Cobra","Lighting_Type":"400-W High Pressure Sodium Vapor Lamp","Verification_Date":null},"id":"stl-city-public-streetlights:2:126422","sourceLayerId":2,"sourceObjectId":126422,"sourceURL":"https://maps8.stlouis-mo.gov/arcgis/rest/services/STREETS/Streets_Permitting/MapServer/2","title":"Street light L019150"},"type":"Feature"},{"geometry":{"coordinates":[-90.21850945285942,38.69907872240567],"type":"Point"},"id":"stl-city-public-streetlights:2:126423","properties":{"address":null,"attributes":{"Date_Installed":null,"LED_Powered":0,"LightID":"L019151","Light_Source":"High Pressure Sodium","Light_Type":"Cobra","Lighting_Type":"400-W High Pressure Sodium Vapor Lamp","Verification_Date":null},"id":"stl-city-public-streetlights:2:126423","sourceLayerId":2,"sourceObjectId":126423,"sourceURL":"https://maps8.stlouis-mo.gov/arcgis/rest/services/STREETS/Streets_Permitting/MapServer/2","title":"Street light L019151"},"type":"Feature"},{"geometry":{"coordinates":[-90.21883099601146,38.69945710325842],"type":"Point"},"id":"stl-city-public-streetlights:2:126424","properties":{"address":null,"attributes":{"Date_Installed":null,"LED_Powered":0,"LightID":"L019152","Light_Source":"High Pressure Sodium","Light_Type":"Cobra","Lighting_Type":"400-W High Pressure Sodium Vapor Lamp","Verification_Date":null},"id":"stl-city-public-streetlights:2:126424","sourceLayerId":2,"sourceObjectId":126424,"sourceURL":"https://maps8.stlouis-mo.gov/arcgis/rest/services/STREETS/Streets_Permitting/MapServer/2","title":"Street light L019152"},"type":"Feature"},{"geometry":{"coordinates":[-90.216515308557,38.690219453801085],"type":"Point"},"id":"stl-city-public-streetlights:2:152182","properties":{"address":null,"attributes":{"Date_Installed":null,"LED_Powered":0,"LightID":"L045036","Light_Source":"High Pressure Sodium","Light_Type":"Cobra","Lighting_Type":"250-W High Pressure Sodium Vapor Lamp","Verification_Date":null},"id":"stl-city-public-streetlights:2:152182","sourceLayerId":2,"sourceObjectId":152182,"sourceURL":"https://maps8.stlouis-mo.gov/arcgis/rest/services/STREETS/Streets_Permitting/MapServer/2","title":"Street light L045036"},"type":"Feature"},{"geometry":{"coordinates":[-90.21669725967196,38.69041924075237],"type":"Point"},"id":"stl-city-public-streetlights:2:152183","properties":{"address":null,"attributes":{"Date_Installed":null,"LED_Powered":0,"LightID":"L045037","Light_Source":"High Pressure Sodium","Light_Type":"Cobra","Lighting_Type":"250-W High Pressure Sodium Vapor Lamp","Verification_Date":null},"id":"stl-city-public-streetlights:2:152183","sourceLayerId":2,"sourceObjectId":152183,"sourceURL":"https://maps8.stlouis-mo.gov/arcgis/rest/services/STREETS/Streets_Permitting/MapServer/2","title":"Street light L045037"},"type":"Feature"},{"geometry":{"coordinates":[-90.21702294023578,38.690776845664104],"type":"Point"},"id":"stl-city-public-streetlights:2:152184","properties":{"address":null,"attributes":{"Date_Installed":null,"LED_Powered":0,"LightID":"L045038","Light_Source":"High Pressure Sodium","Light_Type":"Cobra","Lighting_Type":"250-W High Pressure Sodium Vapor Lamp","Verification_Date":null},"id":"stl-city-public-streetlights:2:152184","sourceLayerId":2,"sourceObjectId":152184,"sourceURL":"https://maps8.stlouis-mo.gov/arcgis/rest/services/STREETS/Streets_Permitting/MapServer/2","title":"Street light L045038"},"type":"Feature"},{"geometry":{"coordinates":[-90.21732743420048,38.69111118274375],"type":"Point"},"id":"stl-city-public-streetlights:2:152185","properties":{"address":null,"attributes":{"Date_Installed":null,"LED_Powered":0,"LightID":"L045039","Light_Source":"High Pressure Sodium","Light_Type":"Cobra","Lighting_Type":"250-W High Pressure Sodium Vapor Lamp","Verification_Date":null},"id":"stl-city-public-streetlights:2:152185","sourceLayerId":2,"sourceObjectId":152185,"sourceURL":"https://maps8.stlouis-mo.gov/arcgis/rest/services/STREETS/Streets_Permitting/MapServer/2","title":"Street light L045039"},"type":"Feature"},{"geometry":{"coordinates":[-90.21767502984825,38.69149284184276],"type":"Point"},"id":"stl-city-public-streetlights:2:152186","properties":{"address":null,"attributes":{"Date_Installed":null,"LED_Powered":0,"LightID":"L045040","Light_Source":"High Pressure Sodium","Light_Type":"Cobra","Lighting_Type":"250-W High Pressure Sodium Vapor Lamp","Verification_Date":null},"id":"stl-city-public-streetlights:2:152186","sourceLayerId":2,"sourceObjectId":152186,"sourceURL":"https://maps8.stlouis-mo.gov/arcgis/rest/services/STREETS/Streets_Permitting/MapServer/2","title":"Street light L045040"},"type":"Feature"},{"geometry":{"coordinates":[-90.21792387145452,38.69176606595609],"type":"Point"},"id":"stl-city-public-streetlights:2:152187","properties":{"address":null,"attributes":{"Date_Installed":null,"LED_Powered":0,"LightID":"L045041","Light_Source":"High Pressure Sodium","Light_Type":"Cobra","Lighting_Type":"250-W High Pressure Sodium Vapor Lamp","Verification_Date":null},"id":"stl-city-public-streetlights:2:152187","sourceLayerId":2,"sourceObjectId":152187,"sourceURL":"https://maps8.stlouis-mo.gov/arcgis/rest/services/STREETS/Streets_Permitting/MapServer/2","title":"Street light L045041"},"type":"Feature"},{"geometry":{"coordinates":[-90.2182405654476,38.69207310903005],"type":"Point"},"id":"stl-city-public-streetlights:2:152188","properties":{"address":null,"attributes":{"Date_Installed":null,"LED_Powered":0,"LightID":"L045042","Light_Source":"High Pressure Sodium","Light_Type":"Cobra","Lighting_Type":"250-W High Pressure Sodium Vapor Lamp","Verification_Date":null},"id":"stl-city-public-streetlights:2:152188","sourceLayerId":2,"sourceObjectId":152188,"sourceURL":"https://maps8.stlouis-mo.gov/arcgis/rest/services/STREETS/Streets_Permitting/MapServer/2","title":"Street light L045042"},"type":"Feature"},{"geometry":{"coordinates":[-90.21823689854241,38.69227648662377],"type":"Point"},"id":"stl-city-public-streetlights:2:152189","properties":{"address":null,"attributes":{"Date_Installed":null,"LED_Powered":0,"LightID":"L045043","Light_Source":"High Pressure Sodium","Light_Type":"Cobra","Lighting_Type":"250-W High Pressure Sodium Vapor Lamp","Verification_Date":null},"id":"stl-city-public-streetlights:2:152189","sourceLayerId":2,"sourceObjectId":152189,"sourceURL":"https://maps8.stlouis-mo.gov/arcgis/rest/services/STREETS/Streets_Permitting/MapServer/2","title":"Street light L045043"},"type":"Feature"},{"geometry":{"coordinates":[-90.21883479493252,38.699707694744944],"type":"Point"},"id":"stl-city-public-streetlights:2:152190","properties":{"address":null,"attributes":{"Date_Installed":null,"LED_Powered":0,"LightID":"L045044","Light_Source":"LED","Light_Type":"Cobra","Lighting_Type":"LED-Powered Lamp","Verification_Date":null},"id":"stl-city-public-streetlights:2:152190","sourceLayerId":2,"sourceObjectId":152190,"sourceURL":"https://maps8.stlouis-mo.gov/arcgis/rest/services/STREETS/Streets_Permitting/MapServer/2","title":"Street light L045044"},"type":"Feature"},{"geometry":{"coordinates":[-90.21841964600902,38.699929799544904],"type":"Point"},"id":"stl-city-public-streetlights:2:152191","properties":{"address":null,"attributes":{"Date_Installed":null,"LED_Powered":0,"LightID":"L045045","Light_Source":"LED","Light_Type":"Cobra","Lighting_Type":"LED-Powered Lamp","Verification_Date":null},"id":"stl-city-public-streetlights:2:152191","sourceLayerId":2,"sourceObjectId":152191,"sourceURL":"https://maps8.stlouis-mo.gov/arcgis/rest/services/STREETS/Streets_Permitting/MapServer/2","title":"Street light L045045"},"type":"Feature"},{"geometry":{"coordinates":[-90.21936181307889,38.69967919294696],"type":"Point"},"id":"stl-city-public-streetlights:2:152203","properties":{"address":null,"attributes":{"Date_Installed":null,"LED_Powered":0,"LightID":"L045057","Light_Source":"LED","Light_Type":"Cobra","Lighting_Type":"LED-Powered Lamp","Verification_Date":null},"id":"stl-city-public-streetlights:2:152203","sourceLayerId":2,"sourceObjectId":152203,"sourceURL":"https://maps8.stlouis-mo.gov/arcgis/rest/services/STREETS/Streets_Permitting/MapServer/2","title":"Street light L045057"},"type":"Feature"},{"geometry":{"coordinates":[-90.21893971940322,38.699189450236766],"type":"Point"},"id":"stl-city-public-streetlights:2:152204","properties":{"address":null,"attributes":{"Date_Installed":null,"LED_Powered":0,"LightID":"L045058","Light_Source":"LED","Light_Type":"Cobra","Lighting_Type":"LED-Powered Lamp","Verification_Date":null},"id":"stl-city-public-streetlights:2:152204","sourceLayerId":2,"sourceObjectId":152204,"sourceURL":"https://maps8.stlouis-mo.gov/arcgis/rest/services/STREETS/Streets_Permitting/MapServer/2","title":"Street light L045058"},"type":"Feature"},{"geometry":{"coordinates":[-90.21854361406571,38.69874414945971],"type":"Point"},"id":"stl-city-public-streetlights:2:152205","properties":{"address":null,"attributes":{"Date_Installed":null,"LED_Powered":0,"LightID":"L045059","Light_Source":"LED","Light_Type":"Cobra","Lighting_Type":"LED-Powered Lamp","Verification_Date":null},"id":"stl-city-public-streetlights:2:152205","sourceLayerId":2,"sourceObjectId":152205,"sourceURL":"https://maps8.stlouis-mo.gov/arcgis/rest/services/STREETS/Streets_Permitting/MapServer/2","title":"Street light L045059"},"type":"Feature"},{"geometry":{"coordinates":[-90.21814699393259,38.69829183903022],"type":"Point"},"id":"stl-city-public-streetlights:2:152206","properties":{"address":null,"attributes":{"Date_Installed":null,"LED_Powered":0,"LightID":"L045060","Light_Source":"LED","Light_Type":"Cobra","Lighting_Type":"LED-Powered Lamp","Verification_Date":null},"id":"stl-city-public-streetlights:2:152206","sourceLayerId":2,"sourceObjectId":152206,"sourceURL":"https://maps8.stlouis-mo.gov/arcgis/rest/services/STREETS/Streets_Permitting/MapServer/2","title":"Street light L045060"},"type":"Feature"},{"geometry":{"coordinates":[-90.21774543485552,38.697843806196985],"type":"Point"},"id":"stl-city-public-streetlights:2:152207","properties":{"address":null,"attributes":{"Date_Installed":null,"LED_Powered":0,"LightID":"L045061","Light_Source":"LED","Light_Type":"Cobra","Lighting_Type":"LED-Powered Lamp","Verification_Date":null},"id":"stl-city-public-streetlights:2:152207","sourceLayerId":2,"sourceObjectId":152207,"sourceURL":"https://maps8.stlouis-mo.gov/arcgis/rest/services/STREETS/Streets_Permitting/MapServer/2","title":"Street light L045061"},"type":"Feature"},{"geometry":{"coordinates":[-90.21733959491543,38.697371591903874],"type":"Point"},"id":"stl-city-public-streetlights:2:152208","properties":{"address":null,"attributes":{"Date_Installed":null,"LED_Powered":0,"LightID":"L045062","Light_Source":"LED","Light_Type":"Cobra","Lighting_Type":"LED-Powered Lamp","Verification_Date":null},"id":"stl-city-public-streetlights:2:152208","sourceLayerId":2,"sourceObjectId":152208,"sourceURL":"https://maps8.stlouis-mo.gov/arcgis/rest/services/STREETS/Streets_Permitting/MapServer/2","title":"Street light L045062"},"type":"Feature"},{"geometry":{"coordinates":[-90.21696349290526,38.69694950284195],"type":"Point"},"id":"stl-city-public-streetlights:2:152209","properties":{"address":null,"attributes":{"Date_Installed":null,"LED_Powered":0,"LightID":"L045063","Light_Source":"LED","Light_Type":"Cobra","Lighting_Type":"LED-Powered Lamp","Verification_Date":null},"id":"stl-city-public-streetlights:2:152209","sourceLayerId":2,"sourceObjectId":152209,"sourceURL":"https://maps8.stlouis-mo.gov/arcgis/rest/services/STREETS/Streets_Permitting/MapServer/2","title":"Street light L045063"},"type":"Feature"},{"geometry":{"coordinates":[-90.21658470450326,38.69651567928052],"type":"Point"},"id":"stl-city-public-streetlights:2:152210","properties":{"address":null,"attributes":{"Date_Installed":null,"LED_Powered":0,"LightID":"L045064","Light_Source":"LED","Light_Type":"Cobra","Lighting_Type":"LED-Powered Lamp","Verification_Date":null},"id":"stl-city-public-streetlights:2:152210","sourceLayerId":2,"sourceObjectId":152210,"sourceURL":"https://maps8.stlouis-mo.gov/arcgis/rest/services/STREETS/Streets_Permitting/MapServer/2","title":"Street light L045064"},"type":"Feature"},{"geometry":{"coordinates":[-90.21620317285078,38.696084278383225],"type":"Point"},"id":"stl-city-public-streetlights:2:152211","properties":{"address":null,"attributes":{"Date_Installed":null,"LED_Powered":0,"LightID":"L045065","Light_Source":"LED","Light_Type":"Cobra","Lighting_Type":"LED-Powered Lamp","Verification_Date":null},"id":"stl-city-public-streetlights:2:152211","sourceLayerId":2,"sourceObjectId":152211,"sourceURL":"https://maps8.stlouis-mo.gov/arcgis/rest/services/STREETS/Streets_Permitting/MapServer/2","title":"Street light L045065"},"type":"Feature"},{"geometry":{"coordinates":[-90.21585530863877,38.69567770069734],"type":"Point"},"id":"stl-city-public-streetlights:2:152212","properties":{"address":null,"attributes":{"Date_Installed":null,"LED_Powered":0,"LightID":"L045066","Light_Source":"LED","Light_Type":"Cobra","Lighting_Type":"LED-Powered Lamp","Verification_Date":null},"id":"stl-city-public-streetlights:2:152212","sourceLayerId":2,"sourceObjectId":152212,"sourceURL":"https://maps8.stlouis-mo.gov/arcgis/rest/services/STREETS/Streets_Permitting/MapServer/2","title":"Street light L045066"},"type":"Feature"},{"geometry":{"coordinates":[-90.21540925560384,38.695182355350596],"type":"Point"},"id":"stl-city-public-streetlights:2:152213","properties":{"address":null,"attributes":{"Date_Installed":null,"LED_Powered":0,"LightID":"L045067","Light_Source":"LED","Light_Type":"Cobra","Lighting_Type":"LED-Powered Lamp","Verification_Date":null},"id":"stl-city-public-streetlights:2:152213","sourceLayerId":2,"sourceObjectId":152213,"sourceURL":"https://maps8.stlouis-mo.gov/arcgis/rest/services/STREETS/Streets_Permitting/MapServer/2","title":"Street light L045067"},"type":"Feature"},{"geometry":{"coordinates":[-90.21507136355042,38.6947945342552],"type":"Point"},"id":"stl-city-public-streetlights:2:152214","properties":{"address":null,"attributes":{"Date_Installed":null,"LED_Powered":0,"LightID":"L045068","Light_Source":"LED","Light_Type":"Cobra","Lighting_Type":"LED-Powered Lamp","Verification_Date":null},"id":"stl-city-public-streetlights:2:152214","sourceLayerId":2,"sourceObjectId":152214,"sourceURL":"https://maps8.stlouis-mo.gov/arcgis/rest/services/STREETS/Streets_Permitting/MapServer/2","title":"Street light L045068"},"type":"Feature"},{"geometry":{"coordinates":[-90.21467768349227,38.69434808280627],"type":"Point"},"id":"stl-city-public-streetlights:2:152215","properties":{"address":null,"attributes":{"Date_Installed":null,"LED_Powered":0,"LightID":"L045069","Light_Source":"LED","Light_Type":"Cobra","Lighting_Type":"LED-Powered Lamp","Verification_Date":null},"id":"stl-city-public-streetlights:2:152215","sourceLayerId":2,"sourceObjectId":152215,"sourceURL":"https://maps8.stlouis-mo.gov/arcgis/rest/services/STREETS/Streets_Permitting/MapServer/2","title":"Street light L045069"},"type":"Feature"},{"geometry":{"coordinates":[-90.21427729080852,38.69389288947888],"type":"Point"},"id":"stl-city-public-streetlights:2:152216","properties":{"address":null,"attributes":{"Date_Installed":null,"LED_Powered":0,"LightID":"L045070","Light_Source":"LED","Light_Type":"Cobra","Lighting_Type":"LED-Powered Lamp","Verification_Date":null},"id":"stl-city-public-streetlights:2:152216","sourceLayerId":2,"sourceObjectId":152216,"sourceURL":"https://maps8.stlouis-mo.gov/arcgis/rest/services/STREETS/Streets_Permitting/MapServer/2","title":"Street light L045070"},"type":"Feature"},{"geometry":{"coordinates":[-90.21386854029745,38.69342995105521],"type":"Point"},"id":"stl-city-public-streetlights:2:152217","properties":{"address":null,"attributes":{"Date_Installed":null,"LED_Powered":0,"LightID":"L045071","Light_Source":"LED","Light_Type":"Cobra","Lighting_Type":"LED-Powered Lamp","Verification_Date":null},"id":"stl-city-public-streetlights:2:152217","sourceLayerId":2,"sourceObjectId":152217,"sourceURL":"https://maps8.stlouis-mo.gov/arcgis/rest/services/STREETS/Streets_Permitting/MapServer/2","title":"Street light L045071"},"type":"Feature"},{"geometry":{"coordinates":[-90.21346614226398,38.69297689588398],"type":"Point"},"id":"stl-city-public-streetlights:2:152218","properties":{"address":null,"attributes":{"Date_Installed":null,"LED_Powered":0,"LightID":"L045072","Light_Source":"LED","Light_Type":"Cobra","Lighting_Type":"LED-Powered Lamp","Verification_Date":null},"id":"stl-city-public-streetlights:2:152218","sourceLayerId":2,"sourceObjectId":152218,"sourceURL":"https://maps8.stlouis-mo.gov/arcgis/rest/services/STREETS/Streets_Permitting/MapServer/2","title":"Street light L045072"},"type":"Feature"},{"geometry":{"coordinates":[-90.21306347954238,38.692515400102465],"type":"Point"},"id":"stl-city-public-streetlights:2:152219","properties":{"address":null,"attributes":{"Date_Installed":null,"LED_Powered":0,"LightID":"L045073","Light_Source":"LED","Light_Type":"Cobra","Lighting_Type":"LED-Powered Lamp","Verification_Date":null},"id":"stl-city-public-streetlights:2:152219","sourceLayerId":2,"sourceObjectId":152219,"sourceURL":"https://maps8.stlouis-mo.gov/arcgis/rest/services/STREETS/Streets_Permitting/MapServer/2","title":"Street light L045073"},"type":"Feature"},{"geometry":{"coordinates":[-90.21266413550215,38.6920614901679],"type":"Point"},"id":"stl-city-public-streetlights:2:152220","properties":{"address":null,"attributes":{"Date_Installed":null,"LED_Powered":0,"LightID":"L045074","Light_Source":"LED","Light_Type":"Cobra","Lighting_Type":"LED-Powered Lamp","Verification_Date":null},"id":"stl-city-public-streetlights:2:152220","sourceLayerId":2,"sourceObjectId":152220,"sourceURL":"https://maps8.stlouis-mo.gov/arcgis/rest/services/STREETS/Streets_Permitting/MapServer/2","title":"Street light L045074"},"type":"Feature"},{"geometry":{"coordinates":[-90.21226161348162,38.69159784691618],"type":"Point"},"id":"stl-city-public-streetlights:2:152221","properties":{"address":null,"attributes":{"Date_Installed":null,"LED_Powered":0,"LightID":"L045075","Light_Source":"LED","Light_Type":"Cobra","Lighting_Type":"LED-Powered Lamp","Verification_Date":null},"id":"stl-city-public-streetlights:2:152221","sourceLayerId":2,"sourceObjectId":152221,"sourceURL":"https://maps8.stlouis-mo.gov/arcgis/rest/services/STREETS/Streets_Permitting/MapServer/2","title":"Street light L045075"},"type":"Feature"},{"geometry":{"coordinates":[-90.21179027666741,38.691071963796674],"type":"Point"},"id":"stl-city-public-streetlights:2:152222","properties":{"address":null,"attributes":{"Date_Installed":null,"LED_Powered":0,"LightID":"L045076","Light_Source":"LED","Light_Type":"Cobra","Lighting_Type":"LED-Powered Lamp","Verification_Date":null},"id":"stl-city-public-streetlights:2:152222","sourceLayerId":2,"sourceObjectId":152222,"sourceURL":"https://maps8.stlouis-mo.gov/arcgis/rest/services/STREETS/Streets_Permitting/MapServer/2","title":"Street light L045076"},"type":"Feature"},{"geometry":{"coordinates":[-90.21145454702695,38.690677701468694],"type":"Point"},"id":"stl-city-public-streetlights:2:152223","properties":{"address":null,"attributes":{"Date_Installed":null,"LED_Powered":0,"LightID":"L045077","Light_Source":"LED","Light_Type":"Cobra","Lighting_Type":"LED-Powered Lamp","Verification_Date":null},"id":"stl-city-public-streetlights:2:152223","sourceLayerId":2,"sourceObjectId":152223,"sourceURL":"https://maps8.stlouis-mo.gov/arcgis/rest/services/STREETS/Streets_Permitting/MapServer/2","title":"Street light L045077"},"type":"Feature"},{"geometry":{"coordinates":[-90.21105217152854,38.69022663963324],"type":"Point"},"id":"stl-city-public-streetlights:2:152224","properties":{"address":null,"attributes":{"Date_Installed":null,"LED_Powered":0,"LightID":"L045078","Light_Source":"LED","Light_Type":"Cobra","Lighting_Type":"LED-Powered Lamp","Verification_Date":null},"id":"stl-city-public-streetlights:2:152224","sourceLayerId":2,"sourceObjectId":152224,"sourceURL":"https://maps8.stlouis-mo.gov/arcgis/rest/services/STREETS/Streets_Permitting/MapServer/2","title":"Street light L045078"},"type":"Feature"}],"layerId":"city-streetlights","retrievedAt":"2026-09-13T21:56:18.173251+00:00","schema":"property-infrastructure-geojson-v1","sourceId":"stl-city-public-streetlights","tileId":"-9022_3869","type":"FeatureCollection"}