{"features":[{"geometry":{"coordinates":[-90.21982189471666,38.70056908677168],"type":"Point"},"id":"stl-city-public-streetlights:2:126142","properties":{"address":null,"attributes":{"Date_Installed":null,"LED_Powered":0,"LightID":"L018870","Light_Source":"High Pressure Sodium","Light_Type":"Cobra","Lighting_Type":"150-W High Pressure Sodium Vapor Lamp","Verification_Date":null},"id":"stl-city-public-streetlights:2:126142","sourceLayerId":2,"sourceObjectId":126142,"sourceURL":"https://maps8.stlouis-mo.gov/arcgis/rest/services/STREETS/Streets_Permitting/MapServer/2","title":"Street light L018870"},"type":"Feature"},{"geometry":{"coordinates":[-90.21796322188284,38.70015866711761],"type":"Point"},"id":"stl-city-public-streetlights:2:152192","properties":{"address":null,"attributes":{"Date_Installed":null,"LED_Powered":0,"LightID":"L045046","Light_Source":"LED","Light_Type":"Cobra","Lighting_Type":"LED-Powered Lamp","Verification_Date":null},"id":"stl-city-public-streetlights:2:152192","sourceLayerId":2,"sourceObjectId":152192,"sourceURL":"https://maps8.stlouis-mo.gov/arcgis/rest/services/STREETS/Streets_Permitting/MapServer/2","title":"Street light L045046"},"type":"Feature"},{"geometry":{"coordinates":[-90.21740555926404,38.70042046857469],"type":"Point"},"id":"stl-city-public-streetlights:2:152193","properties":{"address":null,"attributes":{"Date_Installed":null,"LED_Powered":0,"LightID":"L045047","Light_Source":"LED","Light_Type":"Cobra","Lighting_Type":"LED-Powered Lamp","Verification_Date":null},"id":"stl-city-public-streetlights:2:152193","sourceLayerId":2,"sourceObjectId":152193,"sourceURL":"https://maps8.stlouis-mo.gov/arcgis/rest/services/STREETS/Streets_Permitting/MapServer/2","title":"Street light L045047"},"type":"Feature"},{"geometry":{"coordinates":[-90.21695000098573,38.700659345729505],"type":"Point"},"id":"stl-city-public-streetlights:2:152194","properties":{"address":null,"attributes":{"Date_Installed":null,"LED_Powered":0,"LightID":"L045048","Light_Source":"LED","Light_Type":"Cobra","Lighting_Type":"LED-Powered Lamp","Verification_Date":null},"id":"stl-city-public-streetlights:2:152194","sourceLayerId":2,"sourceObjectId":152194,"sourceURL":"https://maps8.stlouis-mo.gov/arcgis/rest/services/STREETS/Streets_Permitting/MapServer/2","title":"Street light L045048"},"type":"Feature"},{"geometry":{"coordinates":[-90.21653038632724,38.70085425973805],"type":"Point"},"id":"stl-city-public-streetlights:2:152195","properties":{"address":null,"attributes":{"Date_Installed":null,"LED_Powered":0,"LightID":"L045049","Light_Source":"LED","Light_Type":"Cobra","Lighting_Type":"LED-Powered Lamp","Verification_Date":null},"id":"stl-city-public-streetlights:2:152195","sourceLayerId":2,"sourceObjectId":152195,"sourceURL":"https://maps8.stlouis-mo.gov/arcgis/rest/services/STREETS/Streets_Permitting/MapServer/2","title":"Street light L045049"},"type":"Feature"},{"geometry":{"coordinates":[-90.21608964218649,38.70108415973216],"type":"Point"},"id":"stl-city-public-streetlights:2:152196","properties":{"address":null,"attributes":{"Date_Installed":null,"LED_Powered":0,"LightID":"L045050","Light_Source":"High Pressure Sodium","Light_Type":"Cobra","Lighting_Type":"150-W High Pressure Sodium Vapor Lamp","Verification_Date":null},"id":"stl-city-public-streetlights:2:152196","sourceLayerId":2,"sourceObjectId":152196,"sourceURL":"https://maps8.stlouis-mo.gov/arcgis/rest/services/STREETS/Streets_Permitting/MapServer/2","title":"Street light L045050"},"type":"Feature"},{"geometry":{"coordinates":[-90.2156326940375,38.70130314863951],"type":"Point"},"id":"stl-city-public-streetlights:2:152197","properties":{"address":null,"attributes":{"Date_Installed":null,"LED_Powered":0,"LightID":"L045051","Light_Source":"High Pressure Sodium","Light_Type":"Cobra","Lighting_Type":"150-W High Pressure Sodium Vapor Lamp","Verification_Date":null},"id":"stl-city-public-streetlights:2:152197","sourceLayerId":2,"sourceObjectId":152197,"sourceURL":"https://maps8.stlouis-mo.gov/arcgis/rest/services/STREETS/Streets_Permitting/MapServer/2","title":"Street light L045051"},"type":"Feature"},{"geometry":{"coordinates":[-90.21520755099233,38.701509485591444],"type":"Point"},"id":"stl-city-public-streetlights:2:152198","properties":{"address":null,"attributes":{"Date_Installed":null,"LED_Powered":0,"LightID":"L045052","Light_Source":"LED","Light_Type":"Cobra","Lighting_Type":"LED-Powered Lamp","Verification_Date":null},"id":"stl-city-public-streetlights:2:152198","sourceLayerId":2,"sourceObjectId":152198,"sourceURL":"https://maps8.stlouis-mo.gov/arcgis/rest/services/STREETS/Streets_Permitting/MapServer/2","title":"Street light L045052"},"type":"Feature"},{"geometry":{"coordinates":[-90.21972762409656,38.70009576762046],"type":"Point"},"id":"stl-city-public-streetlights:2:152202","properties":{"address":null,"attributes":{"Date_Installed":null,"LED_Powered":0,"LightID":"L045056","Light_Source":"High Pressure Sodium","Light_Type":"Cobra","Lighting_Type":"400-W High Pressure Sodium Vapor Lamp","Verification_Date":null},"id":"stl-city-public-streetlights:2:152202","sourceLayerId":2,"sourceObjectId":152202,"sourceURL":"https://maps8.stlouis-mo.gov/arcgis/rest/services/STREETS/Streets_Permitting/MapServer/2","title":"Street light L045056"},"type":"Feature"}],"layerId":"city-streetlights","retrievedAt":"2026-09-13T21:56:18.173251+00:00","schema":"property-infrastructure-geojson-v1","sourceId":"stl-city-public-streetlights","tileId":"-9022_3870","type":"FeatureCollection"}