{"features":[{"geometry":{"coordinates":[-90.26508942238857,38.69962652237386],"type":"Point"},"id":"stl-city-public-streetlights:2:126947","properties":{"address":null,"attributes":{"Date_Installed":null,"LED_Powered":0,"LightID":"L019663","Light_Source":"LED","Light_Type":"Cobra","Lighting_Type":"LED-Powered Lamp","Verification_Date":null},"id":"stl-city-public-streetlights:2:126947","sourceLayerId":2,"sourceObjectId":126947,"sourceURL":"https://maps8.stlouis-mo.gov/arcgis/rest/services/STREETS/Streets_Permitting/MapServer/2","title":"Street light L019663"},"type":"Feature"},{"geometry":{"coordinates":[-90.265481249939,38.69979535092959],"type":"Point"},"id":"stl-city-public-streetlights:2:126948","properties":{"address":null,"attributes":{"Date_Installed":null,"LED_Powered":0,"LightID":"L019664","Light_Source":"LED","Light_Type":"Cobra","Lighting_Type":"LED-Powered Lamp","Verification_Date":null},"id":"stl-city-public-streetlights:2:126948","sourceLayerId":2,"sourceObjectId":126948,"sourceURL":"https://maps8.stlouis-mo.gov/arcgis/rest/services/STREETS/Streets_Permitting/MapServer/2","title":"Street light L019664"},"type":"Feature"},{"geometry":{"coordinates":[-90.26591314675079,38.6999892866414],"type":"Point"},"id":"stl-city-public-streetlights:2:126949","properties":{"address":null,"attributes":{"Date_Installed":null,"LED_Powered":0,"LightID":"L019665","Light_Source":"LED","Light_Type":"Cobra","Lighting_Type":"LED-Powered Lamp","Verification_Date":null},"id":"stl-city-public-streetlights:2:126949","sourceLayerId":2,"sourceObjectId":126949,"sourceURL":"https://maps8.stlouis-mo.gov/arcgis/rest/services/STREETS/Streets_Permitting/MapServer/2","title":"Street light L019665"},"type":"Feature"},{"geometry":{"coordinates":[-90.26680681460871,38.699536374462866],"type":"Point"},"id":"stl-city-public-streetlights:2:126951","properties":{"address":null,"attributes":{"Date_Installed":null,"LED_Powered":0,"LightID":"L019667","Light_Source":"LED","Light_Type":"Cobra","Lighting_Type":"LED-Powered Lamp","Verification_Date":null},"id":"stl-city-public-streetlights:2:126951","sourceLayerId":2,"sourceObjectId":126951,"sourceURL":"https://maps8.stlouis-mo.gov/arcgis/rest/services/STREETS/Streets_Permitting/MapServer/2","title":"Street light L019667"},"type":"Feature"},{"geometry":{"coordinates":[-90.26640951790895,38.69936539351768],"type":"Point"},"id":"stl-city-public-streetlights:2:126952","properties":{"address":null,"attributes":{"Date_Installed":null,"LED_Powered":0,"LightID":"L019668","Light_Source":"LED","Light_Type":"Cobra","Lighting_Type":"LED-Powered Lamp","Verification_Date":null},"id":"stl-city-public-streetlights:2:126952","sourceLayerId":2,"sourceObjectId":126952,"sourceURL":"https://maps8.stlouis-mo.gov/arcgis/rest/services/STREETS/Streets_Permitting/MapServer/2","title":"Street light L019668"},"type":"Feature"},{"geometry":{"coordinates":[-90.2660013058042,38.69918437789494],"type":"Point"},"id":"stl-city-public-streetlights:2:126953","properties":{"address":null,"attributes":{"Date_Installed":null,"LED_Powered":0,"LightID":"L019669","Light_Source":"LED","Light_Type":"Cobra","Lighting_Type":"LED-Powered Lamp","Verification_Date":null},"id":"stl-city-public-streetlights:2:126953","sourceLayerId":2,"sourceObjectId":126953,"sourceURL":"https://maps8.stlouis-mo.gov/arcgis/rest/services/STREETS/Streets_Permitting/MapServer/2","title":"Street light L019669"},"type":"Feature"},{"geometry":{"coordinates":[-90.26561058639824,38.69901269299244],"type":"Point"},"id":"stl-city-public-streetlights:2:126954","properties":{"address":null,"attributes":{"Date_Installed":null,"LED_Powered":0,"LightID":"L019670","Light_Source":"LED","Light_Type":"Cobra","Lighting_Type":"LED-Powered Lamp","Verification_Date":null},"id":"stl-city-public-streetlights:2:126954","sourceLayerId":2,"sourceObjectId":126954,"sourceURL":"https://maps8.stlouis-mo.gov/arcgis/rest/services/STREETS/Streets_Permitting/MapServer/2","title":"Street light L019670"},"type":"Feature"},{"geometry":{"coordinates":[-90.26604711753625,38.69835231279706],"type":"Point"},"id":"stl-city-public-streetlights:2:126955","properties":{"address":null,"attributes":{"Date_Installed":null,"LED_Powered":0,"LightID":"L019671","Light_Source":"LED","Light_Type":"Cobra","Lighting_Type":"LED-Powered Lamp","Verification_Date":null},"id":"stl-city-public-streetlights:2:126955","sourceLayerId":2,"sourceObjectId":126955,"sourceURL":"https://maps8.stlouis-mo.gov/arcgis/rest/services/STREETS/Streets_Permitting/MapServer/2","title":"Street light L019671"},"type":"Feature"},{"geometry":{"coordinates":[-90.26641888495058,38.698514663118885],"type":"Point"},"id":"stl-city-public-streetlights:2:126956","properties":{"address":null,"attributes":{"Date_Installed":null,"LED_Powered":0,"LightID":"L019672","Light_Source":"LED","Light_Type":"Cobra","Lighting_Type":"LED-Powered Lamp","Verification_Date":null},"id":"stl-city-public-streetlights:2:126956","sourceLayerId":2,"sourceObjectId":126956,"sourceURL":"https://maps8.stlouis-mo.gov/arcgis/rest/services/STREETS/Streets_Permitting/MapServer/2","title":"Street light L019672"},"type":"Feature"},{"geometry":{"coordinates":[-90.26683475189407,38.69869812314017],"type":"Point"},"id":"stl-city-public-streetlights:2:126957","properties":{"address":null,"attributes":{"Date_Installed":null,"LED_Powered":0,"LightID":"L019673","Light_Source":"LED","Light_Type":"Cobra","Lighting_Type":"LED-Powered Lamp","Verification_Date":null},"id":"stl-city-public-streetlights:2:126957","sourceLayerId":2,"sourceObjectId":126957,"sourceURL":"https://maps8.stlouis-mo.gov/arcgis/rest/services/STREETS/Streets_Permitting/MapServer/2","title":"Street light L019673"},"type":"Feature"},{"geometry":{"coordinates":[-90.26726665507226,38.69888919360341],"type":"Point"},"id":"stl-city-public-streetlights:2:126958","properties":{"address":null,"attributes":{"Date_Installed":null,"LED_Powered":0,"LightID":"L019674","Light_Source":"LED","Light_Type":"Cobra","Lighting_Type":"LED-Powered Lamp","Verification_Date":null},"id":"stl-city-public-streetlights:2:126958","sourceLayerId":2,"sourceObjectId":126958,"sourceURL":"https://maps8.stlouis-mo.gov/arcgis/rest/services/STREETS/Streets_Permitting/MapServer/2","title":"Street light L019674"},"type":"Feature"},{"geometry":{"coordinates":[-90.26779784861512,38.69826886096349],"type":"Point"},"id":"stl-city-public-streetlights:2:126959","properties":{"address":null,"attributes":{"Date_Installed":null,"LED_Powered":0,"LightID":"L019675","Light_Source":"LED","Light_Type":"Cobra","Lighting_Type":"LED-Powered Lamp","Verification_Date":null},"id":"stl-city-public-streetlights:2:126959","sourceLayerId":2,"sourceObjectId":126959,"sourceURL":"https://maps8.stlouis-mo.gov/arcgis/rest/services/STREETS/Streets_Permitting/MapServer/2","title":"Street light L019675"},"type":"Feature"},{"geometry":{"coordinates":[-90.2671277374766,38.697976259347165],"type":"Point"},"id":"stl-city-public-streetlights:2:126960","properties":{"address":null,"attributes":{"Date_Installed":null,"LED_Powered":0,"LightID":"L019676","Light_Source":"LED","Light_Type":"Cobra","Lighting_Type":"LED-Powered Lamp","Verification_Date":null},"id":"stl-city-public-streetlights:2:126960","sourceLayerId":2,"sourceObjectId":126960,"sourceURL":"https://maps8.stlouis-mo.gov/arcgis/rest/services/STREETS/Streets_Permitting/MapServer/2","title":"Street light L019676"},"type":"Feature"},{"geometry":{"coordinates":[-90.26652634922316,38.69771405799382],"type":"Point"},"id":"stl-city-public-streetlights:2:126961","properties":{"address":null,"attributes":{"Date_Installed":null,"LED_Powered":0,"LightID":"L019677","Light_Source":"LED","Light_Type":"Cobra","Lighting_Type":"LED-Powered Lamp","Verification_Date":null},"id":"stl-city-public-streetlights:2:126961","sourceLayerId":2,"sourceObjectId":126961,"sourceURL":"https://maps8.stlouis-mo.gov/arcgis/rest/services/STREETS/Streets_Permitting/MapServer/2","title":"Street light L019677"},"type":"Feature"},{"geometry":{"coordinates":[-90.26756337852386,38.69797461800823],"type":"Point"},"id":"stl-city-public-streetlights:2:126962","properties":{"address":null,"attributes":{"Date_Installed":null,"LED_Powered":0,"LightID":"L019678","Light_Source":"LED","Light_Type":"Cobra","Lighting_Type":"LED-Powered Lamp","Verification_Date":null},"id":"stl-city-public-streetlights:2:126962","sourceLayerId":2,"sourceObjectId":126962,"sourceURL":"https://maps8.stlouis-mo.gov/arcgis/rest/services/STREETS/Streets_Permitting/MapServer/2","title":"Street light L019678"},"type":"Feature"},{"geometry":{"coordinates":[-90.26691696429191,38.69769147737526],"type":"Point"},"id":"stl-city-public-streetlights:2:126963","properties":{"address":null,"attributes":{"Date_Installed":null,"LED_Powered":0,"LightID":"L019679","Light_Source":"LED","Light_Type":"Cobra","Lighting_Type":"LED-Powered Lamp","Verification_Date":null},"id":"stl-city-public-streetlights:2:126963","sourceLayerId":2,"sourceObjectId":126963,"sourceURL":"https://maps8.stlouis-mo.gov/arcgis/rest/services/STREETS/Streets_Permitting/MapServer/2","title":"Street light L019679"},"type":"Feature"},{"geometry":{"coordinates":[-90.26546282792408,38.697281202588854],"type":"Point"},"id":"stl-city-public-streetlights:2:126964","properties":{"address":null,"attributes":{"Date_Installed":null,"LED_Powered":0,"LightID":"L019680","Light_Source":"LED","Light_Type":"Cobra","Lighting_Type":"LED-Powered Lamp","Verification_Date":null},"id":"stl-city-public-streetlights:2:126964","sourceLayerId":2,"sourceObjectId":126964,"sourceURL":"https://maps8.stlouis-mo.gov/arcgis/rest/services/STREETS/Streets_Permitting/MapServer/2","title":"Street light L019680"},"type":"Feature"},{"geometry":{"coordinates":[-90.26508924941487,38.697116700567996],"type":"Point"},"id":"stl-city-public-streetlights:2:126965","properties":{"address":null,"attributes":{"Date_Installed":null,"LED_Powered":0,"LightID":"L019681","Light_Source":"LED","Light_Type":"Cobra","Lighting_Type":"LED-Powered Lamp","Verification_Date":null},"id":"stl-city-public-streetlights:2:126965","sourceLayerId":2,"sourceObjectId":126965,"sourceURL":"https://maps8.stlouis-mo.gov/arcgis/rest/services/STREETS/Streets_Permitting/MapServer/2","title":"Street light L019681"},"type":"Feature"},{"geometry":{"coordinates":[-90.2647408806834,38.69696368835375],"type":"Point"},"id":"stl-city-public-streetlights:2:126966","properties":{"address":null,"attributes":{"Date_Installed":null,"LED_Powered":0,"LightID":"L019682","Light_Source":"LED","Light_Type":"Cobra","Lighting_Type":"LED-Powered Lamp","Verification_Date":null},"id":"stl-city-public-streetlights:2:126966","sourceLayerId":2,"sourceObjectId":126966,"sourceURL":"https://maps8.stlouis-mo.gov/arcgis/rest/services/STREETS/Streets_Permitting/MapServer/2","title":"Street light L019682"},"type":"Feature"},{"geometry":{"coordinates":[-90.26432514661285,38.696633726201],"type":"Point"},"id":"stl-city-public-streetlights:2:126967","properties":{"address":null,"attributes":{"Date_Installed":null,"LED_Powered":0,"LightID":"L019683","Light_Source":"LED","Light_Type":"Cobra","Lighting_Type":"LED-Powered Lamp","Verification_Date":null},"id":"stl-city-public-streetlights:2:126967","sourceLayerId":2,"sourceObjectId":126967,"sourceURL":"https://maps8.stlouis-mo.gov/arcgis/rest/services/STREETS/Streets_Permitting/MapServer/2","title":"Street light L019683"},"type":"Feature"},{"geometry":{"coordinates":[-90.26389266968971,38.69643835367148],"type":"Point"},"id":"stl-city-public-streetlights:2:126968","properties":{"address":null,"attributes":{"Date_Installed":null,"LED_Powered":0,"LightID":"L019684","Light_Source":"LED","Light_Type":"Cobra","Lighting_Type":"LED-Powered Lamp","Verification_Date":null},"id":"stl-city-public-streetlights:2:126968","sourceLayerId":2,"sourceObjectId":126968,"sourceURL":"https://maps8.stlouis-mo.gov/arcgis/rest/services/STREETS/Streets_Permitting/MapServer/2","title":"Street light L019684"},"type":"Feature"},{"geometry":{"coordinates":[-90.26347962394351,38.696254459125676],"type":"Point"},"id":"stl-city-public-streetlights:2:126969","properties":{"address":null,"attributes":{"Date_Installed":null,"LED_Powered":0,"LightID":"L019685","Light_Source":"LED","Light_Type":"Cobra","Lighting_Type":"LED-Powered Lamp","Verification_Date":null},"id":"stl-city-public-streetlights:2:126969","sourceLayerId":2,"sourceObjectId":126969,"sourceURL":"https://maps8.stlouis-mo.gov/arcgis/rest/services/STREETS/Streets_Permitting/MapServer/2","title":"Street light L019685"},"type":"Feature"},{"geometry":{"coordinates":[-90.26308067947645,38.696074787989645],"type":"Point"},"id":"stl-city-public-streetlights:2:126970","properties":{"address":null,"attributes":{"Date_Installed":null,"LED_Powered":0,"LightID":"L019686","Light_Source":"LED","Light_Type":"Cobra","Lighting_Type":"LED-Powered Lamp","Verification_Date":null},"id":"stl-city-public-streetlights:2:126970","sourceLayerId":2,"sourceObjectId":126970,"sourceURL":"https://maps8.stlouis-mo.gov/arcgis/rest/services/STREETS/Streets_Permitting/MapServer/2","title":"Street light L019686"},"type":"Feature"},{"geometry":{"coordinates":[-90.26262147597936,38.69586982167561],"type":"Point"},"id":"stl-city-public-streetlights:2:126971","properties":{"address":null,"attributes":{"Date_Installed":null,"LED_Powered":0,"LightID":"L019687","Light_Source":"LED","Light_Type":"Cobra","Lighting_Type":"LED-Powered Lamp","Verification_Date":null},"id":"stl-city-public-streetlights:2:126971","sourceLayerId":2,"sourceObjectId":126971,"sourceURL":"https://maps8.stlouis-mo.gov/arcgis/rest/services/STREETS/Streets_Permitting/MapServer/2","title":"Street light L019687"},"type":"Feature"},{"geometry":{"coordinates":[-90.26231818614052,38.695608937564515],"type":"Point"},"id":"stl-city-public-streetlights:2:127180","properties":{"address":null,"attributes":{"Date_Installed":null,"LED_Powered":0,"LightID":"L019896","Light_Source":"LED","Light_Type":"Cobra","Lighting_Type":"LED-Powered Lamp","Verification_Date":null},"id":"stl-city-public-streetlights:2:127180","sourceLayerId":2,"sourceObjectId":127180,"sourceURL":"https://maps8.stlouis-mo.gov/arcgis/rest/services/STREETS/Streets_Permitting/MapServer/2","title":"Street light L019896"},"type":"Feature"},{"geometry":{"coordinates":[-90.26222458570987,38.695217839756424],"type":"Point"},"id":"stl-city-public-streetlights:2:127181","properties":{"address":null,"attributes":{"Date_Installed":null,"LED_Powered":0,"LightID":"L019897","Light_Source":"LED","Light_Type":"Cobra","Lighting_Type":"LED-Powered Lamp","Verification_Date":null},"id":"stl-city-public-streetlights:2:127181","sourceLayerId":2,"sourceObjectId":127181,"sourceURL":"https://maps8.stlouis-mo.gov/arcgis/rest/services/STREETS/Streets_Permitting/MapServer/2","title":"Street light L019897"},"type":"Feature"},{"geometry":{"coordinates":[-90.26206278140673,38.69484948457394],"type":"Point"},"id":"stl-city-public-streetlights:2:127182","properties":{"address":null,"attributes":{"Date_Installed":null,"LED_Powered":0,"LightID":"L019898","Light_Source":"LED","Light_Type":"Cobra","Lighting_Type":"LED-Powered Lamp","Verification_Date":null},"id":"stl-city-public-streetlights:2:127182","sourceLayerId":2,"sourceObjectId":127182,"sourceURL":"https://maps8.stlouis-mo.gov/arcgis/rest/services/STREETS/Streets_Permitting/MapServer/2","title":"Street light L019898"},"type":"Feature"},{"geometry":{"coordinates":[-90.26184127017022,38.69436316331895],"type":"Point"},"id":"stl-city-public-streetlights:2:127183","properties":{"address":null,"attributes":{"Date_Installed":null,"LED_Powered":0,"LightID":"L019899","Light_Source":"LED","Light_Type":"Cobra","Lighting_Type":"LED-Powered Lamp","Verification_Date":null},"id":"stl-city-public-streetlights:2:127183","sourceLayerId":2,"sourceObjectId":127183,"sourceURL":"https://maps8.stlouis-mo.gov/arcgis/rest/services/STREETS/Streets_Permitting/MapServer/2","title":"Street light L019899"},"type":"Feature"},{"geometry":{"coordinates":[-90.26166992143706,38.693939489321096],"type":"Point"},"id":"stl-city-public-streetlights:2:127184","properties":{"address":null,"attributes":{"Date_Installed":null,"LED_Powered":0,"LightID":"L019900","Light_Source":"LED","Light_Type":"Cobra","Lighting_Type":"LED-Powered Lamp","Verification_Date":null},"id":"stl-city-public-streetlights:2:127184","sourceLayerId":2,"sourceObjectId":127184,"sourceURL":"https://maps8.stlouis-mo.gov/arcgis/rest/services/STREETS/Streets_Permitting/MapServer/2","title":"Street light L019900"},"type":"Feature"},{"geometry":{"coordinates":[-90.26176128055303,38.69353789870258],"type":"Point"},"id":"stl-city-public-streetlights:2:127185","properties":{"address":null,"attributes":{"Date_Installed":null,"LED_Powered":0,"LightID":"L019901","Light_Source":"LED","Light_Type":"Cobra","Lighting_Type":"LED-Powered Lamp","Verification_Date":null},"id":"stl-city-public-streetlights:2:127185","sourceLayerId":2,"sourceObjectId":127185,"sourceURL":"https://maps8.stlouis-mo.gov/arcgis/rest/services/STREETS/Streets_Permitting/MapServer/2","title":"Street light L019901"},"type":"Feature"},{"geometry":{"coordinates":[-90.26194717161381,38.69324461971133],"type":"Point"},"id":"stl-city-public-streetlights:2:127186","properties":{"address":null,"attributes":{"Date_Installed":null,"LED_Powered":0,"LightID":"L019902","Light_Source":"LED","Light_Type":"Cobra","Lighting_Type":"LED-Powered Lamp","Verification_Date":null},"id":"stl-city-public-streetlights:2:127186","sourceLayerId":2,"sourceObjectId":127186,"sourceURL":"https://maps8.stlouis-mo.gov/arcgis/rest/services/STREETS/Streets_Permitting/MapServer/2","title":"Street light L019902"},"type":"Feature"},{"geometry":{"coordinates":[-90.26213292601793,38.69299214644773],"type":"Point"},"id":"stl-city-public-streetlights:2:127187","properties":{"address":null,"attributes":{"Date_Installed":null,"LED_Powered":0,"LightID":"L019903","Light_Source":"LED","Light_Type":"Cobra","Lighting_Type":"LED-Powered Lamp","Verification_Date":null},"id":"stl-city-public-streetlights:2:127187","sourceLayerId":2,"sourceObjectId":127187,"sourceURL":"https://maps8.stlouis-mo.gov/arcgis/rest/services/STREETS/Streets_Permitting/MapServer/2","title":"Street light L019903"},"type":"Feature"},{"geometry":{"coordinates":[-90.26216216500946,38.69256614041626],"type":"Point"},"id":"stl-city-public-streetlights:2:127188","properties":{"address":null,"attributes":{"Date_Installed":null,"LED_Powered":0,"LightID":"L019904","Light_Source":"LED","Light_Type":"Cobra","Lighting_Type":"LED-Powered Lamp","Verification_Date":null},"id":"stl-city-public-streetlights:2:127188","sourceLayerId":2,"sourceObjectId":127188,"sourceURL":"https://maps8.stlouis-mo.gov/arcgis/rest/services/STREETS/Streets_Permitting/MapServer/2","title":"Street light L019904"},"type":"Feature"},{"geometry":{"coordinates":[-90.26237288744876,38.692212534123],"type":"Point"},"id":"stl-city-public-streetlights:2:127189","properties":{"address":null,"attributes":{"Date_Installed":null,"LED_Powered":0,"LightID":"L019905","Light_Source":"LED","Light_Type":"Cobra","Lighting_Type":"LED-Powered Lamp","Verification_Date":null},"id":"stl-city-public-streetlights:2:127189","sourceLayerId":2,"sourceObjectId":127189,"sourceURL":"https://maps8.stlouis-mo.gov/arcgis/rest/services/STREETS/Streets_Permitting/MapServer/2","title":"Street light L019905"},"type":"Feature"},{"geometry":{"coordinates":[-90.2626089471773,38.69187525959101],"type":"Point"},"id":"stl-city-public-streetlights:2:127190","properties":{"address":null,"attributes":{"Date_Installed":null,"LED_Powered":0,"LightID":"L019906","Light_Source":"LED","Light_Type":"Cobra","Lighting_Type":"LED-Powered Lamp","Verification_Date":null},"id":"stl-city-public-streetlights:2:127190","sourceLayerId":2,"sourceObjectId":127190,"sourceURL":"https://maps8.stlouis-mo.gov/arcgis/rest/services/STREETS/Streets_Permitting/MapServer/2","title":"Street light L019906"},"type":"Feature"},{"geometry":{"coordinates":[-90.26285183449734,38.691542288403625],"type":"Point"},"id":"stl-city-public-streetlights:2:127191","properties":{"address":null,"attributes":{"Date_Installed":null,"LED_Powered":0,"LightID":"L019907","Light_Source":"LED","Light_Type":"Cobra","Lighting_Type":"LED-Powered Lamp","Verification_Date":null},"id":"stl-city-public-streetlights:2:127191","sourceLayerId":2,"sourceObjectId":127191,"sourceURL":"https://maps8.stlouis-mo.gov/arcgis/rest/services/STREETS/Streets_Permitting/MapServer/2","title":"Street light L019907"},"type":"Feature"},{"geometry":{"coordinates":[-90.26309261940644,38.69120096936722],"type":"Point"},"id":"stl-city-public-streetlights:2:127192","properties":{"address":null,"attributes":{"Date_Installed":null,"LED_Powered":0,"LightID":"L019908","Light_Source":"LED","Light_Type":"Cobra","Lighting_Type":"LED-Powered Lamp","Verification_Date":null},"id":"stl-city-public-streetlights:2:127192","sourceLayerId":2,"sourceObjectId":127192,"sourceURL":"https://maps8.stlouis-mo.gov/arcgis/rest/services/STREETS/Streets_Permitting/MapServer/2","title":"Street light L019908"},"type":"Feature"},{"geometry":{"coordinates":[-90.26333276463731,38.69086784924317],"type":"Point"},"id":"stl-city-public-streetlights:2:127193","properties":{"address":null,"attributes":{"Date_Installed":null,"LED_Powered":0,"LightID":"L019909","Light_Source":"LED","Light_Type":"Cobra","Lighting_Type":"LED-Powered Lamp","Verification_Date":null},"id":"stl-city-public-streetlights:2:127193","sourceLayerId":2,"sourceObjectId":127193,"sourceURL":"https://maps8.stlouis-mo.gov/arcgis/rest/services/STREETS/Streets_Permitting/MapServer/2","title":"Street light L019909"},"type":"Feature"},{"geometry":{"coordinates":[-90.2635753330911,38.69053749830918],"type":"Point"},"id":"stl-city-public-streetlights:2:127194","properties":{"address":null,"attributes":{"Date_Installed":null,"LED_Powered":0,"LightID":"L019910","Light_Source":"LED","Light_Type":"Cobra","Lighting_Type":"LED-Powered Lamp","Verification_Date":null},"id":"stl-city-public-streetlights:2:127194","sourceLayerId":2,"sourceObjectId":127194,"sourceURL":"https://maps8.stlouis-mo.gov/arcgis/rest/services/STREETS/Streets_Permitting/MapServer/2","title":"Street light L019910"},"type":"Feature"},{"geometry":{"coordinates":[-90.26381366691545,38.69019912855936],"type":"Point"},"id":"stl-city-public-streetlights:2:127195","properties":{"address":null,"attributes":{"Date_Installed":null,"LED_Powered":0,"LightID":"L019911","Light_Source":"LED","Light_Type":"Cobra","Lighting_Type":"LED-Powered Lamp","Verification_Date":null},"id":"stl-city-public-streetlights:2:127195","sourceLayerId":2,"sourceObjectId":127195,"sourceURL":"https://maps8.stlouis-mo.gov/arcgis/rest/services/STREETS/Streets_Permitting/MapServer/2","title":"Street light L019911"},"type":"Feature"},{"geometry":{"coordinates":[-90.26779071705893,38.693745078904826],"type":"Point"},"id":"stl-city-public-streetlights:2:127199","properties":{"address":null,"attributes":{"Date_Installed":null,"LED_Powered":1,"LightID":"L019915","Light_Source":"LED","Light_Type":"Cobra","Lighting_Type":"LED-Powered Lamp","Verification_Date":null},"id":"stl-city-public-streetlights:2:127199","sourceLayerId":2,"sourceObjectId":127199,"sourceURL":"https://maps8.stlouis-mo.gov/arcgis/rest/services/STREETS/Streets_Permitting/MapServer/2","title":"Street light L019915"},"type":"Feature"},{"geometry":{"coordinates":[-90.26761185981138,38.69412743236554],"type":"Point"},"id":"stl-city-public-streetlights:2:127200","properties":{"address":null,"attributes":{"Date_Installed":null,"LED_Powered":1,"LightID":"L019916","Light_Source":"LED","Light_Type":"Cobra","Lighting_Type":"LED-Powered Lamp","Verification_Date":null},"id":"stl-city-public-streetlights:2:127200","sourceLayerId":2,"sourceObjectId":127200,"sourceURL":"https://maps8.stlouis-mo.gov/arcgis/rest/services/STREETS/Streets_Permitting/MapServer/2","title":"Street light L019916"},"type":"Feature"},{"geometry":{"coordinates":[-90.26744256837918,38.69448558706304],"type":"Point"},"id":"stl-city-public-streetlights:2:127201","properties":{"address":null,"attributes":{"Date_Installed":null,"LED_Powered":1,"LightID":"L019917","Light_Source":"LED","Light_Type":"Cobra","Lighting_Type":"LED-Powered Lamp","Verification_Date":null},"id":"stl-city-public-streetlights:2:127201","sourceLayerId":2,"sourceObjectId":127201,"sourceURL":"https://maps8.stlouis-mo.gov/arcgis/rest/services/STREETS/Streets_Permitting/MapServer/2","title":"Street light L019917"},"type":"Feature"},{"geometry":{"coordinates":[-90.26726639085024,38.69486603810655],"type":"Point"},"id":"stl-city-public-streetlights:2:127202","properties":{"address":null,"attributes":{"Date_Installed":null,"LED_Powered":1,"LightID":"L019918","Light_Source":"LED","Light_Type":"Cobra","Lighting_Type":"LED-Powered Lamp","Verification_Date":null},"id":"stl-city-public-streetlights:2:127202","sourceLayerId":2,"sourceObjectId":127202,"sourceURL":"https://maps8.stlouis-mo.gov/arcgis/rest/services/STREETS/Streets_Permitting/MapServer/2","title":"Street light L019918"},"type":"Feature"},{"geometry":{"coordinates":[-90.26709486897315,38.69523562900105],"type":"Point"},"id":"stl-city-public-streetlights:2:127203","properties":{"address":null,"attributes":{"Date_Installed":null,"LED_Powered":1,"LightID":"L019919","Light_Source":"LED","Light_Type":"Cobra","Lighting_Type":"LED-Powered Lamp","Verification_Date":null},"id":"stl-city-public-streetlights:2:127203","sourceLayerId":2,"sourceObjectId":127203,"sourceURL":"https://maps8.stlouis-mo.gov/arcgis/rest/services/STREETS/Streets_Permitting/MapServer/2","title":"Street light L019919"},"type":"Feature"},{"geometry":{"coordinates":[-90.26691601479376,38.69561473992816],"type":"Point"},"id":"stl-city-public-streetlights:2:127204","properties":{"address":null,"attributes":{"Date_Installed":null,"LED_Powered":1,"LightID":"L019920","Light_Source":"LED","Light_Type":"Cobra","Lighting_Type":"LED-Powered Lamp","Verification_Date":null},"id":"stl-city-public-streetlights:2:127204","sourceLayerId":2,"sourceObjectId":127204,"sourceURL":"https://maps8.stlouis-mo.gov/arcgis/rest/services/STREETS/Streets_Permitting/MapServer/2","title":"Street light L019920"},"type":"Feature"},{"geometry":{"coordinates":[-90.26676866179898,38.69592107086143],"type":"Point"},"id":"stl-city-public-streetlights:2:127205","properties":{"address":null,"attributes":{"Date_Installed":null,"LED_Powered":1,"LightID":"L019921","Light_Source":"LED","Light_Type":"Cobra","Lighting_Type":"LED-Powered Lamp","Verification_Date":null},"id":"stl-city-public-streetlights:2:127205","sourceLayerId":2,"sourceObjectId":127205,"sourceURL":"https://maps8.stlouis-mo.gov/arcgis/rest/services/STREETS/Streets_Permitting/MapServer/2","title":"Street light L019921"},"type":"Feature"},{"geometry":{"coordinates":[-90.26657444801187,38.6963459144274],"type":"Point"},"id":"stl-city-public-streetlights:2:127206","properties":{"address":null,"attributes":{"Date_Installed":null,"LED_Powered":1,"LightID":"L019922","Light_Source":"LED","Light_Type":"Cobra","Lighting_Type":"LED-Powered Lamp","Verification_Date":null},"id":"stl-city-public-streetlights:2:127206","sourceLayerId":2,"sourceObjectId":127206,"sourceURL":"https://maps8.stlouis-mo.gov/arcgis/rest/services/STREETS/Streets_Permitting/MapServer/2","title":"Street light L019922"},"type":"Feature"},{"geometry":{"coordinates":[-90.26640048725119,38.696714927274286],"type":"Point"},"id":"stl-city-public-streetlights:2:127207","properties":{"address":null,"attributes":{"Date_Installed":null,"LED_Powered":1,"LightID":"L019923","Light_Source":"LED","Light_Type":"Cobra","Lighting_Type":"LED-Powered Lamp","Verification_Date":null},"id":"stl-city-public-streetlights:2:127207","sourceLayerId":2,"sourceObjectId":127207,"sourceURL":"https://maps8.stlouis-mo.gov/arcgis/rest/services/STREETS/Streets_Permitting/MapServer/2","title":"Street light L019923"},"type":"Feature"},{"geometry":{"coordinates":[-90.26623138388082,38.697086428770874],"type":"Point"},"id":"stl-city-public-streetlights:2:127208","properties":{"address":null,"attributes":{"Date_Installed":null,"LED_Powered":1,"LightID":"L019924","Light_Source":"LED","Light_Type":"Cobra","Lighting_Type":"LED-Powered Lamp","Verification_Date":null},"id":"stl-city-public-streetlights:2:127208","sourceLayerId":2,"sourceObjectId":127208,"sourceURL":"https://maps8.stlouis-mo.gov/arcgis/rest/services/STREETS/Streets_Permitting/MapServer/2","title":"Street light L019924"},"type":"Feature"},{"geometry":{"coordinates":[-90.26591925282256,38.69750379049509],"type":"Point"},"id":"stl-city-public-streetlights:2:127209","properties":{"address":null,"attributes":{"Date_Installed":null,"LED_Powered":1,"LightID":"L019925","Light_Source":"LED","Light_Type":"Cobra","Lighting_Type":"LED-Powered Lamp","Verification_Date":null},"id":"stl-city-public-streetlights:2:127209","sourceLayerId":2,"sourceObjectId":127209,"sourceURL":"https://maps8.stlouis-mo.gov/arcgis/rest/services/STREETS/Streets_Permitting/MapServer/2","title":"Street light L019925"},"type":"Feature"},{"geometry":{"coordinates":[-90.26582443473298,38.69773496661575],"type":"Point"},"id":"stl-city-public-streetlights:2:127210","properties":{"address":null,"attributes":{"Date_Installed":null,"LED_Powered":1,"LightID":"L019926","Light_Source":"LED","Light_Type":"Cobra","Lighting_Type":"LED-Powered Lamp","Verification_Date":null},"id":"stl-city-public-streetlights:2:127210","sourceLayerId":2,"sourceObjectId":127210,"sourceURL":"https://maps8.stlouis-mo.gov/arcgis/rest/services/STREETS/Streets_Permitting/MapServer/2","title":"Street light L019926"},"type":"Feature"},{"geometry":{"coordinates":[-90.26558304462895,38.698072951909566],"type":"Point"},"id":"stl-city-public-streetlights:2:127211","properties":{"address":null,"attributes":{"Date_Installed":null,"LED_Powered":1,"LightID":"L019927","Light_Source":"LED","Light_Type":"Cobra","Lighting_Type":"LED-Powered Lamp","Verification_Date":null},"id":"stl-city-public-streetlights:2:127211","sourceLayerId":2,"sourceObjectId":127211,"sourceURL":"https://maps8.stlouis-mo.gov/arcgis/rest/services/STREETS/Streets_Permitting/MapServer/2","title":"Street light L019927"},"type":"Feature"},{"geometry":{"coordinates":[-90.26534697367943,38.698410947356514],"type":"Point"},"id":"stl-city-public-streetlights:2:127212","properties":{"address":null,"attributes":{"Date_Installed":null,"LED_Powered":1,"LightID":"L019928","Light_Source":"LED","Light_Type":"Cobra","Lighting_Type":"LED-Powered Lamp","Verification_Date":null},"id":"stl-city-public-streetlights:2:127212","sourceLayerId":2,"sourceObjectId":127212,"sourceURL":"https://maps8.stlouis-mo.gov/arcgis/rest/services/STREETS/Streets_Permitting/MapServer/2","title":"Street light L019928"},"type":"Feature"},{"geometry":{"coordinates":[-90.26511550335863,38.69873703379874],"type":"Point"},"id":"stl-city-public-streetlights:2:127213","properties":{"address":null,"attributes":{"Date_Installed":null,"LED_Powered":1,"LightID":"L019929","Light_Source":"LED","Light_Type":"Cobra","Lighting_Type":"LED-Powered Lamp","Verification_Date":null},"id":"stl-city-public-streetlights:2:127213","sourceLayerId":2,"sourceObjectId":127213,"sourceURL":"https://maps8.stlouis-mo.gov/arcgis/rest/services/STREETS/Streets_Permitting/MapServer/2","title":"Street light L019929"},"type":"Feature"},{"geometry":{"coordinates":[-90.26488512823107,38.699053111381566],"type":"Point"},"id":"stl-city-public-streetlights:2:127214","properties":{"address":null,"attributes":{"Date_Installed":null,"LED_Powered":1,"LightID":"L019930","Light_Source":"LED","Light_Type":"Cobra","Lighting_Type":"LED-Powered Lamp","Verification_Date":null},"id":"stl-city-public-streetlights:2:127214","sourceLayerId":2,"sourceObjectId":127214,"sourceURL":"https://maps8.stlouis-mo.gov/arcgis/rest/services/STREETS/Streets_Permitting/MapServer/2","title":"Street light L019930"},"type":"Feature"},{"geometry":{"coordinates":[-90.26467855349587,38.69934539999586],"type":"Point"},"id":"stl-city-public-streetlights:2:127215","properties":{"address":null,"attributes":{"Date_Installed":null,"LED_Powered":1,"LightID":"L019931","Light_Source":"LED","Light_Type":"Cobra","Lighting_Type":"LED-Powered Lamp","Verification_Date":null},"id":"stl-city-public-streetlights:2:127215","sourceLayerId":2,"sourceObjectId":127215,"sourceURL":"https://maps8.stlouis-mo.gov/arcgis/rest/services/STREETS/Streets_Permitting/MapServer/2","title":"Street light L019931"},"type":"Feature"},{"geometry":{"coordinates":[-90.26445486321519,38.69966244237619],"type":"Point"},"id":"stl-city-public-streetlights:2:127216","properties":{"address":null,"attributes":{"Date_Installed":null,"LED_Powered":1,"LightID":"L019932","Light_Source":"LED","Light_Type":"Cobra","Lighting_Type":"LED-Powered Lamp","Verification_Date":null},"id":"stl-city-public-streetlights:2:127216","sourceLayerId":2,"sourceObjectId":127216,"sourceURL":"https://maps8.stlouis-mo.gov/arcgis/rest/services/STREETS/Streets_Permitting/MapServer/2","title":"Street light L019932"},"type":"Feature"},{"geometry":{"coordinates":[-90.26419279967504,38.699993280490894],"type":"Point"},"id":"stl-city-public-streetlights:2:127217","properties":{"address":null,"attributes":{"Date_Installed":null,"LED_Powered":1,"LightID":"L019933","Light_Source":"LED","Light_Type":"Cobra","Lighting_Type":"LED-Powered Lamp","Verification_Date":null},"id":"stl-city-public-streetlights:2:127217","sourceLayerId":2,"sourceObjectId":127217,"sourceURL":"https://maps8.stlouis-mo.gov/arcgis/rest/services/STREETS/Streets_Permitting/MapServer/2","title":"Street light L019933"},"type":"Feature"},{"geometry":{"coordinates":[-90.26465901104814,38.69997163461104],"type":"Point"},"id":"stl-city-public-streetlights:2:127218","properties":{"address":null,"attributes":{"Date_Installed":null,"LED_Powered":1,"LightID":"L019934","Light_Source":"LED","Light_Type":"Cobra","Lighting_Type":"LED-Powered Lamp","Verification_Date":null},"id":"stl-city-public-streetlights:2:127218","sourceLayerId":2,"sourceObjectId":127218,"sourceURL":"https://maps8.stlouis-mo.gov/arcgis/rest/services/STREETS/Streets_Permitting/MapServer/2","title":"Street light L019934"},"type":"Feature"},{"geometry":{"coordinates":[-90.26489843219692,38.69963473204806],"type":"Point"},"id":"stl-city-public-streetlights:2:127219","properties":{"address":null,"attributes":{"Date_Installed":null,"LED_Powered":1,"LightID":"L019935","Light_Source":"LED","Light_Type":"Cobra","Lighting_Type":"LED-Powered Lamp","Verification_Date":null},"id":"stl-city-public-streetlights:2:127219","sourceLayerId":2,"sourceObjectId":127219,"sourceURL":"https://maps8.stlouis-mo.gov/arcgis/rest/services/STREETS/Streets_Permitting/MapServer/2","title":"Street light L019935"},"type":"Feature"},{"geometry":{"coordinates":[-90.26515200596367,38.69929438900704],"type":"Point"},"id":"stl-city-public-streetlights:2:127220","properties":{"address":null,"attributes":{"Date_Installed":null,"LED_Powered":1,"LightID":"L019936","Light_Source":"LED","Light_Type":"Cobra","Lighting_Type":"LED-Powered Lamp","Verification_Date":null},"id":"stl-city-public-streetlights:2:127220","sourceLayerId":2,"sourceObjectId":127220,"sourceURL":"https://maps8.stlouis-mo.gov/arcgis/rest/services/STREETS/Streets_Permitting/MapServer/2","title":"Street light L019936"},"type":"Feature"},{"geometry":{"coordinates":[-90.26538244299515,38.69895924300108],"type":"Point"},"id":"stl-city-public-streetlights:2:127221","properties":{"address":null,"attributes":{"Date_Installed":null,"LED_Powered":1,"LightID":"L019937","Light_Source":"LED","Light_Type":"Cobra","Lighting_Type":"LED-Powered Lamp","Verification_Date":null},"id":"stl-city-public-streetlights:2:127221","sourceLayerId":2,"sourceObjectId":127221,"sourceURL":"https://maps8.stlouis-mo.gov/arcgis/rest/services/STREETS/Streets_Permitting/MapServer/2","title":"Street light L019937"},"type":"Feature"},{"geometry":{"coordinates":[-90.26560250660306,38.69863313317895],"type":"Point"},"id":"stl-city-public-streetlights:2:127222","properties":{"address":null,"attributes":{"Date_Installed":null,"LED_Powered":1,"LightID":"L019938","Light_Source":"LED","Light_Type":"Cobra","Lighting_Type":"LED-Powered Lamp","Verification_Date":null},"id":"stl-city-public-streetlights:2:127222","sourceLayerId":2,"sourceObjectId":127222,"sourceURL":"https://maps8.stlouis-mo.gov/arcgis/rest/services/STREETS/Streets_Permitting/MapServer/2","title":"Street light L019938"},"type":"Feature"},{"geometry":{"coordinates":[-90.26583263372434,38.69831734103926],"type":"Point"},"id":"stl-city-public-streetlights:2:127223","properties":{"address":null,"attributes":{"Date_Installed":null,"LED_Powered":1,"LightID":"L019939","Light_Source":"LED","Light_Type":"Cobra","Lighting_Type":"LED-Powered Lamp","Verification_Date":null},"id":"stl-city-public-streetlights:2:127223","sourceLayerId":2,"sourceObjectId":127223,"sourceURL":"https://maps8.stlouis-mo.gov/arcgis/rest/services/STREETS/Streets_Permitting/MapServer/2","title":"Street light L019939"},"type":"Feature"},{"geometry":{"coordinates":[-90.26607158486009,38.697980874654945],"type":"Point"},"id":"stl-city-public-streetlights:2:127224","properties":{"address":null,"attributes":{"Date_Installed":null,"LED_Powered":1,"LightID":"L019940","Light_Source":"LED","Light_Type":"Cobra","Lighting_Type":"LED-Powered Lamp","Verification_Date":null},"id":"stl-city-public-streetlights:2:127224","sourceLayerId":2,"sourceObjectId":127224,"sourceURL":"https://maps8.stlouis-mo.gov/arcgis/rest/services/STREETS/Streets_Permitting/MapServer/2","title":"Street light L019940"},"type":"Feature"},{"geometry":{"coordinates":[-90.26631136811427,38.697650131816914],"type":"Point"},"id":"stl-city-public-streetlights:2:127225","properties":{"address":null,"attributes":{"Date_Installed":null,"LED_Powered":1,"LightID":"L019941","Light_Source":"LED","Light_Type":"Cobra","Lighting_Type":"LED-Powered Lamp","Verification_Date":null},"id":"stl-city-public-streetlights:2:127225","sourceLayerId":2,"sourceObjectId":127225,"sourceURL":"https://maps8.stlouis-mo.gov/arcgis/rest/services/STREETS/Streets_Permitting/MapServer/2","title":"Street light L019941"},"type":"Feature"},{"geometry":{"coordinates":[-90.26650340136122,38.69733605672035],"type":"Point"},"id":"stl-city-public-streetlights:2:127226","properties":{"address":null,"attributes":{"Date_Installed":null,"LED_Powered":1,"LightID":"L019942","Light_Source":"LED","Light_Type":"Cobra","Lighting_Type":"LED-Powered Lamp","Verification_Date":null},"id":"stl-city-public-streetlights:2:127226","sourceLayerId":2,"sourceObjectId":127226,"sourceURL":"https://maps8.stlouis-mo.gov/arcgis/rest/services/STREETS/Streets_Permitting/MapServer/2","title":"Street light L019942"},"type":"Feature"},{"geometry":{"coordinates":[-90.26667702199464,38.696978627507114],"type":"Point"},"id":"stl-city-public-streetlights:2:127227","properties":{"address":null,"attributes":{"Date_Installed":null,"LED_Powered":1,"LightID":"L019943","Light_Source":"LED","Light_Type":"Cobra","Lighting_Type":"LED-Powered Lamp","Verification_Date":null},"id":"stl-city-public-streetlights:2:127227","sourceLayerId":2,"sourceObjectId":127227,"sourceURL":"https://maps8.stlouis-mo.gov/arcgis/rest/services/STREETS/Streets_Permitting/MapServer/2","title":"Street light L019943"},"type":"Feature"},{"geometry":{"coordinates":[-90.26684364585978,38.69662046876311],"type":"Point"},"id":"stl-city-public-streetlights:2:127228","properties":{"address":null,"attributes":{"Date_Installed":null,"LED_Powered":1,"LightID":"L019944","Light_Source":"LED","Light_Type":"Cobra","Lighting_Type":"LED-Powered Lamp","Verification_Date":null},"id":"stl-city-public-streetlights:2:127228","sourceLayerId":2,"sourceObjectId":127228,"sourceURL":"https://maps8.stlouis-mo.gov/arcgis/rest/services/STREETS/Streets_Permitting/MapServer/2","title":"Street light L019944"},"type":"Feature"},{"geometry":{"coordinates":[-90.26701027972288,38.696259067507704],"type":"Point"},"id":"stl-city-public-streetlights:2:127229","properties":{"address":null,"attributes":{"Date_Installed":null,"LED_Powered":1,"LightID":"L019945","Light_Source":"LED","Light_Type":"Cobra","Lighting_Type":"LED-Powered Lamp","Verification_Date":null},"id":"stl-city-public-streetlights:2:127229","sourceLayerId":2,"sourceObjectId":127229,"sourceURL":"https://maps8.stlouis-mo.gov/arcgis/rest/services/STREETS/Streets_Permitting/MapServer/2","title":"Street light L019945"},"type":"Feature"},{"geometry":{"coordinates":[-90.26717690756998,38.69589900198501],"type":"Point"},"id":"stl-city-public-streetlights:2:127230","properties":{"address":null,"attributes":{"Date_Installed":null,"LED_Powered":1,"LightID":"L019946","Light_Source":"LED","Light_Type":"Cobra","Lighting_Type":"LED-Powered Lamp","Verification_Date":null},"id":"stl-city-public-streetlights:2:127230","sourceLayerId":2,"sourceObjectId":127230,"sourceURL":"https://maps8.stlouis-mo.gov/arcgis/rest/services/STREETS/Streets_Permitting/MapServer/2","title":"Street light L019946"},"type":"Feature"},{"geometry":{"coordinates":[-90.26735062660823,38.695527174893655],"type":"Point"},"id":"stl-city-public-streetlights:2:127231","properties":{"address":null,"attributes":{"Date_Installed":null,"LED_Powered":1,"LightID":"L019947","Light_Source":"LED","Light_Type":"Cobra","Lighting_Type":"LED-Powered Lamp","Verification_Date":null},"id":"stl-city-public-streetlights:2:127231","sourceLayerId":2,"sourceObjectId":127231,"sourceURL":"https://maps8.stlouis-mo.gov/arcgis/rest/services/STREETS/Streets_Permitting/MapServer/2","title":"Street light L019947"},"type":"Feature"},{"geometry":{"coordinates":[-90.26753378578056,38.69515262670548],"type":"Point"},"id":"stl-city-public-streetlights:2:127232","properties":{"address":null,"attributes":{"Date_Installed":null,"LED_Powered":1,"LightID":"L019948","Light_Source":"LED","Light_Type":"Cobra","Lighting_Type":"LED-Powered Lamp","Verification_Date":null},"id":"stl-city-public-streetlights:2:127232","sourceLayerId":2,"sourceObjectId":127232,"sourceURL":"https://maps8.stlouis-mo.gov/arcgis/rest/services/STREETS/Streets_Permitting/MapServer/2","title":"Street light L019948"},"type":"Feature"},{"geometry":{"coordinates":[-90.26770468030237,38.694768324327036],"type":"Point"},"id":"stl-city-public-streetlights:2:127233","properties":{"address":null,"attributes":{"Date_Installed":null,"LED_Powered":1,"LightID":"L019949","Light_Source":"LED","Light_Type":"Cobra","Lighting_Type":"LED-Powered Lamp","Verification_Date":null},"id":"stl-city-public-streetlights:2:127233","sourceLayerId":2,"sourceObjectId":127233,"sourceURL":"https://maps8.stlouis-mo.gov/arcgis/rest/services/STREETS/Streets_Permitting/MapServer/2","title":"Street light L019949"},"type":"Feature"},{"geometry":{"coordinates":[-90.26787913249304,38.69439416184405],"type":"Point"},"id":"stl-city-public-streetlights:2:127234","properties":{"address":null,"attributes":{"Date_Installed":null,"LED_Powered":1,"LightID":"L019950","Light_Source":"LED","Light_Type":"Cobra","Lighting_Type":"LED-Powered Lamp","Verification_Date":null},"id":"stl-city-public-streetlights:2:127234","sourceLayerId":2,"sourceObjectId":127234,"sourceURL":"https://maps8.stlouis-mo.gov/arcgis/rest/services/STREETS/Streets_Permitting/MapServer/2","title":"Street light L019950"},"type":"Feature"},{"geometry":{"coordinates":[-90.2680486898609,38.69402838017366],"type":"Point"},"id":"stl-city-public-streetlights:2:127235","properties":{"address":null,"attributes":{"Date_Installed":null,"LED_Powered":1,"LightID":"L019951","Light_Source":"LED","Light_Type":"Cobra","Lighting_Type":"LED-Powered Lamp","Verification_Date":null},"id":"stl-city-public-streetlights:2:127235","sourceLayerId":2,"sourceObjectId":127235,"sourceURL":"https://maps8.stlouis-mo.gov/arcgis/rest/services/STREETS/Streets_Permitting/MapServer/2","title":"Street light L019951"},"type":"Feature"},{"geometry":{"coordinates":[-90.26024749812169,38.693107680151314],"type":"Point"},"id":"stl-city-public-streetlights:2:127236","properties":{"address":null,"attributes":{"Date_Installed":null,"LED_Powered":0,"LightID":"L019952","Light_Source":"LED","Light_Type":"Cobra","Lighting_Type":"LED-Powered Lamp","Verification_Date":null},"id":"stl-city-public-streetlights:2:127236","sourceLayerId":2,"sourceObjectId":127236,"sourceURL":"https://maps8.stlouis-mo.gov/arcgis/rest/services/STREETS/Streets_Permitting/MapServer/2","title":"Street light L019952"},"type":"Feature"},{"geometry":{"coordinates":[-90.26047134887969,38.69336686203043],"type":"Point"},"id":"stl-city-public-streetlights:2:127237","properties":{"address":null,"attributes":{"Date_Installed":null,"LED_Powered":0,"LightID":"L019953","Light_Source":"LED","Light_Type":"Cobra","Lighting_Type":"LED-Powered Lamp","Verification_Date":null},"id":"stl-city-public-streetlights:2:127237","sourceLayerId":2,"sourceObjectId":127237,"sourceURL":"https://maps8.stlouis-mo.gov/arcgis/rest/services/STREETS/Streets_Permitting/MapServer/2","title":"Street light L019953"},"type":"Feature"},{"geometry":{"coordinates":[-90.26070673645388,38.69364162889957],"type":"Point"},"id":"stl-city-public-streetlights:2:127238","properties":{"address":null,"attributes":{"Date_Installed":null,"LED_Powered":0,"LightID":"L019954","Light_Source":"LED","Light_Type":"Cobra","Lighting_Type":"LED-Powered Lamp","Verification_Date":null},"id":"stl-city-public-streetlights:2:127238","sourceLayerId":2,"sourceObjectId":127238,"sourceURL":"https://maps8.stlouis-mo.gov/arcgis/rest/services/STREETS/Streets_Permitting/MapServer/2","title":"Street light L019954"},"type":"Feature"},{"geometry":{"coordinates":[-90.26093692876293,38.693906402901206],"type":"Point"},"id":"stl-city-public-streetlights:2:127239","properties":{"address":null,"attributes":{"Date_Installed":null,"LED_Powered":0,"LightID":"L019955","Light_Source":"LED","Light_Type":"Cobra","Lighting_Type":"LED-Powered Lamp","Verification_Date":null},"id":"stl-city-public-streetlights:2:127239","sourceLayerId":2,"sourceObjectId":127239,"sourceURL":"https://maps8.stlouis-mo.gov/arcgis/rest/services/STREETS/Streets_Permitting/MapServer/2","title":"Street light L019955"},"type":"Feature"},{"geometry":{"coordinates":[-90.26122556353063,38.694202974362845],"type":"Point"},"id":"stl-city-public-streetlights:2:127240","properties":{"address":null,"attributes":{"Date_Installed":null,"LED_Powered":0,"LightID":"L019956","Light_Source":"LED","Light_Type":"Cobra","Lighting_Type":"LED-Powered Lamp","Verification_Date":null},"id":"stl-city-public-streetlights:2:127240","sourceLayerId":2,"sourceObjectId":127240,"sourceURL":"https://maps8.stlouis-mo.gov/arcgis/rest/services/STREETS/Streets_Permitting/MapServer/2","title":"Street light L019956"},"type":"Feature"},{"geometry":{"coordinates":[-90.26147416801462,38.6944882015447],"type":"Point"},"id":"stl-city-public-streetlights:2:127241","properties":{"address":null,"attributes":{"Date_Installed":null,"LED_Powered":0,"LightID":"L019957","Light_Source":"LED","Light_Type":"Cobra","Lighting_Type":"LED-Powered Lamp","Verification_Date":null},"id":"stl-city-public-streetlights:2:127241","sourceLayerId":2,"sourceObjectId":127241,"sourceURL":"https://maps8.stlouis-mo.gov/arcgis/rest/services/STREETS/Streets_Permitting/MapServer/2","title":"Street light L019957"},"type":"Feature"},{"geometry":{"coordinates":[-90.26168741860768,38.69479617816366],"type":"Point"},"id":"stl-city-public-streetlights:2:127242","properties":{"address":null,"attributes":{"Date_Installed":null,"LED_Powered":0,"LightID":"L019958","Light_Source":"LED","Light_Type":"Cobra","Lighting_Type":"LED-Powered Lamp","Verification_Date":null},"id":"stl-city-public-streetlights:2:127242","sourceLayerId":2,"sourceObjectId":127242,"sourceURL":"https://maps8.stlouis-mo.gov/arcgis/rest/services/STREETS/Streets_Permitting/MapServer/2","title":"Street light L019958"},"type":"Feature"},{"geometry":{"coordinates":[-90.26184375118386,38.69511708864019],"type":"Point"},"id":"stl-city-public-streetlights:2:127243","properties":{"address":null,"attributes":{"Date_Installed":null,"LED_Powered":0,"LightID":"L019959","Light_Source":"LED","Light_Type":"Cobra","Lighting_Type":"LED-Powered Lamp","Verification_Date":null},"id":"stl-city-public-streetlights:2:127243","sourceLayerId":2,"sourceObjectId":127243,"sourceURL":"https://maps8.stlouis-mo.gov/arcgis/rest/services/STREETS/Streets_Permitting/MapServer/2","title":"Street light L019959"},"type":"Feature"},{"geometry":{"coordinates":[-90.26194284143793,38.695457010782796],"type":"Point"},"id":"stl-city-public-streetlights:2:127244","properties":{"address":null,"attributes":{"Date_Installed":null,"LED_Powered":0,"LightID":"L019960","Light_Source":"LED","Light_Type":"Cobra","Lighting_Type":"LED-Powered Lamp","Verification_Date":null},"id":"stl-city-public-streetlights:2:127244","sourceLayerId":2,"sourceObjectId":127244,"sourceURL":"https://maps8.stlouis-mo.gov/arcgis/rest/services/STREETS/Streets_Permitting/MapServer/2","title":"Street light L019960"},"type":"Feature"},{"geometry":{"coordinates":[-90.26191267417276,38.69611648782233],"type":"Point"},"id":"stl-city-public-streetlights:2:127245","properties":{"address":null,"attributes":{"Date_Installed":null,"LED_Powered":0,"LightID":"L019961","Light_Source":"LED","Light_Type":"Cobra","Lighting_Type":"LED-Powered Lamp","Verification_Date":null},"id":"stl-city-public-streetlights:2:127245","sourceLayerId":2,"sourceObjectId":127245,"sourceURL":"https://maps8.stlouis-mo.gov/arcgis/rest/services/STREETS/Streets_Permitting/MapServer/2","title":"Street light L019961"},"type":"Feature"},{"geometry":{"coordinates":[-90.26185685993809,38.69643815796665],"type":"Point"},"id":"stl-city-public-streetlights:2:127246","properties":{"address":null,"attributes":{"Date_Installed":null,"LED_Powered":0,"LightID":"L019962","Light_Source":"LED","Light_Type":"Cobra","Lighting_Type":"LED-Powered Lamp","Verification_Date":null},"id":"stl-city-public-streetlights:2:127246","sourceLayerId":2,"sourceObjectId":127246,"sourceURL":"https://maps8.stlouis-mo.gov/arcgis/rest/services/STREETS/Streets_Permitting/MapServer/2","title":"Street light L019962"},"type":"Feature"},{"geometry":{"coordinates":[-90.2617362820894,38.696760510526886],"type":"Point"},"id":"stl-city-public-streetlights:2:127247","properties":{"address":null,"attributes":{"Date_Installed":null,"LED_Powered":0,"LightID":"L019963","Light_Source":"LED","Light_Type":"Cobra","Lighting_Type":"LED-Powered Lamp","Verification_Date":null},"id":"stl-city-public-streetlights:2:127247","sourceLayerId":2,"sourceObjectId":127247,"sourceURL":"https://maps8.stlouis-mo.gov/arcgis/rest/services/STREETS/Streets_Permitting/MapServer/2","title":"Street light L019963"},"type":"Feature"},{"geometry":{"coordinates":[-90.26156924350043,38.697052302243705],"type":"Point"},"id":"stl-city-public-streetlights:2:127248","properties":{"address":null,"attributes":{"Date_Installed":null,"LED_Powered":0,"LightID":"L019964","Light_Source":"LED","Light_Type":"Cobra","Lighting_Type":"LED-Powered Lamp","Verification_Date":null},"id":"stl-city-public-streetlights:2:127248","sourceLayerId":2,"sourceObjectId":127248,"sourceURL":"https://maps8.stlouis-mo.gov/arcgis/rest/services/STREETS/Streets_Permitting/MapServer/2","title":"Street light L019964"},"type":"Feature"},{"geometry":{"coordinates":[-90.26138221024875,38.69731983633767],"type":"Point"},"id":"stl-city-public-streetlights:2:127249","properties":{"address":null,"attributes":{"Date_Installed":null,"LED_Powered":0,"LightID":"L019965","Light_Source":"LED","Light_Type":"Cobra","Lighting_Type":"LED-Powered Lamp","Verification_Date":null},"id":"stl-city-public-streetlights:2:127249","sourceLayerId":2,"sourceObjectId":127249,"sourceURL":"https://maps8.stlouis-mo.gov/arcgis/rest/services/STREETS/Streets_Permitting/MapServer/2","title":"Street light L019965"},"type":"Feature"},{"geometry":{"coordinates":[-90.26098612255129,38.69756998845018],"type":"Point"},"id":"stl-city-public-streetlights:2:127250","properties":{"address":null,"attributes":{"Date_Installed":null,"LED_Powered":0,"LightID":"L019966","Light_Source":"LED","Light_Type":"Cobra","Lighting_Type":"LED-Powered Lamp","Verification_Date":null},"id":"stl-city-public-streetlights:2:127250","sourceLayerId":2,"sourceObjectId":127250,"sourceURL":"https://maps8.stlouis-mo.gov/arcgis/rest/services/STREETS/Streets_Permitting/MapServer/2","title":"Street light L019966"},"type":"Feature"},{"geometry":{"coordinates":[-90.26003226078498,38.6951782561149],"type":"Point"},"id":"stl-city-public-streetlights:2:127660","properties":{"address":null,"attributes":{"Date_Installed":null,"LED_Powered":0,"LightID":"L020376","Light_Source":"LED","Light_Type":"Cobra","Lighting_Type":"LED-Powered Lamp","Verification_Date":null},"id":"stl-city-public-streetlights:2:127660","sourceLayerId":2,"sourceObjectId":127660,"sourceURL":"https://maps8.stlouis-mo.gov/arcgis/rest/services/STREETS/Streets_Permitting/MapServer/2","title":"Street light L020376"},"type":"Feature"},{"geometry":{"coordinates":[-90.26005987457877,38.69547054051113],"type":"Point"},"id":"stl-city-public-streetlights:2:127661","properties":{"address":null,"attributes":{"Date_Installed":null,"LED_Powered":0,"LightID":"L020377","Light_Source":"LED","Light_Type":"Cobra","Lighting_Type":"LED-Powered Lamp","Verification_Date":null},"id":"stl-city-public-streetlights:2:127661","sourceLayerId":2,"sourceObjectId":127661,"sourceURL":"https://maps8.stlouis-mo.gov/arcgis/rest/services/STREETS/Streets_Permitting/MapServer/2","title":"Street light L020377"},"type":"Feature"},{"geometry":{"coordinates":[-90.26006840084452,38.69577092067964],"type":"Point"},"id":"stl-city-public-streetlights:2:127662","properties":{"address":null,"attributes":{"Date_Installed":null,"LED_Powered":0,"LightID":"L020378","Light_Source":"LED","Light_Type":"Cobra","Lighting_Type":"LED-Powered Lamp","Verification_Date":null},"id":"stl-city-public-streetlights:2:127662","sourceLayerId":2,"sourceObjectId":127662,"sourceURL":"https://maps8.stlouis-mo.gov/arcgis/rest/services/STREETS/Streets_Permitting/MapServer/2","title":"Street light L020378"},"type":"Feature"},{"geometry":{"coordinates":[-90.26005391223967,38.69610182860349],"type":"Point"},"id":"stl-city-public-streetlights:2:127663","properties":{"address":null,"attributes":{"Date_Installed":null,"LED_Powered":0,"LightID":"L020379","Light_Source":"LED","Light_Type":"Cobra","Lighting_Type":"LED-Powered Lamp","Verification_Date":null},"id":"stl-city-public-streetlights:2:127663","sourceLayerId":2,"sourceObjectId":127663,"sourceURL":"https://maps8.stlouis-mo.gov/arcgis/rest/services/STREETS/Streets_Permitting/MapServer/2","title":"Street light L020379"},"type":"Feature"},{"geometry":{"coordinates":[-90.26004888328191,38.69643169017525],"type":"Point"},"id":"stl-city-public-streetlights:2:127664","properties":{"address":null,"attributes":{"Date_Installed":null,"LED_Powered":0,"LightID":"L020380","Light_Source":"LED","Light_Type":"Cobra","Lighting_Type":"LED-Powered Lamp","Verification_Date":null},"id":"stl-city-public-streetlights:2:127664","sourceLayerId":2,"sourceObjectId":127664,"sourceURL":"https://maps8.stlouis-mo.gov/arcgis/rest/services/STREETS/Streets_Permitting/MapServer/2","title":"Street light L020380"},"type":"Feature"},{"geometry":{"coordinates":[-90.26011322933832,38.69706720700342],"type":"Point"},"id":"stl-city-public-streetlights:2:127665","properties":{"address":null,"attributes":{"Date_Installed":null,"LED_Powered":0,"LightID":"L020381","Light_Source":"LED","Light_Type":"Cobra","Lighting_Type":"LED-Powered Lamp","Verification_Date":null},"id":"stl-city-public-streetlights:2:127665","sourceLayerId":2,"sourceObjectId":127665,"sourceURL":"https://maps8.stlouis-mo.gov/arcgis/rest/services/STREETS/Streets_Permitting/MapServer/2","title":"Street light L020381"},"type":"Feature"},{"geometry":{"coordinates":[-90.26019265087484,38.697397729110385],"type":"Point"},"id":"stl-city-public-streetlights:2:127666","properties":{"address":null,"attributes":{"Date_Installed":null,"LED_Powered":0,"LightID":"L020382","Light_Source":"LED","Light_Type":"Cobra","Lighting_Type":"LED-Powered Lamp","Verification_Date":null},"id":"stl-city-public-streetlights:2:127666","sourceLayerId":2,"sourceObjectId":127666,"sourceURL":"https://maps8.stlouis-mo.gov/arcgis/rest/services/STREETS/Streets_Permitting/MapServer/2","title":"Street light L020382"},"type":"Feature"},{"geometry":{"coordinates":[-90.2602891537952,38.6977244123749],"type":"Point"},"id":"stl-city-public-streetlights:2:127667","properties":{"address":null,"attributes":{"Date_Installed":null,"LED_Powered":0,"LightID":"L020383","Light_Source":"LED","Light_Type":"Cobra","Lighting_Type":"LED-Powered Lamp","Verification_Date":null},"id":"stl-city-public-streetlights:2:127667","sourceLayerId":2,"sourceObjectId":127667,"sourceURL":"https://maps8.stlouis-mo.gov/arcgis/rest/services/STREETS/Streets_Permitting/MapServer/2","title":"Street light L020383"},"type":"Feature"},{"geometry":{"coordinates":[-90.26042066261154,38.698043832296754],"type":"Point"},"id":"stl-city-public-streetlights:2:127668","properties":{"address":null,"attributes":{"Date_Installed":null,"LED_Powered":0,"LightID":"L020384","Light_Source":"LED","Light_Type":"Cobra","Lighting_Type":"LED-Powered Lamp","Verification_Date":null},"id":"stl-city-public-streetlights:2:127668","sourceLayerId":2,"sourceObjectId":127668,"sourceURL":"https://maps8.stlouis-mo.gov/arcgis/rest/services/STREETS/Streets_Permitting/MapServer/2","title":"Street light L020384"},"type":"Feature"},{"geometry":{"coordinates":[-90.26003119245267,38.696930279607116],"type":"Point"},"id":"stl-city-public-streetlights:2:127678","properties":{"address":null,"attributes":{"Date_Installed":null,"LED_Powered":0,"LightID":"L020394","Light_Source":"LED","Light_Type":"Cobra","Lighting_Type":"LED-Powered Lamp","Verification_Date":null},"id":"stl-city-public-streetlights:2:127678","sourceLayerId":2,"sourceObjectId":127678,"sourceURL":"https://maps8.stlouis-mo.gov/arcgis/rest/services/STREETS/Streets_Permitting/MapServer/2","title":"Street light L020394"},"type":"Feature"},{"geometry":{"coordinates":[-90.260302266575,38.6980937867339],"type":"Point"},"id":"stl-city-public-streetlights:2:127688","properties":{"address":null,"attributes":{"Date_Installed":null,"LED_Powered":0,"LightID":"L020404","Light_Source":"LED","Light_Type":"Cobra","Lighting_Type":"LED-Powered Lamp","Verification_Date":null},"id":"stl-city-public-streetlights:2:127688","sourceLayerId":2,"sourceObjectId":127688,"sourceURL":"https://maps8.stlouis-mo.gov/arcgis/rest/services/STREETS/Streets_Permitting/MapServer/2","title":"Street light L020404"},"type":"Feature"},{"geometry":{"coordinates":[-90.26031802554446,38.6991514435716],"type":"Point"},"id":"stl-city-public-streetlights:2:128121","properties":{"address":null,"attributes":{"Date_Installed":"4/23/2018","LED_Powered":1,"LightID":"L020837","Light_Source":"LED","Light_Type":"Cobra","Lighting_Type":"LED-Powered Lamp","Verification_Date":null},"id":"stl-city-public-streetlights:2:128121","sourceLayerId":2,"sourceObjectId":128121,"sourceURL":"https://maps8.stlouis-mo.gov/arcgis/rest/services/STREETS/Streets_Permitting/MapServer/2","title":"Street light L020837"},"type":"Feature"},{"geometry":{"coordinates":[-90.26072044082117,38.69933341938747],"type":"Point"},"id":"stl-city-public-streetlights:2:128122","properties":{"address":null,"attributes":{"Date_Installed":"4/23/2018","LED_Powered":1,"LightID":"L020838","Light_Source":"LED","Light_Type":"Cobra","Lighting_Type":"LED-Powered Lamp","Verification_Date":null},"id":"stl-city-public-streetlights:2:128122","sourceLayerId":2,"sourceObjectId":128122,"sourceURL":"https://maps8.stlouis-mo.gov/arcgis/rest/services/STREETS/Streets_Permitting/MapServer/2","title":"Street light L020838"},"type":"Feature"},{"geometry":{"coordinates":[-90.26113132474188,38.699515133643104],"type":"Point"},"id":"stl-city-public-streetlights:2:128123","properties":{"address":null,"attributes":{"Date_Installed":"4/23/2018","LED_Powered":1,"LightID":"L020839","Light_Source":"LED","Light_Type":"Cobra","Lighting_Type":"LED-Powered Lamp","Verification_Date":null},"id":"stl-city-public-streetlights:2:128123","sourceLayerId":2,"sourceObjectId":128123,"sourceURL":"https://maps8.stlouis-mo.gov/arcgis/rest/services/STREETS/Streets_Permitting/MapServer/2","title":"Street light L020839"},"type":"Feature"},{"geometry":{"coordinates":[-90.26153464665855,38.699699850781776],"type":"Point"},"id":"stl-city-public-streetlights:2:128124","properties":{"address":null,"attributes":{"Date_Installed":"4/23/2018","LED_Powered":1,"LightID":"L020840","Light_Source":"LED","Light_Type":"Cobra","Lighting_Type":"LED-Powered Lamp","Verification_Date":null},"id":"stl-city-public-streetlights:2:128124","sourceLayerId":2,"sourceObjectId":128124,"sourceURL":"https://maps8.stlouis-mo.gov/arcgis/rest/services/STREETS/Streets_Permitting/MapServer/2","title":"Street light L020840"},"type":"Feature"},{"geometry":{"coordinates":[-90.26191811431507,38.69986450314214],"type":"Point"},"id":"stl-city-public-streetlights:2:128125","properties":{"address":null,"attributes":{"Date_Installed":"4/23/2018","LED_Powered":1,"LightID":"L020841","Light_Source":"LED","Light_Type":"Cobra","Lighting_Type":"LED-Powered Lamp","Verification_Date":null},"id":"stl-city-public-streetlights:2:128125","sourceLayerId":2,"sourceObjectId":128125,"sourceURL":"https://maps8.stlouis-mo.gov/arcgis/rest/services/STREETS/Streets_Permitting/MapServer/2","title":"Street light L020841"},"type":"Feature"},{"geometry":{"coordinates":[-90.26195715014634,38.69998292763718],"type":"Point"},"id":"stl-city-public-streetlights:2:128126","properties":{"address":null,"attributes":{"Date_Installed":"4/23/2018","LED_Powered":1,"LightID":"L020842","Light_Source":"LED","Light_Type":"Cobra","Lighting_Type":"LED-Powered Lamp","Verification_Date":null},"id":"stl-city-public-streetlights:2:128126","sourceLayerId":2,"sourceObjectId":128126,"sourceURL":"https://maps8.stlouis-mo.gov/arcgis/rest/services/STREETS/Streets_Permitting/MapServer/2","title":"Street light L020842"},"type":"Feature"},{"geometry":{"coordinates":[-90.26049657156322,38.69855106634844],"type":"Point"},"id":"stl-city-public-streetlights:2:128135","properties":{"address":null,"attributes":{"Date_Installed":"4/23/2018","LED_Powered":1,"LightID":"L020851","Light_Source":"LED","Light_Type":"Cobra","Lighting_Type":"LED-Powered Lamp","Verification_Date":null},"id":"stl-city-public-streetlights:2:128135","sourceLayerId":2,"sourceObjectId":128135,"sourceURL":"https://maps8.stlouis-mo.gov/arcgis/rest/services/STREETS/Streets_Permitting/MapServer/2","title":"Street light L020851"},"type":"Feature"},{"geometry":{"coordinates":[-90.26023142210927,38.69893666373605],"type":"Point"},"id":"stl-city-public-streetlights:2:128136","properties":{"address":null,"attributes":{"Date_Installed":"4/23/2018","LED_Powered":1,"LightID":"L020852","Light_Source":"LED","Light_Type":"Cobra","Lighting_Type":"LED-Powered Lamp","Verification_Date":null},"id":"stl-city-public-streetlights:2:128136","sourceLayerId":2,"sourceObjectId":128136,"sourceURL":"https://maps8.stlouis-mo.gov/arcgis/rest/services/STREETS/Streets_Permitting/MapServer/2","title":"Street light L020852"},"type":"Feature"},{"geometry":{"coordinates":[-90.26040251877328,38.69824571936567],"type":"Point"},"id":"stl-city-public-streetlights:2:128139","properties":{"address":null,"attributes":{"Date_Installed":null,"LED_Powered":0,"LightID":"L020855","Light_Source":"LED","Light_Type":"Cobra","Lighting_Type":"LED-Powered Lamp","Verification_Date":null},"id":"stl-city-public-streetlights:2:128139","sourceLayerId":2,"sourceObjectId":128139,"sourceURL":"https://maps8.stlouis-mo.gov/arcgis/rest/services/STREETS/Streets_Permitting/MapServer/2","title":"Street light L020855"},"type":"Feature"},{"geometry":{"coordinates":[-90.26013671700652,38.6986051509546],"type":"Point"},"id":"stl-city-public-streetlights:2:128140","properties":{"address":null,"attributes":{"Date_Installed":null,"LED_Powered":0,"LightID":"L020856","Light_Source":"LED","Light_Type":"Cobra","Lighting_Type":"LED-Powered Lamp","Verification_Date":null},"id":"stl-city-public-streetlights:2:128140","sourceLayerId":2,"sourceObjectId":128140,"sourceURL":"https://maps8.stlouis-mo.gov/arcgis/rest/services/STREETS/Streets_Permitting/MapServer/2","title":"Street light L020856"},"type":"Feature"},{"geometry":{"coordinates":[-90.26828834846881,38.69352159608519],"type":"Point"},"id":"stl-city-public-streetlights:2:131516","properties":{"address":null,"attributes":{"Date_Installed":null,"LED_Powered":1,"LightID":"L024232","Light_Source":"LED","Light_Type":"Cobra","Lighting_Type":"LED-Powered Lamp","Verification_Date":null},"id":"stl-city-public-streetlights:2:131516","sourceLayerId":2,"sourceObjectId":131516,"sourceURL":"https://maps8.stlouis-mo.gov/arcgis/rest/services/STREETS/Streets_Permitting/MapServer/2","title":"Street light L024232"},"type":"Feature"},{"geometry":{"coordinates":[-90.2684074533249,38.69325701435928],"type":"Point"},"id":"stl-city-public-streetlights:2:131517","properties":{"address":null,"attributes":{"Date_Installed":null,"LED_Powered":1,"LightID":"L024233","Light_Source":"LED","Light_Type":"Cobra","Lighting_Type":"LED-Powered Lamp","Verification_Date":null},"id":"stl-city-public-streetlights:2:131517","sourceLayerId":2,"sourceObjectId":131517,"sourceURL":"https://maps8.stlouis-mo.gov/arcgis/rest/services/STREETS/Streets_Permitting/MapServer/2","title":"Street light L024233"},"type":"Feature"},{"geometry":{"coordinates":[-90.2685931536967,38.692862995033565],"type":"Point"},"id":"stl-city-public-streetlights:2:131518","properties":{"address":null,"attributes":{"Date_Installed":null,"LED_Powered":1,"LightID":"L024234","Light_Source":"LED","Light_Type":"Cobra","Lighting_Type":"LED-Powered Lamp","Verification_Date":null},"id":"stl-city-public-streetlights:2:131518","sourceLayerId":2,"sourceObjectId":131518,"sourceURL":"https://maps8.stlouis-mo.gov/arcgis/rest/services/STREETS/Streets_Permitting/MapServer/2","title":"Street light L024234"},"type":"Feature"},{"geometry":{"coordinates":[-90.26876920836747,38.69247949031907],"type":"Point"},"id":"stl-city-public-streetlights:2:131519","properties":{"address":null,"attributes":{"Date_Installed":null,"LED_Powered":1,"LightID":"L024235","Light_Source":"LED","Light_Type":"Cobra","Lighting_Type":"LED-Powered Lamp","Verification_Date":null},"id":"stl-city-public-streetlights:2:131519","sourceLayerId":2,"sourceObjectId":131519,"sourceURL":"https://maps8.stlouis-mo.gov/arcgis/rest/services/STREETS/Streets_Permitting/MapServer/2","title":"Street light L024235"},"type":"Feature"},{"geometry":{"coordinates":[-90.26895835753619,38.692095558940366],"type":"Point"},"id":"stl-city-public-streetlights:2:131520","properties":{"address":null,"attributes":{"Date_Installed":null,"LED_Powered":1,"LightID":"L024236","Light_Source":"LED","Light_Type":"Cobra","Lighting_Type":"LED-Powered Lamp","Verification_Date":null},"id":"stl-city-public-streetlights:2:131520","sourceLayerId":2,"sourceObjectId":131520,"sourceURL":"https://maps8.stlouis-mo.gov/arcgis/rest/services/STREETS/Streets_Permitting/MapServer/2","title":"Street light L024236"},"type":"Feature"},{"geometry":{"coordinates":[-90.26911805995587,38.69169751894775],"type":"Point"},"id":"stl-city-public-streetlights:2:131521","properties":{"address":null,"attributes":{"Date_Installed":null,"LED_Powered":1,"LightID":"L024237","Light_Source":"LED","Light_Type":"Cobra","Lighting_Type":"LED-Powered Lamp","Verification_Date":null},"id":"stl-city-public-streetlights:2:131521","sourceLayerId":2,"sourceObjectId":131521,"sourceURL":"https://maps8.stlouis-mo.gov/arcgis/rest/services/STREETS/Streets_Permitting/MapServer/2","title":"Street light L024237"},"type":"Feature"},{"geometry":{"coordinates":[-90.2692888915181,38.69130003488669],"type":"Point"},"id":"stl-city-public-streetlights:2:131522","properties":{"address":null,"attributes":{"Date_Installed":null,"LED_Powered":1,"LightID":"L024238","Light_Source":"LED","Light_Type":"Cobra","Lighting_Type":"LED-Powered Lamp","Verification_Date":null},"id":"stl-city-public-streetlights:2:131522","sourceLayerId":2,"sourceObjectId":131522,"sourceURL":"https://maps8.stlouis-mo.gov/arcgis/rest/services/STREETS/Streets_Permitting/MapServer/2","title":"Street light L024238"},"type":"Feature"},{"geometry":{"coordinates":[-90.26945589771303,38.69090981312103],"type":"Point"},"id":"stl-city-public-streetlights:2:131523","properties":{"address":null,"attributes":{"Date_Installed":null,"LED_Powered":1,"LightID":"L024239","Light_Source":"LED","Light_Type":"Cobra","Lighting_Type":"LED-Powered Lamp","Verification_Date":null},"id":"stl-city-public-streetlights:2:131523","sourceLayerId":2,"sourceObjectId":131523,"sourceURL":"https://maps8.stlouis-mo.gov/arcgis/rest/services/STREETS/Streets_Permitting/MapServer/2","title":"Street light L024239"},"type":"Feature"},{"geometry":{"coordinates":[-90.26961833911022,38.690519463179996],"type":"Point"},"id":"stl-city-public-streetlights:2:131524","properties":{"address":null,"attributes":{"Date_Installed":null,"LED_Powered":1,"LightID":"L024240","Light_Source":"LED","Light_Type":"Cobra","Lighting_Type":"LED-Powered Lamp","Verification_Date":null},"id":"stl-city-public-streetlights:2:131524","sourceLayerId":2,"sourceObjectId":131524,"sourceURL":"https://maps8.stlouis-mo.gov/arcgis/rest/services/STREETS/Streets_Permitting/MapServer/2","title":"Street light L024240"},"type":"Feature"},{"geometry":{"coordinates":[-90.26978235396247,38.69013111874299],"type":"Point"},"id":"stl-city-public-streetlights:2:131525","properties":{"address":null,"attributes":{"Date_Installed":null,"LED_Powered":1,"LightID":"L024241","Light_Source":"LED","Light_Type":"Cobra","Lighting_Type":"LED-Powered Lamp","Verification_Date":null},"id":"stl-city-public-streetlights:2:131525","sourceLayerId":2,"sourceObjectId":131525,"sourceURL":"https://maps8.stlouis-mo.gov/arcgis/rest/services/STREETS/Streets_Permitting/MapServer/2","title":"Street light L024241"},"type":"Feature"},{"geometry":{"coordinates":[-90.26796873981381,38.693366386470956],"type":"Point"},"id":"stl-city-public-streetlights:2:131536","properties":{"address":null,"attributes":{"Date_Installed":null,"LED_Powered":1,"LightID":"L024252","Light_Source":"LED","Light_Type":"Cobra","Lighting_Type":"LED-Powered Lamp","Verification_Date":null},"id":"stl-city-public-streetlights:2:131536","sourceLayerId":2,"sourceObjectId":131536,"sourceURL":"https://maps8.stlouis-mo.gov/arcgis/rest/services/STREETS/Streets_Permitting/MapServer/2","title":"Street light L024252"},"type":"Feature"},{"geometry":{"coordinates":[-90.26814499486686,38.692988103739346],"type":"Point"},"id":"stl-city-public-streetlights:2:131537","properties":{"address":null,"attributes":{"Date_Installed":null,"LED_Powered":1,"LightID":"L024253","Light_Source":"LED","Light_Type":"Cobra","Lighting_Type":"LED-Powered Lamp","Verification_Date":null},"id":"stl-city-public-streetlights:2:131537","sourceLayerId":2,"sourceObjectId":131537,"sourceURL":"https://maps8.stlouis-mo.gov/arcgis/rest/services/STREETS/Streets_Permitting/MapServer/2","title":"Street light L024253"},"type":"Feature"},{"geometry":{"coordinates":[-90.26831959207294,38.69260469231685],"type":"Point"},"id":"stl-city-public-streetlights:2:131538","properties":{"address":null,"attributes":{"Date_Installed":null,"LED_Powered":1,"LightID":"L024254","Light_Source":"LED","Light_Type":"Cobra","Lighting_Type":"LED-Powered Lamp","Verification_Date":null},"id":"stl-city-public-streetlights:2:131538","sourceLayerId":2,"sourceObjectId":131538,"sourceURL":"https://maps8.stlouis-mo.gov/arcgis/rest/services/STREETS/Streets_Permitting/MapServer/2","title":"Street light L024254"},"type":"Feature"},{"geometry":{"coordinates":[-90.26848786040392,38.69224951341415],"type":"Point"},"id":"stl-city-public-streetlights:2:131539","properties":{"address":null,"attributes":{"Date_Installed":null,"LED_Powered":1,"LightID":"L024255","Light_Source":"LED","Light_Type":"Cobra","Lighting_Type":"LED-Powered Lamp","Verification_Date":null},"id":"stl-city-public-streetlights:2:131539","sourceLayerId":2,"sourceObjectId":131539,"sourceURL":"https://maps8.stlouis-mo.gov/arcgis/rest/services/STREETS/Streets_Permitting/MapServer/2","title":"Street light L024255"},"type":"Feature"},{"geometry":{"coordinates":[-90.26866936287605,38.69184560651878],"type":"Point"},"id":"stl-city-public-streetlights:2:131540","properties":{"address":null,"attributes":{"Date_Installed":null,"LED_Powered":1,"LightID":"L024256","Light_Source":"LED","Light_Type":"Cobra","Lighting_Type":"LED-Powered Lamp","Verification_Date":null},"id":"stl-city-public-streetlights:2:131540","sourceLayerId":2,"sourceObjectId":131540,"sourceURL":"https://maps8.stlouis-mo.gov/arcgis/rest/services/STREETS/Streets_Permitting/MapServer/2","title":"Street light L024256"},"type":"Feature"},{"geometry":{"coordinates":[-90.26883524034092,38.691452880799275],"type":"Point"},"id":"stl-city-public-streetlights:2:131541","properties":{"address":null,"attributes":{"Date_Installed":null,"LED_Powered":1,"LightID":"L024257","Light_Source":"LED","Light_Type":"Cobra","Lighting_Type":"LED-Powered Lamp","Verification_Date":null},"id":"stl-city-public-streetlights:2:131541","sourceLayerId":2,"sourceObjectId":131541,"sourceURL":"https://maps8.stlouis-mo.gov/arcgis/rest/services/STREETS/Streets_Permitting/MapServer/2","title":"Street light L024257"},"type":"Feature"},{"geometry":{"coordinates":[-90.269002257022,38.69106027598269],"type":"Point"},"id":"stl-city-public-streetlights:2:131542","properties":{"address":null,"attributes":{"Date_Installed":null,"LED_Powered":1,"LightID":"L024258","Light_Source":"LED","Light_Type":"Cobra","Lighting_Type":"LED-Powered Lamp","Verification_Date":null},"id":"stl-city-public-streetlights:2:131542","sourceLayerId":2,"sourceObjectId":131542,"sourceURL":"https://maps8.stlouis-mo.gov/arcgis/rest/services/STREETS/Streets_Permitting/MapServer/2","title":"Street light L024258"},"type":"Feature"},{"geometry":{"coordinates":[-90.26916201130587,38.69067891938755],"type":"Point"},"id":"stl-city-public-streetlights:2:131543","properties":{"address":null,"attributes":{"Date_Installed":null,"LED_Powered":1,"LightID":"L024259","Light_Source":"LED","Light_Type":"Cobra","Lighting_Type":"LED-Powered Lamp","Verification_Date":null},"id":"stl-city-public-streetlights:2:131543","sourceLayerId":2,"sourceObjectId":131543,"sourceURL":"https://maps8.stlouis-mo.gov/arcgis/rest/services/STREETS/Streets_Permitting/MapServer/2","title":"Street light L024259"},"type":"Feature"},{"geometry":{"coordinates":[-90.26933507180973,38.690273395613005],"type":"Point"},"id":"stl-city-public-streetlights:2:131544","properties":{"address":null,"attributes":{"Date_Installed":null,"LED_Powered":1,"LightID":"L024260","Light_Source":"LED","Light_Type":"Cobra","Lighting_Type":"LED-Powered Lamp","Verification_Date":null},"id":"stl-city-public-streetlights:2:131544","sourceLayerId":2,"sourceObjectId":131544,"sourceURL":"https://maps8.stlouis-mo.gov/arcgis/rest/services/STREETS/Streets_Permitting/MapServer/2","title":"Street light L024260"},"type":"Feature"},{"geometry":{"coordinates":[-90.26024901990047,38.69845674319766],"type":"Point"},"id":"stl-city-public-streetlights:2:147616","properties":{"address":null,"attributes":{"Date_Installed":null,"LED_Powered":0,"LightID":"L040471","Light_Source":"High Pressure Sodium","Light_Type":"Decorative","Lighting_Type":"King Luminaire (Historic Light Fixtures)","Verification_Date":null},"id":"stl-city-public-streetlights:2:147616","sourceLayerId":2,"sourceObjectId":147616,"sourceURL":"https://maps8.stlouis-mo.gov/arcgis/rest/services/STREETS/Streets_Permitting/MapServer/2","title":"Street light L040471"},"type":"Feature"},{"geometry":{"coordinates":[-90.26010983877673,38.69912087502908],"type":"Point"},"id":"stl-city-public-streetlights:2:147891","properties":{"address":null,"attributes":{"Date_Installed":null,"LED_Powered":0,"LightID":"L040746","Light_Source":"High Pressure Sodium","Light_Type":"Decorative","Lighting_Type":"King Luminaire (Historic Light Fixtures)","Verification_Date":null},"id":"stl-city-public-streetlights:2:147891","sourceLayerId":2,"sourceObjectId":147891,"sourceURL":"https://maps8.stlouis-mo.gov/arcgis/rest/services/STREETS/Streets_Permitting/MapServer/2","title":"Street light L040746"},"type":"Feature"},{"geometry":{"coordinates":[-90.26038855602238,38.698725961801294],"type":"Point"},"id":"stl-city-public-streetlights:2:147892","properties":{"address":null,"attributes":{"Date_Installed":null,"LED_Powered":0,"LightID":"L040747","Light_Source":"High Pressure Sodium","Light_Type":"Decorative","Lighting_Type":"King Luminaire (Historic Light Fixtures)","Verification_Date":null},"id":"stl-city-public-streetlights:2:147892","sourceLayerId":2,"sourceObjectId":147892,"sourceURL":"https://maps8.stlouis-mo.gov/arcgis/rest/services/STREETS/Streets_Permitting/MapServer/2","title":"Street light L040747"},"type":"Feature"},{"geometry":{"coordinates":[-90.26063794225124,38.698369888762635],"type":"Point"},"id":"stl-city-public-streetlights:2:147893","properties":{"address":null,"attributes":{"Date_Installed":null,"LED_Powered":0,"LightID":"L040748","Light_Source":"High Pressure Sodium","Light_Type":"Decorative","Lighting_Type":"King Luminaire (Historic Light Fixtures)","Verification_Date":null},"id":"stl-city-public-streetlights:2:147893","sourceLayerId":2,"sourceObjectId":147893,"sourceURL":"https://maps8.stlouis-mo.gov/arcgis/rest/services/STREETS/Streets_Permitting/MapServer/2","title":"Street light L040748"},"type":"Feature"},{"geometry":{"coordinates":[-90.26470074983611,38.698132577655954],"type":"Point"},"id":"stl-city-public-streetlights:2:151428","properties":{"address":null,"attributes":{"Date_Installed":null,"LED_Powered":0,"LightID":"L044294","Light_Source":"High Pressure Sodium","Light_Type":"Cobra","Lighting_Type":"150-W High Pressure Sodium Vapor Lamp","Verification_Date":null},"id":"stl-city-public-streetlights:2:151428","sourceLayerId":2,"sourceObjectId":151428,"sourceURL":"https://maps8.stlouis-mo.gov/arcgis/rest/services/STREETS/Streets_Permitting/MapServer/2","title":"Street light L044294"},"type":"Feature"},{"geometry":{"coordinates":[-90.26418141441229,38.69789436482774],"type":"Point"},"id":"stl-city-public-streetlights:2:151429","properties":{"address":null,"attributes":{"Date_Installed":null,"LED_Powered":0,"LightID":"L044295","Light_Source":"High Pressure Sodium","Light_Type":"Cobra","Lighting_Type":"150-W High Pressure Sodium Vapor Lamp","Verification_Date":null},"id":"stl-city-public-streetlights:2:151429","sourceLayerId":2,"sourceObjectId":151429,"sourceURL":"https://maps8.stlouis-mo.gov/arcgis/rest/services/STREETS/Streets_Permitting/MapServer/2","title":"Street light L044295"},"type":"Feature"},{"geometry":{"coordinates":[-90.26366505638882,38.69767641650837],"type":"Point"},"id":"stl-city-public-streetlights:2:151430","properties":{"address":null,"attributes":{"Date_Installed":null,"LED_Powered":0,"LightID":"L044296","Light_Source":"High Pressure Sodium","Light_Type":"Cobra","Lighting_Type":"150-W High Pressure Sodium Vapor Lamp","Verification_Date":null},"id":"stl-city-public-streetlights:2:151430","sourceLayerId":2,"sourceObjectId":151430,"sourceURL":"https://maps8.stlouis-mo.gov/arcgis/rest/services/STREETS/Streets_Permitting/MapServer/2","title":"Street light L044296"},"type":"Feature"},{"geometry":{"coordinates":[-90.26317171660578,38.69746631775249],"type":"Point"},"id":"stl-city-public-streetlights:2:151431","properties":{"address":null,"attributes":{"Date_Installed":null,"LED_Powered":0,"LightID":"L044297","Light_Source":"High Pressure Sodium","Light_Type":"Cobra","Lighting_Type":"150-W High Pressure Sodium Vapor Lamp","Verification_Date":null},"id":"stl-city-public-streetlights:2:151431","sourceLayerId":2,"sourceObjectId":151431,"sourceURL":"https://maps8.stlouis-mo.gov/arcgis/rest/services/STREETS/Streets_Permitting/MapServer/2","title":"Street light L044297"},"type":"Feature"},{"geometry":{"coordinates":[-90.26261958556302,38.69721492193552],"type":"Point"},"id":"stl-city-public-streetlights:2:151432","properties":{"address":null,"attributes":{"Date_Installed":null,"LED_Powered":0,"LightID":"L044298","Light_Source":"High Pressure Sodium","Light_Type":"Cobra","Lighting_Type":"150-W High Pressure Sodium Vapor Lamp","Verification_Date":null},"id":"stl-city-public-streetlights:2:151432","sourceLayerId":2,"sourceObjectId":151432,"sourceURL":"https://maps8.stlouis-mo.gov/arcgis/rest/services/STREETS/Streets_Permitting/MapServer/2","title":"Street light L044298"},"type":"Feature"},{"geometry":{"coordinates":[-90.26185012635362,38.696877920873234],"type":"Point"},"id":"stl-city-public-streetlights:2:154330","properties":{"address":null,"attributes":{"Date_Installed":null,"LED_Powered":0,"LightID":"L052301","Light_Source":"High Pressure Sodium","Light_Type":"Cobra","Lighting_Type":"150-W High Pressure Sodium Vapor Lamp","Verification_Date":null},"id":"stl-city-public-streetlights:2:154330","sourceLayerId":2,"sourceObjectId":154330,"sourceURL":"https://maps8.stlouis-mo.gov/arcgis/rest/services/STREETS/Streets_Permitting/MapServer/2","title":"Street light L052301"},"type":"Feature"}],"layerId":"city-streetlights","retrievedAt":"2026-09-13T21:56:18.173251+00:00","schema":"property-infrastructure-geojson-v1","sourceId":"stl-city-public-streetlights","tileId":"-9027_3869","type":"FeatureCollection"}