{"features":[{"geometry":{"coordinates":[-90.20004157492686,38.74566386345487],"type":"Point"},"id":"stl-city-public-streetlights:2:120563","properties":{"address":null,"attributes":{"Date_Installed":null,"LED_Powered":0,"LightID":"L013288","Light_Source":"LED","Light_Type":"Cobra","Lighting_Type":"LED-Powered Lamp","Verification_Date":null},"id":"stl-city-public-streetlights:2:120563","sourceLayerId":2,"sourceObjectId":120563,"sourceURL":"https://maps8.stlouis-mo.gov/arcgis/rest/services/STREETS/Streets_Permitting/MapServer/2","title":"Street light L013288"},"type":"Feature"},{"geometry":{"coordinates":[-90.20038639832916,38.74581431685826],"type":"Point"},"id":"stl-city-public-streetlights:2:120564","properties":{"address":null,"attributes":{"Date_Installed":null,"LED_Powered":0,"LightID":"L013289","Light_Source":"LED","Light_Type":"Cobra","Lighting_Type":"LED-Powered Lamp","Verification_Date":null},"id":"stl-city-public-streetlights:2:120564","sourceLayerId":2,"sourceObjectId":120564,"sourceURL":"https://maps8.stlouis-mo.gov/arcgis/rest/services/STREETS/Streets_Permitting/MapServer/2","title":"Street light L013289"},"type":"Feature"},{"geometry":{"coordinates":[-90.20069753837173,38.74603837344088],"type":"Point"},"id":"stl-city-public-streetlights:2:120565","properties":{"address":null,"attributes":{"Date_Installed":null,"LED_Powered":0,"LightID":"L013290","Light_Source":"LED","Light_Type":"Cobra","Lighting_Type":"LED-Powered Lamp","Verification_Date":null},"id":"stl-city-public-streetlights:2:120565","sourceLayerId":2,"sourceObjectId":120565,"sourceURL":"https://maps8.stlouis-mo.gov/arcgis/rest/services/STREETS/Streets_Permitting/MapServer/2","title":"Street light L013290"},"type":"Feature"},{"geometry":{"coordinates":[-90.20023713297878,38.744097887879924],"type":"Point"},"id":"stl-city-public-streetlights:2:120566","properties":{"address":null,"attributes":{"Date_Installed":null,"LED_Powered":0,"LightID":"L013291","Light_Source":"High Pressure Sodium","Light_Type":"Cobra","Lighting_Type":"400-W High Pressure Sodium Vapor Lamp","Verification_Date":null},"id":"stl-city-public-streetlights:2:120566","sourceLayerId":2,"sourceObjectId":120566,"sourceURL":"https://maps8.stlouis-mo.gov/arcgis/rest/services/STREETS/Streets_Permitting/MapServer/2","title":"Street light L013291"},"type":"Feature"},{"geometry":{"coordinates":[-90.20060549635807,38.74378420130332],"type":"Point"},"id":"stl-city-public-streetlights:2:120567","properties":{"address":null,"attributes":{"Date_Installed":null,"LED_Powered":0,"LightID":"L013292","Light_Source":"High Pressure Sodium","Light_Type":"Cobra","Lighting_Type":"400-W High Pressure Sodium Vapor Lamp","Verification_Date":null},"id":"stl-city-public-streetlights:2:120567","sourceLayerId":2,"sourceObjectId":120567,"sourceURL":"https://maps8.stlouis-mo.gov/arcgis/rest/services/STREETS/Streets_Permitting/MapServer/2","title":"Street light L013292"},"type":"Feature"},{"geometry":{"coordinates":[-90.20099051475478,38.74348307106701],"type":"Point"},"id":"stl-city-public-streetlights:2:120568","properties":{"address":null,"attributes":{"Date_Installed":null,"LED_Powered":0,"LightID":"L013293","Light_Source":"High Pressure Sodium","Light_Type":"Cobra","Lighting_Type":"400-W High Pressure Sodium Vapor Lamp","Verification_Date":null},"id":"stl-city-public-streetlights:2:120568","sourceLayerId":2,"sourceObjectId":120568,"sourceURL":"https://maps8.stlouis-mo.gov/arcgis/rest/services/STREETS/Streets_Permitting/MapServer/2","title":"Street light L013293"},"type":"Feature"},{"geometry":{"coordinates":[-90.20133782889498,38.743143466049276],"type":"Point"},"id":"stl-city-public-streetlights:2:120569","properties":{"address":null,"attributes":{"Date_Installed":null,"LED_Powered":0,"LightID":"L013294","Light_Source":"High Pressure Sodium","Light_Type":"Cobra","Lighting_Type":"400-W High Pressure Sodium Vapor Lamp","Verification_Date":null},"id":"stl-city-public-streetlights:2:120569","sourceLayerId":2,"sourceObjectId":120569,"sourceURL":"https://maps8.stlouis-mo.gov/arcgis/rest/services/STREETS/Streets_Permitting/MapServer/2","title":"Street light L013294"},"type":"Feature"},{"geometry":{"coordinates":[-90.20171707410563,38.74283104330642],"type":"Point"},"id":"stl-city-public-streetlights:2:120570","properties":{"address":null,"attributes":{"Date_Installed":null,"LED_Powered":0,"LightID":"L013295","Light_Source":"High Pressure Sodium","Light_Type":"Cobra","Lighting_Type":"400-W High Pressure Sodium Vapor Lamp","Verification_Date":null},"id":"stl-city-public-streetlights:2:120570","sourceLayerId":2,"sourceObjectId":120570,"sourceURL":"https://maps8.stlouis-mo.gov/arcgis/rest/services/STREETS/Streets_Permitting/MapServer/2","title":"Street light L013295"},"type":"Feature"},{"geometry":{"coordinates":[-90.2023897703659,38.742188718560875],"type":"Point"},"id":"stl-city-public-streetlights:2:120571","properties":{"address":null,"attributes":{"Date_Installed":null,"LED_Powered":0,"LightID":"L013296","Light_Source":"High Pressure Sodium","Light_Type":"Cobra","Lighting_Type":"400-W High Pressure Sodium Vapor Lamp","Verification_Date":null},"id":"stl-city-public-streetlights:2:120571","sourceLayerId":2,"sourceObjectId":120571,"sourceURL":"https://maps8.stlouis-mo.gov/arcgis/rest/services/STREETS/Streets_Permitting/MapServer/2","title":"Street light L013296"},"type":"Feature"},{"geometry":{"coordinates":[-90.20275639531337,38.741886284262804],"type":"Point"},"id":"stl-city-public-streetlights:2:120572","properties":{"address":null,"attributes":{"Date_Installed":null,"LED_Powered":0,"LightID":"L013297","Light_Source":"High Pressure Sodium","Light_Type":"Cobra","Lighting_Type":"400-W High Pressure Sodium Vapor Lamp","Verification_Date":null},"id":"stl-city-public-streetlights:2:120572","sourceLayerId":2,"sourceObjectId":120572,"sourceURL":"https://maps8.stlouis-mo.gov/arcgis/rest/services/STREETS/Streets_Permitting/MapServer/2","title":"Street light L013297"},"type":"Feature"},{"geometry":{"coordinates":[-90.20309094541733,38.74157512526165],"type":"Point"},"id":"stl-city-public-streetlights:2:120573","properties":{"address":null,"attributes":{"Date_Installed":null,"LED_Powered":0,"LightID":"L013298","Light_Source":"High Pressure Sodium","Light_Type":"Cobra","Lighting_Type":"400-W High Pressure Sodium Vapor Lamp","Verification_Date":null},"id":"stl-city-public-streetlights:2:120573","sourceLayerId":2,"sourceObjectId":120573,"sourceURL":"https://maps8.stlouis-mo.gov/arcgis/rest/services/STREETS/Streets_Permitting/MapServer/2","title":"Street light L013298"},"type":"Feature"},{"geometry":{"coordinates":[-90.20344232495427,38.74126305575418],"type":"Point"},"id":"stl-city-public-streetlights:2:120574","properties":{"address":null,"attributes":{"Date_Installed":null,"LED_Powered":0,"LightID":"L013299","Light_Source":"High Pressure Sodium","Light_Type":"Cobra","Lighting_Type":"400-W High Pressure Sodium Vapor Lamp","Verification_Date":null},"id":"stl-city-public-streetlights:2:120574","sourceLayerId":2,"sourceObjectId":120574,"sourceURL":"https://maps8.stlouis-mo.gov/arcgis/rest/services/STREETS/Streets_Permitting/MapServer/2","title":"Street light L013299"},"type":"Feature"},{"geometry":{"coordinates":[-90.2037793062379,38.740951425248],"type":"Point"},"id":"stl-city-public-streetlights:2:120575","properties":{"address":null,"attributes":{"Date_Installed":null,"LED_Powered":0,"LightID":"L013300","Light_Source":"High Pressure Sodium","Light_Type":"Cobra","Lighting_Type":"400-W High Pressure Sodium Vapor Lamp","Verification_Date":null},"id":"stl-city-public-streetlights:2:120575","sourceLayerId":2,"sourceObjectId":120575,"sourceURL":"https://maps8.stlouis-mo.gov/arcgis/rest/services/STREETS/Streets_Permitting/MapServer/2","title":"Street light L013300"},"type":"Feature"},{"geometry":{"coordinates":[-90.20413202423312,38.740641620009995],"type":"Point"},"id":"stl-city-public-streetlights:2:120576","properties":{"address":null,"attributes":{"Date_Installed":null,"LED_Powered":0,"LightID":"L013301","Light_Source":"High Pressure Sodium","Light_Type":"Cobra","Lighting_Type":"400-W High Pressure Sodium Vapor Lamp","Verification_Date":null},"id":"stl-city-public-streetlights:2:120576","sourceLayerId":2,"sourceObjectId":120576,"sourceURL":"https://maps8.stlouis-mo.gov/arcgis/rest/services/STREETS/Streets_Permitting/MapServer/2","title":"Street light L013301"},"type":"Feature"},{"geometry":{"coordinates":[-90.20447536886071,38.740331599907606],"type":"Point"},"id":"stl-city-public-streetlights:2:120577","properties":{"address":null,"attributes":{"Date_Installed":null,"LED_Powered":0,"LightID":"L013302","Light_Source":"High Pressure Sodium","Light_Type":"Cobra","Lighting_Type":"400-W High Pressure Sodium Vapor Lamp","Verification_Date":null},"id":"stl-city-public-streetlights:2:120577","sourceLayerId":2,"sourceObjectId":120577,"sourceURL":"https://maps8.stlouis-mo.gov/arcgis/rest/services/STREETS/Streets_Permitting/MapServer/2","title":"Street light L013302"},"type":"Feature"},{"geometry":{"coordinates":[-90.20485365283018,38.74003868628778],"type":"Point"},"id":"stl-city-public-streetlights:2:120578","properties":{"address":null,"attributes":{"Date_Installed":null,"LED_Powered":0,"LightID":"L013303","Light_Source":"High Pressure Sodium","Light_Type":"Cobra","Lighting_Type":"400-W High Pressure Sodium Vapor Lamp","Verification_Date":null},"id":"stl-city-public-streetlights:2:120578","sourceLayerId":2,"sourceObjectId":120578,"sourceURL":"https://maps8.stlouis-mo.gov/arcgis/rest/services/STREETS/Streets_Permitting/MapServer/2","title":"Street light L013303"},"type":"Feature"},{"geometry":{"coordinates":[-90.20510701069696,38.740277390388684],"type":"Point"},"id":"stl-city-public-streetlights:2:137653","properties":{"address":null,"attributes":{"Date_Installed":null,"LED_Powered":0,"LightID":"L030369","Light_Source":"LED","Light_Type":"Cobra","Lighting_Type":"LED-Powered Lamp","Verification_Date":null},"id":"stl-city-public-streetlights:2:137653","sourceLayerId":2,"sourceObjectId":137653,"sourceURL":"https://maps8.stlouis-mo.gov/arcgis/rest/services/STREETS/Streets_Permitting/MapServer/2","title":"Street light L030369"},"type":"Feature"},{"geometry":{"coordinates":[-90.20689835085696,38.74106869269904],"type":"Point"},"id":"stl-city-public-streetlights:2:137654","properties":{"address":null,"attributes":{"Date_Installed":null,"LED_Powered":0,"LightID":"L030370","Light_Source":"LED","Light_Type":"Cobra","Lighting_Type":"LED-Powered Lamp","Verification_Date":null},"id":"stl-city-public-streetlights:2:137654","sourceLayerId":2,"sourceObjectId":137654,"sourceURL":"https://maps8.stlouis-mo.gov/arcgis/rest/services/STREETS/Streets_Permitting/MapServer/2","title":"Street light L030370"},"type":"Feature"},{"geometry":{"coordinates":[-90.20654648790132,38.741081190626346],"type":"Point"},"id":"stl-city-public-streetlights:2:137655","properties":{"address":null,"attributes":{"Date_Installed":null,"LED_Powered":0,"LightID":"L030371","Light_Source":"LED","Light_Type":"Cobra","Lighting_Type":"LED-Powered Lamp","Verification_Date":null},"id":"stl-city-public-streetlights:2:137655","sourceLayerId":2,"sourceObjectId":137655,"sourceURL":"https://maps8.stlouis-mo.gov/arcgis/rest/services/STREETS/Streets_Permitting/MapServer/2","title":"Street light L030371"},"type":"Feature"},{"geometry":{"coordinates":[-90.20640132302621,38.740717968012405],"type":"Point"},"id":"stl-city-public-streetlights:2:137656","properties":{"address":null,"attributes":{"Date_Installed":null,"LED_Powered":0,"LightID":"L030372","Light_Source":"LED","Light_Type":"Cobra","Lighting_Type":"LED-Powered Lamp","Verification_Date":null},"id":"stl-city-public-streetlights:2:137656","sourceLayerId":2,"sourceObjectId":137656,"sourceURL":"https://maps8.stlouis-mo.gov/arcgis/rest/services/STREETS/Streets_Permitting/MapServer/2","title":"Street light L030372"},"type":"Feature"},{"geometry":{"coordinates":[-90.20609403063321,38.74100142216983],"type":"Point"},"id":"stl-city-public-streetlights:2:137657","properties":{"address":null,"attributes":{"Date_Installed":null,"LED_Powered":0,"LightID":"L030373","Light_Source":"LED","Light_Type":"Cobra","Lighting_Type":"LED-Powered Lamp","Verification_Date":null},"id":"stl-city-public-streetlights:2:137657","sourceLayerId":2,"sourceObjectId":137657,"sourceURL":"https://maps8.stlouis-mo.gov/arcgis/rest/services/STREETS/Streets_Permitting/MapServer/2","title":"Street light L030373"},"type":"Feature"},{"geometry":{"coordinates":[-90.20590567096538,38.74124539312067],"type":"Point"},"id":"stl-city-public-streetlights:2:137658","properties":{"address":null,"attributes":{"Date_Installed":null,"LED_Powered":0,"LightID":"L030374","Light_Source":"LED","Light_Type":"Cobra","Lighting_Type":"LED-Powered Lamp","Verification_Date":null},"id":"stl-city-public-streetlights:2:137658","sourceLayerId":2,"sourceObjectId":137658,"sourceURL":"https://maps8.stlouis-mo.gov/arcgis/rest/services/STREETS/Streets_Permitting/MapServer/2","title":"Street light L030374"},"type":"Feature"},{"geometry":{"coordinates":[-90.20560449058758,38.7415240380626],"type":"Point"},"id":"stl-city-public-streetlights:2:137659","properties":{"address":null,"attributes":{"Date_Installed":null,"LED_Powered":0,"LightID":"L030375","Light_Source":"LED","Light_Type":"Cobra","Lighting_Type":"LED-Powered Lamp","Verification_Date":null},"id":"stl-city-public-streetlights:2:137659","sourceLayerId":2,"sourceObjectId":137659,"sourceURL":"https://maps8.stlouis-mo.gov/arcgis/rest/services/STREETS/Streets_Permitting/MapServer/2","title":"Street light L030375"},"type":"Feature"},{"geometry":{"coordinates":[-90.20557662355627,38.74187427408608],"type":"Point"},"id":"stl-city-public-streetlights:2:137660","properties":{"address":null,"attributes":{"Date_Installed":null,"LED_Powered":0,"LightID":"L030376","Light_Source":"LED","Light_Type":"Cobra","Lighting_Type":"LED-Powered Lamp","Verification_Date":null},"id":"stl-city-public-streetlights:2:137660","sourceLayerId":2,"sourceObjectId":137660,"sourceURL":"https://maps8.stlouis-mo.gov/arcgis/rest/services/STREETS/Streets_Permitting/MapServer/2","title":"Street light L030376"},"type":"Feature"},{"geometry":{"coordinates":[-90.20515448780947,38.74180111959886],"type":"Point"},"id":"stl-city-public-streetlights:2:137661","properties":{"address":null,"attributes":{"Date_Installed":null,"LED_Powered":0,"LightID":"L030377","Light_Source":"LED","Light_Type":"Cobra","Lighting_Type":"LED-Powered Lamp","Verification_Date":null},"id":"stl-city-public-streetlights:2:137661","sourceLayerId":2,"sourceObjectId":137661,"sourceURL":"https://maps8.stlouis-mo.gov/arcgis/rest/services/STREETS/Streets_Permitting/MapServer/2","title":"Street light L030377"},"type":"Feature"},{"geometry":{"coordinates":[-90.20473168942847,38.741751376499316],"type":"Point"},"id":"stl-city-public-streetlights:2:137662","properties":{"address":null,"attributes":{"Date_Installed":null,"LED_Powered":0,"LightID":"L030378","Light_Source":"LED","Light_Type":"Cobra","Lighting_Type":"LED-Powered Lamp","Verification_Date":null},"id":"stl-city-public-streetlights:2:137662","sourceLayerId":2,"sourceObjectId":137662,"sourceURL":"https://maps8.stlouis-mo.gov/arcgis/rest/services/STREETS/Streets_Permitting/MapServer/2","title":"Street light L030378"},"type":"Feature"},{"geometry":{"coordinates":[-90.20430666734087,38.741788294714894],"type":"Point"},"id":"stl-city-public-streetlights:2:137663","properties":{"address":null,"attributes":{"Date_Installed":null,"LED_Powered":0,"LightID":"L030379","Light_Source":"LED","Light_Type":"Cobra","Lighting_Type":"LED-Powered Lamp","Verification_Date":null},"id":"stl-city-public-streetlights:2:137663","sourceLayerId":2,"sourceObjectId":137663,"sourceURL":"https://maps8.stlouis-mo.gov/arcgis/rest/services/STREETS/Streets_Permitting/MapServer/2","title":"Street light L030379"},"type":"Feature"},{"geometry":{"coordinates":[-90.20378975659476,38.74186971322737],"type":"Point"},"id":"stl-city-public-streetlights:2:137664","properties":{"address":null,"attributes":{"Date_Installed":null,"LED_Powered":0,"LightID":"L030380","Light_Source":"LED","Light_Type":"Cobra","Lighting_Type":"LED-Powered Lamp","Verification_Date":null},"id":"stl-city-public-streetlights:2:137664","sourceLayerId":2,"sourceObjectId":137664,"sourceURL":"https://maps8.stlouis-mo.gov/arcgis/rest/services/STREETS/Streets_Permitting/MapServer/2","title":"Street light L030380"},"type":"Feature"},{"geometry":{"coordinates":[-90.20348955627793,38.74168342733501],"type":"Point"},"id":"stl-city-public-streetlights:2:137665","properties":{"address":null,"attributes":{"Date_Installed":null,"LED_Powered":0,"LightID":"L030381","Light_Source":"LED","Light_Type":"Cobra","Lighting_Type":"LED-Powered Lamp","Verification_Date":null},"id":"stl-city-public-streetlights:2:137665","sourceLayerId":2,"sourceObjectId":137665,"sourceURL":"https://maps8.stlouis-mo.gov/arcgis/rest/services/STREETS/Streets_Permitting/MapServer/2","title":"Street light L030381"},"type":"Feature"},{"geometry":{"coordinates":[-90.203220053011,38.74195508810124],"type":"Point"},"id":"stl-city-public-streetlights:2:137666","properties":{"address":null,"attributes":{"Date_Installed":null,"LED_Powered":0,"LightID":"L030382","Light_Source":"LED","Light_Type":"Cobra","Lighting_Type":"LED-Powered Lamp","Verification_Date":null},"id":"stl-city-public-streetlights:2:137666","sourceLayerId":2,"sourceObjectId":137666,"sourceURL":"https://maps8.stlouis-mo.gov/arcgis/rest/services/STREETS/Streets_Permitting/MapServer/2","title":"Street light L030382"},"type":"Feature"},{"geometry":{"coordinates":[-90.20346046270227,38.74231075375601],"type":"Point"},"id":"stl-city-public-streetlights:2:137667","properties":{"address":null,"attributes":{"Date_Installed":null,"LED_Powered":0,"LightID":"L030383","Light_Source":"LED","Light_Type":"Cobra","Lighting_Type":"LED-Powered Lamp","Verification_Date":null},"id":"stl-city-public-streetlights:2:137667","sourceLayerId":2,"sourceObjectId":137667,"sourceURL":"https://maps8.stlouis-mo.gov/arcgis/rest/services/STREETS/Streets_Permitting/MapServer/2","title":"Street light L030383"},"type":"Feature"},{"geometry":{"coordinates":[-90.2036383009264,38.74268111027031],"type":"Point"},"id":"stl-city-public-streetlights:2:137668","properties":{"address":null,"attributes":{"Date_Installed":null,"LED_Powered":0,"LightID":"L030384","Light_Source":"LED","Light_Type":"Cobra","Lighting_Type":"LED-Powered Lamp","Verification_Date":null},"id":"stl-city-public-streetlights:2:137668","sourceLayerId":2,"sourceObjectId":137668,"sourceURL":"https://maps8.stlouis-mo.gov/arcgis/rest/services/STREETS/Streets_Permitting/MapServer/2","title":"Street light L030384"},"type":"Feature"},{"geometry":{"coordinates":[-90.20385370286228,38.74295071167495],"type":"Point"},"id":"stl-city-public-streetlights:2:137669","properties":{"address":null,"attributes":{"Date_Installed":null,"LED_Powered":0,"LightID":"L030385","Light_Source":"LED","Light_Type":"Cobra","Lighting_Type":"LED-Powered Lamp","Verification_Date":null},"id":"stl-city-public-streetlights:2:137669","sourceLayerId":2,"sourceObjectId":137669,"sourceURL":"https://maps8.stlouis-mo.gov/arcgis/rest/services/STREETS/Streets_Permitting/MapServer/2","title":"Street light L030385"},"type":"Feature"},{"geometry":{"coordinates":[-90.20411682193998,38.74322572698577],"type":"Point"},"id":"stl-city-public-streetlights:2:137670","properties":{"address":null,"attributes":{"Date_Installed":null,"LED_Powered":0,"LightID":"L030386","Light_Source":"LED","Light_Type":"Cobra","Lighting_Type":"LED-Powered Lamp","Verification_Date":null},"id":"stl-city-public-streetlights:2:137670","sourceLayerId":2,"sourceObjectId":137670,"sourceURL":"https://maps8.stlouis-mo.gov/arcgis/rest/services/STREETS/Streets_Permitting/MapServer/2","title":"Street light L030386"},"type":"Feature"},{"geometry":{"coordinates":[-90.20354687840621,38.7426836171157],"type":"Point"},"id":"stl-city-public-streetlights:2:137671","properties":{"address":null,"attributes":{"Date_Installed":null,"LED_Powered":0,"LightID":"L030387","Light_Source":"LED","Light_Type":"Cobra","Lighting_Type":"LED-Powered Lamp","Verification_Date":null},"id":"stl-city-public-streetlights:2:137671","sourceLayerId":2,"sourceObjectId":137671,"sourceURL":"https://maps8.stlouis-mo.gov/arcgis/rest/services/STREETS/Streets_Permitting/MapServer/2","title":"Street light L030387"},"type":"Feature"},{"geometry":{"coordinates":[-90.20334797795488,38.743016573247935],"type":"Point"},"id":"stl-city-public-streetlights:2:137672","properties":{"address":null,"attributes":{"Date_Installed":null,"LED_Powered":0,"LightID":"L030388","Light_Source":"LED","Light_Type":"Cobra","Lighting_Type":"LED-Powered Lamp","Verification_Date":null},"id":"stl-city-public-streetlights:2:137672","sourceLayerId":2,"sourceObjectId":137672,"sourceURL":"https://maps8.stlouis-mo.gov/arcgis/rest/services/STREETS/Streets_Permitting/MapServer/2","title":"Street light L030388"},"type":"Feature"},{"geometry":{"coordinates":[-90.2031595464481,38.74331936286085],"type":"Point"},"id":"stl-city-public-streetlights:2:137673","properties":{"address":null,"attributes":{"Date_Installed":null,"LED_Powered":0,"LightID":"L030389","Light_Source":"LED","Light_Type":"Cobra","Lighting_Type":"LED-Powered Lamp","Verification_Date":null},"id":"stl-city-public-streetlights:2:137673","sourceLayerId":2,"sourceObjectId":137673,"sourceURL":"https://maps8.stlouis-mo.gov/arcgis/rest/services/STREETS/Streets_Permitting/MapServer/2","title":"Street light L030389"},"type":"Feature"},{"geometry":{"coordinates":[-90.2029757204907,38.74365655195904],"type":"Point"},"id":"stl-city-public-streetlights:2:137674","properties":{"address":null,"attributes":{"Date_Installed":null,"LED_Powered":0,"LightID":"L030390","Light_Source":"LED","Light_Type":"Cobra","Lighting_Type":"LED-Powered Lamp","Verification_Date":null},"id":"stl-city-public-streetlights:2:137674","sourceLayerId":2,"sourceObjectId":137674,"sourceURL":"https://maps8.stlouis-mo.gov/arcgis/rest/services/STREETS/Streets_Permitting/MapServer/2","title":"Street light L030390"},"type":"Feature"},{"geometry":{"coordinates":[-90.20275792321787,38.74396224365212],"type":"Point"},"id":"stl-city-public-streetlights:2:137675","properties":{"address":null,"attributes":{"Date_Installed":null,"LED_Powered":0,"LightID":"L030391","Light_Source":"LED","Light_Type":"Cobra","Lighting_Type":"LED-Powered Lamp","Verification_Date":null},"id":"stl-city-public-streetlights:2:137675","sourceLayerId":2,"sourceObjectId":137675,"sourceURL":"https://maps8.stlouis-mo.gov/arcgis/rest/services/STREETS/Streets_Permitting/MapServer/2","title":"Street light L030391"},"type":"Feature"},{"geometry":{"coordinates":[-90.20268654952841,38.74424427484509],"type":"Point"},"id":"stl-city-public-streetlights:2:137676","properties":{"address":null,"attributes":{"Date_Installed":null,"LED_Powered":0,"LightID":"L030392","Light_Source":"LED","Light_Type":"Cobra","Lighting_Type":"LED-Powered Lamp","Verification_Date":null},"id":"stl-city-public-streetlights:2:137676","sourceLayerId":2,"sourceObjectId":137676,"sourceURL":"https://maps8.stlouis-mo.gov/arcgis/rest/services/STREETS/Streets_Permitting/MapServer/2","title":"Street light L030392"},"type":"Feature"},{"geometry":{"coordinates":[-90.20235600665738,38.74413676499677],"type":"Point"},"id":"stl-city-public-streetlights:2:137677","properties":{"address":null,"attributes":{"Date_Installed":null,"LED_Powered":0,"LightID":"L030393","Light_Source":"LED","Light_Type":"Cobra","Lighting_Type":"LED-Powered Lamp","Verification_Date":null},"id":"stl-city-public-streetlights:2:137677","sourceLayerId":2,"sourceObjectId":137677,"sourceURL":"https://maps8.stlouis-mo.gov/arcgis/rest/services/STREETS/Streets_Permitting/MapServer/2","title":"Street light L030393"},"type":"Feature"},{"geometry":{"coordinates":[-90.20200097529957,38.744378031199695],"type":"Point"},"id":"stl-city-public-streetlights:2:137678","properties":{"address":null,"attributes":{"Date_Installed":null,"LED_Powered":0,"LightID":"L030394","Light_Source":"LED","Light_Type":"Cobra","Lighting_Type":"LED-Powered Lamp","Verification_Date":null},"id":"stl-city-public-streetlights:2:137678","sourceLayerId":2,"sourceObjectId":137678,"sourceURL":"https://maps8.stlouis-mo.gov/arcgis/rest/services/STREETS/Streets_Permitting/MapServer/2","title":"Street light L030394"},"type":"Feature"},{"geometry":{"coordinates":[-90.20165053640456,38.74462693481704],"type":"Point"},"id":"stl-city-public-streetlights:2:137679","properties":{"address":null,"attributes":{"Date_Installed":null,"LED_Powered":0,"LightID":"L030395","Light_Source":"LED","Light_Type":"Cobra","Lighting_Type":"LED-Powered Lamp","Verification_Date":null},"id":"stl-city-public-streetlights:2:137679","sourceLayerId":2,"sourceObjectId":137679,"sourceURL":"https://maps8.stlouis-mo.gov/arcgis/rest/services/STREETS/Streets_Permitting/MapServer/2","title":"Street light L030395"},"type":"Feature"},{"geometry":{"coordinates":[-90.20180439694487,38.744947181208346],"type":"Point"},"id":"stl-city-public-streetlights:2:137680","properties":{"address":null,"attributes":{"Date_Installed":null,"LED_Powered":0,"LightID":"L030396","Light_Source":"LED","Light_Type":"Cobra","Lighting_Type":"LED-Powered Lamp","Verification_Date":null},"id":"stl-city-public-streetlights:2:137680","sourceLayerId":2,"sourceObjectId":137680,"sourceURL":"https://maps8.stlouis-mo.gov/arcgis/rest/services/STREETS/Streets_Permitting/MapServer/2","title":"Street light L030396"},"type":"Feature"}],"layerId":"city-streetlights","retrievedAt":"2026-09-13T21:56:18.173251+00:00","schema":"property-infrastructure-geojson-v1","sourceId":"stl-city-public-streetlights","tileId":"-9021_3874","type":"FeatureCollection"}