{"features":[{"geometry":{"coordinates":[-90.2091535646646,38.59730094935729],"type":"Point"},"id":"stl-city-public-streetlights:2:115205","properties":{"address":null,"attributes":{"Date_Installed":"6/15/2017","LED_Powered":1,"LightID":"L007949","Light_Source":"LED","Light_Type":"Cobra","Lighting_Type":"LED-Powered Lamp","Verification_Date":null},"id":"stl-city-public-streetlights:2:115205","sourceLayerId":2,"sourceObjectId":115205,"sourceURL":"https://maps8.stlouis-mo.gov/arcgis/rest/services/STREETS/Streets_Permitting/MapServer/2","title":"Street light L007949"},"type":"Feature"},{"geometry":{"coordinates":[-90.2095042596882,38.59686361595017],"type":"Point"},"id":"stl-city-public-streetlights:2:115206","properties":{"address":null,"attributes":{"Date_Installed":"6/15/2017","LED_Powered":1,"LightID":"L007950","Light_Source":"LED","Light_Type":"Cobra","Lighting_Type":"LED-Powered Lamp","Verification_Date":null},"id":"stl-city-public-streetlights:2:115206","sourceLayerId":2,"sourceObjectId":115206,"sourceURL":"https://maps8.stlouis-mo.gov/arcgis/rest/services/STREETS/Streets_Permitting/MapServer/2","title":"Street light L007950"},"type":"Feature"},{"geometry":{"coordinates":[-90.20984742924202,38.5961168106595],"type":"Point"},"id":"stl-city-public-streetlights:2:120946","properties":{"address":null,"attributes":{"Date_Installed":"6/15/2017","LED_Powered":1,"LightID":"L013666","Light_Source":"LED","Light_Type":"Cobra","Lighting_Type":"LED-Powered Lamp","Verification_Date":null},"id":"stl-city-public-streetlights:2:120946","sourceLayerId":2,"sourceObjectId":120946,"sourceURL":"https://maps8.stlouis-mo.gov/arcgis/rest/services/STREETS/Streets_Permitting/MapServer/2","title":"Street light L013666"},"type":"Feature"},{"geometry":{"coordinates":[-90.20966276136916,38.59633833148231],"type":"Point"},"id":"stl-city-public-streetlights:2:120947","properties":{"address":null,"attributes":{"Date_Installed":"6/15/2017","LED_Powered":1,"LightID":"L013667","Light_Source":"LED","Light_Type":"Cobra","Lighting_Type":"LED-Powered Lamp","Verification_Date":null},"id":"stl-city-public-streetlights:2:120947","sourceLayerId":2,"sourceObjectId":120947,"sourceURL":"https://maps8.stlouis-mo.gov/arcgis/rest/services/STREETS/Streets_Permitting/MapServer/2","title":"Street light L013667"},"type":"Feature"},{"geometry":{"coordinates":[-90.2094903545243,38.59654514199161],"type":"Point"},"id":"stl-city-public-streetlights:2:120948","properties":{"address":null,"attributes":{"Date_Installed":"6/15/2017","LED_Powered":1,"LightID":"L013668","Light_Source":"LED","Light_Type":"Cobra","Lighting_Type":"LED-Powered Lamp","Verification_Date":null},"id":"stl-city-public-streetlights:2:120948","sourceLayerId":2,"sourceObjectId":120948,"sourceURL":"https://maps8.stlouis-mo.gov/arcgis/rest/services/STREETS/Streets_Permitting/MapServer/2","title":"Street light L013668"},"type":"Feature"},{"geometry":{"coordinates":[-90.20914212490752,38.59697953648387],"type":"Point"},"id":"stl-city-public-streetlights:2:120949","properties":{"address":null,"attributes":{"Date_Installed":"6/15/2017","LED_Powered":1,"LightID":"L013669","Light_Source":"LED","Light_Type":"Cobra","Lighting_Type":"LED-Powered Lamp","Verification_Date":null},"id":"stl-city-public-streetlights:2:120949","sourceLayerId":2,"sourceObjectId":120949,"sourceURL":"https://maps8.stlouis-mo.gov/arcgis/rest/services/STREETS/Streets_Permitting/MapServer/2","title":"Street light L013669"},"type":"Feature"},{"geometry":{"coordinates":[-90.2087751496706,38.59735101789301],"type":"Point"},"id":"stl-city-public-streetlights:2:120950","properties":{"address":null,"attributes":{"Date_Installed":"6/15/2017","LED_Powered":1,"LightID":"L013670","Light_Source":"LED","Light_Type":"Cobra","Lighting_Type":"LED-Powered Lamp","Verification_Date":null},"id":"stl-city-public-streetlights:2:120950","sourceLayerId":2,"sourceObjectId":120950,"sourceURL":"https://maps8.stlouis-mo.gov/arcgis/rest/services/STREETS/Streets_Permitting/MapServer/2","title":"Street light L013670"},"type":"Feature"},{"geometry":{"coordinates":[-90.20852396453301,38.59765007352138],"type":"Point"},"id":"stl-city-public-streetlights:2:120951","properties":{"address":null,"attributes":{"Date_Installed":"6/15/2017","LED_Powered":1,"LightID":"L013671","Light_Source":"LED","Light_Type":"Cobra","Lighting_Type":"LED-Powered Lamp","Verification_Date":null},"id":"stl-city-public-streetlights:2:120951","sourceLayerId":2,"sourceObjectId":120951,"sourceURL":"https://maps8.stlouis-mo.gov/arcgis/rest/services/STREETS/Streets_Permitting/MapServer/2","title":"Street light L013671"},"type":"Feature"},{"geometry":{"coordinates":[-90.20838868675929,38.597828687615824],"type":"Point"},"id":"stl-city-public-streetlights:2:120952","properties":{"address":null,"attributes":{"Date_Installed":"6/15/2017","LED_Powered":1,"LightID":"L013672","Light_Source":"LED","Light_Type":"Cobra","Lighting_Type":"LED-Powered Lamp","Verification_Date":null},"id":"stl-city-public-streetlights:2:120952","sourceLayerId":2,"sourceObjectId":120952,"sourceURL":"https://maps8.stlouis-mo.gov/arcgis/rest/services/STREETS/Streets_Permitting/MapServer/2","title":"Street light L013672"},"type":"Feature"},{"geometry":{"coordinates":[-90.20806821303779,38.59836086623225],"type":"Point"},"id":"stl-city-public-streetlights:2:120953","properties":{"address":null,"attributes":{"Date_Installed":"6/15/2017","LED_Powered":1,"LightID":"L013673","Light_Source":"LED","Light_Type":"Cobra","Lighting_Type":"LED-Powered Lamp","Verification_Date":null},"id":"stl-city-public-streetlights:2:120953","sourceLayerId":2,"sourceObjectId":120953,"sourceURL":"https://maps8.stlouis-mo.gov/arcgis/rest/services/STREETS/Streets_Permitting/MapServer/2","title":"Street light L013673"},"type":"Feature"},{"geometry":{"coordinates":[-90.2078466876983,38.598909499872704],"type":"Point"},"id":"stl-city-public-streetlights:2:120954","properties":{"address":null,"attributes":{"Date_Installed":"6/15/2017","LED_Powered":1,"LightID":"L013674","Light_Source":"LED","Light_Type":"Cobra","Lighting_Type":"LED-Powered Lamp","Verification_Date":null},"id":"stl-city-public-streetlights:2:120954","sourceLayerId":2,"sourceObjectId":120954,"sourceURL":"https://maps8.stlouis-mo.gov/arcgis/rest/services/STREETS/Streets_Permitting/MapServer/2","title":"Street light L013674"},"type":"Feature"},{"geometry":{"coordinates":[-90.20767785783835,38.599495926581284],"type":"Point"},"id":"stl-city-public-streetlights:2:120955","properties":{"address":null,"attributes":{"Date_Installed":"6/15/2017","LED_Powered":1,"LightID":"L013675","Light_Source":"LED","Light_Type":"Cobra","Lighting_Type":"LED-Powered Lamp","Verification_Date":null},"id":"stl-city-public-streetlights:2:120955","sourceLayerId":2,"sourceObjectId":120955,"sourceURL":"https://maps8.stlouis-mo.gov/arcgis/rest/services/STREETS/Streets_Permitting/MapServer/2","title":"Street light L013675"},"type":"Feature"},{"geometry":{"coordinates":[-90.20801411878149,38.59956732140446],"type":"Point"},"id":"stl-city-public-streetlights:2:120961","properties":{"address":null,"attributes":{"Date_Installed":"2020-10-02","LED_Powered":1,"LightID":"L013681","Light_Source":"LED","Light_Type":"Cobra","Lighting_Type":"5G Pole - 5G Pole -5G Pole - 1A","Verification_Date":null},"id":"stl-city-public-streetlights:2:120961","sourceLayerId":2,"sourceObjectId":120961,"sourceURL":"https://maps8.stlouis-mo.gov/arcgis/rest/services/STREETS/Streets_Permitting/MapServer/2","title":"Street light L013681"},"type":"Feature"},{"geometry":{"coordinates":[-90.2081902358331,38.59898091238477],"type":"Point"},"id":"stl-city-public-streetlights:2:120962","properties":{"address":null,"attributes":{"Date_Installed":"6/15/2017","LED_Powered":1,"LightID":"L013682","Light_Source":"LED","Light_Type":"Cobra","Lighting_Type":"LED-Powered Lamp","Verification_Date":null},"id":"stl-city-public-streetlights:2:120962","sourceLayerId":2,"sourceObjectId":120962,"sourceURL":"https://maps8.stlouis-mo.gov/arcgis/rest/services/STREETS/Streets_Permitting/MapServer/2","title":"Street light L013682"},"type":"Feature"},{"geometry":{"coordinates":[-90.20839827437082,38.5984618010551],"type":"Point"},"id":"stl-city-public-streetlights:2:120963","properties":{"address":null,"attributes":{"Date_Installed":"6/15/2017","LED_Powered":1,"LightID":"L013683","Light_Source":"LED","Light_Type":"Cobra","Lighting_Type":"LED-Powered Lamp","Verification_Date":null},"id":"stl-city-public-streetlights:2:120963","sourceLayerId":2,"sourceObjectId":120963,"sourceURL":"https://maps8.stlouis-mo.gov/arcgis/rest/services/STREETS/Streets_Permitting/MapServer/2","title":"Street light L013683"},"type":"Feature"},{"geometry":{"coordinates":[-90.20869368548355,38.59796769674923],"type":"Point"},"id":"stl-city-public-streetlights:2:120964","properties":{"address":null,"attributes":{"Date_Installed":"6/15/2017","LED_Powered":1,"LightID":"L013684","Light_Source":"LED","Light_Type":"Cobra","Lighting_Type":"LED-Powered Lamp","Verification_Date":null},"id":"stl-city-public-streetlights:2:120964","sourceLayerId":2,"sourceObjectId":120964,"sourceURL":"https://maps8.stlouis-mo.gov/arcgis/rest/services/STREETS/Streets_Permitting/MapServer/2","title":"Street light L013684"},"type":"Feature"},{"geometry":{"coordinates":[-90.20903559823122,38.59754044918573],"type":"Point"},"id":"stl-city-public-streetlights:2:120965","properties":{"address":null,"attributes":{"Date_Installed":"6/15/2017","LED_Powered":1,"LightID":"L013685","Light_Source":"LED","Light_Type":"Cobra","Lighting_Type":"LED-Powered Lamp","Verification_Date":null},"id":"stl-city-public-streetlights:2:120965","sourceLayerId":2,"sourceObjectId":120965,"sourceURL":"https://maps8.stlouis-mo.gov/arcgis/rest/services/STREETS/Streets_Permitting/MapServer/2","title":"Street light L013685"},"type":"Feature"},{"geometry":{"coordinates":[-90.20924253045516,38.597565640798685],"type":"Point"},"id":"stl-city-public-streetlights:2:120966","properties":{"address":null,"attributes":{"Date_Installed":null,"LED_Powered":0,"LightID":"L013686","Light_Source":"High Pressure Sodium","Light_Type":"Cobra","Lighting_Type":"400-W High Pressure Sodium Vapor Lamp","Verification_Date":null},"id":"stl-city-public-streetlights:2:120966","sourceLayerId":2,"sourceObjectId":120966,"sourceURL":"https://maps8.stlouis-mo.gov/arcgis/rest/services/STREETS/Streets_Permitting/MapServer/2","title":"Street light L013686"},"type":"Feature"},{"geometry":{"coordinates":[-90.20969868141331,38.597807519387615],"type":"Point"},"id":"stl-city-public-streetlights:2:120967","properties":{"address":null,"attributes":{"Date_Installed":null,"LED_Powered":0,"LightID":"L013687","Light_Source":"High Pressure Sodium","Light_Type":"Cobra","Lighting_Type":"150-W High Pressure Sodium Vapor Lamp","Verification_Date":null},"id":"stl-city-public-streetlights:2:120967","sourceLayerId":2,"sourceObjectId":120967,"sourceURL":"https://maps8.stlouis-mo.gov/arcgis/rest/services/STREETS/Streets_Permitting/MapServer/2","title":"Street light L013687"},"type":"Feature"},{"geometry":{"coordinates":[-90.20774578730253,38.59860547338934],"type":"Point"},"id":"stl-city-public-streetlights:2:120976","properties":{"address":null,"attributes":{"Date_Installed":null,"LED_Powered":0,"LightID":"L013696","Light_Source":"LED","Light_Type":"Cobra","Lighting_Type":"LED-Powered Lamp","Verification_Date":null},"id":"stl-city-public-streetlights:2:120976","sourceLayerId":2,"sourceObjectId":120976,"sourceURL":"https://maps8.stlouis-mo.gov/arcgis/rest/services/STREETS/Streets_Permitting/MapServer/2","title":"Street light L013696"},"type":"Feature"},{"geometry":{"coordinates":[-90.20729855793759,38.59838306526477],"type":"Point"},"id":"stl-city-public-streetlights:2:120977","properties":{"address":null,"attributes":{"Date_Installed":null,"LED_Powered":0,"LightID":"L013697","Light_Source":"LED","Light_Type":"Cobra","Lighting_Type":"LED-Powered Lamp","Verification_Date":null},"id":"stl-city-public-streetlights:2:120977","sourceLayerId":2,"sourceObjectId":120977,"sourceURL":"https://maps8.stlouis-mo.gov/arcgis/rest/services/STREETS/Streets_Permitting/MapServer/2","title":"Street light L013697"},"type":"Feature"},{"geometry":{"coordinates":[-90.20688824478621,38.59799952642754],"type":"Point"},"id":"stl-city-public-streetlights:2:120978","properties":{"address":null,"attributes":{"Date_Installed":null,"LED_Powered":0,"LightID":"L013698","Light_Source":"LED","Light_Type":"Cobra","Lighting_Type":"LED-Powered Lamp","Verification_Date":null},"id":"stl-city-public-streetlights:2:120978","sourceLayerId":2,"sourceObjectId":120978,"sourceURL":"https://maps8.stlouis-mo.gov/arcgis/rest/services/STREETS/Streets_Permitting/MapServer/2","title":"Street light L013698"},"type":"Feature"},{"geometry":{"coordinates":[-90.20650424645433,38.59763096554589],"type":"Point"},"id":"stl-city-public-streetlights:2:120979","properties":{"address":null,"attributes":{"Date_Installed":null,"LED_Powered":0,"LightID":"L013699","Light_Source":"LED","Light_Type":"Cobra","Lighting_Type":"LED-Powered Lamp","Verification_Date":null},"id":"stl-city-public-streetlights:2:120979","sourceLayerId":2,"sourceObjectId":120979,"sourceURL":"https://maps8.stlouis-mo.gov/arcgis/rest/services/STREETS/Streets_Permitting/MapServer/2","title":"Street light L013699"},"type":"Feature"},{"geometry":{"coordinates":[-90.20569388345993,38.59687574974788],"type":"Point"},"id":"stl-city-public-streetlights:2:121009","properties":{"address":null,"attributes":{"Date_Installed":null,"LED_Powered":0,"LightID":"L013729","Light_Source":"LED","Light_Type":"Cobra","Lighting_Type":"LED-Powered Lamp","Verification_Date":null},"id":"stl-city-public-streetlights:2:121009","sourceLayerId":2,"sourceObjectId":121009,"sourceURL":"https://maps8.stlouis-mo.gov/arcgis/rest/services/STREETS/Streets_Permitting/MapServer/2","title":"Street light L013729"},"type":"Feature"},{"geometry":{"coordinates":[-90.20535270632334,38.596544446529904],"type":"Point"},"id":"stl-city-public-streetlights:2:121010","properties":{"address":null,"attributes":{"Date_Installed":null,"LED_Powered":0,"LightID":"L013730","Light_Source":"LED","Light_Type":"Cobra","Lighting_Type":"LED-Powered Lamp","Verification_Date":null},"id":"stl-city-public-streetlights:2:121010","sourceLayerId":2,"sourceObjectId":121010,"sourceURL":"https://maps8.stlouis-mo.gov/arcgis/rest/services/STREETS/Streets_Permitting/MapServer/2","title":"Street light L013730"},"type":"Feature"},{"geometry":{"coordinates":[-90.2048839365304,38.59667435734775],"type":"Point"},"id":"stl-city-public-streetlights:2:121011","properties":{"address":null,"attributes":{"Date_Installed":null,"LED_Powered":0,"LightID":"L013731","Light_Source":"LED","Light_Type":"Cobra","Lighting_Type":"LED-Powered Lamp","Verification_Date":null},"id":"stl-city-public-streetlights:2:121011","sourceLayerId":2,"sourceObjectId":121011,"sourceURL":"https://maps8.stlouis-mo.gov/arcgis/rest/services/STREETS/Streets_Permitting/MapServer/2","title":"Street light L013731"},"type":"Feature"},{"geometry":{"coordinates":[-90.20444481611216,38.597101538354394],"type":"Point"},"id":"stl-city-public-streetlights:2:121012","properties":{"address":null,"attributes":{"Date_Installed":null,"LED_Powered":0,"LightID":"L013732","Light_Source":"LED","Light_Type":"Cobra","Lighting_Type":"LED-Powered Lamp","Verification_Date":null},"id":"stl-city-public-streetlights:2:121012","sourceLayerId":2,"sourceObjectId":121012,"sourceURL":"https://maps8.stlouis-mo.gov/arcgis/rest/services/STREETS/Streets_Permitting/MapServer/2","title":"Street light L013732"},"type":"Feature"},{"geometry":{"coordinates":[-90.20427596941809,38.597285723241235],"type":"Point"},"id":"stl-city-public-streetlights:2:121221","properties":{"address":null,"attributes":{"Date_Installed":null,"LED_Powered":0,"LightID":"L013941","Light_Source":"LED","Light_Type":"Cobra","Lighting_Type":"LED-Powered Lamp","Verification_Date":null},"id":"stl-city-public-streetlights:2:121221","sourceLayerId":2,"sourceObjectId":121221,"sourceURL":"https://maps8.stlouis-mo.gov/arcgis/rest/services/STREETS/Streets_Permitting/MapServer/2","title":"Street light L013941"},"type":"Feature"},{"geometry":{"coordinates":[-90.20401376867636,38.59758661879538],"type":"Point"},"id":"stl-city-public-streetlights:2:121222","properties":{"address":null,"attributes":{"Date_Installed":null,"LED_Powered":0,"LightID":"L013942","Light_Source":"LED","Light_Type":"Cobra","Lighting_Type":"LED-Powered Lamp","Verification_Date":null},"id":"stl-city-public-streetlights:2:121222","sourceLayerId":2,"sourceObjectId":121222,"sourceURL":"https://maps8.stlouis-mo.gov/arcgis/rest/services/STREETS/Streets_Permitting/MapServer/2","title":"Street light L013942"},"type":"Feature"},{"geometry":{"coordinates":[-90.20371380005983,38.59792418365604],"type":"Point"},"id":"stl-city-public-streetlights:2:121223","properties":{"address":null,"attributes":{"Date_Installed":null,"LED_Powered":0,"LightID":"L013943","Light_Source":"LED","Light_Type":"Cobra","Lighting_Type":"LED-Powered Lamp","Verification_Date":null},"id":"stl-city-public-streetlights:2:121223","sourceLayerId":2,"sourceObjectId":121223,"sourceURL":"https://maps8.stlouis-mo.gov/arcgis/rest/services/STREETS/Streets_Permitting/MapServer/2","title":"Street light L013943"},"type":"Feature"},{"geometry":{"coordinates":[-90.20347030732445,38.598198191259506],"type":"Point"},"id":"stl-city-public-streetlights:2:121224","properties":{"address":null,"attributes":{"Date_Installed":null,"LED_Powered":0,"LightID":"L013944","Light_Source":"LED","Light_Type":"Cobra","Lighting_Type":"LED-Powered Lamp","Verification_Date":null},"id":"stl-city-public-streetlights:2:121224","sourceLayerId":2,"sourceObjectId":121224,"sourceURL":"https://maps8.stlouis-mo.gov/arcgis/rest/services/STREETS/Streets_Permitting/MapServer/2","title":"Street light L013944"},"type":"Feature"},{"geometry":{"coordinates":[-90.20314721404674,38.59855722741687],"type":"Point"},"id":"stl-city-public-streetlights:2:121225","properties":{"address":null,"attributes":{"Date_Installed":null,"LED_Powered":0,"LightID":"L013945","Light_Source":"LED","Light_Type":"Cobra","Lighting_Type":"LED-Powered Lamp","Verification_Date":null},"id":"stl-city-public-streetlights:2:121225","sourceLayerId":2,"sourceObjectId":121225,"sourceURL":"https://maps8.stlouis-mo.gov/arcgis/rest/services/STREETS/Streets_Permitting/MapServer/2","title":"Street light L013945"},"type":"Feature"},{"geometry":{"coordinates":[-90.20575438456395,38.59730185950414],"type":"Point"},"id":"stl-city-public-streetlights:2:121226","properties":{"address":null,"attributes":{"Date_Installed":null,"LED_Powered":0,"LightID":"L013946","Light_Source":"LED","Light_Type":"Cobra","Lighting_Type":"LED-Powered Lamp","Verification_Date":null},"id":"stl-city-public-streetlights:2:121226","sourceLayerId":2,"sourceObjectId":121226,"sourceURL":"https://maps8.stlouis-mo.gov/arcgis/rest/services/STREETS/Streets_Permitting/MapServer/2","title":"Street light L013946"},"type":"Feature"},{"geometry":{"coordinates":[-90.20551051747127,38.59771176596547],"type":"Point"},"id":"stl-city-public-streetlights:2:121227","properties":{"address":null,"attributes":{"Date_Installed":null,"LED_Powered":0,"LightID":"L013947","Light_Source":"LED","Light_Type":"Cobra","Lighting_Type":"LED-Powered Lamp","Verification_Date":null},"id":"stl-city-public-streetlights:2:121227","sourceLayerId":2,"sourceObjectId":121227,"sourceURL":"https://maps8.stlouis-mo.gov/arcgis/rest/services/STREETS/Streets_Permitting/MapServer/2","title":"Street light L013947"},"type":"Feature"},{"geometry":{"coordinates":[-90.20519744644781,38.59806280067048],"type":"Point"},"id":"stl-city-public-streetlights:2:121228","properties":{"address":null,"attributes":{"Date_Installed":null,"LED_Powered":0,"LightID":"L013948","Light_Source":"LED","Light_Type":"Cobra","Lighting_Type":"LED-Powered Lamp","Verification_Date":null},"id":"stl-city-public-streetlights:2:121228","sourceLayerId":2,"sourceObjectId":121228,"sourceURL":"https://maps8.stlouis-mo.gov/arcgis/rest/services/STREETS/Streets_Permitting/MapServer/2","title":"Street light L013948"},"type":"Feature"},{"geometry":{"coordinates":[-90.20489061193265,38.59840340976795],"type":"Point"},"id":"stl-city-public-streetlights:2:121229","properties":{"address":null,"attributes":{"Date_Installed":null,"LED_Powered":0,"LightID":"L013949","Light_Source":"LED","Light_Type":"Cobra","Lighting_Type":"LED-Powered Lamp","Verification_Date":null},"id":"stl-city-public-streetlights:2:121229","sourceLayerId":2,"sourceObjectId":121229,"sourceURL":"https://maps8.stlouis-mo.gov/arcgis/rest/services/STREETS/Streets_Permitting/MapServer/2","title":"Street light L013949"},"type":"Feature"},{"geometry":{"coordinates":[-90.20456744014513,38.598764332514904],"type":"Point"},"id":"stl-city-public-streetlights:2:121230","properties":{"address":null,"attributes":{"Date_Installed":null,"LED_Powered":0,"LightID":"L013950","Light_Source":"LED","Light_Type":"Cobra","Lighting_Type":"LED-Powered Lamp","Verification_Date":null},"id":"stl-city-public-streetlights:2:121230","sourceLayerId":2,"sourceObjectId":121230,"sourceURL":"https://maps8.stlouis-mo.gov/arcgis/rest/services/STREETS/Streets_Permitting/MapServer/2","title":"Street light L013950"},"type":"Feature"},{"geometry":{"coordinates":[-90.20428163442821,38.59909350393867],"type":"Point"},"id":"stl-city-public-streetlights:2:121231","properties":{"address":null,"attributes":{"Date_Installed":null,"LED_Powered":0,"LightID":"L013951","Light_Source":"LED","Light_Type":"Cobra","Lighting_Type":"LED-Powered Lamp","Verification_Date":null},"id":"stl-city-public-streetlights:2:121231","sourceLayerId":2,"sourceObjectId":121231,"sourceURL":"https://maps8.stlouis-mo.gov/arcgis/rest/services/STREETS/Streets_Permitting/MapServer/2","title":"Street light L013951"},"type":"Feature"},{"geometry":{"coordinates":[-90.20280726573216,38.598939157536094],"type":"Point"},"id":"stl-city-public-streetlights:2:121232","properties":{"address":null,"attributes":{"Date_Installed":null,"LED_Powered":0,"LightID":"L013952","Light_Source":"LED","Light_Type":"Cobra","Lighting_Type":"LED-Powered Lamp","Verification_Date":null},"id":"stl-city-public-streetlights:2:121232","sourceLayerId":2,"sourceObjectId":121232,"sourceURL":"https://maps8.stlouis-mo.gov/arcgis/rest/services/STREETS/Streets_Permitting/MapServer/2","title":"Street light L013952"},"type":"Feature"},{"geometry":{"coordinates":[-90.20249100520333,38.59929969205066],"type":"Point"},"id":"stl-city-public-streetlights:2:121233","properties":{"address":null,"attributes":{"Date_Installed":null,"LED_Powered":0,"LightID":"L013953","Light_Source":"LED","Light_Type":"Cobra","Lighting_Type":"LED-Powered Lamp","Verification_Date":null},"id":"stl-city-public-streetlights:2:121233","sourceLayerId":2,"sourceObjectId":121233,"sourceURL":"https://maps8.stlouis-mo.gov/arcgis/rest/services/STREETS/Streets_Permitting/MapServer/2","title":"Street light L013953"},"type":"Feature"},{"geometry":{"coordinates":[-90.20223662660358,38.59971019091208],"type":"Point"},"id":"stl-city-public-streetlights:2:121234","properties":{"address":null,"attributes":{"Date_Installed":null,"LED_Powered":0,"LightID":"L013954","Light_Source":"LED","Light_Type":"Cobra","Lighting_Type":"LED-Powered Lamp","Verification_Date":null},"id":"stl-city-public-streetlights:2:121234","sourceLayerId":2,"sourceObjectId":121234,"sourceURL":"https://maps8.stlouis-mo.gov/arcgis/rest/services/STREETS/Streets_Permitting/MapServer/2","title":"Street light L013954"},"type":"Feature"},{"geometry":{"coordinates":[-90.20196528628031,38.59939203123697],"type":"Point"},"id":"stl-city-public-streetlights:2:121241","properties":{"address":null,"attributes":{"Date_Installed":null,"LED_Powered":0,"LightID":"L013961","Light_Source":"LED","Light_Type":"Cobra","Lighting_Type":"LED-Powered Lamp","Verification_Date":null},"id":"stl-city-public-streetlights:2:121241","sourceLayerId":2,"sourceObjectId":121241,"sourceURL":"https://maps8.stlouis-mo.gov/arcgis/rest/services/STREETS/Streets_Permitting/MapServer/2","title":"Street light L013961"},"type":"Feature"},{"geometry":{"coordinates":[-90.20158903004823,38.599180836943596],"type":"Point"},"id":"stl-city-public-streetlights:2:121242","properties":{"address":null,"attributes":{"Date_Installed":null,"LED_Powered":0,"LightID":"L013962","Light_Source":"LED","Light_Type":"Cobra","Lighting_Type":"LED-Powered Lamp","Verification_Date":null},"id":"stl-city-public-streetlights:2:121242","sourceLayerId":2,"sourceObjectId":121242,"sourceURL":"https://maps8.stlouis-mo.gov/arcgis/rest/services/STREETS/Streets_Permitting/MapServer/2","title":"Street light L013962"},"type":"Feature"},{"geometry":{"coordinates":[-90.20102174452003,38.59887643077598],"type":"Point"},"id":"stl-city-public-streetlights:2:121243","properties":{"address":null,"attributes":{"Date_Installed":null,"LED_Powered":0,"LightID":"L013963","Light_Source":"LED","Light_Type":"Cobra","Lighting_Type":"LED-Powered Lamp","Verification_Date":null},"id":"stl-city-public-streetlights:2:121243","sourceLayerId":2,"sourceObjectId":121243,"sourceURL":"https://maps8.stlouis-mo.gov/arcgis/rest/services/STREETS/Streets_Permitting/MapServer/2","title":"Street light L013963"},"type":"Feature"},{"geometry":{"coordinates":[-90.20066173193567,38.59867552446727],"type":"Point"},"id":"stl-city-public-streetlights:2:121244","properties":{"address":null,"attributes":{"Date_Installed":null,"LED_Powered":0,"LightID":"L013964","Light_Source":"LED","Light_Type":"Cobra","Lighting_Type":"LED-Powered Lamp","Verification_Date":null},"id":"stl-city-public-streetlights:2:121244","sourceLayerId":2,"sourceObjectId":121244,"sourceURL":"https://maps8.stlouis-mo.gov/arcgis/rest/services/STREETS/Streets_Permitting/MapServer/2","title":"Street light L013964"},"type":"Feature"},{"geometry":{"coordinates":[-90.20029867998483,38.59847580204838],"type":"Point"},"id":"stl-city-public-streetlights:2:121245","properties":{"address":null,"attributes":{"Date_Installed":null,"LED_Powered":0,"LightID":"L013965","Light_Source":"LED","Light_Type":"Cobra","Lighting_Type":"LED-Powered Lamp","Verification_Date":null},"id":"stl-city-public-streetlights:2:121245","sourceLayerId":2,"sourceObjectId":121245,"sourceURL":"https://maps8.stlouis-mo.gov/arcgis/rest/services/STREETS/Streets_Permitting/MapServer/2","title":"Street light L013965"},"type":"Feature"},{"geometry":{"coordinates":[-90.201187973806,38.59869570070232],"type":"Point"},"id":"stl-city-public-streetlights:2:121250","properties":{"address":null,"attributes":{"Date_Installed":null,"LED_Powered":0,"LightID":"L013970","Light_Source":"LED","Light_Type":"Cobra","Lighting_Type":"LED-Powered Lamp","Verification_Date":null},"id":"stl-city-public-streetlights:2:121250","sourceLayerId":2,"sourceObjectId":121250,"sourceURL":"https://maps8.stlouis-mo.gov/arcgis/rest/services/STREETS/Streets_Permitting/MapServer/2","title":"Street light L013970"},"type":"Feature"},{"geometry":{"coordinates":[-90.20142601789546,38.59842397946536],"type":"Point"},"id":"stl-city-public-streetlights:2:121251","properties":{"address":null,"attributes":{"Date_Installed":null,"LED_Powered":0,"LightID":"L013971","Light_Source":"LED","Light_Type":"Cobra","Lighting_Type":"LED-Powered Lamp","Verification_Date":null},"id":"stl-city-public-streetlights:2:121251","sourceLayerId":2,"sourceObjectId":121251,"sourceURL":"https://maps8.stlouis-mo.gov/arcgis/rest/services/STREETS/Streets_Permitting/MapServer/2","title":"Street light L013971"},"type":"Feature"},{"geometry":{"coordinates":[-90.20167472861733,38.59814334624093],"type":"Point"},"id":"stl-city-public-streetlights:2:121252","properties":{"address":null,"attributes":{"Date_Installed":null,"LED_Powered":0,"LightID":"L013972","Light_Source":"LED","Light_Type":"Cobra","Lighting_Type":"LED-Powered Lamp","Verification_Date":null},"id":"stl-city-public-streetlights:2:121252","sourceLayerId":2,"sourceObjectId":121252,"sourceURL":"https://maps8.stlouis-mo.gov/arcgis/rest/services/STREETS/Streets_Permitting/MapServer/2","title":"Street light L013972"},"type":"Feature"},{"geometry":{"coordinates":[-90.20061081299599,38.59728585033766],"type":"Point"},"id":"stl-city-public-streetlights:2:121253","properties":{"address":null,"attributes":{"Date_Installed":null,"LED_Powered":0,"LightID":"L013973","Light_Source":"LED","Light_Type":"Cobra","Lighting_Type":"LED-Powered Lamp","Verification_Date":null},"id":"stl-city-public-streetlights:2:121253","sourceLayerId":2,"sourceObjectId":121253,"sourceURL":"https://maps8.stlouis-mo.gov/arcgis/rest/services/STREETS/Streets_Permitting/MapServer/2","title":"Street light L013973"},"type":"Feature"},{"geometry":{"coordinates":[-90.20111032939047,38.59755147044023],"type":"Point"},"id":"stl-city-public-streetlights:2:121254","properties":{"address":null,"attributes":{"Date_Installed":null,"LED_Powered":0,"LightID":"L013974","Light_Source":"LED","Light_Type":"Cobra","Lighting_Type":"LED-Powered Lamp","Verification_Date":null},"id":"stl-city-public-streetlights:2:121254","sourceLayerId":2,"sourceObjectId":121254,"sourceURL":"https://maps8.stlouis-mo.gov/arcgis/rest/services/STREETS/Streets_Permitting/MapServer/2","title":"Street light L013974"},"type":"Feature"},{"geometry":{"coordinates":[-90.20154141793796,38.59778773032526],"type":"Point"},"id":"stl-city-public-streetlights:2:121255","properties":{"address":null,"attributes":{"Date_Installed":null,"LED_Powered":0,"LightID":"L013975","Light_Source":"LED","Light_Type":"Cobra","Lighting_Type":"LED-Powered Lamp","Verification_Date":null},"id":"stl-city-public-streetlights:2:121255","sourceLayerId":2,"sourceObjectId":121255,"sourceURL":"https://maps8.stlouis-mo.gov/arcgis/rest/services/STREETS/Streets_Permitting/MapServer/2","title":"Street light L013975"},"type":"Feature"},{"geometry":{"coordinates":[-90.20198757027413,38.598033587273825],"type":"Point"},"id":"stl-city-public-streetlights:2:121256","properties":{"address":null,"attributes":{"Date_Installed":null,"LED_Powered":0,"LightID":"L013976","Light_Source":"LED","Light_Type":"Cobra","Lighting_Type":"LED-Powered Lamp","Verification_Date":null},"id":"stl-city-public-streetlights:2:121256","sourceLayerId":2,"sourceObjectId":121256,"sourceURL":"https://maps8.stlouis-mo.gov/arcgis/rest/services/STREETS/Streets_Permitting/MapServer/2","title":"Street light L013976"},"type":"Feature"},{"geometry":{"coordinates":[-90.2023998647065,38.59825964304063],"type":"Point"},"id":"stl-city-public-streetlights:2:121257","properties":{"address":null,"attributes":{"Date_Installed":null,"LED_Powered":0,"LightID":"L013977","Light_Source":"LED","Light_Type":"Cobra","Lighting_Type":"LED-Powered Lamp","Verification_Date":null},"id":"stl-city-public-streetlights:2:121257","sourceLayerId":2,"sourceObjectId":121257,"sourceURL":"https://maps8.stlouis-mo.gov/arcgis/rest/services/STREETS/Streets_Permitting/MapServer/2","title":"Street light L013977"},"type":"Feature"},{"geometry":{"coordinates":[-90.20280580536244,38.59848261366799],"type":"Point"},"id":"stl-city-public-streetlights:2:121258","properties":{"address":null,"attributes":{"Date_Installed":null,"LED_Powered":0,"LightID":"L013978","Light_Source":"LED","Light_Type":"Cobra","Lighting_Type":"LED-Powered Lamp","Verification_Date":null},"id":"stl-city-public-streetlights:2:121258","sourceLayerId":2,"sourceObjectId":121258,"sourceURL":"https://maps8.stlouis-mo.gov/arcgis/rest/services/STREETS/Streets_Permitting/MapServer/2","title":"Street light L013978"},"type":"Feature"},{"geometry":{"coordinates":[-90.2033184283467,38.59876312056104],"type":"Point"},"id":"stl-city-public-streetlights:2:121259","properties":{"address":null,"attributes":{"Date_Installed":null,"LED_Powered":0,"LightID":"L013979","Light_Source":"LED","Light_Type":"Cobra","Lighting_Type":"LED-Powered Lamp","Verification_Date":null},"id":"stl-city-public-streetlights:2:121259","sourceLayerId":2,"sourceObjectId":121259,"sourceURL":"https://maps8.stlouis-mo.gov/arcgis/rest/services/STREETS/Streets_Permitting/MapServer/2","title":"Street light L013979"},"type":"Feature"},{"geometry":{"coordinates":[-90.20378330580422,38.59901498833844],"type":"Point"},"id":"stl-city-public-streetlights:2:121260","properties":{"address":null,"attributes":{"Date_Installed":null,"LED_Powered":0,"LightID":"L013980","Light_Source":"LED","Light_Type":"Cobra","Lighting_Type":"LED-Powered Lamp","Verification_Date":null},"id":"stl-city-public-streetlights:2:121260","sourceLayerId":2,"sourceObjectId":121260,"sourceURL":"https://maps8.stlouis-mo.gov/arcgis/rest/services/STREETS/Streets_Permitting/MapServer/2","title":"Street light L013980"},"type":"Feature"},{"geometry":{"coordinates":[-90.20434276115841,38.59931905504525],"type":"Point"},"id":"stl-city-public-streetlights:2:121261","properties":{"address":null,"attributes":{"Date_Installed":null,"LED_Powered":0,"LightID":"L013981","Light_Source":"LED","Light_Type":"Cobra","Lighting_Type":"LED-Powered Lamp","Verification_Date":null},"id":"stl-city-public-streetlights:2:121261","sourceLayerId":2,"sourceObjectId":121261,"sourceURL":"https://maps8.stlouis-mo.gov/arcgis/rest/services/STREETS/Streets_Permitting/MapServer/2","title":"Street light L013981"},"type":"Feature"},{"geometry":{"coordinates":[-90.20486126786939,38.59960608078768],"type":"Point"},"id":"stl-city-public-streetlights:2:121262","properties":{"address":null,"attributes":{"Date_Installed":null,"LED_Powered":0,"LightID":"L013982","Light_Source":"LED","Light_Type":"Cobra","Lighting_Type":"LED-Powered Lamp","Verification_Date":null},"id":"stl-city-public-streetlights:2:121262","sourceLayerId":2,"sourceObjectId":121262,"sourceURL":"https://maps8.stlouis-mo.gov/arcgis/rest/services/STREETS/Streets_Permitting/MapServer/2","title":"Street light L013982"},"type":"Feature"},{"geometry":{"coordinates":[-90.20536153299406,38.59987660075615],"type":"Point"},"id":"stl-city-public-streetlights:2:121263","properties":{"address":null,"attributes":{"Date_Installed":null,"LED_Powered":0,"LightID":"L013983","Light_Source":"High Pressure Sodium","Light_Type":"Cobra","Lighting_Type":"400-W High Pressure Sodium Vapor Lamp","Verification_Date":null},"id":"stl-city-public-streetlights:2:121263","sourceLayerId":2,"sourceObjectId":121263,"sourceURL":"https://maps8.stlouis-mo.gov/arcgis/rest/services/STREETS/Streets_Permitting/MapServer/2","title":"Street light L013983"},"type":"Feature"},{"geometry":{"coordinates":[-90.20344879847298,38.59778974757011],"type":"Point"},"id":"stl-city-public-streetlights:2:121266","properties":{"address":null,"attributes":{"Date_Installed":null,"LED_Powered":0,"LightID":"L013986","Light_Source":"LED","Light_Type":"Cobra","Lighting_Type":"LED-Powered Lamp","Verification_Date":null},"id":"stl-city-public-streetlights:2:121266","sourceLayerId":2,"sourceObjectId":121266,"sourceURL":"https://maps8.stlouis-mo.gov/arcgis/rest/services/STREETS/Streets_Permitting/MapServer/2","title":"Street light L013986"},"type":"Feature"},{"geometry":{"coordinates":[-90.203114111945,38.59760484706831],"type":"Point"},"id":"stl-city-public-streetlights:2:121267","properties":{"address":null,"attributes":{"Date_Installed":null,"LED_Powered":0,"LightID":"L013987","Light_Source":"LED","Light_Type":"Cobra","Lighting_Type":"LED-Powered Lamp","Verification_Date":null},"id":"stl-city-public-streetlights:2:121267","sourceLayerId":2,"sourceObjectId":121267,"sourceURL":"https://maps8.stlouis-mo.gov/arcgis/rest/services/STREETS/Streets_Permitting/MapServer/2","title":"Street light L013987"},"type":"Feature"},{"geometry":{"coordinates":[-90.20415177187382,38.59678906839648],"type":"Point"},"id":"stl-city-public-streetlights:2:126438","properties":{"address":null,"attributes":{"Date_Installed":null,"LED_Powered":0,"LightID":"L019166","Light_Source":"High Pressure Sodium","Light_Type":"Cobra","Lighting_Type":"150-W High Pressure Sodium Vapor Lamp","Verification_Date":null},"id":"stl-city-public-streetlights:2:126438","sourceLayerId":2,"sourceObjectId":126438,"sourceURL":"https://maps8.stlouis-mo.gov/arcgis/rest/services/STREETS/Streets_Permitting/MapServer/2","title":"Street light L019166"},"type":"Feature"},{"geometry":{"coordinates":[-90.20983404353608,38.593391046809025],"type":"Point"},"id":"stl-city-public-streetlights:2:127973","properties":{"address":null,"attributes":{"Date_Installed":null,"LED_Powered":0,"LightID":"L020689","Light_Source":"LED","Light_Type":"Cobra","Lighting_Type":"LED-Powered Lamp","Verification_Date":null},"id":"stl-city-public-streetlights:2:127973","sourceLayerId":2,"sourceObjectId":127973,"sourceURL":"https://maps8.stlouis-mo.gov/arcgis/rest/services/STREETS/Streets_Permitting/MapServer/2","title":"Street light L020689"},"type":"Feature"},{"geometry":{"coordinates":[-90.20956143591015,38.59356928580537],"type":"Point"},"id":"stl-city-public-streetlights:2:127974","properties":{"address":null,"attributes":{"Date_Installed":null,"LED_Powered":0,"LightID":"L020690","Light_Source":"LED","Light_Type":"Cobra","Lighting_Type":"LED-Powered Lamp","Verification_Date":null},"id":"stl-city-public-streetlights:2:127974","sourceLayerId":2,"sourceObjectId":127974,"sourceURL":"https://maps8.stlouis-mo.gov/arcgis/rest/services/STREETS/Streets_Permitting/MapServer/2","title":"Street light L020690"},"type":"Feature"},{"geometry":{"coordinates":[-90.20924325320661,38.59376633696002],"type":"Point"},"id":"stl-city-public-streetlights:2:127975","properties":{"address":null,"attributes":{"Date_Installed":null,"LED_Powered":0,"LightID":"L020691","Light_Source":"LED","Light_Type":"Cobra","Lighting_Type":"LED-Powered Lamp","Verification_Date":1651363200000},"id":"stl-city-public-streetlights:2:127975","sourceLayerId":2,"sourceObjectId":127975,"sourceURL":"https://maps8.stlouis-mo.gov/arcgis/rest/services/STREETS/Streets_Permitting/MapServer/2","title":"Street light L020691"},"type":"Feature"},{"geometry":{"coordinates":[-90.20969981844944,38.59426509898143],"type":"Point"},"id":"stl-city-public-streetlights:2:127995","properties":{"address":null,"attributes":{"Date_Installed":null,"LED_Powered":0,"LightID":"L020711","Light_Source":"LED","Light_Type":"Cobra","Lighting_Type":"LED-Powered Lamp","Verification_Date":1651363200000},"id":"stl-city-public-streetlights:2:127995","sourceLayerId":2,"sourceObjectId":127995,"sourceURL":"https://maps8.stlouis-mo.gov/arcgis/rest/services/STREETS/Streets_Permitting/MapServer/2","title":"Street light L020711"},"type":"Feature"},{"geometry":{"coordinates":[-90.20942692195865,38.59400150797132],"type":"Point"},"id":"stl-city-public-streetlights:2:127996","properties":{"address":null,"attributes":{"Date_Installed":null,"LED_Powered":0,"LightID":"L020712","Light_Source":"LED","Light_Type":"Cobra","Lighting_Type":"LED-Powered Lamp","Verification_Date":1651363200000},"id":"stl-city-public-streetlights:2:127996","sourceLayerId":2,"sourceObjectId":127996,"sourceURL":"https://maps8.stlouis-mo.gov/arcgis/rest/services/STREETS/Streets_Permitting/MapServer/2","title":"Street light L020712"},"type":"Feature"},{"geometry":{"coordinates":[-90.20668264453742,38.59161081365682],"type":"Point"},"id":"stl-city-public-streetlights:2:127997","properties":{"address":null,"attributes":{"Date_Installed":null,"LED_Powered":0,"LightID":"L020713","Light_Source":null,"Light_Type":"Cobra","Lighting_Type":"Wood Pole Utility","Verification_Date":null},"id":"stl-city-public-streetlights:2:127997","sourceLayerId":2,"sourceObjectId":127997,"sourceURL":"https://maps8.stlouis-mo.gov/arcgis/rest/services/STREETS/Streets_Permitting/MapServer/2","title":"Street light L020713"},"type":"Feature"},{"geometry":{"coordinates":[-90.2070391409813,38.59192503367609],"type":"Point"},"id":"stl-city-public-streetlights:2:127998","properties":{"address":null,"attributes":{"Date_Installed":null,"LED_Powered":0,"LightID":"L020714","Light_Source":null,"Light_Type":"Cobra","Lighting_Type":"Wood Pole Utility","Verification_Date":null},"id":"stl-city-public-streetlights:2:127998","sourceLayerId":2,"sourceObjectId":127998,"sourceURL":"https://maps8.stlouis-mo.gov/arcgis/rest/services/STREETS/Streets_Permitting/MapServer/2","title":"Street light L020714"},"type":"Feature"},{"geometry":{"coordinates":[-90.20729982954789,38.59216929269303],"type":"Point"},"id":"stl-city-public-streetlights:2:127999","properties":{"address":null,"attributes":{"Date_Installed":null,"LED_Powered":0,"LightID":"L020715","Light_Source":null,"Light_Type":"Cobra","Lighting_Type":"Wood Pole Utility","Verification_Date":null},"id":"stl-city-public-streetlights:2:127999","sourceLayerId":2,"sourceObjectId":127999,"sourceURL":"https://maps8.stlouis-mo.gov/arcgis/rest/services/STREETS/Streets_Permitting/MapServer/2","title":"Street light L020715"},"type":"Feature"},{"geometry":{"coordinates":[-90.2075778830591,38.59243051783931],"type":"Point"},"id":"stl-city-public-streetlights:2:128000","properties":{"address":null,"attributes":{"Date_Installed":null,"LED_Powered":0,"LightID":"L020716","Light_Source":null,"Light_Type":"Cobra","Lighting_Type":"Wood Pole Utility","Verification_Date":null},"id":"stl-city-public-streetlights:2:128000","sourceLayerId":2,"sourceObjectId":128000,"sourceURL":"https://maps8.stlouis-mo.gov/arcgis/rest/services/STREETS/Streets_Permitting/MapServer/2","title":"Street light L020716"},"type":"Feature"},{"geometry":{"coordinates":[-90.20784927843616,38.59268636266316],"type":"Point"},"id":"stl-city-public-streetlights:2:128001","properties":{"address":null,"attributes":{"Date_Installed":null,"LED_Powered":0,"LightID":"L020717","Light_Source":null,"Light_Type":"Cobra","Lighting_Type":"Wood Pole Utility","Verification_Date":null},"id":"stl-city-public-streetlights:2:128001","sourceLayerId":2,"sourceObjectId":128001,"sourceURL":"https://maps8.stlouis-mo.gov/arcgis/rest/services/STREETS/Streets_Permitting/MapServer/2","title":"Street light L020717"},"type":"Feature"},{"geometry":{"coordinates":[-90.2081431164391,38.59295859065305],"type":"Point"},"id":"stl-city-public-streetlights:2:128002","properties":{"address":null,"attributes":{"Date_Installed":null,"LED_Powered":0,"LightID":"L020718","Light_Source":null,"Light_Type":"Cobra","Lighting_Type":"Wood Pole Utility","Verification_Date":null},"id":"stl-city-public-streetlights:2:128002","sourceLayerId":2,"sourceObjectId":128002,"sourceURL":"https://maps8.stlouis-mo.gov/arcgis/rest/services/STREETS/Streets_Permitting/MapServer/2","title":"Street light L020718"},"type":"Feature"},{"geometry":{"coordinates":[-90.20841105600795,38.59320620216226],"type":"Point"},"id":"stl-city-public-streetlights:2:128003","properties":{"address":null,"attributes":{"Date_Installed":null,"LED_Powered":0,"LightID":"L020719","Light_Source":null,"Light_Type":"Cobra","Lighting_Type":"Wood Pole Utility","Verification_Date":null},"id":"stl-city-public-streetlights:2:128003","sourceLayerId":2,"sourceObjectId":128003,"sourceURL":"https://maps8.stlouis-mo.gov/arcgis/rest/services/STREETS/Streets_Permitting/MapServer/2","title":"Street light L020719"},"type":"Feature"},{"geometry":{"coordinates":[-90.20866868307066,38.593443950499605],"type":"Point"},"id":"stl-city-public-streetlights:2:128004","properties":{"address":null,"attributes":{"Date_Installed":null,"LED_Powered":0,"LightID":"L020720","Light_Source":null,"Light_Type":"Cobra","Lighting_Type":"Wood Pole Utility","Verification_Date":null},"id":"stl-city-public-streetlights:2:128004","sourceLayerId":2,"sourceObjectId":128004,"sourceURL":"https://maps8.stlouis-mo.gov/arcgis/rest/services/STREETS/Streets_Permitting/MapServer/2","title":"Street light L020720"},"type":"Feature"},{"geometry":{"coordinates":[-90.20894824684807,38.59370970490951],"type":"Point"},"id":"stl-city-public-streetlights:2:128005","properties":{"address":null,"attributes":{"Date_Installed":null,"LED_Powered":0,"LightID":"L020721","Light_Source":null,"Light_Type":"Cobra","Lighting_Type":"Wood Pole Utility","Verification_Date":null},"id":"stl-city-public-streetlights:2:128005","sourceLayerId":2,"sourceObjectId":128005,"sourceURL":"https://maps8.stlouis-mo.gov/arcgis/rest/services/STREETS/Streets_Permitting/MapServer/2","title":"Street light L020721"},"type":"Feature"},{"geometry":{"coordinates":[-90.20921002931378,38.59386640428576],"type":"Point"},"id":"stl-city-public-streetlights:2:128006","properties":{"address":null,"attributes":{"Date_Installed":null,"LED_Powered":0,"LightID":"L020722","Light_Source":"High Pressure Sodium","Light_Type":"Cobra","Lighting_Type":"150-W High Pressure Sodium Vapor Lamp","Verification_Date":1651363200000},"id":"stl-city-public-streetlights:2:128006","sourceLayerId":2,"sourceObjectId":128006,"sourceURL":"https://maps8.stlouis-mo.gov/arcgis/rest/services/STREETS/Streets_Permitting/MapServer/2","title":"Street light L020722"},"type":"Feature"},{"geometry":{"coordinates":[-90.20947142304004,38.594112431318024],"type":"Point"},"id":"stl-city-public-streetlights:2:128007","properties":{"address":null,"attributes":{"Date_Installed":null,"LED_Powered":0,"LightID":"L020723","Light_Source":"LED","Light_Type":"Cobra","Lighting_Type":"LED-Powered Lamp","Verification_Date":1651363200000},"id":"stl-city-public-streetlights:2:128007","sourceLayerId":2,"sourceObjectId":128007,"sourceURL":"https://maps8.stlouis-mo.gov/arcgis/rest/services/STREETS/Streets_Permitting/MapServer/2","title":"Street light L020723"},"type":"Feature"},{"geometry":{"coordinates":[-90.20974166820834,38.59436323914311],"type":"Point"},"id":"stl-city-public-streetlights:2:128008","properties":{"address":null,"attributes":{"Date_Installed":null,"LED_Powered":0,"LightID":"L020724","Light_Source":"LED","Light_Type":"Cobra","Lighting_Type":"LED-Powered Lamp","Verification_Date":1651363200000},"id":"stl-city-public-streetlights:2:128008","sourceLayerId":2,"sourceObjectId":128008,"sourceURL":"https://maps8.stlouis-mo.gov/arcgis/rest/services/STREETS/Streets_Permitting/MapServer/2","title":"Street light L020724"},"type":"Feature"},{"geometry":{"coordinates":[-90.2096182516597,38.59980276246805],"type":"Point"},"id":"stl-city-public-streetlights:2:128111","properties":{"address":null,"attributes":{"Date_Installed":null,"LED_Powered":0,"LightID":"L020827","Light_Source":"LED","Light_Type":"Cobra","Lighting_Type":"LED-Powered Lamp","Verification_Date":null},"id":"stl-city-public-streetlights:2:128111","sourceLayerId":2,"sourceObjectId":128111,"sourceURL":"https://maps8.stlouis-mo.gov/arcgis/rest/services/STREETS/Streets_Permitting/MapServer/2","title":"Street light L020827"},"type":"Feature"},{"geometry":{"coordinates":[-90.20984681187002,38.59948047929998],"type":"Point"},"id":"stl-city-public-streetlights:2:128112","properties":{"address":null,"attributes":{"Date_Installed":null,"LED_Powered":0,"LightID":"L020828","Light_Source":"LED","Light_Type":"Cobra","Lighting_Type":"LED-Powered Lamp","Verification_Date":null},"id":"stl-city-public-streetlights:2:128112","sourceLayerId":2,"sourceObjectId":128112,"sourceURL":"https://maps8.stlouis-mo.gov/arcgis/rest/services/STREETS/Streets_Permitting/MapServer/2","title":"Street light L020828"},"type":"Feature"},{"geometry":{"coordinates":[-90.20969456004421,38.5966426994582],"type":"Point"},"id":"stl-city-public-streetlights:2:150386","properties":{"address":null,"attributes":{"Date_Installed":null,"LED_Powered":0,"LightID":"L043252","Light_Source":"High Pressure Sodium","Light_Type":"Decorative","Lighting_Type":"GE Americana Series (Historic Light Fixture)","Verification_Date":null},"id":"stl-city-public-streetlights:2:150386","sourceLayerId":2,"sourceObjectId":150386,"sourceURL":"https://maps8.stlouis-mo.gov/arcgis/rest/services/STREETS/Streets_Permitting/MapServer/2","title":"Street light L043252"},"type":"Feature"},{"geometry":{"coordinates":[-90.20980537283059,38.59650424722272],"type":"Point"},"id":"stl-city-public-streetlights:2:150387","properties":{"address":null,"attributes":{"Date_Installed":null,"LED_Powered":0,"LightID":"L043253","Light_Source":"High Pressure Sodium","Light_Type":"Decorative","Lighting_Type":"GE Americana Series (Historic Light Fixture)","Verification_Date":null},"id":"stl-city-public-streetlights:2:150387","sourceLayerId":2,"sourceObjectId":150387,"sourceURL":"https://maps8.stlouis-mo.gov/arcgis/rest/services/STREETS/Streets_Permitting/MapServer/2","title":"Street light L043253"},"type":"Feature"},{"geometry":{"coordinates":[-90.20831951364202,38.59890633606416],"type":"Point"},"id":"stl-city-public-streetlights:2:151516","properties":{"address":null,"attributes":{"Date_Installed":null,"LED_Powered":0,"LightID":"L044381","Light_Source":"LED","Light_Type":"Cobra","Lighting_Type":"LED-Powered Lamp","Verification_Date":null},"id":"stl-city-public-streetlights:2:151516","sourceLayerId":2,"sourceObjectId":151516,"sourceURL":"https://maps8.stlouis-mo.gov/arcgis/rest/services/STREETS/Streets_Permitting/MapServer/2","title":"Street light L044381"},"type":"Feature"},{"geometry":{"coordinates":[-90.20872544650929,38.59902390667112],"type":"Point"},"id":"stl-city-public-streetlights:2:154326","properties":{"address":null,"attributes":{"Date_Installed":null,"LED_Powered":0,"LightID":"L052297","Light_Source":"High Pressure Sodium","Light_Type":"Cobra","Lighting_Type":"400-W High Pressure Sodium Vapor Lamp","Verification_Date":null},"id":"stl-city-public-streetlights:2:154326","sourceLayerId":2,"sourceObjectId":154326,"sourceURL":"https://maps8.stlouis-mo.gov/arcgis/rest/services/STREETS/Streets_Permitting/MapServer/2","title":"Street light L052297"},"type":"Feature"}],"layerId":"city-streetlights","retrievedAt":"2026-09-13T21:56:18.173251+00:00","schema":"property-infrastructure-geojson-v1","sourceId":"stl-city-public-streetlights","tileId":"-9021_3859","type":"FeatureCollection"}