{"features":[{"geometry":{"coordinates":[-90.24018955646616,38.72312703124205],"type":"Point"},"id":"stl-city-public-streetlights:2:123627","properties":{"address":null,"attributes":{"Date_Installed":null,"LED_Powered":0,"LightID":"L016355","Light_Source":"High Pressure Sodium","Light_Type":"Cobra","Lighting_Type":"400-W High Pressure Sodium Vapor Lamp","Verification_Date":null},"id":"stl-city-public-streetlights:2:123627","sourceLayerId":2,"sourceObjectId":123627,"sourceURL":"https://maps8.stlouis-mo.gov/arcgis/rest/services/STREETS/Streets_Permitting/MapServer/2","title":"Street light L016355"},"type":"Feature"},{"geometry":{"coordinates":[-90.2403279023733,38.72007490228705],"type":"Point"},"id":"stl-city-public-streetlights:2:123718","properties":{"address":null,"attributes":{"Date_Installed":"6/25/2018","LED_Powered":1,"LightID":"L016446","Light_Source":"LED","Light_Type":"Cobra","Lighting_Type":"LED-Powered Lamp","Verification_Date":null},"id":"stl-city-public-streetlights:2:123718","sourceLayerId":2,"sourceObjectId":123718,"sourceURL":"https://maps8.stlouis-mo.gov/arcgis/rest/services/STREETS/Streets_Permitting/MapServer/2","title":"Street light L016446"},"type":"Feature"},{"geometry":{"coordinates":[-90.24259735009156,38.72012903003772],"type":"Point"},"id":"stl-city-public-streetlights:2:124705","properties":{"address":null,"attributes":{"Date_Installed":"1/2020","LED_Powered":1,"LightID":"L017433","Light_Source":"LED","Light_Type":"Cobra","Lighting_Type":"LED-Powered Lamp","Verification_Date":null},"id":"stl-city-public-streetlights:2:124705","sourceLayerId":2,"sourceObjectId":124705,"sourceURL":"https://maps8.stlouis-mo.gov/arcgis/rest/services/STREETS/Streets_Permitting/MapServer/2","title":"Street light L017433"},"type":"Feature"},{"geometry":{"coordinates":[-90.24250218815516,38.720438201395],"type":"Point"},"id":"stl-city-public-streetlights:2:124706","properties":{"address":null,"attributes":{"Date_Installed":"1/2020","LED_Powered":1,"LightID":"L017434","Light_Source":"LED","Light_Type":"Cobra","Lighting_Type":"LED-Powered Lamp","Verification_Date":null},"id":"stl-city-public-streetlights:2:124706","sourceLayerId":2,"sourceObjectId":124706,"sourceURL":"https://maps8.stlouis-mo.gov/arcgis/rest/services/STREETS/Streets_Permitting/MapServer/2","title":"Street light L017434"},"type":"Feature"},{"geometry":{"coordinates":[-90.24238558146571,38.720713962342245],"type":"Point"},"id":"stl-city-public-streetlights:2:124707","properties":{"address":null,"attributes":{"Date_Installed":"1/2020","LED_Powered":1,"LightID":"L017435","Light_Source":"LED","Light_Type":"Cobra","Lighting_Type":"LED-Powered Lamp","Verification_Date":null},"id":"stl-city-public-streetlights:2:124707","sourceLayerId":2,"sourceObjectId":124707,"sourceURL":"https://maps8.stlouis-mo.gov/arcgis/rest/services/STREETS/Streets_Permitting/MapServer/2","title":"Street light L017435"},"type":"Feature"},{"geometry":{"coordinates":[-90.2441293232088,38.72160757103991],"type":"Point"},"id":"stl-city-public-streetlights:2:124708","properties":{"address":null,"attributes":{"Date_Installed":null,"LED_Powered":0,"LightID":"L017436","Light_Source":"LED","Light_Type":"Cobra","Lighting_Type":"LED-Powered Lamp","Verification_Date":null},"id":"stl-city-public-streetlights:2:124708","sourceLayerId":2,"sourceObjectId":124708,"sourceURL":"https://maps8.stlouis-mo.gov/arcgis/rest/services/STREETS/Streets_Permitting/MapServer/2","title":"Street light L017436"},"type":"Feature"},{"geometry":{"coordinates":[-90.2444485466833,38.72086872155655],"type":"Point"},"id":"stl-city-public-streetlights:2:124709","properties":{"address":null,"attributes":{"Date_Installed":null,"LED_Powered":0,"LightID":"L017437","Light_Source":"LED","Light_Type":"Cobra","Lighting_Type":"LED-Powered Lamp","Verification_Date":null},"id":"stl-city-public-streetlights:2:124709","sourceLayerId":2,"sourceObjectId":124709,"sourceURL":"https://maps8.stlouis-mo.gov/arcgis/rest/services/STREETS/Streets_Permitting/MapServer/2","title":"Street light L017437"},"type":"Feature"},{"geometry":{"coordinates":[-90.24459592375048,38.720536832681766],"type":"Point"},"id":"stl-city-public-streetlights:2:124710","properties":{"address":null,"attributes":{"Date_Installed":"1/2020","LED_Powered":1,"LightID":"L017438","Light_Source":"LED","Light_Type":"Cobra","Lighting_Type":"LED-Powered Lamp","Verification_Date":null},"id":"stl-city-public-streetlights:2:124710","sourceLayerId":2,"sourceObjectId":124710,"sourceURL":"https://maps8.stlouis-mo.gov/arcgis/rest/services/STREETS/Streets_Permitting/MapServer/2","title":"Street light L017438"},"type":"Feature"},{"geometry":{"coordinates":[-90.24474587110379,38.72019869262266],"type":"Point"},"id":"stl-city-public-streetlights:2:124711","properties":{"address":null,"attributes":{"Date_Installed":"1/2020","LED_Powered":1,"LightID":"L017439","Light_Source":"LED","Light_Type":"Cobra","Lighting_Type":"LED-Powered Lamp","Verification_Date":null},"id":"stl-city-public-streetlights:2:124711","sourceLayerId":2,"sourceObjectId":124711,"sourceURL":"https://maps8.stlouis-mo.gov/arcgis/rest/services/STREETS/Streets_Permitting/MapServer/2","title":"Street light L017439"},"type":"Feature"},{"geometry":{"coordinates":[-90.24033266054752,38.72191299212425],"type":"Point"},"id":"stl-city-public-streetlights:2:124741","properties":{"address":null,"attributes":{"Date_Installed":null,"LED_Powered":0,"LightID":"L017469","Light_Source":"High Pressure Sodium","Light_Type":"Cobra","Lighting_Type":"400-W High Pressure Sodium Vapor Lamp","Verification_Date":null},"id":"stl-city-public-streetlights:2:124741","sourceLayerId":2,"sourceObjectId":124741,"sourceURL":"https://maps8.stlouis-mo.gov/arcgis/rest/services/STREETS/Streets_Permitting/MapServer/2","title":"Street light L017469"},"type":"Feature"},{"geometry":{"coordinates":[-90.24577645044415,38.720090514807985],"type":"Point"},"id":"stl-city-public-streetlights:2:125521","properties":{"address":null,"attributes":{"Date_Installed":null,"LED_Powered":0,"LightID":"L018249","Light_Source":"LED","Light_Type":"Cobra","Lighting_Type":"LED-Powered Lamp","Verification_Date":null},"id":"stl-city-public-streetlights:2:125521","sourceLayerId":2,"sourceObjectId":125521,"sourceURL":"https://maps8.stlouis-mo.gov/arcgis/rest/services/STREETS/Streets_Permitting/MapServer/2","title":"Street light L018249"},"type":"Feature"},{"geometry":{"coordinates":[-90.2459639820607,38.720403170820674],"type":"Point"},"id":"stl-city-public-streetlights:2:125522","properties":{"address":null,"attributes":{"Date_Installed":null,"LED_Powered":0,"LightID":"L018250","Light_Source":"LED","Light_Type":"Cobra","Lighting_Type":"LED-Powered Lamp","Verification_Date":null},"id":"stl-city-public-streetlights:2:125522","sourceLayerId":2,"sourceObjectId":125522,"sourceURL":"https://maps8.stlouis-mo.gov/arcgis/rest/services/STREETS/Streets_Permitting/MapServer/2","title":"Street light L018250"},"type":"Feature"},{"geometry":{"coordinates":[-90.24620889582467,38.72079247155803],"type":"Point"},"id":"stl-city-public-streetlights:2:125523","properties":{"address":null,"attributes":{"Date_Installed":null,"LED_Powered":0,"LightID":"L018251","Light_Source":"LED","Light_Type":"Cobra","Lighting_Type":"LED-Powered Lamp","Verification_Date":null},"id":"stl-city-public-streetlights:2:125523","sourceLayerId":2,"sourceObjectId":125523,"sourceURL":"https://maps8.stlouis-mo.gov/arcgis/rest/services/STREETS/Streets_Permitting/MapServer/2","title":"Street light L018251"},"type":"Feature"},{"geometry":{"coordinates":[-90.24590226062256,38.7205240983238],"type":"Point"},"id":"stl-city-public-streetlights:2:125524","properties":{"address":null,"attributes":{"Date_Installed":null,"LED_Powered":0,"LightID":"L018252","Light_Source":"LED","Light_Type":"Cobra","Lighting_Type":"LED-Powered Lamp","Verification_Date":null},"id":"stl-city-public-streetlights:2:125524","sourceLayerId":2,"sourceObjectId":125524,"sourceURL":"https://maps8.stlouis-mo.gov/arcgis/rest/services/STREETS/Streets_Permitting/MapServer/2","title":"Street light L018252"},"type":"Feature"},{"geometry":{"coordinates":[-90.24652800725528,38.720279757726615],"type":"Point"},"id":"stl-city-public-streetlights:2:125525","properties":{"address":null,"attributes":{"Date_Installed":null,"LED_Powered":0,"LightID":"L018253","Light_Source":"LED","Light_Type":"Cobra","Lighting_Type":"LED-Powered Lamp","Verification_Date":null},"id":"stl-city-public-streetlights:2:125525","sourceLayerId":2,"sourceObjectId":125525,"sourceURL":"https://maps8.stlouis-mo.gov/arcgis/rest/services/STREETS/Streets_Permitting/MapServer/2","title":"Street light L018253"},"type":"Feature"},{"geometry":{"coordinates":[-90.24715739274771,38.72003799634027],"type":"Point"},"id":"stl-city-public-streetlights:2:125526","properties":{"address":null,"attributes":{"Date_Installed":null,"LED_Powered":0,"LightID":"L018254","Light_Source":"LED","Light_Type":"Cobra","Lighting_Type":"LED-Powered Lamp","Verification_Date":null},"id":"stl-city-public-streetlights:2:125526","sourceLayerId":2,"sourceObjectId":125526,"sourceURL":"https://maps8.stlouis-mo.gov/arcgis/rest/services/STREETS/Streets_Permitting/MapServer/2","title":"Street light L018254"},"type":"Feature"},{"geometry":{"coordinates":[-90.24533743214182,38.7211257469494],"type":"Point"},"id":"stl-city-public-streetlights:2:125532","properties":{"address":null,"attributes":{"Date_Installed":null,"LED_Powered":0,"LightID":"L018260","Light_Source":"LED","Light_Type":"Cobra","Lighting_Type":"LED-Powered Lamp","Verification_Date":null},"id":"stl-city-public-streetlights:2:125532","sourceLayerId":2,"sourceObjectId":125532,"sourceURL":"https://maps8.stlouis-mo.gov/arcgis/rest/services/STREETS/Streets_Permitting/MapServer/2","title":"Street light L018260"},"type":"Feature"},{"geometry":{"coordinates":[-90.24715315301131,38.72038227347092],"type":"Point"},"id":"stl-city-public-streetlights:2:125533","properties":{"address":null,"attributes":{"Date_Installed":null,"LED_Powered":0,"LightID":"L018261","Light_Source":"LED","Light_Type":"Cobra","Lighting_Type":"LED-Powered Lamp","Verification_Date":null},"id":"stl-city-public-streetlights:2:125533","sourceLayerId":2,"sourceObjectId":125533,"sourceURL":"https://maps8.stlouis-mo.gov/arcgis/rest/services/STREETS/Streets_Permitting/MapServer/2","title":"Street light L018261"},"type":"Feature"},{"geometry":{"coordinates":[-90.24048047709242,38.720026374786926],"type":"Point"},"id":"stl-city-public-streetlights:2:147666","properties":{"address":null,"attributes":{"Date_Installed":null,"LED_Powered":0,"LightID":"L040521","Light_Source":"High Pressure Sodium","Light_Type":"Decorative","Lighting_Type":"King Luminaire (Historic Light Fixtures)","Verification_Date":null},"id":"stl-city-public-streetlights:2:147666","sourceLayerId":2,"sourceObjectId":147666,"sourceURL":"https://maps8.stlouis-mo.gov/arcgis/rest/services/STREETS/Streets_Permitting/MapServer/2","title":"Street light L040521"},"type":"Feature"},{"geometry":{"coordinates":[-90.24039980230629,38.720459530009954],"type":"Point"},"id":"stl-city-public-streetlights:2:147667","properties":{"address":null,"attributes":{"Date_Installed":null,"LED_Powered":0,"LightID":"L040522","Light_Source":"High Pressure Sodium","Light_Type":"Decorative","Lighting_Type":"King Twin Fixtures (Historic Light Fixtures)","Verification_Date":null},"id":"stl-city-public-streetlights:2:147667","sourceLayerId":2,"sourceObjectId":147667,"sourceURL":"https://maps8.stlouis-mo.gov/arcgis/rest/services/STREETS/Streets_Permitting/MapServer/2","title":"Street light L040522"},"type":"Feature"},{"geometry":{"coordinates":[-90.24033405714742,38.72080285675869],"type":"Point"},"id":"stl-city-public-streetlights:2:147668","properties":{"address":null,"attributes":{"Date_Installed":null,"LED_Powered":0,"LightID":"L040523","Light_Source":"High Pressure Sodium","Light_Type":"Decorative","Lighting_Type":"King Luminaire (Historic Light Fixtures)","Verification_Date":null},"id":"stl-city-public-streetlights:2:147668","sourceLayerId":2,"sourceObjectId":147668,"sourceURL":"https://maps8.stlouis-mo.gov/arcgis/rest/services/STREETS/Streets_Permitting/MapServer/2","title":"Street light L040523"},"type":"Feature"},{"geometry":{"coordinates":[-90.24026328745622,38.72118931526716],"type":"Point"},"id":"stl-city-public-streetlights:2:147669","properties":{"address":null,"attributes":{"Date_Installed":null,"LED_Powered":0,"LightID":"L040524","Light_Source":"High Pressure Sodium","Light_Type":"Decorative","Lighting_Type":"King Twin Fixtures (Historic Light Fixtures)","Verification_Date":null},"id":"stl-city-public-streetlights:2:147669","sourceLayerId":2,"sourceObjectId":147669,"sourceURL":"https://maps8.stlouis-mo.gov/arcgis/rest/services/STREETS/Streets_Permitting/MapServer/2","title":"Street light L040524"},"type":"Feature"},{"geometry":{"coordinates":[-90.24020470019472,38.721572463028835],"type":"Point"},"id":"stl-city-public-streetlights:2:147670","properties":{"address":null,"attributes":{"Date_Installed":null,"LED_Powered":0,"LightID":"L040525","Light_Source":"High Pressure Sodium","Light_Type":"Decorative","Lighting_Type":"King Luminaire (Historic Light Fixtures)","Verification_Date":null},"id":"stl-city-public-streetlights:2:147670","sourceLayerId":2,"sourceObjectId":147670,"sourceURL":"https://maps8.stlouis-mo.gov/arcgis/rest/services/STREETS/Streets_Permitting/MapServer/2","title":"Street light L040525"},"type":"Feature"},{"geometry":{"coordinates":[-90.24014015100481,38.721921274992305],"type":"Point"},"id":"stl-city-public-streetlights:2:147671","properties":{"address":null,"attributes":{"Date_Installed":null,"LED_Powered":0,"LightID":"L040526","Light_Source":"High Pressure Sodium","Light_Type":"Decorative","Lighting_Type":"King Luminaire (Historic Light Fixtures)","Verification_Date":null},"id":"stl-city-public-streetlights:2:147671","sourceLayerId":2,"sourceObjectId":147671,"sourceURL":"https://maps8.stlouis-mo.gov/arcgis/rest/services/STREETS/Streets_Permitting/MapServer/2","title":"Street light L040526"},"type":"Feature"},{"geometry":{"coordinates":[-90.24042705097162,38.721993789623745],"type":"Point"},"id":"stl-city-public-streetlights:2:147672","properties":{"address":null,"attributes":{"Date_Installed":null,"LED_Powered":0,"LightID":"L040527","Light_Source":"High Pressure Sodium","Light_Type":"Decorative","Lighting_Type":"King Luminaire (Historic Light Fixtures)","Verification_Date":null},"id":"stl-city-public-streetlights:2:147672","sourceLayerId":2,"sourceObjectId":147672,"sourceURL":"https://maps8.stlouis-mo.gov/arcgis/rest/services/STREETS/Streets_Permitting/MapServer/2","title":"Street light L040527"},"type":"Feature"},{"geometry":{"coordinates":[-90.24046711681267,38.72176845224689],"type":"Point"},"id":"stl-city-public-streetlights:2:147673","properties":{"address":null,"attributes":{"Date_Installed":null,"LED_Powered":0,"LightID":"L040528","Light_Source":"High Pressure Sodium","Light_Type":"Decorative","Lighting_Type":"King Twin Fixtures (Historic Light Fixtures)","Verification_Date":null},"id":"stl-city-public-streetlights:2:147673","sourceLayerId":2,"sourceObjectId":147673,"sourceURL":"https://maps8.stlouis-mo.gov/arcgis/rest/services/STREETS/Streets_Permitting/MapServer/2","title":"Street light L040528"},"type":"Feature"},{"geometry":{"coordinates":[-90.24055653119066,38.72127424965025],"type":"Point"},"id":"stl-city-public-streetlights:2:147674","properties":{"address":null,"attributes":{"Date_Installed":null,"LED_Powered":0,"LightID":"L040529","Light_Source":"High Pressure Sodium","Light_Type":"Decorative","Lighting_Type":"King Twin Fixtures (Historic Light Fixtures)","Verification_Date":null},"id":"stl-city-public-streetlights:2:147674","sourceLayerId":2,"sourceObjectId":147674,"sourceURL":"https://maps8.stlouis-mo.gov/arcgis/rest/services/STREETS/Streets_Permitting/MapServer/2","title":"Street light L040529"},"type":"Feature"},{"geometry":{"coordinates":[-90.2406328622105,38.72086411024958],"type":"Point"},"id":"stl-city-public-streetlights:2:147675","properties":{"address":null,"attributes":{"Date_Installed":null,"LED_Powered":0,"LightID":"L040530","Light_Source":"High Pressure Sodium","Light_Type":"Decorative","Lighting_Type":"King Twin Fixtures (Historic Light Fixtures)","Verification_Date":null},"id":"stl-city-public-streetlights:2:147675","sourceLayerId":2,"sourceObjectId":147675,"sourceURL":"https://maps8.stlouis-mo.gov/arcgis/rest/services/STREETS/Streets_Permitting/MapServer/2","title":"Street light L040530"},"type":"Feature"},{"geometry":{"coordinates":[-90.24070372088048,38.720452385702444],"type":"Point"},"id":"stl-city-public-streetlights:2:147676","properties":{"address":null,"attributes":{"Date_Installed":null,"LED_Powered":0,"LightID":"L040531","Light_Source":"High Pressure Sodium","Light_Type":"Decorative","Lighting_Type":"King Luminaire (Historic Light Fixtures)","Verification_Date":null},"id":"stl-city-public-streetlights:2:147676","sourceLayerId":2,"sourceObjectId":147676,"sourceURL":"https://maps8.stlouis-mo.gov/arcgis/rest/services/STREETS/Streets_Permitting/MapServer/2","title":"Street light L040531"},"type":"Feature"},{"geometry":{"coordinates":[-90.24077458233984,38.720039660214454],"type":"Point"},"id":"stl-city-public-streetlights:2:147677","properties":{"address":null,"attributes":{"Date_Installed":null,"LED_Powered":0,"LightID":"L040532","Light_Source":"High Pressure Sodium","Light_Type":"Decorative","Lighting_Type":"King Luminaire (Historic Light Fixtures)","Verification_Date":null},"id":"stl-city-public-streetlights:2:147677","sourceLayerId":2,"sourceObjectId":147677,"sourceURL":"https://maps8.stlouis-mo.gov/arcgis/rest/services/STREETS/Streets_Permitting/MapServer/2","title":"Street light L040532"},"type":"Feature"},{"geometry":{"coordinates":[-90.24038306972295,38.722816182210515],"type":"Point"},"id":"stl-city-public-streetlights:2:151638","properties":{"address":null,"attributes":{"Date_Installed":null,"LED_Powered":0,"LightID":"L044492","Light_Source":"LED","Light_Type":"Cobra","Lighting_Type":"LED-Powered Lamp","Verification_Date":null},"id":"stl-city-public-streetlights:2:151638","sourceLayerId":2,"sourceObjectId":151638,"sourceURL":"https://maps8.stlouis-mo.gov/arcgis/rest/services/STREETS/Streets_Permitting/MapServer/2","title":"Street light L044492"},"type":"Feature"},{"geometry":{"coordinates":[-90.24058876921364,38.72247531114692],"type":"Point"},"id":"stl-city-public-streetlights:2:151639","properties":{"address":null,"attributes":{"Date_Installed":null,"LED_Powered":0,"LightID":"L044493","Light_Source":"LED","Light_Type":"Cobra","Lighting_Type":"LED-Powered Lamp","Verification_Date":null},"id":"stl-city-public-streetlights:2:151639","sourceLayerId":2,"sourceObjectId":151639,"sourceURL":"https://maps8.stlouis-mo.gov/arcgis/rest/services/STREETS/Streets_Permitting/MapServer/2","title":"Street light L044493"},"type":"Feature"},{"geometry":{"coordinates":[-90.24024163773957,38.722213300695536],"type":"Point"},"id":"stl-city-public-streetlights:2:151640","properties":{"address":null,"attributes":{"Date_Installed":null,"LED_Powered":0,"LightID":"L044494","Light_Source":"LED","Light_Type":"Cobra","Lighting_Type":"LED-Powered Lamp","Verification_Date":null},"id":"stl-city-public-streetlights:2:151640","sourceLayerId":2,"sourceObjectId":151640,"sourceURL":"https://maps8.stlouis-mo.gov/arcgis/rest/services/STREETS/Streets_Permitting/MapServer/2","title":"Street light L044494"},"type":"Feature"},{"geometry":{"coordinates":[-90.24062069879409,38.72306974956615],"type":"Point"},"id":"stl-city-public-streetlights:2:151641","properties":{"address":null,"attributes":{"Date_Installed":null,"LED_Powered":0,"LightID":"L044495","Light_Source":"LED","Light_Type":"Cobra","Lighting_Type":"LED-Powered Lamp","Verification_Date":null},"id":"stl-city-public-streetlights:2:151641","sourceLayerId":2,"sourceObjectId":151641,"sourceURL":"https://maps8.stlouis-mo.gov/arcgis/rest/services/STREETS/Streets_Permitting/MapServer/2","title":"Street light L044495"},"type":"Feature"},{"geometry":{"coordinates":[-90.2409660423775,38.722515182582335],"type":"Point"},"id":"stl-city-public-streetlights:2:151642","properties":{"address":null,"attributes":{"Date_Installed":null,"LED_Powered":0,"LightID":"L044496","Light_Source":"LED","Light_Type":"Cobra","Lighting_Type":"LED-Powered Lamp","Verification_Date":null},"id":"stl-city-public-streetlights:2:151642","sourceLayerId":2,"sourceObjectId":151642,"sourceURL":"https://maps8.stlouis-mo.gov/arcgis/rest/services/STREETS/Streets_Permitting/MapServer/2","title":"Street light L044496"},"type":"Feature"},{"geometry":{"coordinates":[-90.24153798857135,38.72238344474599],"type":"Point"},"id":"stl-city-public-streetlights:2:151643","properties":{"address":null,"attributes":{"Date_Installed":null,"LED_Powered":0,"LightID":"L044497","Light_Source":"LED","Light_Type":"Cobra","Lighting_Type":"LED-Powered Lamp","Verification_Date":null},"id":"stl-city-public-streetlights:2:151643","sourceLayerId":2,"sourceObjectId":151643,"sourceURL":"https://maps8.stlouis-mo.gov/arcgis/rest/services/STREETS/Streets_Permitting/MapServer/2","title":"Street light L044497"},"type":"Feature"},{"geometry":{"coordinates":[-90.24211580265626,38.72218885028675],"type":"Point"},"id":"stl-city-public-streetlights:2:151644","properties":{"address":null,"attributes":{"Date_Installed":null,"LED_Powered":0,"LightID":"L044498","Light_Source":"LED","Light_Type":"Cobra","Lighting_Type":"LED-Powered Lamp","Verification_Date":null},"id":"stl-city-public-streetlights:2:151644","sourceLayerId":2,"sourceObjectId":151644,"sourceURL":"https://maps8.stlouis-mo.gov/arcgis/rest/services/STREETS/Streets_Permitting/MapServer/2","title":"Street light L044498"},"type":"Feature"},{"geometry":{"coordinates":[-90.24271642019858,38.721955666352294],"type":"Point"},"id":"stl-city-public-streetlights:2:151645","properties":{"address":null,"attributes":{"Date_Installed":null,"LED_Powered":0,"LightID":"L044499","Light_Source":"LED","Light_Type":"Cobra","Lighting_Type":"LED-Powered Lamp","Verification_Date":null},"id":"stl-city-public-streetlights:2:151645","sourceLayerId":2,"sourceObjectId":151645,"sourceURL":"https://maps8.stlouis-mo.gov/arcgis/rest/services/STREETS/Streets_Permitting/MapServer/2","title":"Street light L044499"},"type":"Feature"},{"geometry":{"coordinates":[-90.24331328595204,38.72172863127533],"type":"Point"},"id":"stl-city-public-streetlights:2:151646","properties":{"address":null,"attributes":{"Date_Installed":null,"LED_Powered":0,"LightID":"L044500","Light_Source":"LED","Light_Type":"Cobra","Lighting_Type":"LED-Powered Lamp","Verification_Date":null},"id":"stl-city-public-streetlights:2:151646","sourceLayerId":2,"sourceObjectId":151646,"sourceURL":"https://maps8.stlouis-mo.gov/arcgis/rest/services/STREETS/Streets_Permitting/MapServer/2","title":"Street light L044500"},"type":"Feature"},{"geometry":{"coordinates":[-90.24390239749512,38.7214902314146],"type":"Point"},"id":"stl-city-public-streetlights:2:151647","properties":{"address":null,"attributes":{"Date_Installed":null,"LED_Powered":0,"LightID":"L044501","Light_Source":"LED","Light_Type":"Cobra","Lighting_Type":"LED-Powered Lamp","Verification_Date":null},"id":"stl-city-public-streetlights:2:151647","sourceLayerId":2,"sourceObjectId":151647,"sourceURL":"https://maps8.stlouis-mo.gov/arcgis/rest/services/STREETS/Streets_Permitting/MapServer/2","title":"Street light L044501"},"type":"Feature"},{"geometry":{"coordinates":[-90.24447165394587,38.721272664796956],"type":"Point"},"id":"stl-city-public-streetlights:2:151648","properties":{"address":null,"attributes":{"Date_Installed":null,"LED_Powered":0,"LightID":"L044502","Light_Source":"LED","Light_Type":"Cobra","Lighting_Type":"LED-Powered Lamp","Verification_Date":null},"id":"stl-city-public-streetlights:2:151648","sourceLayerId":2,"sourceObjectId":151648,"sourceURL":"https://maps8.stlouis-mo.gov/arcgis/rest/services/STREETS/Streets_Permitting/MapServer/2","title":"Street light L044502"},"type":"Feature"},{"geometry":{"coordinates":[-90.24509686559286,38.721028044256535],"type":"Point"},"id":"stl-city-public-streetlights:2:151649","properties":{"address":null,"attributes":{"Date_Installed":null,"LED_Powered":0,"LightID":"L044503","Light_Source":"LED","Light_Type":"Cobra","Lighting_Type":"LED-Powered Lamp","Verification_Date":null},"id":"stl-city-public-streetlights:2:151649","sourceLayerId":2,"sourceObjectId":151649,"sourceURL":"https://maps8.stlouis-mo.gov/arcgis/rest/services/STREETS/Streets_Permitting/MapServer/2","title":"Street light L044503"},"type":"Feature"},{"geometry":{"coordinates":[-90.24108240117879,38.722317461918514],"type":"Point"},"id":"stl-city-public-streetlights:2:151650","properties":{"address":null,"attributes":{"Date_Installed":null,"LED_Powered":0,"LightID":"L044504","Light_Source":"LED","Light_Type":"Cobra","Lighting_Type":"LED-Powered Lamp","Verification_Date":null},"id":"stl-city-public-streetlights:2:151650","sourceLayerId":2,"sourceObjectId":151650,"sourceURL":"https://maps8.stlouis-mo.gov/arcgis/rest/services/STREETS/Streets_Permitting/MapServer/2","title":"Street light L044504"},"type":"Feature"},{"geometry":{"coordinates":[-90.24161720980342,38.72218340005989],"type":"Point"},"id":"stl-city-public-streetlights:2:151651","properties":{"address":null,"attributes":{"Date_Installed":null,"LED_Powered":0,"LightID":"L044505","Light_Source":"LED","Light_Type":"Cobra","Lighting_Type":"LED-Powered Lamp","Verification_Date":null},"id":"stl-city-public-streetlights:2:151651","sourceLayerId":2,"sourceObjectId":151651,"sourceURL":"https://maps8.stlouis-mo.gov/arcgis/rest/services/STREETS/Streets_Permitting/MapServer/2","title":"Street light L044505"},"type":"Feature"},{"geometry":{"coordinates":[-90.24224239161335,38.72195199982532],"type":"Point"},"id":"stl-city-public-streetlights:2:151652","properties":{"address":null,"attributes":{"Date_Installed":null,"LED_Powered":0,"LightID":"L044506","Light_Source":"LED","Light_Type":"Cobra","Lighting_Type":"LED-Powered Lamp","Verification_Date":null},"id":"stl-city-public-streetlights:2:151652","sourceLayerId":2,"sourceObjectId":151652,"sourceURL":"https://maps8.stlouis-mo.gov/arcgis/rest/services/STREETS/Streets_Permitting/MapServer/2","title":"Street light L044506"},"type":"Feature"},{"geometry":{"coordinates":[-90.24287673795187,38.7217090806641],"type":"Point"},"id":"stl-city-public-streetlights:2:151653","properties":{"address":null,"attributes":{"Date_Installed":null,"LED_Powered":0,"LightID":"L044507","Light_Source":"LED","Light_Type":"Cobra","Lighting_Type":"LED-Powered Lamp","Verification_Date":null},"id":"stl-city-public-streetlights:2:151653","sourceLayerId":2,"sourceObjectId":151653,"sourceURL":"https://maps8.stlouis-mo.gov/arcgis/rest/services/STREETS/Streets_Permitting/MapServer/2","title":"Street light L044507"},"type":"Feature"},{"geometry":{"coordinates":[-90.24347454032612,38.72147441998982],"type":"Point"},"id":"stl-city-public-streetlights:2:151654","properties":{"address":null,"attributes":{"Date_Installed":null,"LED_Powered":0,"LightID":"L044508","Light_Source":"LED","Light_Type":"Cobra","Lighting_Type":"LED-Powered Lamp","Verification_Date":null},"id":"stl-city-public-streetlights:2:151654","sourceLayerId":2,"sourceObjectId":151654,"sourceURL":"https://maps8.stlouis-mo.gov/arcgis/rest/services/STREETS/Streets_Permitting/MapServer/2","title":"Street light L044508"},"type":"Feature"},{"geometry":{"coordinates":[-90.24410231025185,38.721230382452134],"type":"Point"},"id":"stl-city-public-streetlights:2:151655","properties":{"address":null,"attributes":{"Date_Installed":null,"LED_Powered":0,"LightID":"L044509","Light_Source":"LED","Light_Type":"Cobra","Lighting_Type":"LED-Powered Lamp","Verification_Date":null},"id":"stl-city-public-streetlights:2:151655","sourceLayerId":2,"sourceObjectId":151655,"sourceURL":"https://maps8.stlouis-mo.gov/arcgis/rest/services/STREETS/Streets_Permitting/MapServer/2","title":"Street light L044509"},"type":"Feature"},{"geometry":{"coordinates":[-90.24466427829461,38.72100850895683],"type":"Point"},"id":"stl-city-public-streetlights:2:151656","properties":{"address":null,"attributes":{"Date_Installed":null,"LED_Powered":0,"LightID":"L044510","Light_Source":"LED","Light_Type":"Cobra","Lighting_Type":"LED-Powered Lamp","Verification_Date":null},"id":"stl-city-public-streetlights:2:151656","sourceLayerId":2,"sourceObjectId":151656,"sourceURL":"https://maps8.stlouis-mo.gov/arcgis/rest/services/STREETS/Streets_Permitting/MapServer/2","title":"Street light L044510"},"type":"Feature"},{"geometry":{"coordinates":[-90.2452514630962,38.72077867799855],"type":"Point"},"id":"stl-city-public-streetlights:2:151657","properties":{"address":null,"attributes":{"Date_Installed":null,"LED_Powered":0,"LightID":"L044511","Light_Source":"LED","Light_Type":"Cobra","Lighting_Type":"LED-Powered Lamp","Verification_Date":null},"id":"stl-city-public-streetlights:2:151657","sourceLayerId":2,"sourceObjectId":151657,"sourceURL":"https://maps8.stlouis-mo.gov/arcgis/rest/services/STREETS/Streets_Permitting/MapServer/2","title":"Street light L044511"},"type":"Feature"},{"geometry":{"coordinates":[-90.24192172788074,38.72203235782532],"type":"Point"},"id":"stl-city-public-streetlights:2:151658","properties":{"address":null,"attributes":{"Date_Installed":null,"LED_Powered":0,"LightID":"L044512","Light_Source":"LED","Light_Type":"Cobra","Lighting_Type":"LED-Powered Lamp","Verification_Date":null},"id":"stl-city-public-streetlights:2:151658","sourceLayerId":2,"sourceObjectId":151658,"sourceURL":"https://maps8.stlouis-mo.gov/arcgis/rest/services/STREETS/Streets_Permitting/MapServer/2","title":"Street light L044512"},"type":"Feature"},{"geometry":{"coordinates":[-90.24158241642739,38.721942581945626],"type":"Point"},"id":"stl-city-public-streetlights:2:151659","properties":{"address":null,"attributes":{"Date_Installed":null,"LED_Powered":0,"LightID":"L044513","Light_Source":"LED","Light_Type":"Cobra","Lighting_Type":"LED-Powered Lamp","Verification_Date":null},"id":"stl-city-public-streetlights:2:151659","sourceLayerId":2,"sourceObjectId":151659,"sourceURL":"https://maps8.stlouis-mo.gov/arcgis/rest/services/STREETS/Streets_Permitting/MapServer/2","title":"Street light L044513"},"type":"Feature"},{"geometry":{"coordinates":[-90.24106079589481,38.72180556399516],"type":"Point"},"id":"stl-city-public-streetlights:2:151660","properties":{"address":null,"attributes":{"Date_Installed":null,"LED_Powered":0,"LightID":"L044514","Light_Source":"LED","Light_Type":"Cobra","Lighting_Type":"LED-Powered Lamp","Verification_Date":null},"id":"stl-city-public-streetlights:2:151660","sourceLayerId":2,"sourceObjectId":151660,"sourceURL":"https://maps8.stlouis-mo.gov/arcgis/rest/services/STREETS/Streets_Permitting/MapServer/2","title":"Street light L044514"},"type":"Feature"},{"geometry":{"coordinates":[-90.24064279538248,38.72168879650036],"type":"Point"},"id":"stl-city-public-streetlights:2:151661","properties":{"address":null,"attributes":{"Date_Installed":null,"LED_Powered":0,"LightID":"L044515","Light_Source":"LED","Light_Type":"Cobra","Lighting_Type":"LED-Powered Lamp","Verification_Date":null},"id":"stl-city-public-streetlights:2:151661","sourceLayerId":2,"sourceObjectId":151661,"sourceURL":"https://maps8.stlouis-mo.gov/arcgis/rest/services/STREETS/Streets_Permitting/MapServer/2","title":"Street light L044515"},"type":"Feature"},{"geometry":{"coordinates":[-90.24433182357427,38.72068493076535],"type":"Point"},"id":"stl-city-public-streetlights:2:151662","properties":{"address":null,"attributes":{"Date_Installed":"1/2020","LED_Powered":1,"LightID":"L044516","Light_Source":"LED","Light_Type":"Cobra","Lighting_Type":"LED-Powered Lamp","Verification_Date":null},"id":"stl-city-public-streetlights:2:151662","sourceLayerId":2,"sourceObjectId":151662,"sourceURL":"https://maps8.stlouis-mo.gov/arcgis/rest/services/STREETS/Streets_Permitting/MapServer/2","title":"Street light L044516"},"type":"Feature"},{"geometry":{"coordinates":[-90.24394884370541,38.72057683249427],"type":"Point"},"id":"stl-city-public-streetlights:2:151663","properties":{"address":null,"attributes":{"Date_Installed":"1/2020","LED_Powered":1,"LightID":"L044517","Light_Source":"LED","Light_Type":"Cobra","Lighting_Type":"LED-Powered Lamp","Verification_Date":null},"id":"stl-city-public-streetlights:2:151663","sourceLayerId":2,"sourceObjectId":151663,"sourceURL":"https://maps8.stlouis-mo.gov/arcgis/rest/services/STREETS/Streets_Permitting/MapServer/2","title":"Street light L044517"},"type":"Feature"},{"geometry":{"coordinates":[-90.24352631291279,38.7204686453159],"type":"Point"},"id":"stl-city-public-streetlights:2:151664","properties":{"address":null,"attributes":{"Date_Installed":"1/2020","LED_Powered":1,"LightID":"L044518","Light_Source":"LED","Light_Type":"Cobra","Lighting_Type":"LED-Powered Lamp","Verification_Date":null},"id":"stl-city-public-streetlights:2:151664","sourceLayerId":2,"sourceObjectId":151664,"sourceURL":"https://maps8.stlouis-mo.gov/arcgis/rest/services/STREETS/Streets_Permitting/MapServer/2","title":"Street light L044518"},"type":"Feature"},{"geometry":{"coordinates":[-90.24313306863692,38.720359925474945],"type":"Point"},"id":"stl-city-public-streetlights:2:151665","properties":{"address":null,"attributes":{"Date_Installed":"1/2020","LED_Powered":1,"LightID":"L044519","Light_Source":"LED","Light_Type":"Cobra","Lighting_Type":"LED-Powered Lamp","Verification_Date":null},"id":"stl-city-public-streetlights:2:151665","sourceLayerId":2,"sourceObjectId":151665,"sourceURL":"https://maps8.stlouis-mo.gov/arcgis/rest/services/STREETS/Streets_Permitting/MapServer/2","title":"Street light L044519"},"type":"Feature"},{"geometry":{"coordinates":[-90.24269953370664,38.72024515635246],"type":"Point"},"id":"stl-city-public-streetlights:2:151666","properties":{"address":null,"attributes":{"Date_Installed":"1/2020","LED_Powered":1,"LightID":"L044520","Light_Source":"LED","Light_Type":"Cobra","Lighting_Type":"LED-Powered Lamp","Verification_Date":null},"id":"stl-city-public-streetlights:2:151666","sourceLayerId":2,"sourceObjectId":151666,"sourceURL":"https://maps8.stlouis-mo.gov/arcgis/rest/services/STREETS/Streets_Permitting/MapServer/2","title":"Street light L044520"},"type":"Feature"},{"geometry":{"coordinates":[-90.24228552546703,38.720136983443375],"type":"Point"},"id":"stl-city-public-streetlights:2:151667","properties":{"address":null,"attributes":{"Date_Installed":"1/2020","LED_Powered":1,"LightID":"L044521","Light_Source":"LED","Light_Type":"Cobra","Lighting_Type":"LED-Powered Lamp","Verification_Date":null},"id":"stl-city-public-streetlights:2:151667","sourceLayerId":2,"sourceObjectId":151667,"sourceURL":"https://maps8.stlouis-mo.gov/arcgis/rest/services/STREETS/Streets_Permitting/MapServer/2","title":"Street light L044521"},"type":"Feature"},{"geometry":{"coordinates":[-90.24182652382889,38.72001917574712],"type":"Point"},"id":"stl-city-public-streetlights:2:151668","properties":{"address":null,"attributes":{"Date_Installed":"1/2020","LED_Powered":1,"LightID":"L044522","Light_Source":"LED","Light_Type":"Cobra","Lighting_Type":"LED-Powered Lamp","Verification_Date":null},"id":"stl-city-public-streetlights:2:151668","sourceLayerId":2,"sourceObjectId":151668,"sourceURL":"https://maps8.stlouis-mo.gov/arcgis/rest/services/STREETS/Streets_Permitting/MapServer/2","title":"Street light L044522"},"type":"Feature"},{"geometry":{"coordinates":[-90.2402698720326,38.7219012917115],"type":"Point"},"id":"stl-city-public-streetlights:2:151706","properties":{"address":null,"attributes":{"Date_Installed":null,"LED_Powered":0,"LightID":"L044560","Light_Source":"LED","Light_Type":"Cobra","Lighting_Type":"LED-Powered Lamp","Verification_Date":null},"id":"stl-city-public-streetlights:2:151706","sourceLayerId":2,"sourceObjectId":151706,"sourceURL":"https://maps8.stlouis-mo.gov/arcgis/rest/services/STREETS/Streets_Permitting/MapServer/2","title":"Street light L044560"},"type":"Feature"},{"geometry":{"coordinates":[-90.24040350597025,38.721505701020455],"type":"Point"},"id":"stl-city-public-streetlights:2:151707","properties":{"address":null,"attributes":{"Date_Installed":null,"LED_Powered":0,"LightID":"L044561","Light_Source":"LED","Light_Type":"Cobra","Lighting_Type":"LED-Powered Lamp","Verification_Date":null},"id":"stl-city-public-streetlights:2:151707","sourceLayerId":2,"sourceObjectId":151707,"sourceURL":"https://maps8.stlouis-mo.gov/arcgis/rest/services/STREETS/Streets_Permitting/MapServer/2","title":"Street light L044561"},"type":"Feature"},{"geometry":{"coordinates":[-90.24034147863505,38.721494122152386],"type":"Point"},"id":"stl-city-public-streetlights:2:151708","properties":{"address":null,"attributes":{"Date_Installed":null,"LED_Powered":0,"LightID":"L044562","Light_Source":"LED","Light_Type":"Cobra","Lighting_Type":"LED-Powered Lamp","Verification_Date":null},"id":"stl-city-public-streetlights:2:151708","sourceLayerId":2,"sourceObjectId":151708,"sourceURL":"https://maps8.stlouis-mo.gov/arcgis/rest/services/STREETS/Streets_Permitting/MapServer/2","title":"Street light L044562"},"type":"Feature"},{"geometry":{"coordinates":[-90.2404743510907,38.72109826750513],"type":"Point"},"id":"stl-city-public-streetlights:2:151709","properties":{"address":null,"attributes":{"Date_Installed":null,"LED_Powered":0,"LightID":"L044563","Light_Source":"LED","Light_Type":"Cobra","Lighting_Type":"LED-Powered Lamp","Verification_Date":null},"id":"stl-city-public-streetlights:2:151709","sourceLayerId":2,"sourceObjectId":151709,"sourceURL":"https://maps8.stlouis-mo.gov/arcgis/rest/services/STREETS/Streets_Permitting/MapServer/2","title":"Street light L044563"},"type":"Feature"},{"geometry":{"coordinates":[-90.24041597000453,38.72108812646085],"type":"Point"},"id":"stl-city-public-streetlights:2:151710","properties":{"address":null,"attributes":{"Date_Installed":null,"LED_Powered":0,"LightID":"L044564","Light_Source":"LED","Light_Type":"Cobra","Lighting_Type":"LED-Powered Lamp","Verification_Date":null},"id":"stl-city-public-streetlights:2:151710","sourceLayerId":2,"sourceObjectId":151710,"sourceURL":"https://maps8.stlouis-mo.gov/arcgis/rest/services/STREETS/Streets_Permitting/MapServer/2","title":"Street light L044564"},"type":"Feature"},{"geometry":{"coordinates":[-90.24055252750797,38.72068255491368],"type":"Point"},"id":"stl-city-public-streetlights:2:151711","properties":{"address":null,"attributes":{"Date_Installed":null,"LED_Powered":0,"LightID":"L044565","Light_Source":"LED","Light_Type":"Cobra","Lighting_Type":"LED-Powered Lamp","Verification_Date":null},"id":"stl-city-public-streetlights:2:151711","sourceLayerId":2,"sourceObjectId":151711,"sourceURL":"https://maps8.stlouis-mo.gov/arcgis/rest/services/STREETS/Streets_Permitting/MapServer/2","title":"Street light L044565"},"type":"Feature"},{"geometry":{"coordinates":[-90.24048499898505,38.72067811417169],"type":"Point"},"id":"stl-city-public-streetlights:2:151712","properties":{"address":null,"attributes":{"Date_Installed":null,"LED_Powered":0,"LightID":"L044566","Light_Source":"LED","Light_Type":"Cobra","Lighting_Type":"LED-Powered Lamp","Verification_Date":null},"id":"stl-city-public-streetlights:2:151712","sourceLayerId":2,"sourceObjectId":151712,"sourceURL":"https://maps8.stlouis-mo.gov/arcgis/rest/services/STREETS/Streets_Permitting/MapServer/2","title":"Street light L044566"},"type":"Feature"},{"geometry":{"coordinates":[-90.24062154496657,38.720275402772025],"type":"Point"},"id":"stl-city-public-streetlights:2:151713","properties":{"address":null,"attributes":{"Date_Installed":null,"LED_Powered":0,"LightID":"L044567","Light_Source":"LED","Light_Type":"Cobra","Lighting_Type":"LED-Powered Lamp","Verification_Date":null},"id":"stl-city-public-streetlights:2:151713","sourceLayerId":2,"sourceObjectId":151713,"sourceURL":"https://maps8.stlouis-mo.gov/arcgis/rest/services/STREETS/Streets_Permitting/MapServer/2","title":"Street light L044567"},"type":"Feature"},{"geometry":{"coordinates":[-90.24056314901468,38.72026955264347],"type":"Point"},"id":"stl-city-public-streetlights:2:151714","properties":{"address":null,"attributes":{"Date_Installed":null,"LED_Powered":0,"LightID":"L044568","Light_Source":"LED","Light_Type":"Cobra","Lighting_Type":"LED-Powered Lamp","Verification_Date":null},"id":"stl-city-public-streetlights:2:151714","sourceLayerId":2,"sourceObjectId":151714,"sourceURL":"https://maps8.stlouis-mo.gov/arcgis/rest/services/STREETS/Streets_Permitting/MapServer/2","title":"Street light L044568"},"type":"Feature"},{"geometry":{"coordinates":[-90.24573340504776,38.72077972707429],"type":"Point"},"id":"stl-city-public-streetlights:2:151753","properties":{"address":null,"attributes":{"Date_Installed":null,"LED_Powered":0,"LightID":"L044607","Light_Source":"LED","Light_Type":"Cobra","Lighting_Type":"LED-Powered Lamp","Verification_Date":null},"id":"stl-city-public-streetlights:2:151753","sourceLayerId":2,"sourceObjectId":151753,"sourceURL":"https://maps8.stlouis-mo.gov/arcgis/rest/services/STREETS/Streets_Permitting/MapServer/2","title":"Street light L044607"},"type":"Feature"},{"geometry":{"coordinates":[-90.24629152560256,38.72055926705421],"type":"Point"},"id":"stl-city-public-streetlights:2:151754","properties":{"address":null,"attributes":{"Date_Installed":null,"LED_Powered":0,"LightID":"L044608","Light_Source":"LED","Light_Type":"Cobra","Lighting_Type":"LED-Powered Lamp","Verification_Date":null},"id":"stl-city-public-streetlights:2:151754","sourceLayerId":2,"sourceObjectId":151754,"sourceURL":"https://maps8.stlouis-mo.gov/arcgis/rest/services/STREETS/Streets_Permitting/MapServer/2","title":"Street light L044608"},"type":"Feature"},{"geometry":{"coordinates":[-90.24694047019602,38.72031068460993],"type":"Point"},"id":"stl-city-public-streetlights:2:151755","properties":{"address":null,"attributes":{"Date_Installed":null,"LED_Powered":0,"LightID":"L044609","Light_Source":"LED","Light_Type":"Cobra","Lighting_Type":"LED-Powered Lamp","Verification_Date":null},"id":"stl-city-public-streetlights:2:151755","sourceLayerId":2,"sourceObjectId":151755,"sourceURL":"https://maps8.stlouis-mo.gov/arcgis/rest/services/STREETS/Streets_Permitting/MapServer/2","title":"Street light L044609"},"type":"Feature"},{"geometry":{"coordinates":[-90.24754976830697,38.7200703073246],"type":"Point"},"id":"stl-city-public-streetlights:2:151756","properties":{"address":null,"attributes":{"Date_Installed":null,"LED_Powered":0,"LightID":"L044610","Light_Source":"LED","Light_Type":"Cobra","Lighting_Type":"LED-Powered Lamp","Verification_Date":null},"id":"stl-city-public-streetlights:2:151756","sourceLayerId":2,"sourceObjectId":151756,"sourceURL":"https://maps8.stlouis-mo.gov/arcgis/rest/services/STREETS/Streets_Permitting/MapServer/2","title":"Street light L044610"},"type":"Feature"}],"layerId":"city-streetlights","retrievedAt":"2026-09-13T21:56:18.173251+00:00","schema":"property-infrastructure-geojson-v1","sourceId":"stl-city-public-streetlights","tileId":"-9025_3872","type":"FeatureCollection"}