{"features":[{"geometry":{"coordinates":[-90.22833997422349,38.69984035451125],"type":"Point"},"id":"stl-city-public-streetlights:2:126205","properties":{"address":null,"attributes":{"Date_Installed":"8/1/2016","LED_Powered":1,"LightID":"L018933","Light_Source":"LED","Light_Type":"Cobra","Lighting_Type":"LED-Powered Lamp","Verification_Date":null},"id":"stl-city-public-streetlights:2:126205","sourceLayerId":2,"sourceObjectId":126205,"sourceURL":"https://maps8.stlouis-mo.gov/arcgis/rest/services/STREETS/Streets_Permitting/MapServer/2","title":"Street light L018933"},"type":"Feature"},{"geometry":{"coordinates":[-90.22811321167075,38.69931925325453],"type":"Point"},"id":"stl-city-public-streetlights:2:126206","properties":{"address":null,"attributes":{"Date_Installed":"8/1/2016","LED_Powered":1,"LightID":"L018934","Light_Source":"LED","Light_Type":"Cobra","Lighting_Type":"LED-Powered Lamp","Verification_Date":null},"id":"stl-city-public-streetlights:2:126206","sourceLayerId":2,"sourceObjectId":126206,"sourceURL":"https://maps8.stlouis-mo.gov/arcgis/rest/services/STREETS/Streets_Permitting/MapServer/2","title":"Street light L018934"},"type":"Feature"},{"geometry":{"coordinates":[-90.22785359422782,38.69880036239322],"type":"Point"},"id":"stl-city-public-streetlights:2:126207","properties":{"address":null,"attributes":{"Date_Installed":"8/1/2016","LED_Powered":1,"LightID":"L018935","Light_Source":"LED","Light_Type":"Cobra","Lighting_Type":"LED-Powered Lamp","Verification_Date":null},"id":"stl-city-public-streetlights:2:126207","sourceLayerId":2,"sourceObjectId":126207,"sourceURL":"https://maps8.stlouis-mo.gov/arcgis/rest/services/STREETS/Streets_Permitting/MapServer/2","title":"Street light L018935"},"type":"Feature"},{"geometry":{"coordinates":[-90.22755136303809,38.698290525480765],"type":"Point"},"id":"stl-city-public-streetlights:2:126208","properties":{"address":null,"attributes":{"Date_Installed":"8/1/2016","LED_Powered":1,"LightID":"L018936","Light_Source":"LED","Light_Type":"Cobra","Lighting_Type":"LED-Powered Lamp","Verification_Date":null},"id":"stl-city-public-streetlights:2:126208","sourceLayerId":2,"sourceObjectId":126208,"sourceURL":"https://maps8.stlouis-mo.gov/arcgis/rest/services/STREETS/Streets_Permitting/MapServer/2","title":"Street light L018936"},"type":"Feature"},{"geometry":{"coordinates":[-90.22727821722283,38.69781183774411],"type":"Point"},"id":"stl-city-public-streetlights:2:126209","properties":{"address":null,"attributes":{"Date_Installed":"8/1/2016","LED_Powered":1,"LightID":"L018937","Light_Source":"LED","Light_Type":"Cobra","Lighting_Type":"LED-Powered Lamp","Verification_Date":null},"id":"stl-city-public-streetlights:2:126209","sourceLayerId":2,"sourceObjectId":126209,"sourceURL":"https://maps8.stlouis-mo.gov/arcgis/rest/services/STREETS/Streets_Permitting/MapServer/2","title":"Street light L018937"},"type":"Feature"},{"geometry":{"coordinates":[-90.22697480555533,38.697294749833965],"type":"Point"},"id":"stl-city-public-streetlights:2:126210","properties":{"address":null,"attributes":{"Date_Installed":"8/1/2016","LED_Powered":1,"LightID":"L018938","Light_Source":"LED","Light_Type":"Cobra","Lighting_Type":"LED-Powered Lamp","Verification_Date":null},"id":"stl-city-public-streetlights:2:126210","sourceLayerId":2,"sourceObjectId":126210,"sourceURL":"https://maps8.stlouis-mo.gov/arcgis/rest/services/STREETS/Streets_Permitting/MapServer/2","title":"Street light L018938"},"type":"Feature"},{"geometry":{"coordinates":[-90.2266968106999,38.69681357012445],"type":"Point"},"id":"stl-city-public-streetlights:2:126211","properties":{"address":null,"attributes":{"Date_Installed":"8/1/2016","LED_Powered":1,"LightID":"L018939","Light_Source":"LED","Light_Type":"Cobra","Lighting_Type":"LED-Powered Lamp","Verification_Date":null},"id":"stl-city-public-streetlights:2:126211","sourceLayerId":2,"sourceObjectId":126211,"sourceURL":"https://maps8.stlouis-mo.gov/arcgis/rest/services/STREETS/Streets_Permitting/MapServer/2","title":"Street light L018939"},"type":"Feature"},{"geometry":{"coordinates":[-90.2264406788154,38.69634254783981],"type":"Point"},"id":"stl-city-public-streetlights:2:126212","properties":{"address":null,"attributes":{"Date_Installed":"8/1/2016","LED_Powered":1,"LightID":"L018940","Light_Source":"LED","Light_Type":"Cobra","Lighting_Type":"LED-Powered Lamp","Verification_Date":null},"id":"stl-city-public-streetlights:2:126212","sourceLayerId":2,"sourceObjectId":126212,"sourceURL":"https://maps8.stlouis-mo.gov/arcgis/rest/services/STREETS/Streets_Permitting/MapServer/2","title":"Street light L018940"},"type":"Feature"},{"geometry":{"coordinates":[-90.22937991656474,38.69994705971695],"type":"Point"},"id":"stl-city-public-streetlights:2:126220","properties":{"address":null,"attributes":{"Date_Installed":null,"LED_Powered":0,"LightID":"L018948","Light_Source":"LED","Light_Type":"Cobra","Lighting_Type":"LED-Powered Lamp","Verification_Date":null},"id":"stl-city-public-streetlights:2:126220","sourceLayerId":2,"sourceObjectId":126220,"sourceURL":"https://maps8.stlouis-mo.gov/arcgis/rest/services/STREETS/Streets_Permitting/MapServer/2","title":"Street light L018948"},"type":"Feature"},{"geometry":{"coordinates":[-90.22951431118159,38.69963702840846],"type":"Point"},"id":"stl-city-public-streetlights:2:126221","properties":{"address":null,"attributes":{"Date_Installed":null,"LED_Powered":0,"LightID":"L018949","Light_Source":"LED","Light_Type":"Cobra","Lighting_Type":"LED-Powered Lamp","Verification_Date":null},"id":"stl-city-public-streetlights:2:126221","sourceLayerId":2,"sourceObjectId":126221,"sourceURL":"https://maps8.stlouis-mo.gov/arcgis/rest/services/STREETS/Streets_Permitting/MapServer/2","title":"Street light L018949"},"type":"Feature"},{"geometry":{"coordinates":[-90.22913524545169,38.699494566033074],"type":"Point"},"id":"stl-city-public-streetlights:2:126241","properties":{"address":null,"attributes":{"Date_Installed":null,"LED_Powered":0,"LightID":"L018969","Light_Source":"LED","Light_Type":"Cobra","Lighting_Type":"LED-Powered Lamp","Verification_Date":null},"id":"stl-city-public-streetlights:2:126241","sourceLayerId":2,"sourceObjectId":126241,"sourceURL":"https://maps8.stlouis-mo.gov/arcgis/rest/services/STREETS/Streets_Permitting/MapServer/2","title":"Street light L018969"},"type":"Feature"},{"geometry":{"coordinates":[-90.2288759620821,38.69920722054593],"type":"Point"},"id":"stl-city-public-streetlights:2:126242","properties":{"address":null,"attributes":{"Date_Installed":null,"LED_Powered":0,"LightID":"L018970","Light_Source":"LED","Light_Type":"Cobra","Lighting_Type":"LED-Powered Lamp","Verification_Date":null},"id":"stl-city-public-streetlights:2:126242","sourceLayerId":2,"sourceObjectId":126242,"sourceURL":"https://maps8.stlouis-mo.gov/arcgis/rest/services/STREETS/Streets_Permitting/MapServer/2","title":"Street light L018970"},"type":"Feature"},{"geometry":{"coordinates":[-90.22865859979778,38.698931442654754],"type":"Point"},"id":"stl-city-public-streetlights:2:126243","properties":{"address":null,"attributes":{"Date_Installed":null,"LED_Powered":0,"LightID":"L018971","Light_Source":"LED","Light_Type":"Cobra","Lighting_Type":"LED-Powered Lamp","Verification_Date":null},"id":"stl-city-public-streetlights:2:126243","sourceLayerId":2,"sourceObjectId":126243,"sourceURL":"https://maps8.stlouis-mo.gov/arcgis/rest/services/STREETS/Streets_Permitting/MapServer/2","title":"Street light L018971"},"type":"Feature"},{"geometry":{"coordinates":[-90.2284133363139,38.698637692763796],"type":"Point"},"id":"stl-city-public-streetlights:2:126244","properties":{"address":null,"attributes":{"Date_Installed":null,"LED_Powered":0,"LightID":"L018972","Light_Source":"LED","Light_Type":"Cobra","Lighting_Type":"LED-Powered Lamp","Verification_Date":null},"id":"stl-city-public-streetlights:2:126244","sourceLayerId":2,"sourceObjectId":126244,"sourceURL":"https://maps8.stlouis-mo.gov/arcgis/rest/services/STREETS/Streets_Permitting/MapServer/2","title":"Street light L018972"},"type":"Feature"},{"geometry":{"coordinates":[-90.22818602140002,38.6983438642501],"type":"Point"},"id":"stl-city-public-streetlights:2:126245","properties":{"address":null,"attributes":{"Date_Installed":null,"LED_Powered":0,"LightID":"L018973","Light_Source":"LED","Light_Type":"Cobra","Lighting_Type":"LED-Powered Lamp","Verification_Date":null},"id":"stl-city-public-streetlights:2:126245","sourceLayerId":2,"sourceObjectId":126245,"sourceURL":"https://maps8.stlouis-mo.gov/arcgis/rest/services/STREETS/Streets_Permitting/MapServer/2","title":"Street light L018973"},"type":"Feature"},{"geometry":{"coordinates":[-90.22795955990836,38.69806588915108],"type":"Point"},"id":"stl-city-public-streetlights:2:126246","properties":{"address":null,"attributes":{"Date_Installed":null,"LED_Powered":0,"LightID":"L018974","Light_Source":"LED","Light_Type":"Cobra","Lighting_Type":"LED-Powered Lamp","Verification_Date":null},"id":"stl-city-public-streetlights:2:126246","sourceLayerId":2,"sourceObjectId":126246,"sourceURL":"https://maps8.stlouis-mo.gov/arcgis/rest/services/STREETS/Streets_Permitting/MapServer/2","title":"Street light L018974"},"type":"Feature"},{"geometry":{"coordinates":[-90.22771794236087,38.6977747200614],"type":"Point"},"id":"stl-city-public-streetlights:2:126247","properties":{"address":null,"attributes":{"Date_Installed":null,"LED_Powered":0,"LightID":"L018975","Light_Source":"LED","Light_Type":"Cobra","Lighting_Type":"LED-Powered Lamp","Verification_Date":null},"id":"stl-city-public-streetlights:2:126247","sourceLayerId":2,"sourceObjectId":126247,"sourceURL":"https://maps8.stlouis-mo.gov/arcgis/rest/services/STREETS/Streets_Permitting/MapServer/2","title":"Street light L018975"},"type":"Feature"},{"geometry":{"coordinates":[-90.2274439130363,38.69752904954188],"type":"Point"},"id":"stl-city-public-streetlights:2:126248","properties":{"address":null,"attributes":{"Date_Installed":null,"LED_Powered":0,"LightID":"L018976","Light_Source":"LED","Light_Type":"Cobra","Lighting_Type":"LED-Powered Lamp","Verification_Date":null},"id":"stl-city-public-streetlights:2:126248","sourceLayerId":2,"sourceObjectId":126248,"sourceURL":"https://maps8.stlouis-mo.gov/arcgis/rest/services/STREETS/Streets_Permitting/MapServer/2","title":"Street light L018976"},"type":"Feature"},{"geometry":{"coordinates":[-90.22708907041758,38.69741953078961],"type":"Point"},"id":"stl-city-public-streetlights:2:126249","properties":{"address":null,"attributes":{"Date_Installed":null,"LED_Powered":0,"LightID":"L018977","Light_Source":"LED","Light_Type":"Cobra","Lighting_Type":"LED-Powered Lamp","Verification_Date":null},"id":"stl-city-public-streetlights:2:126249","sourceLayerId":2,"sourceObjectId":126249,"sourceURL":"https://maps8.stlouis-mo.gov/arcgis/rest/services/STREETS/Streets_Permitting/MapServer/2","title":"Street light L018977"},"type":"Feature"},{"geometry":{"coordinates":[-90.22373941613849,38.69729272686933],"type":"Point"},"id":"stl-city-public-streetlights:2:126250","properties":{"address":null,"attributes":{"Date_Installed":"6/25/2018","LED_Powered":1,"LightID":"L018978","Light_Source":"LED","Light_Type":"Cobra","Lighting_Type":"LED-Powered Lamp","Verification_Date":null},"id":"stl-city-public-streetlights:2:126250","sourceLayerId":2,"sourceObjectId":126250,"sourceURL":"https://maps8.stlouis-mo.gov/arcgis/rest/services/STREETS/Streets_Permitting/MapServer/2","title":"Street light L018978"},"type":"Feature"},{"geometry":{"coordinates":[-90.22407454189504,38.69710974397062],"type":"Point"},"id":"stl-city-public-streetlights:2:126251","properties":{"address":null,"attributes":{"Date_Installed":"6/25/2018","LED_Powered":1,"LightID":"L018979","Light_Source":"LED","Light_Type":"Cobra","Lighting_Type":"LED-Powered Lamp","Verification_Date":null},"id":"stl-city-public-streetlights:2:126251","sourceLayerId":2,"sourceObjectId":126251,"sourceURL":"https://maps8.stlouis-mo.gov/arcgis/rest/services/STREETS/Streets_Permitting/MapServer/2","title":"Street light L018979"},"type":"Feature"},{"geometry":{"coordinates":[-90.22442504794947,38.696918469514145],"type":"Point"},"id":"stl-city-public-streetlights:2:126252","properties":{"address":null,"attributes":{"Date_Installed":"6/25/2018","LED_Powered":1,"LightID":"L018980","Light_Source":"LED","Light_Type":"Cobra","Lighting_Type":"LED-Powered Lamp","Verification_Date":null},"id":"stl-city-public-streetlights:2:126252","sourceLayerId":2,"sourceObjectId":126252,"sourceURL":"https://maps8.stlouis-mo.gov/arcgis/rest/services/STREETS/Streets_Permitting/MapServer/2","title":"Street light L018980"},"type":"Feature"},{"geometry":{"coordinates":[-90.22468250080446,38.69696252897402],"type":"Point"},"id":"stl-city-public-streetlights:2:126253","properties":{"address":null,"attributes":{"Date_Installed":"6/25/2018","LED_Powered":1,"LightID":"L018981","Light_Source":"LED","Light_Type":"Cobra","Lighting_Type":"LED-Powered Lamp","Verification_Date":null},"id":"stl-city-public-streetlights:2:126253","sourceLayerId":2,"sourceObjectId":126253,"sourceURL":"https://maps8.stlouis-mo.gov/arcgis/rest/services/STREETS/Streets_Permitting/MapServer/2","title":"Street light L018981"},"type":"Feature"},{"geometry":{"coordinates":[-90.22496721937482,38.69727287375964],"type":"Point"},"id":"stl-city-public-streetlights:2:126254","properties":{"address":null,"attributes":{"Date_Installed":"6/25/2018","LED_Powered":1,"LightID":"L018982","Light_Source":"LED","Light_Type":"Cobra","Lighting_Type":"LED-Powered Lamp","Verification_Date":null},"id":"stl-city-public-streetlights:2:126254","sourceLayerId":2,"sourceObjectId":126254,"sourceURL":"https://maps8.stlouis-mo.gov/arcgis/rest/services/STREETS/Streets_Permitting/MapServer/2","title":"Street light L018982"},"type":"Feature"},{"geometry":{"coordinates":[-90.22522793496414,38.69757748950187],"type":"Point"},"id":"stl-city-public-streetlights:2:126255","properties":{"address":null,"attributes":{"Date_Installed":"6/25/2018","LED_Powered":1,"LightID":"L018983","Light_Source":"LED","Light_Type":"Cobra","Lighting_Type":"LED-Powered Lamp","Verification_Date":null},"id":"stl-city-public-streetlights:2:126255","sourceLayerId":2,"sourceObjectId":126255,"sourceURL":"https://maps8.stlouis-mo.gov/arcgis/rest/services/STREETS/Streets_Permitting/MapServer/2","title":"Street light L018983"},"type":"Feature"},{"geometry":{"coordinates":[-90.22552703159316,38.697923620803806],"type":"Point"},"id":"stl-city-public-streetlights:2:126256","properties":{"address":null,"attributes":{"Date_Installed":"6/25/2018","LED_Powered":1,"LightID":"L018984","Light_Source":"LED","Light_Type":"Cobra","Lighting_Type":"LED-Powered Lamp","Verification_Date":null},"id":"stl-city-public-streetlights:2:126256","sourceLayerId":2,"sourceObjectId":126256,"sourceURL":"https://maps8.stlouis-mo.gov/arcgis/rest/services/STREETS/Streets_Permitting/MapServer/2","title":"Street light L018984"},"type":"Feature"},{"geometry":{"coordinates":[-90.22584279380226,38.698274126331356],"type":"Point"},"id":"stl-city-public-streetlights:2:126257","properties":{"address":null,"attributes":{"Date_Installed":"6/25/2018","LED_Powered":1,"LightID":"L018985","Light_Source":"LED","Light_Type":"Cobra","Lighting_Type":"LED-Powered Lamp","Verification_Date":null},"id":"stl-city-public-streetlights:2:126257","sourceLayerId":2,"sourceObjectId":126257,"sourceURL":"https://maps8.stlouis-mo.gov/arcgis/rest/services/STREETS/Streets_Permitting/MapServer/2","title":"Street light L018985"},"type":"Feature"},{"geometry":{"coordinates":[-90.22608508825523,38.69854570761268],"type":"Point"},"id":"stl-city-public-streetlights:2:126258","properties":{"address":null,"attributes":{"Date_Installed":"6/25/2018","LED_Powered":1,"LightID":"L018986","Light_Source":"LED","Light_Type":"Cobra","Lighting_Type":"LED-Powered Lamp","Verification_Date":null},"id":"stl-city-public-streetlights:2:126258","sourceLayerId":2,"sourceObjectId":126258,"sourceURL":"https://maps8.stlouis-mo.gov/arcgis/rest/services/STREETS/Streets_Permitting/MapServer/2","title":"Street light L018986"},"type":"Feature"},{"geometry":{"coordinates":[-90.22653165483683,38.69869161065363],"type":"Point"},"id":"stl-city-public-streetlights:2:126259","properties":{"address":null,"attributes":{"Date_Installed":"6/25/2018","LED_Powered":1,"LightID":"L018987","Light_Source":"LED","Light_Type":"Cobra","Lighting_Type":"LED-Powered Lamp","Verification_Date":null},"id":"stl-city-public-streetlights:2:126259","sourceLayerId":2,"sourceObjectId":126259,"sourceURL":"https://maps8.stlouis-mo.gov/arcgis/rest/services/STREETS/Streets_Permitting/MapServer/2","title":"Street light L018987"},"type":"Feature"},{"geometry":{"coordinates":[-90.22695135208272,38.69846663990313],"type":"Point"},"id":"stl-city-public-streetlights:2:126260","properties":{"address":null,"attributes":{"Date_Installed":"6/25/2018","LED_Powered":1,"LightID":"L018988","Light_Source":"LED","Light_Type":"Cobra","Lighting_Type":"LED-Powered Lamp","Verification_Date":null},"id":"stl-city-public-streetlights:2:126260","sourceLayerId":2,"sourceObjectId":126260,"sourceURL":"https://maps8.stlouis-mo.gov/arcgis/rest/services/STREETS/Streets_Permitting/MapServer/2","title":"Street light L018988"},"type":"Feature"},{"geometry":{"coordinates":[-90.22724416458212,38.69830028118952],"type":"Point"},"id":"stl-city-public-streetlights:2:126261","properties":{"address":null,"attributes":{"Date_Installed":"6/25/2018","LED_Powered":1,"LightID":"L018989","Light_Source":"LED","Light_Type":"Cobra","Lighting_Type":"LED-Powered Lamp","Verification_Date":null},"id":"stl-city-public-streetlights:2:126261","sourceLayerId":2,"sourceObjectId":126261,"sourceURL":"https://maps8.stlouis-mo.gov/arcgis/rest/services/STREETS/Streets_Permitting/MapServer/2","title":"Street light L018989"},"type":"Feature"},{"geometry":{"coordinates":[-90.22606188206406,38.696135719001276],"type":"Point"},"id":"stl-city-public-streetlights:2:126269","properties":{"address":null,"attributes":{"Date_Installed":"8/1/2016","LED_Powered":1,"LightID":"L018997","Light_Source":"LED","Light_Type":"Cobra","Lighting_Type":"LED-Powered Lamp","Verification_Date":null},"id":"stl-city-public-streetlights:2:126269","sourceLayerId":2,"sourceObjectId":126269,"sourceURL":"https://maps8.stlouis-mo.gov/arcgis/rest/services/STREETS/Streets_Permitting/MapServer/2","title":"Street light L018997"},"type":"Feature"},{"geometry":{"coordinates":[-90.22632765679953,38.69662964795161],"type":"Point"},"id":"stl-city-public-streetlights:2:126270","properties":{"address":null,"attributes":{"Date_Installed":"8/1/2016","LED_Powered":1,"LightID":"L018998","Light_Source":"LED","Light_Type":"Cobra","Lighting_Type":"LED-Powered Lamp","Verification_Date":null},"id":"stl-city-public-streetlights:2:126270","sourceLayerId":2,"sourceObjectId":126270,"sourceURL":"https://maps8.stlouis-mo.gov/arcgis/rest/services/STREETS/Streets_Permitting/MapServer/2","title":"Street light L018998"},"type":"Feature"},{"geometry":{"coordinates":[-90.22662492527621,38.69716045174032],"type":"Point"},"id":"stl-city-public-streetlights:2:126271","properties":{"address":null,"attributes":{"Date_Installed":"8/1/2016","LED_Powered":1,"LightID":"L018999","Light_Source":"LED","Light_Type":"Cobra","Lighting_Type":"LED-Powered Lamp","Verification_Date":null},"id":"stl-city-public-streetlights:2:126271","sourceLayerId":2,"sourceObjectId":126271,"sourceURL":"https://maps8.stlouis-mo.gov/arcgis/rest/services/STREETS/Streets_Permitting/MapServer/2","title":"Street light L018999"},"type":"Feature"},{"geometry":{"coordinates":[-90.22688117540739,38.6976011556216],"type":"Point"},"id":"stl-city-public-streetlights:2:126272","properties":{"address":null,"attributes":{"Date_Installed":"8/1/2016","LED_Powered":1,"LightID":"L019000","Light_Source":"LED","Light_Type":"Cobra","Lighting_Type":"LED-Powered Lamp","Verification_Date":null},"id":"stl-city-public-streetlights:2:126272","sourceLayerId":2,"sourceObjectId":126272,"sourceURL":"https://maps8.stlouis-mo.gov/arcgis/rest/services/STREETS/Streets_Permitting/MapServer/2","title":"Street light L019000"},"type":"Feature"},{"geometry":{"coordinates":[-90.22718457174642,38.69812243820958],"type":"Point"},"id":"stl-city-public-streetlights:2:126273","properties":{"address":null,"attributes":{"Date_Installed":"8/1/2016","LED_Powered":1,"LightID":"L019001","Light_Source":"LED","Light_Type":"Cobra","Lighting_Type":"LED-Powered Lamp","Verification_Date":null},"id":"stl-city-public-streetlights:2:126273","sourceLayerId":2,"sourceObjectId":126273,"sourceURL":"https://maps8.stlouis-mo.gov/arcgis/rest/services/STREETS/Streets_Permitting/MapServer/2","title":"Street light L019001"},"type":"Feature"},{"geometry":{"coordinates":[-90.2248075476571,38.69671438220197],"type":"Point"},"id":"stl-city-public-streetlights:2:126274","properties":{"address":null,"attributes":{"Date_Installed":"6/25/2018","LED_Powered":1,"LightID":"L019002","Light_Source":"LED","Light_Type":"Cobra","Lighting_Type":"LED-Powered Lamp","Verification_Date":null},"id":"stl-city-public-streetlights:2:126274","sourceLayerId":2,"sourceObjectId":126274,"sourceURL":"https://maps8.stlouis-mo.gov/arcgis/rest/services/STREETS/Streets_Permitting/MapServer/2","title":"Street light L019002"},"type":"Feature"},{"geometry":{"coordinates":[-90.22516870418157,38.69652335307848],"type":"Point"},"id":"stl-city-public-streetlights:2:126275","properties":{"address":null,"attributes":{"Date_Installed":"6/25/2018","LED_Powered":1,"LightID":"L019003","Light_Source":"LED","Light_Type":"Cobra","Lighting_Type":"LED-Powered Lamp","Verification_Date":null},"id":"stl-city-public-streetlights:2:126275","sourceLayerId":2,"sourceObjectId":126275,"sourceURL":"https://maps8.stlouis-mo.gov/arcgis/rest/services/STREETS/Streets_Permitting/MapServer/2","title":"Street light L019003"},"type":"Feature"},{"geometry":{"coordinates":[-90.22552836070629,38.696326360888776],"type":"Point"},"id":"stl-city-public-streetlights:2:126276","properties":{"address":null,"attributes":{"Date_Installed":"6/25/2018","LED_Powered":1,"LightID":"L019004","Light_Source":"LED","Light_Type":"Cobra","Lighting_Type":"LED-Powered Lamp","Verification_Date":null},"id":"stl-city-public-streetlights:2:126276","sourceLayerId":2,"sourceObjectId":126276,"sourceURL":"https://maps8.stlouis-mo.gov/arcgis/rest/services/STREETS/Streets_Permitting/MapServer/2","title":"Street light L019004"},"type":"Feature"},{"geometry":{"coordinates":[-90.22588771427303,38.69612841284133],"type":"Point"},"id":"stl-city-public-streetlights:2:126277","properties":{"address":null,"attributes":{"Date_Installed":"6/25/2018","LED_Powered":1,"LightID":"L019005","Light_Source":"LED","Light_Type":"Cobra","Lighting_Type":"LED-Powered Lamp","Verification_Date":null},"id":"stl-city-public-streetlights:2:126277","sourceLayerId":2,"sourceObjectId":126277,"sourceURL":"https://maps8.stlouis-mo.gov/arcgis/rest/services/STREETS/Streets_Permitting/MapServer/2","title":"Street light L019005"},"type":"Feature"},{"geometry":{"coordinates":[-90.22559583630589,38.69767577002652],"type":"Point"},"id":"stl-city-public-streetlights:2:126278","properties":{"address":null,"attributes":{"Date_Installed":"6/25/2018","LED_Powered":1,"LightID":"L019006","Light_Source":"LED","Light_Type":"Cobra","Lighting_Type":"LED-Powered Lamp","Verification_Date":null},"id":"stl-city-public-streetlights:2:126278","sourceLayerId":2,"sourceObjectId":126278,"sourceURL":"https://maps8.stlouis-mo.gov/arcgis/rest/services/STREETS/Streets_Permitting/MapServer/2","title":"Street light L019006"},"type":"Feature"},{"geometry":{"coordinates":[-90.22597293939207,38.69746718528919],"type":"Point"},"id":"stl-city-public-streetlights:2:126279","properties":{"address":null,"attributes":{"Date_Installed":"6/25/2018","LED_Powered":1,"LightID":"L019007","Light_Source":"LED","Light_Type":"Cobra","Lighting_Type":"LED-Powered Lamp","Verification_Date":null},"id":"stl-city-public-streetlights:2:126279","sourceLayerId":2,"sourceObjectId":126279,"sourceURL":"https://maps8.stlouis-mo.gov/arcgis/rest/services/STREETS/Streets_Permitting/MapServer/2","title":"Street light L019007"},"type":"Feature"},{"geometry":{"coordinates":[-90.22748431861974,38.698645046569006],"type":"Point"},"id":"stl-city-public-streetlights:2:126280","properties":{"address":null,"attributes":{"Date_Installed":"8/1/2016","LED_Powered":1,"LightID":"L019008","Light_Source":"LED","Light_Type":"Cobra","Lighting_Type":"LED-Powered Lamp","Verification_Date":null},"id":"stl-city-public-streetlights:2:126280","sourceLayerId":2,"sourceObjectId":126280,"sourceURL":"https://maps8.stlouis-mo.gov/arcgis/rest/services/STREETS/Streets_Permitting/MapServer/2","title":"Street light L019008"},"type":"Feature"},{"geometry":{"coordinates":[-90.22776226072052,38.69914338590887],"type":"Point"},"id":"stl-city-public-streetlights:2:126281","properties":{"address":null,"attributes":{"Date_Installed":"8/1/2016","LED_Powered":1,"LightID":"L019009","Light_Source":"LED","Light_Type":"Cobra","Lighting_Type":"LED-Powered Lamp","Verification_Date":null},"id":"stl-city-public-streetlights:2:126281","sourceLayerId":2,"sourceObjectId":126281,"sourceURL":"https://maps8.stlouis-mo.gov/arcgis/rest/services/STREETS/Streets_Permitting/MapServer/2","title":"Street light L019009"},"type":"Feature"},{"geometry":{"coordinates":[-90.22798783308211,38.6996564762687],"type":"Point"},"id":"stl-city-public-streetlights:2:126282","properties":{"address":null,"attributes":{"Date_Installed":"8/1/2016","LED_Powered":1,"LightID":"L019010","Light_Source":"LED","Light_Type":"Cobra","Lighting_Type":"LED-Powered Lamp","Verification_Date":null},"id":"stl-city-public-streetlights:2:126282","sourceLayerId":2,"sourceObjectId":126282,"sourceURL":"https://maps8.stlouis-mo.gov/arcgis/rest/services/STREETS/Streets_Permitting/MapServer/2","title":"Street light L019010"},"type":"Feature"},{"geometry":{"coordinates":[-90.22579518328885,38.69563034606371],"type":"Point"},"id":"stl-city-public-streetlights:2:126294","properties":{"address":null,"attributes":{"Date_Installed":"8/1/2016","LED_Powered":1,"LightID":"L019022","Light_Source":"LED","Light_Type":"Cobra","Lighting_Type":"LED-Powered Lamp","Verification_Date":null},"id":"stl-city-public-streetlights:2:126294","sourceLayerId":2,"sourceObjectId":126294,"sourceURL":"https://maps8.stlouis-mo.gov/arcgis/rest/services/STREETS/Streets_Permitting/MapServer/2","title":"Street light L019022"},"type":"Feature"},{"geometry":{"coordinates":[-90.22553918871608,38.69512633270676],"type":"Point"},"id":"stl-city-public-streetlights:2:126295","properties":{"address":null,"attributes":{"Date_Installed":"8/1/2016","LED_Powered":1,"LightID":"L019023","Light_Source":"LED","Light_Type":"Cobra","Lighting_Type":"LED-Powered Lamp","Verification_Date":null},"id":"stl-city-public-streetlights:2:126295","sourceLayerId":2,"sourceObjectId":126295,"sourceURL":"https://maps8.stlouis-mo.gov/arcgis/rest/services/STREETS/Streets_Permitting/MapServer/2","title":"Street light L019023"},"type":"Feature"},{"geometry":{"coordinates":[-90.22531473210799,38.69464775441962],"type":"Point"},"id":"stl-city-public-streetlights:2:126296","properties":{"address":null,"attributes":{"Date_Installed":"8/1/2016","LED_Powered":1,"LightID":"L019024","Light_Source":"LED","Light_Type":"Cobra","Lighting_Type":"LED-Powered Lamp","Verification_Date":null},"id":"stl-city-public-streetlights:2:126296","sourceLayerId":2,"sourceObjectId":126296,"sourceURL":"https://maps8.stlouis-mo.gov/arcgis/rest/services/STREETS/Streets_Permitting/MapServer/2","title":"Street light L019024"},"type":"Feature"},{"geometry":{"coordinates":[-90.22507601935231,38.69408009101519],"type":"Point"},"id":"stl-city-public-streetlights:2:126297","properties":{"address":null,"attributes":{"Date_Installed":"8/1/2016","LED_Powered":1,"LightID":"L019025","Light_Source":"LED","Light_Type":"Cobra","Lighting_Type":"LED-Powered Lamp","Verification_Date":null},"id":"stl-city-public-streetlights:2:126297","sourceLayerId":2,"sourceObjectId":126297,"sourceURL":"https://maps8.stlouis-mo.gov/arcgis/rest/services/STREETS/Streets_Permitting/MapServer/2","title":"Street light L019025"},"type":"Feature"},{"geometry":{"coordinates":[-90.22484337862261,38.693579944343085],"type":"Point"},"id":"stl-city-public-streetlights:2:126298","properties":{"address":null,"attributes":{"Date_Installed":"8/1/2016","LED_Powered":1,"LightID":"L019026","Light_Source":"LED","Light_Type":"Cobra","Lighting_Type":"LED-Powered Lamp","Verification_Date":null},"id":"stl-city-public-streetlights:2:126298","sourceLayerId":2,"sourceObjectId":126298,"sourceURL":"https://maps8.stlouis-mo.gov/arcgis/rest/services/STREETS/Streets_Permitting/MapServer/2","title":"Street light L019026"},"type":"Feature"},{"geometry":{"coordinates":[-90.22462154110194,38.693055415049535],"type":"Point"},"id":"stl-city-public-streetlights:2:126299","properties":{"address":null,"attributes":{"Date_Installed":"8/1/2016","LED_Powered":1,"LightID":"L019027","Light_Source":"LED","Light_Type":"Cobra","Lighting_Type":"LED-Powered Lamp","Verification_Date":null},"id":"stl-city-public-streetlights:2:126299","sourceLayerId":2,"sourceObjectId":126299,"sourceURL":"https://maps8.stlouis-mo.gov/arcgis/rest/services/STREETS/Streets_Permitting/MapServer/2","title":"Street light L019027"},"type":"Feature"},{"geometry":{"coordinates":[-90.22444581683456,38.6925616941705],"type":"Point"},"id":"stl-city-public-streetlights:2:126300","properties":{"address":null,"attributes":{"Date_Installed":"8/1/2016","LED_Powered":1,"LightID":"L019028","Light_Source":"LED","Light_Type":"Cobra","Lighting_Type":"LED-Powered Lamp","Verification_Date":null},"id":"stl-city-public-streetlights:2:126300","sourceLayerId":2,"sourceObjectId":126300,"sourceURL":"https://maps8.stlouis-mo.gov/arcgis/rest/services/STREETS/Streets_Permitting/MapServer/2","title":"Street light L019028"},"type":"Feature"},{"geometry":{"coordinates":[-90.2242167084006,38.692031045227516],"type":"Point"},"id":"stl-city-public-streetlights:2:126301","properties":{"address":null,"attributes":{"Date_Installed":"8/1/2016","LED_Powered":1,"LightID":"L019029","Light_Source":"LED","Light_Type":"Cobra","Lighting_Type":"LED-Powered Lamp","Verification_Date":null},"id":"stl-city-public-streetlights:2:126301","sourceLayerId":2,"sourceObjectId":126301,"sourceURL":"https://maps8.stlouis-mo.gov/arcgis/rest/services/STREETS/Streets_Permitting/MapServer/2","title":"Street light L019029"},"type":"Feature"},{"geometry":{"coordinates":[-90.22400110859276,38.69153150896547],"type":"Point"},"id":"stl-city-public-streetlights:2:126302","properties":{"address":null,"attributes":{"Date_Installed":"8/1/2016","LED_Powered":1,"LightID":"L019030","Light_Source":"LED","Light_Type":"Cobra","Lighting_Type":"LED-Powered Lamp","Verification_Date":null},"id":"stl-city-public-streetlights:2:126302","sourceLayerId":2,"sourceObjectId":126302,"sourceURL":"https://maps8.stlouis-mo.gov/arcgis/rest/services/STREETS/Streets_Permitting/MapServer/2","title":"Street light L019030"},"type":"Feature"},{"geometry":{"coordinates":[-90.223772021041,38.690997425858434],"type":"Point"},"id":"stl-city-public-streetlights:2:126303","properties":{"address":null,"attributes":{"Date_Installed":"8/1/2016","LED_Powered":1,"LightID":"L019031","Light_Source":"LED","Light_Type":"Cobra","Lighting_Type":"LED-Powered Lamp","Verification_Date":null},"id":"stl-city-public-streetlights:2:126303","sourceLayerId":2,"sourceObjectId":126303,"sourceURL":"https://maps8.stlouis-mo.gov/arcgis/rest/services/STREETS/Streets_Permitting/MapServer/2","title":"Street light L019031"},"type":"Feature"},{"geometry":{"coordinates":[-90.22356713561425,38.69049734286448],"type":"Point"},"id":"stl-city-public-streetlights:2:126304","properties":{"address":null,"attributes":{"Date_Installed":"8/1/2016","LED_Powered":1,"LightID":"L019032","Light_Source":"LED","Light_Type":"Cobra","Lighting_Type":"LED-Powered Lamp","Verification_Date":null},"id":"stl-city-public-streetlights:2:126304","sourceLayerId":2,"sourceObjectId":126304,"sourceURL":"https://maps8.stlouis-mo.gov/arcgis/rest/services/STREETS/Streets_Permitting/MapServer/2","title":"Street light L019032"},"type":"Feature"},{"geometry":{"coordinates":[-90.22370316369296,38.69017540294725],"type":"Point"},"id":"stl-city-public-streetlights:2:152129","properties":{"address":null,"attributes":{"Date_Installed":"8/1/2016","LED_Powered":1,"LightID":"L044983","Light_Source":"LED","Light_Type":"Cobra","Lighting_Type":"LED-Powered Lamp","Verification_Date":null},"id":"stl-city-public-streetlights:2:152129","sourceLayerId":2,"sourceObjectId":152129,"sourceURL":"https://maps8.stlouis-mo.gov/arcgis/rest/services/STREETS/Streets_Permitting/MapServer/2","title":"Street light L044983"},"type":"Feature"},{"geometry":{"coordinates":[-90.2239143611214,38.690679314962125],"type":"Point"},"id":"stl-city-public-streetlights:2:152130","properties":{"address":null,"attributes":{"Date_Installed":"8/1/2016","LED_Powered":1,"LightID":"L044984","Light_Source":"LED","Light_Type":"Cobra","Lighting_Type":"LED-Powered Lamp","Verification_Date":null},"id":"stl-city-public-streetlights:2:152130","sourceLayerId":2,"sourceObjectId":152130,"sourceURL":"https://maps8.stlouis-mo.gov/arcgis/rest/services/STREETS/Streets_Permitting/MapServer/2","title":"Street light L044984"},"type":"Feature"},{"geometry":{"coordinates":[-90.22410476990163,38.69114847287748],"type":"Point"},"id":"stl-city-public-streetlights:2:152131","properties":{"address":null,"attributes":{"Date_Installed":"8/1/2016","LED_Powered":1,"LightID":"L044985","Light_Source":"LED","Light_Type":"Cobra","Lighting_Type":"LED-Powered Lamp","Verification_Date":null},"id":"stl-city-public-streetlights:2:152131","sourceLayerId":2,"sourceObjectId":152131,"sourceURL":"https://maps8.stlouis-mo.gov/arcgis/rest/services/STREETS/Streets_Permitting/MapServer/2","title":"Street light L044985"},"type":"Feature"},{"geometry":{"coordinates":[-90.22433482522966,38.69168484584148],"type":"Point"},"id":"stl-city-public-streetlights:2:152132","properties":{"address":null,"attributes":{"Date_Installed":"8/1/2016","LED_Powered":1,"LightID":"L044986","Light_Source":"LED","Light_Type":"Cobra","Lighting_Type":"LED-Powered Lamp","Verification_Date":null},"id":"stl-city-public-streetlights:2:152132","sourceLayerId":2,"sourceObjectId":152132,"sourceURL":"https://maps8.stlouis-mo.gov/arcgis/rest/services/STREETS/Streets_Permitting/MapServer/2","title":"Street light L044986"},"type":"Feature"},{"geometry":{"coordinates":[-90.22455905410885,38.69221872446059],"type":"Point"},"id":"stl-city-public-streetlights:2:152133","properties":{"address":null,"attributes":{"Date_Installed":"8/1/2016","LED_Powered":1,"LightID":"L044987","Light_Source":"LED","Light_Type":"Cobra","Lighting_Type":"LED-Powered Lamp","Verification_Date":null},"id":"stl-city-public-streetlights:2:152133","sourceLayerId":2,"sourceObjectId":152133,"sourceURL":"https://maps8.stlouis-mo.gov/arcgis/rest/services/STREETS/Streets_Permitting/MapServer/2","title":"Street light L044987"},"type":"Feature"},{"geometry":{"coordinates":[-90.22478328744603,38.692752603516794],"type":"Point"},"id":"stl-city-public-streetlights:2:152134","properties":{"address":null,"attributes":{"Date_Installed":"8/1/2016","LED_Powered":1,"LightID":"L044988","Light_Source":"LED","Light_Type":"Cobra","Lighting_Type":"LED-Powered Lamp","Verification_Date":null},"id":"stl-city-public-streetlights:2:152134","sourceLayerId":2,"sourceObjectId":152134,"sourceURL":"https://maps8.stlouis-mo.gov/arcgis/rest/services/STREETS/Streets_Permitting/MapServer/2","title":"Street light L044988"},"type":"Feature"},{"geometry":{"coordinates":[-90.22498817308701,38.69325649853609],"type":"Point"},"id":"stl-city-public-streetlights:2:152135","properties":{"address":null,"attributes":{"Date_Installed":"8/1/2016","LED_Powered":1,"LightID":"L044989","Light_Source":"LED","Light_Type":"Cobra","Lighting_Type":"LED-Powered Lamp","Verification_Date":null},"id":"stl-city-public-streetlights:2:152135","sourceLayerId":2,"sourceObjectId":152135,"sourceURL":"https://maps8.stlouis-mo.gov/arcgis/rest/services/STREETS/Streets_Permitting/MapServer/2","title":"Street light L044989"},"type":"Feature"},{"geometry":{"coordinates":[-90.22521586914061,38.69377722745906],"type":"Point"},"id":"stl-city-public-streetlights:2:152136","properties":{"address":null,"attributes":{"Date_Installed":"8/1/2016","LED_Powered":1,"LightID":"L044990","Light_Source":"LED","Light_Type":"Cobra","Lighting_Type":"LED-Powered Lamp","Verification_Date":null},"id":"stl-city-public-streetlights:2:152136","sourceLayerId":2,"sourceObjectId":152136,"sourceURL":"https://maps8.stlouis-mo.gov/arcgis/rest/services/STREETS/Streets_Permitting/MapServer/2","title":"Street light L044990"},"type":"Feature"},{"geometry":{"coordinates":[-90.22543043855912,38.694295255768765],"type":"Point"},"id":"stl-city-public-streetlights:2:152137","properties":{"address":null,"attributes":{"Date_Installed":"8/1/2016","LED_Powered":1,"LightID":"L044991","Light_Source":"LED","Light_Type":"Cobra","Lighting_Type":"LED-Powered Lamp","Verification_Date":null},"id":"stl-city-public-streetlights:2:152137","sourceLayerId":2,"sourceObjectId":152137,"sourceURL":"https://maps8.stlouis-mo.gov/arcgis/rest/services/STREETS/Streets_Permitting/MapServer/2","title":"Street light L044991"},"type":"Feature"},{"geometry":{"coordinates":[-90.22565469715823,38.694825890772336],"type":"Point"},"id":"stl-city-public-streetlights:2:152138","properties":{"address":null,"attributes":{"Date_Installed":"8/1/2016","LED_Powered":1,"LightID":"L044992","Light_Source":"LED","Light_Type":"Cobra","Lighting_Type":"LED-Powered Lamp","Verification_Date":null},"id":"stl-city-public-streetlights:2:152138","sourceLayerId":2,"sourceObjectId":152138,"sourceURL":"https://maps8.stlouis-mo.gov/arcgis/rest/services/STREETS/Streets_Permitting/MapServer/2","title":"Street light L044992"},"type":"Feature"},{"geometry":{"coordinates":[-90.22591794226291,38.695342697180386],"type":"Point"},"id":"stl-city-public-streetlights:2:152139","properties":{"address":null,"attributes":{"Date_Installed":"8/1/2016","LED_Powered":1,"LightID":"L044993","Light_Source":"LED","Light_Type":"Cobra","Lighting_Type":"LED-Powered Lamp","Verification_Date":null},"id":"stl-city-public-streetlights:2:152139","sourceLayerId":2,"sourceObjectId":152139,"sourceURL":"https://maps8.stlouis-mo.gov/arcgis/rest/services/STREETS/Streets_Permitting/MapServer/2","title":"Street light L044993"},"type":"Feature"},{"geometry":{"coordinates":[-90.22617973849098,38.69585759239918],"type":"Point"},"id":"stl-city-public-streetlights:2:152140","properties":{"address":null,"attributes":{"Date_Installed":"8/1/2016","LED_Powered":1,"LightID":"L044994","Light_Source":"LED","Light_Type":"Cobra","Lighting_Type":"LED-Powered Lamp","Verification_Date":null},"id":"stl-city-public-streetlights:2:152140","sourceLayerId":2,"sourceObjectId":152140,"sourceURL":"https://maps8.stlouis-mo.gov/arcgis/rest/services/STREETS/Streets_Permitting/MapServer/2","title":"Street light L044994"},"type":"Feature"},{"geometry":{"coordinates":[-90.22426016303116,38.69261184372855],"type":"Point"},"id":"stl-city-public-streetlights:2:152141","properties":{"address":null,"attributes":{"Date_Installed":null,"LED_Powered":0,"LightID":"L044995","Light_Source":"LED","Light_Type":"Cobra","Lighting_Type":"LED-Powered Lamp","Verification_Date":null},"id":"stl-city-public-streetlights:2:152141","sourceLayerId":2,"sourceObjectId":152141,"sourceURL":"https://maps8.stlouis-mo.gov/arcgis/rest/services/STREETS/Streets_Permitting/MapServer/2","title":"Street light L044995"},"type":"Feature"},{"geometry":{"coordinates":[-90.22375729608478,38.69288143286839],"type":"Point"},"id":"stl-city-public-streetlights:2:152142","properties":{"address":null,"attributes":{"Date_Installed":null,"LED_Powered":0,"LightID":"L044996","Light_Source":"LED","Light_Type":"Cobra","Lighting_Type":"LED-Powered Lamp","Verification_Date":null},"id":"stl-city-public-streetlights:2:152142","sourceLayerId":2,"sourceObjectId":152142,"sourceURL":"https://maps8.stlouis-mo.gov/arcgis/rest/services/STREETS/Streets_Permitting/MapServer/2","title":"Street light L044996"},"type":"Feature"},{"geometry":{"coordinates":[-90.22343968198851,38.692839446169984],"type":"Point"},"id":"stl-city-public-streetlights:2:152143","properties":{"address":null,"attributes":{"Date_Installed":null,"LED_Powered":0,"LightID":"L044997","Light_Source":"LED","Light_Type":"Cobra","Lighting_Type":"LED-Powered Lamp","Verification_Date":null},"id":"stl-city-public-streetlights:2:152143","sourceLayerId":2,"sourceObjectId":152143,"sourceURL":"https://maps8.stlouis-mo.gov/arcgis/rest/services/STREETS/Streets_Permitting/MapServer/2","title":"Street light L044997"},"type":"Feature"},{"geometry":{"coordinates":[-90.22317915754032,38.692570676326746],"type":"Point"},"id":"stl-city-public-streetlights:2:152144","properties":{"address":null,"attributes":{"Date_Installed":null,"LED_Powered":0,"LightID":"L044998","Light_Source":"LED","Light_Type":"Cobra","Lighting_Type":"LED-Powered Lamp","Verification_Date":null},"id":"stl-city-public-streetlights:2:152144","sourceLayerId":2,"sourceObjectId":152144,"sourceURL":"https://maps8.stlouis-mo.gov/arcgis/rest/services/STREETS/Streets_Permitting/MapServer/2","title":"Street light L044998"},"type":"Feature"},{"geometry":{"coordinates":[-90.22291653193834,38.69229522719039],"type":"Point"},"id":"stl-city-public-streetlights:2:152145","properties":{"address":null,"attributes":{"Date_Installed":null,"LED_Powered":0,"LightID":"L044999","Light_Source":"LED","Light_Type":"Cobra","Lighting_Type":"LED-Powered Lamp","Verification_Date":null},"id":"stl-city-public-streetlights:2:152145","sourceLayerId":2,"sourceObjectId":152145,"sourceURL":"https://maps8.stlouis-mo.gov/arcgis/rest/services/STREETS/Streets_Permitting/MapServer/2","title":"Street light L044999"},"type":"Feature"},{"geometry":{"coordinates":[-90.22266327078229,38.692014162851],"type":"Point"},"id":"stl-city-public-streetlights:2:152146","properties":{"address":null,"attributes":{"Date_Installed":null,"LED_Powered":0,"LightID":"L045000","Light_Source":"LED","Light_Type":"Cobra","Lighting_Type":"LED-Powered Lamp","Verification_Date":null},"id":"stl-city-public-streetlights:2:152146","sourceLayerId":2,"sourceObjectId":152146,"sourceURL":"https://maps8.stlouis-mo.gov/arcgis/rest/services/STREETS/Streets_Permitting/MapServer/2","title":"Street light L045000"},"type":"Feature"},{"geometry":{"coordinates":[-90.22230518367572,38.691651485130436],"type":"Point"},"id":"stl-city-public-streetlights:2:152147","properties":{"address":null,"attributes":{"Date_Installed":null,"LED_Powered":0,"LightID":"L045001","Light_Source":"LED","Light_Type":"Cobra","Lighting_Type":"LED-Powered Lamp","Verification_Date":null},"id":"stl-city-public-streetlights:2:152147","sourceLayerId":2,"sourceObjectId":152147,"sourceURL":"https://maps8.stlouis-mo.gov/arcgis/rest/services/STREETS/Streets_Permitting/MapServer/2","title":"Street light L045001"},"type":"Feature"},{"geometry":{"coordinates":[-90.22193712669505,38.69127233520834],"type":"Point"},"id":"stl-city-public-streetlights:2:152148","properties":{"address":null,"attributes":{"Date_Installed":null,"LED_Powered":0,"LightID":"L045002","Light_Source":"LED","Light_Type":"Cobra","Lighting_Type":"LED-Powered Lamp","Verification_Date":null},"id":"stl-city-public-streetlights:2:152148","sourceLayerId":2,"sourceObjectId":152148,"sourceURL":"https://maps8.stlouis-mo.gov/arcgis/rest/services/STREETS/Streets_Permitting/MapServer/2","title":"Street light L045002"},"type":"Feature"},{"geometry":{"coordinates":[-90.22154287344821,38.69087367261776],"type":"Point"},"id":"stl-city-public-streetlights:2:152149","properties":{"address":null,"attributes":{"Date_Installed":null,"LED_Powered":0,"LightID":"L045003","Light_Source":"LED","Light_Type":"Cobra","Lighting_Type":"LED-Powered Lamp","Verification_Date":null},"id":"stl-city-public-streetlights:2:152149","sourceLayerId":2,"sourceObjectId":152149,"sourceURL":"https://maps8.stlouis-mo.gov/arcgis/rest/services/STREETS/Streets_Permitting/MapServer/2","title":"Street light L045003"},"type":"Feature"},{"geometry":{"coordinates":[-90.2212201820675,38.69051000284387],"type":"Point"},"id":"stl-city-public-streetlights:2:152150","properties":{"address":null,"attributes":{"Date_Installed":null,"LED_Powered":0,"LightID":"L045004","Light_Source":"LED","Light_Type":"Cobra","Lighting_Type":"LED-Powered Lamp","Verification_Date":null},"id":"stl-city-public-streetlights:2:152150","sourceLayerId":2,"sourceObjectId":152150,"sourceURL":"https://maps8.stlouis-mo.gov/arcgis/rest/services/STREETS/Streets_Permitting/MapServer/2","title":"Street light L045004"},"type":"Feature"},{"geometry":{"coordinates":[-90.22122393579073,38.690326475303124],"type":"Point"},"id":"stl-city-public-streetlights:2:152151","properties":{"address":null,"attributes":{"Date_Installed":null,"LED_Powered":0,"LightID":"L045005","Light_Source":"LED","Light_Type":"Cobra","Lighting_Type":"LED-Powered Lamp","Verification_Date":null},"id":"stl-city-public-streetlights:2:152151","sourceLayerId":2,"sourceObjectId":152151,"sourceURL":"https://maps8.stlouis-mo.gov/arcgis/rest/services/STREETS/Streets_Permitting/MapServer/2","title":"Street light L045005"},"type":"Feature"},{"geometry":{"coordinates":[-90.22162014083912,38.690110513065505],"type":"Point"},"id":"stl-city-public-streetlights:2:152152","properties":{"address":null,"attributes":{"Date_Installed":null,"LED_Powered":0,"LightID":"L045006","Light_Source":"LED","Light_Type":"Cobra","Lighting_Type":"LED-Powered Lamp","Verification_Date":null},"id":"stl-city-public-streetlights:2:152152","sourceLayerId":2,"sourceObjectId":152152,"sourceURL":"https://maps8.stlouis-mo.gov/arcgis/rest/services/STREETS/Streets_Permitting/MapServer/2","title":"Street light L045006"},"type":"Feature"},{"geometry":{"coordinates":[-90.22303680207668,38.692023426275874],"type":"Point"},"id":"stl-city-public-streetlights:2:152156","properties":{"address":null,"attributes":{"Date_Installed":null,"LED_Powered":0,"LightID":"L045010","Light_Source":"LED","Light_Type":"Cobra","Lighting_Type":"LED-Powered Lamp","Verification_Date":null},"id":"stl-city-public-streetlights:2:152156","sourceLayerId":2,"sourceObjectId":152156,"sourceURL":"https://maps8.stlouis-mo.gov/arcgis/rest/services/STREETS/Streets_Permitting/MapServer/2","title":"Street light L045010"},"type":"Feature"},{"geometry":{"coordinates":[-90.22342080833626,38.6918169631364],"type":"Point"},"id":"stl-city-public-streetlights:2:152157","properties":{"address":null,"attributes":{"Date_Installed":null,"LED_Powered":0,"LightID":"L045011","Light_Source":"LED","Light_Type":"Cobra","Lighting_Type":"LED-Powered Lamp","Verification_Date":null},"id":"stl-city-public-streetlights:2:152157","sourceLayerId":2,"sourceObjectId":152157,"sourceURL":"https://maps8.stlouis-mo.gov/arcgis/rest/services/STREETS/Streets_Permitting/MapServer/2","title":"Street light L045011"},"type":"Feature"},{"geometry":{"coordinates":[-90.22381099640258,38.69161623391886],"type":"Point"},"id":"stl-city-public-streetlights:2:152158","properties":{"address":null,"attributes":{"Date_Installed":null,"LED_Powered":0,"LightID":"L045012","Light_Source":"LED","Light_Type":"Cobra","Lighting_Type":"LED-Powered Lamp","Verification_Date":null},"id":"stl-city-public-streetlights:2:152158","sourceLayerId":2,"sourceObjectId":152158,"sourceURL":"https://maps8.stlouis-mo.gov/arcgis/rest/services/STREETS/Streets_Permitting/MapServer/2","title":"Street light L045012"},"type":"Feature"}],"layerId":"city-streetlights","retrievedAt":"2026-09-13T21:56:18.173251+00:00","schema":"property-infrastructure-geojson-v1","sourceId":"stl-city-public-streetlights","tileId":"-9023_3869","type":"FeatureCollection"}