{"features":[{"geometry":{"coordinates":[-90.24430589363327,38.62045658126498],"type":"Point"},"id":"stl-city-public-streetlights:2:123563","properties":{"address":null,"attributes":{"Date_Installed":null,"LED_Powered":0,"LightID":"L016283","Light_Source":"LED","Light_Type":"Cobra","Lighting_Type":"100-W High Pressure Sodium Vapor Lamp","Verification_Date":null},"id":"stl-city-public-streetlights:2:123563","sourceLayerId":2,"sourceObjectId":123563,"sourceURL":"https://maps8.stlouis-mo.gov/arcgis/rest/services/STREETS/Streets_Permitting/MapServer/2","title":"Street light L016283"},"type":"Feature"},{"geometry":{"coordinates":[-90.24387464117754,38.620402602565946],"type":"Point"},"id":"stl-city-public-streetlights:2:123564","properties":{"address":null,"attributes":{"Date_Installed":null,"LED_Powered":0,"LightID":"L016284","Light_Source":"LED","Light_Type":"Cobra","Lighting_Type":"100-W High Pressure Sodium Vapor Lamp","Verification_Date":null},"id":"stl-city-public-streetlights:2:123564","sourceLayerId":2,"sourceObjectId":123564,"sourceURL":"https://maps8.stlouis-mo.gov/arcgis/rest/services/STREETS/Streets_Permitting/MapServer/2","title":"Street light L016284"},"type":"Feature"},{"geometry":{"coordinates":[-90.24342010555533,38.620359893637826],"type":"Point"},"id":"stl-city-public-streetlights:2:123565","properties":{"address":null,"attributes":{"Date_Installed":null,"LED_Powered":0,"LightID":"L016285","Light_Source":"LED","Light_Type":"Cobra","Lighting_Type":"100-W High Pressure Sodium Vapor Lamp","Verification_Date":null},"id":"stl-city-public-streetlights:2:123565","sourceLayerId":2,"sourceObjectId":123565,"sourceURL":"https://maps8.stlouis-mo.gov/arcgis/rest/services/STREETS/Streets_Permitting/MapServer/2","title":"Street light L016285"},"type":"Feature"},{"geometry":{"coordinates":[-90.24296298362013,38.620318369143384],"type":"Point"},"id":"stl-city-public-streetlights:2:123566","properties":{"address":null,"attributes":{"Date_Installed":null,"LED_Powered":0,"LightID":"L016286","Light_Source":"LED","Light_Type":"Cobra","Lighting_Type":"LED-Powered Lamp","Verification_Date":null},"id":"stl-city-public-streetlights:2:123566","sourceLayerId":2,"sourceObjectId":123566,"sourceURL":"https://maps8.stlouis-mo.gov/arcgis/rest/services/STREETS/Streets_Permitting/MapServer/2","title":"Street light L016286"},"type":"Feature"},{"geometry":{"coordinates":[-90.24250600855987,38.62027863055673],"type":"Point"},"id":"stl-city-public-streetlights:2:123567","properties":{"address":null,"attributes":{"Date_Installed":null,"LED_Powered":0,"LightID":"L016287","Light_Source":"LED","Light_Type":"Cobra","Lighting_Type":"LED-Powered Lamp","Verification_Date":null},"id":"stl-city-public-streetlights:2:123567","sourceLayerId":2,"sourceObjectId":123567,"sourceURL":"https://maps8.stlouis-mo.gov/arcgis/rest/services/STREETS/Streets_Permitting/MapServer/2","title":"Street light L016287"},"type":"Feature"},{"geometry":{"coordinates":[-90.24208120976742,38.62023848364127],"type":"Point"},"id":"stl-city-public-streetlights:2:123568","properties":{"address":null,"attributes":{"Date_Installed":null,"LED_Powered":0,"LightID":"L016288","Light_Source":"LED","Light_Type":"Cobra","Lighting_Type":"100-W High Pressure Sodium Vapor Lamp","Verification_Date":null},"id":"stl-city-public-streetlights:2:123568","sourceLayerId":2,"sourceObjectId":123568,"sourceURL":"https://maps8.stlouis-mo.gov/arcgis/rest/services/STREETS/Streets_Permitting/MapServer/2","title":"Street light L016288"},"type":"Feature"},{"geometry":{"coordinates":[-90.24430348655093,38.62124091970295],"type":"Point"},"id":"stl-city-public-streetlights:2:123576","properties":{"address":null,"attributes":{"Date_Installed":null,"LED_Powered":0,"LightID":"L016296","Light_Source":"High Pressure Sodium","Light_Type":"Cobra","Lighting_Type":"200-W High Pressure Sodium Vapor Lamp","Verification_Date":null},"id":"stl-city-public-streetlights:2:123576","sourceLayerId":2,"sourceObjectId":123576,"sourceURL":"https://maps8.stlouis-mo.gov/arcgis/rest/services/STREETS/Streets_Permitting/MapServer/2","title":"Street light L016296"},"type":"Feature"},{"geometry":{"coordinates":[-90.24382643705951,38.62119673253513],"type":"Point"},"id":"stl-city-public-streetlights:2:123577","properties":{"address":null,"attributes":{"Date_Installed":null,"LED_Powered":0,"LightID":"L016297","Light_Source":"High Pressure Sodium","Light_Type":"Cobra","Lighting_Type":"200-W High Pressure Sodium Vapor Lamp","Verification_Date":null},"id":"stl-city-public-streetlights:2:123577","sourceLayerId":2,"sourceObjectId":123577,"sourceURL":"https://maps8.stlouis-mo.gov/arcgis/rest/services/STREETS/Streets_Permitting/MapServer/2","title":"Street light L016297"},"type":"Feature"},{"geometry":{"coordinates":[-90.24335939762781,38.621154372567965],"type":"Point"},"id":"stl-city-public-streetlights:2:123578","properties":{"address":null,"attributes":{"Date_Installed":null,"LED_Powered":0,"LightID":"L016298","Light_Source":"High Pressure Sodium","Light_Type":"Cobra","Lighting_Type":"200-W High Pressure Sodium Vapor Lamp","Verification_Date":null},"id":"stl-city-public-streetlights:2:123578","sourceLayerId":2,"sourceObjectId":123578,"sourceURL":"https://maps8.stlouis-mo.gov/arcgis/rest/services/STREETS/Streets_Permitting/MapServer/2","title":"Street light L016298"},"type":"Feature"},{"geometry":{"coordinates":[-90.24289154769403,38.621113708939305],"type":"Point"},"id":"stl-city-public-streetlights:2:123579","properties":{"address":null,"attributes":{"Date_Installed":null,"LED_Powered":0,"LightID":"L016299","Light_Source":"High Pressure Sodium","Light_Type":"Cobra","Lighting_Type":"200-W High Pressure Sodium Vapor Lamp","Verification_Date":null},"id":"stl-city-public-streetlights:2:123579","sourceLayerId":2,"sourceObjectId":123579,"sourceURL":"https://maps8.stlouis-mo.gov/arcgis/rest/services/STREETS/Streets_Permitting/MapServer/2","title":"Street light L016299"},"type":"Feature"},{"geometry":{"coordinates":[-90.2424285611721,38.6210654551218],"type":"Point"},"id":"stl-city-public-streetlights:2:123580","properties":{"address":null,"attributes":{"Date_Installed":null,"LED_Powered":0,"LightID":"L016300","Light_Source":"High Pressure Sodium","Light_Type":"Cobra","Lighting_Type":"200-W High Pressure Sodium Vapor Lamp","Verification_Date":null},"id":"stl-city-public-streetlights:2:123580","sourceLayerId":2,"sourceObjectId":123580,"sourceURL":"https://maps8.stlouis-mo.gov/arcgis/rest/services/STREETS/Streets_Permitting/MapServer/2","title":"Street light L016300"},"type":"Feature"},{"geometry":{"coordinates":[-90.24198749831604,38.62101405956043],"type":"Point"},"id":"stl-city-public-streetlights:2:123581","properties":{"address":null,"attributes":{"Date_Installed":null,"LED_Powered":0,"LightID":"L016301","Light_Source":"High Pressure Sodium","Light_Type":"Cobra","Lighting_Type":"200-W High Pressure Sodium Vapor Lamp","Verification_Date":null},"id":"stl-city-public-streetlights:2:123581","sourceLayerId":2,"sourceObjectId":123581,"sourceURL":"https://maps8.stlouis-mo.gov/arcgis/rest/services/STREETS/Streets_Permitting/MapServer/2","title":"Street light L016301"},"type":"Feature"},{"geometry":{"coordinates":[-90.24316227552913,38.623403539125285],"type":"Point"},"id":"stl-city-public-streetlights:2:123582","properties":{"address":null,"attributes":{"Date_Installed":null,"LED_Powered":0,"LightID":"L016302","Light_Source":"LED","Light_Type":"Cobra","Lighting_Type":"LED-Powered Lamp","Verification_Date":null},"id":"stl-city-public-streetlights:2:123582","sourceLayerId":2,"sourceObjectId":123582,"sourceURL":"https://maps8.stlouis-mo.gov/arcgis/rest/services/STREETS/Streets_Permitting/MapServer/2","title":"Street light L016302"},"type":"Feature"},{"geometry":{"coordinates":[-90.24272009597674,38.62332015501357],"type":"Point"},"id":"stl-city-public-streetlights:2:123583","properties":{"address":null,"attributes":{"Date_Installed":null,"LED_Powered":0,"LightID":"L016303","Light_Source":"LED","Light_Type":"Cobra","Lighting_Type":"LED-Powered Lamp","Verification_Date":null},"id":"stl-city-public-streetlights:2:123583","sourceLayerId":2,"sourceObjectId":123583,"sourceURL":"https://maps8.stlouis-mo.gov/arcgis/rest/services/STREETS/Streets_Permitting/MapServer/2","title":"Street light L016303"},"type":"Feature"},{"geometry":{"coordinates":[-90.24223301714962,38.62325615481294],"type":"Point"},"id":"stl-city-public-streetlights:2:123584","properties":{"address":null,"attributes":{"Date_Installed":null,"LED_Powered":0,"LightID":"L016304","Light_Source":"LED","Light_Type":"Cobra","Lighting_Type":"LED-Powered Lamp","Verification_Date":null},"id":"stl-city-public-streetlights:2:123584","sourceLayerId":2,"sourceObjectId":123584,"sourceURL":"https://maps8.stlouis-mo.gov/arcgis/rest/services/STREETS/Streets_Permitting/MapServer/2","title":"Street light L016304"},"type":"Feature"},{"geometry":{"coordinates":[-90.24181997427324,38.62342419558167],"type":"Point"},"id":"stl-city-public-streetlights:2:123585","properties":{"address":null,"attributes":{"Date_Installed":null,"LED_Powered":0,"LightID":"L016305","Light_Source":"LED","Light_Type":"Cobra","Lighting_Type":"LED-Powered Lamp","Verification_Date":null},"id":"stl-city-public-streetlights:2:123585","sourceLayerId":2,"sourceObjectId":123585,"sourceURL":"https://maps8.stlouis-mo.gov/arcgis/rest/services/STREETS/Streets_Permitting/MapServer/2","title":"Street light L016305"},"type":"Feature"},{"geometry":{"coordinates":[-90.24179019037595,38.623240127236336],"type":"Point"},"id":"stl-city-public-streetlights:2:123586","properties":{"address":null,"attributes":{"Date_Installed":null,"LED_Powered":0,"LightID":"L016306","Light_Source":"LED","Light_Type":"Cobra","Lighting_Type":"LED-Powered Lamp","Verification_Date":null},"id":"stl-city-public-streetlights:2:123586","sourceLayerId":2,"sourceObjectId":123586,"sourceURL":"https://maps8.stlouis-mo.gov/arcgis/rest/services/STREETS/Streets_Permitting/MapServer/2","title":"Street light L016306"},"type":"Feature"},{"geometry":{"coordinates":[-90.24135240664397,38.623024526482546],"type":"Point"},"id":"stl-city-public-streetlights:2:123587","properties":{"address":null,"attributes":{"Date_Installed":null,"LED_Powered":0,"LightID":"L016307","Light_Source":"LED","Light_Type":"Cobra","Lighting_Type":"LED-Powered Lamp","Verification_Date":null},"id":"stl-city-public-streetlights:2:123587","sourceLayerId":2,"sourceObjectId":123587,"sourceURL":"https://maps8.stlouis-mo.gov/arcgis/rest/services/STREETS/Streets_Permitting/MapServer/2","title":"Street light L016307"},"type":"Feature"},{"geometry":{"coordinates":[-90.24072085196619,38.62289719126509],"type":"Point"},"id":"stl-city-public-streetlights:2:123588","properties":{"address":null,"attributes":{"Date_Installed":null,"LED_Powered":0,"LightID":"L016308","Light_Source":"LED","Light_Type":"Cobra","Lighting_Type":"LED-Powered Lamp","Verification_Date":null},"id":"stl-city-public-streetlights:2:123588","sourceLayerId":2,"sourceObjectId":123588,"sourceURL":"https://maps8.stlouis-mo.gov/arcgis/rest/services/STREETS/Streets_Permitting/MapServer/2","title":"Street light L016308"},"type":"Feature"},{"geometry":{"coordinates":[-90.24030337040985,38.6228044005901],"type":"Point"},"id":"stl-city-public-streetlights:2:123589","properties":{"address":null,"attributes":{"Date_Installed":null,"LED_Powered":0,"LightID":"L016309","Light_Source":"LED","Light_Type":"Cobra","Lighting_Type":"LED-Powered Lamp","Verification_Date":null},"id":"stl-city-public-streetlights:2:123589","sourceLayerId":2,"sourceObjectId":123589,"sourceURL":"https://maps8.stlouis-mo.gov/arcgis/rest/services/STREETS/Streets_Permitting/MapServer/2","title":"Street light L016309"},"type":"Feature"},{"geometry":{"coordinates":[-90.24288202630596,38.62432261325783],"type":"Point"},"id":"stl-city-public-streetlights:2:123591","properties":{"address":null,"attributes":{"Date_Installed":null,"LED_Powered":0,"LightID":"L016311","Light_Source":"LED","Light_Type":"Cobra","Lighting_Type":"LED-Powered Lamp","Verification_Date":null},"id":"stl-city-public-streetlights:2:123591","sourceLayerId":2,"sourceObjectId":123591,"sourceURL":"https://maps8.stlouis-mo.gov/arcgis/rest/services/STREETS/Streets_Permitting/MapServer/2","title":"Street light L016311"},"type":"Feature"},{"geometry":{"coordinates":[-90.24244618482052,38.62422875296439],"type":"Point"},"id":"stl-city-public-streetlights:2:123592","properties":{"address":null,"attributes":{"Date_Installed":null,"LED_Powered":0,"LightID":"L016312","Light_Source":"LED","Light_Type":"Cobra","Lighting_Type":"LED-Powered Lamp","Verification_Date":null},"id":"stl-city-public-streetlights:2:123592","sourceLayerId":2,"sourceObjectId":123592,"sourceURL":"https://maps8.stlouis-mo.gov/arcgis/rest/services/STREETS/Streets_Permitting/MapServer/2","title":"Street light L016312"},"type":"Feature"},{"geometry":{"coordinates":[-90.2419768277409,38.624135354075314],"type":"Point"},"id":"stl-city-public-streetlights:2:123593","properties":{"address":null,"attributes":{"Date_Installed":null,"LED_Powered":0,"LightID":"L016313","Light_Source":"LED","Light_Type":"Cobra","Lighting_Type":"LED-Powered Lamp","Verification_Date":null},"id":"stl-city-public-streetlights:2:123593","sourceLayerId":2,"sourceObjectId":123593,"sourceURL":"https://maps8.stlouis-mo.gov/arcgis/rest/services/STREETS/Streets_Permitting/MapServer/2","title":"Street light L016313"},"type":"Feature"},{"geometry":{"coordinates":[-90.24134534754168,38.6239037018605],"type":"Point"},"id":"stl-city-public-streetlights:2:123594","properties":{"address":null,"attributes":{"Date_Installed":null,"LED_Powered":0,"LightID":"L016314","Light_Source":"High Pressure Sodium","Light_Type":"Cobra","Lighting_Type":"400-W High Pressure Sodium Vapor Lamp","Verification_Date":null},"id":"stl-city-public-streetlights:2:123594","sourceLayerId":2,"sourceObjectId":123594,"sourceURL":"https://maps8.stlouis-mo.gov/arcgis/rest/services/STREETS/Streets_Permitting/MapServer/2","title":"Street light L016314"},"type":"Feature"},{"geometry":{"coordinates":[-90.24069571622282,38.62376393569238],"type":"Point"},"id":"stl-city-public-streetlights:2:123595","properties":{"address":null,"attributes":{"Date_Installed":null,"LED_Powered":0,"LightID":"L016315","Light_Source":"High Pressure Sodium","Light_Type":"Cobra","Lighting_Type":"400-W High Pressure Sodium Vapor Lamp","Verification_Date":null},"id":"stl-city-public-streetlights:2:123595","sourceLayerId":2,"sourceObjectId":123595,"sourceURL":"https://maps8.stlouis-mo.gov/arcgis/rest/services/STREETS/Streets_Permitting/MapServer/2","title":"Street light L016315"},"type":"Feature"},{"geometry":{"coordinates":[-90.24252646911839,38.62522909397778],"type":"Point"},"id":"stl-city-public-streetlights:2:123600","properties":{"address":null,"attributes":{"Date_Installed":null,"LED_Powered":0,"LightID":"L016320","Light_Source":"LED","Light_Type":"Cobra","Lighting_Type":"LED-Powered Lamp","Verification_Date":null},"id":"stl-city-public-streetlights:2:123600","sourceLayerId":2,"sourceObjectId":123600,"sourceURL":"https://maps8.stlouis-mo.gov/arcgis/rest/services/STREETS/Streets_Permitting/MapServer/2","title":"Street light L016320"},"type":"Feature"},{"geometry":{"coordinates":[-90.24192983616012,38.62510621507424],"type":"Point"},"id":"stl-city-public-streetlights:2:123601","properties":{"address":null,"attributes":{"Date_Installed":null,"LED_Powered":0,"LightID":"L016321","Light_Source":"LED","Light_Type":"Cobra","Lighting_Type":"LED-Powered Lamp","Verification_Date":null},"id":"stl-city-public-streetlights:2:123601","sourceLayerId":2,"sourceObjectId":123601,"sourceURL":"https://maps8.stlouis-mo.gov/arcgis/rest/services/STREETS/Streets_Permitting/MapServer/2","title":"Street light L016321"},"type":"Feature"},{"geometry":{"coordinates":[-90.24132516116447,38.62498093159073],"type":"Point"},"id":"stl-city-public-streetlights:2:123602","properties":{"address":null,"attributes":{"Date_Installed":null,"LED_Powered":0,"LightID":"L016322","Light_Source":"LED","Light_Type":"Cobra","Lighting_Type":"LED-Powered Lamp","Verification_Date":null},"id":"stl-city-public-streetlights:2:123602","sourceLayerId":2,"sourceObjectId":123602,"sourceURL":"https://maps8.stlouis-mo.gov/arcgis/rest/services/STREETS/Streets_Permitting/MapServer/2","title":"Street light L016322"},"type":"Feature"},{"geometry":{"coordinates":[-90.24229019641726,38.62686116268614],"type":"Point"},"id":"stl-city-public-streetlights:2:123603","properties":{"address":null,"attributes":{"Date_Installed":null,"LED_Powered":0,"LightID":"L016331","Light_Source":"LED","Light_Type":"Cobra","Lighting_Type":"LED-Powered Lamp","Verification_Date":null},"id":"stl-city-public-streetlights:2:123603","sourceLayerId":2,"sourceObjectId":123603,"sourceURL":"https://maps8.stlouis-mo.gov/arcgis/rest/services/STREETS/Streets_Permitting/MapServer/2","title":"Street light L016331"},"type":"Feature"},{"geometry":{"coordinates":[-90.24246275315573,38.62634747699277],"type":"Point"},"id":"stl-city-public-streetlights:2:123604","properties":{"address":null,"attributes":{"Date_Installed":null,"LED_Powered":0,"LightID":"L016332","Light_Source":"LED","Light_Type":"Cobra","Lighting_Type":"LED-Powered Lamp","Verification_Date":null},"id":"stl-city-public-streetlights:2:123604","sourceLayerId":2,"sourceObjectId":123604,"sourceURL":"https://maps8.stlouis-mo.gov/arcgis/rest/services/STREETS/Streets_Permitting/MapServer/2","title":"Street light L016332"},"type":"Feature"},{"geometry":{"coordinates":[-90.24262743068853,38.625862600385624],"type":"Point"},"id":"stl-city-public-streetlights:2:123605","properties":{"address":null,"attributes":{"Date_Installed":null,"LED_Powered":0,"LightID":"L016333","Light_Source":"LED","Light_Type":"Cobra","Lighting_Type":"LED-Powered Lamp","Verification_Date":null},"id":"stl-city-public-streetlights:2:123605","sourceLayerId":2,"sourceObjectId":123605,"sourceURL":"https://maps8.stlouis-mo.gov/arcgis/rest/services/STREETS/Streets_Permitting/MapServer/2","title":"Street light L016333"},"type":"Feature"},{"geometry":{"coordinates":[-90.24279552952476,38.62537641482214],"type":"Point"},"id":"stl-city-public-streetlights:2:123606","properties":{"address":null,"attributes":{"Date_Installed":null,"LED_Powered":0,"LightID":"L016334","Light_Source":"LED","Light_Type":"Cobra","Lighting_Type":"LED-Powered Lamp","Verification_Date":null},"id":"stl-city-public-streetlights:2:123606","sourceLayerId":2,"sourceObjectId":123606,"sourceURL":"https://maps8.stlouis-mo.gov/arcgis/rest/services/STREETS/Streets_Permitting/MapServer/2","title":"Street light L016334"},"type":"Feature"},{"geometry":{"coordinates":[-90.2429865939538,38.624795773203466],"type":"Point"},"id":"stl-city-public-streetlights:2:123607","properties":{"address":null,"attributes":{"Date_Installed":null,"LED_Powered":0,"LightID":"L016335","Light_Source":"LED","Light_Type":"Cobra","Lighting_Type":"LED-Powered Lamp","Verification_Date":null},"id":"stl-city-public-streetlights:2:123607","sourceLayerId":2,"sourceObjectId":123607,"sourceURL":"https://maps8.stlouis-mo.gov/arcgis/rest/services/STREETS/Streets_Permitting/MapServer/2","title":"Street light L016335"},"type":"Feature"},{"geometry":{"coordinates":[-90.24312028110141,38.624399191636435],"type":"Point"},"id":"stl-city-public-streetlights:2:123608","properties":{"address":null,"attributes":{"Date_Installed":null,"LED_Powered":0,"LightID":"L016336","Light_Source":"LED","Light_Type":"Cobra","Lighting_Type":"LED-Powered Lamp","Verification_Date":null},"id":"stl-city-public-streetlights:2:123608","sourceLayerId":2,"sourceObjectId":123608,"sourceURL":"https://maps8.stlouis-mo.gov/arcgis/rest/services/STREETS/Streets_Permitting/MapServer/2","title":"Street light L016336"},"type":"Feature"},{"geometry":{"coordinates":[-90.2432873112198,38.62391258487626],"type":"Point"},"id":"stl-city-public-streetlights:2:123609","properties":{"address":null,"attributes":{"Date_Installed":null,"LED_Powered":0,"LightID":"L016337","Light_Source":"LED","Light_Type":"Cobra","Lighting_Type":"LED-Powered Lamp","Verification_Date":null},"id":"stl-city-public-streetlights:2:123609","sourceLayerId":2,"sourceObjectId":123609,"sourceURL":"https://maps8.stlouis-mo.gov/arcgis/rest/services/STREETS/Streets_Permitting/MapServer/2","title":"Street light L016337"},"type":"Feature"},{"geometry":{"coordinates":[-90.24328968283625,38.62346059832088],"type":"Point"},"id":"stl-city-public-streetlights:2:123610","properties":{"address":null,"attributes":{"Date_Installed":null,"LED_Powered":0,"LightID":"L016338","Light_Source":"LED","Light_Type":"Cobra","Lighting_Type":"LED-Powered Lamp","Verification_Date":null},"id":"stl-city-public-streetlights:2:123610","sourceLayerId":2,"sourceObjectId":123610,"sourceURL":"https://maps8.stlouis-mo.gov/arcgis/rest/services/STREETS/Streets_Permitting/MapServer/2","title":"Street light L016338"},"type":"Feature"},{"geometry":{"coordinates":[-90.24347306026567,38.62311746165778],"type":"Point"},"id":"stl-city-public-streetlights:2:123611","properties":{"address":null,"attributes":{"Date_Installed":null,"LED_Powered":0,"LightID":"L016339","Light_Source":"LED","Light_Type":"Cobra","Lighting_Type":"LED-Powered Lamp","Verification_Date":null},"id":"stl-city-public-streetlights:2:123611","sourceLayerId":2,"sourceObjectId":123611,"sourceURL":"https://maps8.stlouis-mo.gov/arcgis/rest/services/STREETS/Streets_Permitting/MapServer/2","title":"Street light L016339"},"type":"Feature"},{"geometry":{"coordinates":[-90.24371910029744,38.62271159411613],"type":"Point"},"id":"stl-city-public-streetlights:2:123612","properties":{"address":null,"attributes":{"Date_Installed":null,"LED_Powered":0,"LightID":"L016340","Light_Source":"LED","Light_Type":"Cobra","Lighting_Type":"LED-Powered Lamp","Verification_Date":null},"id":"stl-city-public-streetlights:2:123612","sourceLayerId":2,"sourceObjectId":123612,"sourceURL":"https://maps8.stlouis-mo.gov/arcgis/rest/services/STREETS/Streets_Permitting/MapServer/2","title":"Street light L016340"},"type":"Feature"},{"geometry":{"coordinates":[-90.24396058081874,38.6223057169493],"type":"Point"},"id":"stl-city-public-streetlights:2:123613","properties":{"address":null,"attributes":{"Date_Installed":null,"LED_Powered":0,"LightID":"L016341","Light_Source":"LED","Light_Type":"Cobra","Lighting_Type":"LED-Powered Lamp","Verification_Date":null},"id":"stl-city-public-streetlights:2:123613","sourceLayerId":2,"sourceObjectId":123613,"sourceURL":"https://maps8.stlouis-mo.gov/arcgis/rest/services/STREETS/Streets_Permitting/MapServer/2","title":"Street light L016341"},"type":"Feature"},{"geometry":{"coordinates":[-90.24421042436782,38.621896639548865],"type":"Point"},"id":"stl-city-public-streetlights:2:123614","properties":{"address":null,"attributes":{"Date_Installed":null,"LED_Powered":0,"LightID":"L016342","Light_Source":"LED","Light_Type":"Cobra","Lighting_Type":"LED-Powered Lamp","Verification_Date":null},"id":"stl-city-public-streetlights:2:123614","sourceLayerId":2,"sourceObjectId":123614,"sourceURL":"https://maps8.stlouis-mo.gov/arcgis/rest/services/STREETS/Streets_Permitting/MapServer/2","title":"Street light L016342"},"type":"Feature"},{"geometry":{"coordinates":[-90.24432979612659,38.6214707100668],"type":"Point"},"id":"stl-city-public-streetlights:2:123615","properties":{"address":null,"attributes":{"Date_Installed":null,"LED_Powered":0,"LightID":"L016343","Light_Source":"LED","Light_Type":"Cobra","Lighting_Type":"LED-Powered Lamp","Verification_Date":null},"id":"stl-city-public-streetlights:2:123615","sourceLayerId":2,"sourceObjectId":123615,"sourceURL":"https://maps8.stlouis-mo.gov/arcgis/rest/services/STREETS/Streets_Permitting/MapServer/2","title":"Street light L016343"},"type":"Feature"},{"geometry":{"coordinates":[-90.24075423473533,38.62663442513037],"type":"Point"},"id":"stl-city-public-streetlights:2:124089","properties":{"address":null,"attributes":{"Date_Installed":null,"LED_Powered":0,"LightID":"L016817","Light_Source":"LED","Light_Type":"Cobra","Lighting_Type":"LED-Powered Lamp","Verification_Date":1658880000000},"id":"stl-city-public-streetlights:2:124089","sourceLayerId":2,"sourceObjectId":124089,"sourceURL":"https://maps8.stlouis-mo.gov/arcgis/rest/services/STREETS/Streets_Permitting/MapServer/2","title":"Street light L016817"},"type":"Feature"},{"geometry":{"coordinates":[-90.2408770479897,38.62628192260458],"type":"Point"},"id":"stl-city-public-streetlights:2:124090","properties":{"address":null,"attributes":{"Date_Installed":null,"LED_Powered":0,"LightID":"L016818","Light_Source":"LED","Light_Type":"Cobra","Lighting_Type":"LED-Powered Lamp","Verification_Date":null},"id":"stl-city-public-streetlights:2:124090","sourceLayerId":2,"sourceObjectId":124090,"sourceURL":"https://maps8.stlouis-mo.gov/arcgis/rest/services/STREETS/Streets_Permitting/MapServer/2","title":"Street light L016818"},"type":"Feature"},{"geometry":{"coordinates":[-90.24099978244632,38.625929598129154],"type":"Point"},"id":"stl-city-public-streetlights:2:124091","properties":{"address":null,"attributes":{"Date_Installed":null,"LED_Powered":0,"LightID":"L016819","Light_Source":"LED","Light_Type":"Cobra","Lighting_Type":"LED-Powered Lamp","Verification_Date":null},"id":"stl-city-public-streetlights:2:124091","sourceLayerId":2,"sourceObjectId":124091,"sourceURL":"https://maps8.stlouis-mo.gov/arcgis/rest/services/STREETS/Streets_Permitting/MapServer/2","title":"Street light L016819"},"type":"Feature"},{"geometry":{"coordinates":[-90.24104918333697,38.625585096728265],"type":"Point"},"id":"stl-city-public-streetlights:2:124092","properties":{"address":null,"attributes":{"Date_Installed":null,"LED_Powered":0,"LightID":"L016820","Light_Source":"LED","Light_Type":"Cobra","Lighting_Type":"LED-Powered Lamp","Verification_Date":null},"id":"stl-city-public-streetlights:2:124092","sourceLayerId":2,"sourceObjectId":124092,"sourceURL":"https://maps8.stlouis-mo.gov/arcgis/rest/services/STREETS/Streets_Permitting/MapServer/2","title":"Street light L016820"},"type":"Feature"},{"geometry":{"coordinates":[-90.24115128722799,38.62516008571463],"type":"Point"},"id":"stl-city-public-streetlights:2:124093","properties":{"address":null,"attributes":{"Date_Installed":null,"LED_Powered":0,"LightID":"L016821","Light_Source":"LED","Light_Type":"Cobra","Lighting_Type":"LED-Powered Lamp","Verification_Date":null},"id":"stl-city-public-streetlights:2:124093","sourceLayerId":2,"sourceObjectId":124093,"sourceURL":"https://maps8.stlouis-mo.gov/arcgis/rest/services/STREETS/Streets_Permitting/MapServer/2","title":"Street light L016821"},"type":"Feature"},{"geometry":{"coordinates":[-90.24127644809286,38.6247027087874],"type":"Point"},"id":"stl-city-public-streetlights:2:124094","properties":{"address":null,"attributes":{"Date_Installed":null,"LED_Powered":0,"LightID":"L016822","Light_Source":"LED","Light_Type":"Cobra","Lighting_Type":"LED-Powered Lamp","Verification_Date":null},"id":"stl-city-public-streetlights:2:124094","sourceLayerId":2,"sourceObjectId":124094,"sourceURL":"https://maps8.stlouis-mo.gov/arcgis/rest/services/STREETS/Streets_Permitting/MapServer/2","title":"Street light L016822"},"type":"Feature"},{"geometry":{"coordinates":[-90.24143534007621,38.62424326121027],"type":"Point"},"id":"stl-city-public-streetlights:2:124095","properties":{"address":null,"attributes":{"Date_Installed":null,"LED_Powered":0,"LightID":"L016823","Light_Source":"LED","Light_Type":"Cobra","Lighting_Type":"LED-Powered Lamp","Verification_Date":null},"id":"stl-city-public-streetlights:2:124095","sourceLayerId":2,"sourceObjectId":124095,"sourceURL":"https://maps8.stlouis-mo.gov/arcgis/rest/services/STREETS/Streets_Permitting/MapServer/2","title":"Street light L016823"},"type":"Feature"},{"geometry":{"coordinates":[-90.24158378278953,38.623876036196826],"type":"Point"},"id":"stl-city-public-streetlights:2:124096","properties":{"address":null,"attributes":{"Date_Installed":null,"LED_Powered":0,"LightID":"L016824","Light_Source":"LED","Light_Type":"Cobra","Lighting_Type":"LED-Powered Lamp","Verification_Date":null},"id":"stl-city-public-streetlights:2:124096","sourceLayerId":2,"sourceObjectId":124096,"sourceURL":"https://maps8.stlouis-mo.gov/arcgis/rest/services/STREETS/Streets_Permitting/MapServer/2","title":"Street light L016824"},"type":"Feature"},{"geometry":{"coordinates":[-90.24148319593696,38.62280462946909],"type":"Point"},"id":"stl-city-public-streetlights:2:124097","properties":{"address":null,"attributes":{"Date_Installed":null,"LED_Powered":0,"LightID":"L016825","Light_Source":"LED","Light_Type":"Cobra","Lighting_Type":"LED-Powered Lamp","Verification_Date":null},"id":"stl-city-public-streetlights:2:124097","sourceLayerId":2,"sourceObjectId":124097,"sourceURL":"https://maps8.stlouis-mo.gov/arcgis/rest/services/STREETS/Streets_Permitting/MapServer/2","title":"Street light L016825"},"type":"Feature"},{"geometry":{"coordinates":[-90.24156253203365,38.62228756039875],"type":"Point"},"id":"stl-city-public-streetlights:2:124098","properties":{"address":null,"attributes":{"Date_Installed":null,"LED_Powered":0,"LightID":"L016826","Light_Source":"LED","Light_Type":"Cobra","Lighting_Type":"LED-Powered Lamp","Verification_Date":null},"id":"stl-city-public-streetlights:2:124098","sourceLayerId":2,"sourceObjectId":124098,"sourceURL":"https://maps8.stlouis-mo.gov/arcgis/rest/services/STREETS/Streets_Permitting/MapServer/2","title":"Street light L016826"},"type":"Feature"},{"geometry":{"coordinates":[-90.24163799409321,38.6217488873931],"type":"Point"},"id":"stl-city-public-streetlights:2:124099","properties":{"address":null,"attributes":{"Date_Installed":null,"LED_Powered":0,"LightID":"L016827","Light_Source":"LED","Light_Type":"Cobra","Lighting_Type":"LED-Powered Lamp","Verification_Date":null},"id":"stl-city-public-streetlights:2:124099","sourceLayerId":2,"sourceObjectId":124099,"sourceURL":"https://maps8.stlouis-mo.gov/arcgis/rest/services/STREETS/Streets_Permitting/MapServer/2","title":"Street light L016827"},"type":"Feature"},{"geometry":{"coordinates":[-90.24171835028665,38.62120097653345],"type":"Point"},"id":"stl-city-public-streetlights:2:124100","properties":{"address":null,"attributes":{"Date_Installed":null,"LED_Powered":0,"LightID":"L016828","Light_Source":"LED","Light_Type":"Cobra","Lighting_Type":"LED-Powered Lamp","Verification_Date":null},"id":"stl-city-public-streetlights:2:124100","sourceLayerId":2,"sourceObjectId":124100,"sourceURL":"https://maps8.stlouis-mo.gov/arcgis/rest/services/STREETS/Streets_Permitting/MapServer/2","title":"Street light L016828"},"type":"Feature"},{"geometry":{"coordinates":[-90.24184355134541,38.62073486912098],"type":"Point"},"id":"stl-city-public-streetlights:2:124101","properties":{"address":null,"attributes":{"Date_Installed":null,"LED_Powered":0,"LightID":"L016829","Light_Source":"High Pressure Sodium","Light_Type":"Cobra","Lighting_Type":"200-W High Pressure Sodium Vapor Lamp","Verification_Date":null},"id":"stl-city-public-streetlights:2:124101","sourceLayerId":2,"sourceObjectId":124101,"sourceURL":"https://maps8.stlouis-mo.gov/arcgis/rest/services/STREETS/Streets_Permitting/MapServer/2","title":"Street light L016829"},"type":"Feature"},{"geometry":{"coordinates":[-90.24181271933452,38.620410378131425],"type":"Point"},"id":"stl-city-public-streetlights:2:124102","properties":{"address":null,"attributes":{"Date_Installed":null,"LED_Powered":0,"LightID":"L016830","Light_Source":"High Pressure Sodium","Light_Type":"Cobra","Lighting_Type":"200-W High Pressure Sodium Vapor Lamp","Verification_Date":null},"id":"stl-city-public-streetlights:2:124102","sourceLayerId":2,"sourceObjectId":124102,"sourceURL":"https://maps8.stlouis-mo.gov/arcgis/rest/services/STREETS/Streets_Permitting/MapServer/2","title":"Street light L016830"},"type":"Feature"},{"geometry":{"coordinates":[-90.24176566872217,38.620101815133516],"type":"Point"},"id":"stl-city-public-streetlights:2:124103","properties":{"address":null,"attributes":{"Date_Installed":"2022-04-18","LED_Powered":1,"LightID":"L016831","Light_Source":"LED","Light_Type":"Cobra","Lighting_Type":"5G Pole - 5G Pole -200-W High Pressure Sodium Vapor Lamp","Verification_Date":null},"id":"stl-city-public-streetlights:2:124103","sourceLayerId":2,"sourceObjectId":124103,"sourceURL":"https://maps8.stlouis-mo.gov/arcgis/rest/services/STREETS/Streets_Permitting/MapServer/2","title":"Street light L016831"},"type":"Feature"},{"geometry":{"coordinates":[-90.24711688224647,38.62871588310177],"type":"Point"},"id":"stl-city-public-streetlights:2:124137","properties":{"address":null,"attributes":{"Date_Installed":null,"LED_Powered":1,"LightID":"L016865","Light_Source":"LED","Light_Type":"Cobra","Lighting_Type":"LED-Powered Lamp","Verification_Date":null},"id":"stl-city-public-streetlights:2:124137","sourceLayerId":2,"sourceObjectId":124137,"sourceURL":"https://maps8.stlouis-mo.gov/arcgis/rest/services/STREETS/Streets_Permitting/MapServer/2","title":"Street light L016865"},"type":"Feature"},{"geometry":{"coordinates":[-90.2473891807909,38.62851330778962],"type":"Point"},"id":"stl-city-public-streetlights:2:124138","properties":{"address":null,"attributes":{"Date_Installed":null,"LED_Powered":1,"LightID":"L016866","Light_Source":"LED","Light_Type":"Cobra","Lighting_Type":"LED-Powered Lamp","Verification_Date":null},"id":"stl-city-public-streetlights:2:124138","sourceLayerId":2,"sourceObjectId":124138,"sourceURL":"https://maps8.stlouis-mo.gov/arcgis/rest/services/STREETS/Streets_Permitting/MapServer/2","title":"Street light L016866"},"type":"Feature"},{"geometry":{"coordinates":[-90.24771368224296,38.62833874229987],"type":"Point"},"id":"stl-city-public-streetlights:2:124139","properties":{"address":null,"attributes":{"Date_Installed":null,"LED_Powered":0,"LightID":"L016867","Light_Source":"LED","Light_Type":"Cobra","Lighting_Type":"LED-Powered Lamp","Verification_Date":1659087713000},"id":"stl-city-public-streetlights:2:124139","sourceLayerId":2,"sourceObjectId":124139,"sourceURL":"https://maps8.stlouis-mo.gov/arcgis/rest/services/STREETS/Streets_Permitting/MapServer/2","title":"Street light L016867"},"type":"Feature"},{"geometry":{"coordinates":[-90.2481105750793,38.628283582718105],"type":"Point"},"id":"stl-city-public-streetlights:2:124140","properties":{"address":null,"attributes":{"Date_Installed":null,"LED_Powered":0,"LightID":"L016868","Light_Source":"LED","Light_Type":"Cobra","Lighting_Type":"LED-Powered Lamp","Verification_Date":1659087713000},"id":"stl-city-public-streetlights:2:124140","sourceLayerId":2,"sourceObjectId":124140,"sourceURL":"https://maps8.stlouis-mo.gov/arcgis/rest/services/STREETS/Streets_Permitting/MapServer/2","title":"Street light L016868"},"type":"Feature"},{"geometry":{"coordinates":[-90.24852978263614,38.628224655378204],"type":"Point"},"id":"stl-city-public-streetlights:2:124141","properties":{"address":null,"attributes":{"Date_Installed":null,"LED_Powered":0,"LightID":"L016869","Light_Source":"LED","Light_Type":"Cobra","Lighting_Type":"LED-Powered Lamp","Verification_Date":1659087713000},"id":"stl-city-public-streetlights:2:124141","sourceLayerId":2,"sourceObjectId":124141,"sourceURL":"https://maps8.stlouis-mo.gov/arcgis/rest/services/STREETS/Streets_Permitting/MapServer/2","title":"Street light L016869"},"type":"Feature"},{"geometry":{"coordinates":[-90.2490514538595,38.62815712752056],"type":"Point"},"id":"stl-city-public-streetlights:2:124142","properties":{"address":null,"attributes":{"Date_Installed":null,"LED_Powered":0,"LightID":"L016870","Light_Source":"LED","Light_Type":"Cobra","Lighting_Type":"LED-Powered Lamp","Verification_Date":1659087713000},"id":"stl-city-public-streetlights:2:124142","sourceLayerId":2,"sourceObjectId":124142,"sourceURL":"https://maps8.stlouis-mo.gov/arcgis/rest/services/STREETS/Streets_Permitting/MapServer/2","title":"Street light L016870"},"type":"Feature"},{"geometry":{"coordinates":[-90.24755189615388,38.62809361584296],"type":"Point"},"id":"stl-city-public-streetlights:2:124390","properties":{"address":null,"attributes":{"Date_Installed":null,"LED_Powered":0,"LightID":"L017118","Light_Source":"High Pressure Sodium","Light_Type":"Cobra","Lighting_Type":"400-W High Pressure Sodium Vapor Lamp","Verification_Date":1658837314000},"id":"stl-city-public-streetlights:2:124390","sourceLayerId":2,"sourceObjectId":124390,"sourceURL":"https://maps8.stlouis-mo.gov/arcgis/rest/services/STREETS/Streets_Permitting/MapServer/2","title":"Street light L017118"},"type":"Feature"},{"geometry":{"coordinates":[-90.2477109494732,38.62807048349077],"type":"Point"},"id":"stl-city-public-streetlights:2:124391","properties":{"address":null,"attributes":{"Date_Installed":null,"LED_Powered":1,"LightID":"L017119","Light_Source":"LED","Light_Type":"Cobra","Lighting_Type":"LED-Powered Lamp","Verification_Date":1658880000000},"id":"stl-city-public-streetlights:2:124391","sourceLayerId":2,"sourceObjectId":124391,"sourceURL":"https://maps8.stlouis-mo.gov/arcgis/rest/services/STREETS/Streets_Permitting/MapServer/2","title":"Street light L017119"},"type":"Feature"},{"geometry":{"coordinates":[-90.24806165328391,38.627825187799594],"type":"Point"},"id":"stl-city-public-streetlights:2:124392","properties":{"address":null,"attributes":{"Date_Installed":null,"LED_Powered":1,"LightID":"L017120","Light_Source":"LED","Light_Type":"Cobra","Lighting_Type":"LED-Powered Lamp","Verification_Date":null},"id":"stl-city-public-streetlights:2:124392","sourceLayerId":2,"sourceObjectId":124392,"sourceURL":"https://maps8.stlouis-mo.gov/arcgis/rest/services/STREETS/Streets_Permitting/MapServer/2","title":"Street light L017120"},"type":"Feature"},{"geometry":{"coordinates":[-90.24857703942315,38.62752793028691],"type":"Point"},"id":"stl-city-public-streetlights:2:124393","properties":{"address":null,"attributes":{"Date_Installed":null,"LED_Powered":1,"LightID":"L017121","Light_Source":"LED","Light_Type":"Cobra","Lighting_Type":"LED-Powered Lamp","Verification_Date":null},"id":"stl-city-public-streetlights:2:124393","sourceLayerId":2,"sourceObjectId":124393,"sourceURL":"https://maps8.stlouis-mo.gov/arcgis/rest/services/STREETS/Streets_Permitting/MapServer/2","title":"Street light L017121"},"type":"Feature"},{"geometry":{"coordinates":[-90.24903794240616,38.62723978777058],"type":"Point"},"id":"stl-city-public-streetlights:2:124394","properties":{"address":null,"attributes":{"Date_Installed":null,"LED_Powered":1,"LightID":"L017122","Light_Source":"LED","Light_Type":"Cobra","Lighting_Type":"LED-Powered Lamp","Verification_Date":null},"id":"stl-city-public-streetlights:2:124394","sourceLayerId":2,"sourceObjectId":124394,"sourceURL":"https://maps8.stlouis-mo.gov/arcgis/rest/services/STREETS/Streets_Permitting/MapServer/2","title":"Street light L017122"},"type":"Feature"},{"geometry":{"coordinates":[-90.2494945524554,38.62700538410328],"type":"Point"},"id":"stl-city-public-streetlights:2:124395","properties":{"address":null,"attributes":{"Date_Installed":null,"LED_Powered":1,"LightID":"L017123","Light_Source":"LED","Light_Type":"Cobra","Lighting_Type":"LED-Powered Lamp","Verification_Date":null},"id":"stl-city-public-streetlights:2:124395","sourceLayerId":2,"sourceObjectId":124395,"sourceURL":"https://maps8.stlouis-mo.gov/arcgis/rest/services/STREETS/Streets_Permitting/MapServer/2","title":"Street light L017123"},"type":"Feature"},{"geometry":{"coordinates":[-90.24992875794446,38.62674649948768],"type":"Point"},"id":"stl-city-public-streetlights:2:124396","properties":{"address":null,"attributes":{"Date_Installed":null,"LED_Powered":1,"LightID":"L017124","Light_Source":"LED","Light_Type":"Cobra","Lighting_Type":"LED-Powered Lamp","Verification_Date":null},"id":"stl-city-public-streetlights:2:124396","sourceLayerId":2,"sourceObjectId":124396,"sourceURL":"https://maps8.stlouis-mo.gov/arcgis/rest/services/STREETS/Streets_Permitting/MapServer/2","title":"Street light L017124"},"type":"Feature"},{"geometry":{"coordinates":[-90.24989437094831,38.6269885540303],"type":"Point"},"id":"stl-city-public-streetlights:2:124423","properties":{"address":null,"attributes":{"Date_Installed":null,"LED_Powered":1,"LightID":"L017151","Light_Source":"LED","Light_Type":"Cobra","Lighting_Type":"LED-Powered Lamp","Verification_Date":null},"id":"stl-city-public-streetlights:2:124423","sourceLayerId":2,"sourceObjectId":124423,"sourceURL":"https://maps8.stlouis-mo.gov/arcgis/rest/services/STREETS/Streets_Permitting/MapServer/2","title":"Street light L017151"},"type":"Feature"},{"geometry":{"coordinates":[-90.24931425628651,38.62729782543546],"type":"Point"},"id":"stl-city-public-streetlights:2:124424","properties":{"address":null,"attributes":{"Date_Installed":null,"LED_Powered":1,"LightID":"L017152","Light_Source":"LED","Light_Type":"Cobra","Lighting_Type":"LED-Powered Lamp","Verification_Date":null},"id":"stl-city-public-streetlights:2:124424","sourceLayerId":2,"sourceObjectId":124424,"sourceURL":"https://maps8.stlouis-mo.gov/arcgis/rest/services/STREETS/Streets_Permitting/MapServer/2","title":"Street light L017152"},"type":"Feature"},{"geometry":{"coordinates":[-90.24892923760105,38.62751215612178],"type":"Point"},"id":"stl-city-public-streetlights:2:124425","properties":{"address":null,"attributes":{"Date_Installed":null,"LED_Powered":1,"LightID":"L017153","Light_Source":"LED","Light_Type":"Cobra","Lighting_Type":"LED-Powered Lamp","Verification_Date":null},"id":"stl-city-public-streetlights:2:124425","sourceLayerId":2,"sourceObjectId":124425,"sourceURL":"https://maps8.stlouis-mo.gov/arcgis/rest/services/STREETS/Streets_Permitting/MapServer/2","title":"Street light L017153"},"type":"Feature"},{"geometry":{"coordinates":[-90.24852819866976,38.62776571013277],"type":"Point"},"id":"stl-city-public-streetlights:2:124426","properties":{"address":null,"attributes":{"Date_Installed":null,"LED_Powered":1,"LightID":"L017154","Light_Source":"LED","Light_Type":"Cobra","Lighting_Type":"LED-Powered Lamp","Verification_Date":null},"id":"stl-city-public-streetlights:2:124426","sourceLayerId":2,"sourceObjectId":124426,"sourceURL":"https://maps8.stlouis-mo.gov/arcgis/rest/services/STREETS/Streets_Permitting/MapServer/2","title":"Street light L017154"},"type":"Feature"},{"geometry":{"coordinates":[-90.24801361541387,38.62808372117047],"type":"Point"},"id":"stl-city-public-streetlights:2:124427","properties":{"address":null,"attributes":{"Date_Installed":null,"LED_Powered":1,"LightID":"L017155","Light_Source":"LED","Light_Type":"Cobra","Lighting_Type":"LED-Powered Lamp","Verification_Date":1658837284000},"id":"stl-city-public-streetlights:2:124427","sourceLayerId":2,"sourceObjectId":124427,"sourceURL":"https://maps8.stlouis-mo.gov/arcgis/rest/services/STREETS/Streets_Permitting/MapServer/2","title":"Street light L017155"},"type":"Feature"},{"geometry":{"coordinates":[-90.2488899746483,38.627767506031624],"type":"Point"},"id":"stl-city-public-streetlights:2:124428","properties":{"address":null,"attributes":{"Date_Installed":null,"LED_Powered":0,"LightID":"L017156","Light_Source":"LED","Light_Type":"Cobra","Lighting_Type":"LED-Powered Lamp","Verification_Date":null},"id":"stl-city-public-streetlights:2:124428","sourceLayerId":2,"sourceObjectId":124428,"sourceURL":"https://maps8.stlouis-mo.gov/arcgis/rest/services/STREETS/Streets_Permitting/MapServer/2","title":"Street light L017156"},"type":"Feature"},{"geometry":{"coordinates":[-90.24999610287323,38.62718441529246],"type":"Point"},"id":"stl-city-public-streetlights:2:125055","properties":{"address":null,"attributes":{"Date_Installed":null,"LED_Powered":0,"LightID":"L017783","Light_Source":"LED","Light_Type":"Cobra","Lighting_Type":"LED-Powered Lamp","Verification_Date":null},"id":"stl-city-public-streetlights:2:125055","sourceLayerId":2,"sourceObjectId":125055,"sourceURL":"https://maps8.stlouis-mo.gov/arcgis/rest/services/STREETS/Streets_Permitting/MapServer/2","title":"Street light L017783"},"type":"Feature"},{"geometry":{"coordinates":[-90.24976999508817,38.620827940947166],"type":"Point"},"id":"stl-city-public-streetlights:2:133442","properties":{"address":null,"attributes":{"Date_Installed":null,"LED_Powered":0,"LightID":"L026158","Light_Source":"LED","Light_Type":"Cobra","Lighting_Type":"LED-Powered Lamp","Verification_Date":null},"id":"stl-city-public-streetlights:2:133442","sourceLayerId":2,"sourceObjectId":133442,"sourceURL":"https://maps8.stlouis-mo.gov/arcgis/rest/services/STREETS/Streets_Permitting/MapServer/2","title":"Street light L026158"},"type":"Feature"},{"geometry":{"coordinates":[-90.24932556176279,38.620787993649536],"type":"Point"},"id":"stl-city-public-streetlights:2:133443","properties":{"address":null,"attributes":{"Date_Installed":null,"LED_Powered":0,"LightID":"L026159","Light_Source":"LED","Light_Type":"Cobra","Lighting_Type":"LED-Powered Lamp","Verification_Date":null},"id":"stl-city-public-streetlights:2:133443","sourceLayerId":2,"sourceObjectId":133443,"sourceURL":"https://maps8.stlouis-mo.gov/arcgis/rest/services/STREETS/Streets_Permitting/MapServer/2","title":"Street light L026159"},"type":"Feature"},{"geometry":{"coordinates":[-90.24888216111678,38.62074842885867],"type":"Point"},"id":"stl-city-public-streetlights:2:133444","properties":{"address":null,"attributes":{"Date_Installed":null,"LED_Powered":0,"LightID":"L026160","Light_Source":"LED","Light_Type":"Cobra","Lighting_Type":"LED-Powered Lamp","Verification_Date":null},"id":"stl-city-public-streetlights:2:133444","sourceLayerId":2,"sourceObjectId":133444,"sourceURL":"https://maps8.stlouis-mo.gov/arcgis/rest/services/STREETS/Streets_Permitting/MapServer/2","title":"Street light L026160"},"type":"Feature"},{"geometry":{"coordinates":[-90.24843384302204,38.62070742029807],"type":"Point"},"id":"stl-city-public-streetlights:2:133445","properties":{"address":null,"attributes":{"Date_Installed":null,"LED_Powered":0,"LightID":"L026161","Light_Source":"LED","Light_Type":"Cobra","Lighting_Type":"LED-Powered Lamp","Verification_Date":null},"id":"stl-city-public-streetlights:2:133445","sourceLayerId":2,"sourceObjectId":133445,"sourceURL":"https://maps8.stlouis-mo.gov/arcgis/rest/services/STREETS/Streets_Permitting/MapServer/2","title":"Street light L026161"},"type":"Feature"},{"geometry":{"coordinates":[-90.24797968936284,38.62066711366068],"type":"Point"},"id":"stl-city-public-streetlights:2:133446","properties":{"address":null,"attributes":{"Date_Installed":null,"LED_Powered":0,"LightID":"L026162","Light_Source":"LED","Light_Type":"Cobra","Lighting_Type":"LED-Powered Lamp","Verification_Date":null},"id":"stl-city-public-streetlights:2:133446","sourceLayerId":2,"sourceObjectId":133446,"sourceURL":"https://maps8.stlouis-mo.gov/arcgis/rest/services/STREETS/Streets_Permitting/MapServer/2","title":"Street light L026162"},"type":"Feature"},{"geometry":{"coordinates":[-90.24748763167311,38.62062314782778],"type":"Point"},"id":"stl-city-public-streetlights:2:133447","properties":{"address":null,"attributes":{"Date_Installed":null,"LED_Powered":0,"LightID":"L026163","Light_Source":"LED","Light_Type":"Cobra","Lighting_Type":"LED-Powered Lamp","Verification_Date":null},"id":"stl-city-public-streetlights:2:133447","sourceLayerId":2,"sourceObjectId":133447,"sourceURL":"https://maps8.stlouis-mo.gov/arcgis/rest/services/STREETS/Streets_Permitting/MapServer/2","title":"Street light L026163"},"type":"Feature"},{"geometry":{"coordinates":[-90.24712308022927,38.620587082508656],"type":"Point"},"id":"stl-city-public-streetlights:2:133448","properties":{"address":null,"attributes":{"Date_Installed":null,"LED_Powered":0,"LightID":"L026164","Light_Source":"LED","Light_Type":"Cobra","Lighting_Type":"LED-Powered Lamp","Verification_Date":null},"id":"stl-city-public-streetlights:2:133448","sourceLayerId":2,"sourceObjectId":133448,"sourceURL":"https://maps8.stlouis-mo.gov/arcgis/rest/services/STREETS/Streets_Permitting/MapServer/2","title":"Street light L026164"},"type":"Feature"},{"geometry":{"coordinates":[-90.24664732484399,38.620542671801296],"type":"Point"},"id":"stl-city-public-streetlights:2:133449","properties":{"address":null,"attributes":{"Date_Installed":null,"LED_Powered":0,"LightID":"L026165","Light_Source":"LED","Light_Type":"Cobra","Lighting_Type":"LED-Powered Lamp","Verification_Date":null},"id":"stl-city-public-streetlights:2:133449","sourceLayerId":2,"sourceObjectId":133449,"sourceURL":"https://maps8.stlouis-mo.gov/arcgis/rest/services/STREETS/Streets_Permitting/MapServer/2","title":"Street light L026165"},"type":"Feature"},{"geometry":{"coordinates":[-90.24617501011711,38.62050065038435],"type":"Point"},"id":"stl-city-public-streetlights:2:133450","properties":{"address":null,"attributes":{"Date_Installed":null,"LED_Powered":0,"LightID":"L026166","Light_Source":"LED","Light_Type":"Cobra","Lighting_Type":"LED-Powered Lamp","Verification_Date":null},"id":"stl-city-public-streetlights:2:133450","sourceLayerId":2,"sourceObjectId":133450,"sourceURL":"https://maps8.stlouis-mo.gov/arcgis/rest/services/STREETS/Streets_Permitting/MapServer/2","title":"Street light L026166"},"type":"Feature"},{"geometry":{"coordinates":[-90.24571354084571,38.62045930557963],"type":"Point"},"id":"stl-city-public-streetlights:2:133451","properties":{"address":null,"attributes":{"Date_Installed":null,"LED_Powered":0,"LightID":"L026167","Light_Source":"LED","Light_Type":"Cobra","Lighting_Type":"LED-Powered Lamp","Verification_Date":null},"id":"stl-city-public-streetlights:2:133451","sourceLayerId":2,"sourceObjectId":133451,"sourceURL":"https://maps8.stlouis-mo.gov/arcgis/rest/services/STREETS/Streets_Permitting/MapServer/2","title":"Street light L026167"},"type":"Feature"},{"geometry":{"coordinates":[-90.24527267057582,38.62041812361895],"type":"Point"},"id":"stl-city-public-streetlights:2:133452","properties":{"address":null,"attributes":{"Date_Installed":null,"LED_Powered":0,"LightID":"L026168","Light_Source":"LED","Light_Type":"Cobra","Lighting_Type":"LED-Powered Lamp","Verification_Date":null},"id":"stl-city-public-streetlights:2:133452","sourceLayerId":2,"sourceObjectId":133452,"sourceURL":"https://maps8.stlouis-mo.gov/arcgis/rest/services/STREETS/Streets_Permitting/MapServer/2","title":"Street light L026168"},"type":"Feature"},{"geometry":{"coordinates":[-90.24476564584407,38.62037172909635],"type":"Point"},"id":"stl-city-public-streetlights:2:133453","properties":{"address":null,"attributes":{"Date_Installed":null,"LED_Powered":0,"LightID":"L026169","Light_Source":"LED","Light_Type":"Cobra","Lighting_Type":"LED-Powered Lamp","Verification_Date":null},"id":"stl-city-public-streetlights:2:133453","sourceLayerId":2,"sourceObjectId":133453,"sourceURL":"https://maps8.stlouis-mo.gov/arcgis/rest/services/STREETS/Streets_Permitting/MapServer/2","title":"Street light L026169"},"type":"Feature"},{"geometry":{"coordinates":[-90.24472119960768,38.621276060259966],"type":"Point"},"id":"stl-city-public-streetlights:2:133454","properties":{"address":null,"attributes":{"Date_Installed":null,"LED_Powered":0,"LightID":"L026170","Light_Source":"LED","Light_Type":"Cobra","Lighting_Type":"LED-Powered Lamp","Verification_Date":null},"id":"stl-city-public-streetlights:2:133454","sourceLayerId":2,"sourceObjectId":133454,"sourceURL":"https://maps8.stlouis-mo.gov/arcgis/rest/services/STREETS/Streets_Permitting/MapServer/2","title":"Street light L026170"},"type":"Feature"},{"geometry":{"coordinates":[-90.2454369982874,38.621352300967715],"type":"Point"},"id":"stl-city-public-streetlights:2:133455","properties":{"address":null,"attributes":{"Date_Installed":null,"LED_Powered":0,"LightID":"L026171","Light_Source":"LED","Light_Type":"Cobra","Lighting_Type":"LED-Powered Lamp","Verification_Date":null},"id":"stl-city-public-streetlights:2:133455","sourceLayerId":2,"sourceObjectId":133455,"sourceURL":"https://maps8.stlouis-mo.gov/arcgis/rest/services/STREETS/Streets_Permitting/MapServer/2","title":"Street light L026171"},"type":"Feature"},{"geometry":{"coordinates":[-90.2462015512834,38.62140730723107],"type":"Point"},"id":"stl-city-public-streetlights:2:133456","properties":{"address":null,"attributes":{"Date_Installed":null,"LED_Powered":0,"LightID":"L026172","Light_Source":"LED","Light_Type":"Cobra","Lighting_Type":"LED-Powered Lamp","Verification_Date":null},"id":"stl-city-public-streetlights:2:133456","sourceLayerId":2,"sourceObjectId":133456,"sourceURL":"https://maps8.stlouis-mo.gov/arcgis/rest/services/STREETS/Streets_Permitting/MapServer/2","title":"Street light L026172"},"type":"Feature"},{"geometry":{"coordinates":[-90.24668565567431,38.6214619611492],"type":"Point"},"id":"stl-city-public-streetlights:2:133457","properties":{"address":null,"attributes":{"Date_Installed":null,"LED_Powered":0,"LightID":"L026173","Light_Source":"LED","Light_Type":"Cobra","Lighting_Type":"LED-Powered Lamp","Verification_Date":null},"id":"stl-city-public-streetlights:2:133457","sourceLayerId":2,"sourceObjectId":133457,"sourceURL":"https://maps8.stlouis-mo.gov/arcgis/rest/services/STREETS/Streets_Permitting/MapServer/2","title":"Street light L026173"},"type":"Feature"},{"geometry":{"coordinates":[-90.24738913618711,38.621521880525876],"type":"Point"},"id":"stl-city-public-streetlights:2:133458","properties":{"address":null,"attributes":{"Date_Installed":null,"LED_Powered":0,"LightID":"L026174","Light_Source":"LED","Light_Type":"Cobra","Lighting_Type":"LED-Powered Lamp","Verification_Date":null},"id":"stl-city-public-streetlights:2:133458","sourceLayerId":2,"sourceObjectId":133458,"sourceURL":"https://maps8.stlouis-mo.gov/arcgis/rest/services/STREETS/Streets_Permitting/MapServer/2","title":"Street light L026174"},"type":"Feature"},{"geometry":{"coordinates":[-90.24811658218053,38.62159257328703],"type":"Point"},"id":"stl-city-public-streetlights:2:133459","properties":{"address":null,"attributes":{"Date_Installed":null,"LED_Powered":0,"LightID":"L026175","Light_Source":"LED","Light_Type":"Cobra","Lighting_Type":"LED-Powered Lamp","Verification_Date":null},"id":"stl-city-public-streetlights:2:133459","sourceLayerId":2,"sourceObjectId":133459,"sourceURL":"https://maps8.stlouis-mo.gov/arcgis/rest/services/STREETS/Streets_Permitting/MapServer/2","title":"Street light L026175"},"type":"Feature"},{"geometry":{"coordinates":[-90.24877737915928,38.621651200547205],"type":"Point"},"id":"stl-city-public-streetlights:2:133460","properties":{"address":null,"attributes":{"Date_Installed":null,"LED_Powered":0,"LightID":"L026176","Light_Source":"LED","Light_Type":"Cobra","Lighting_Type":"LED-Powered Lamp","Verification_Date":null},"id":"stl-city-public-streetlights:2:133460","sourceLayerId":2,"sourceObjectId":133460,"sourceURL":"https://maps8.stlouis-mo.gov/arcgis/rest/services/STREETS/Streets_Permitting/MapServer/2","title":"Street light L026176"},"type":"Feature"},{"geometry":{"coordinates":[-90.24943849398727,38.621706250017226],"type":"Point"},"id":"stl-city-public-streetlights:2:133461","properties":{"address":null,"attributes":{"Date_Installed":null,"LED_Powered":0,"LightID":"L026177","Light_Source":"LED","Light_Type":"Cobra","Lighting_Type":"LED-Powered Lamp","Verification_Date":null},"id":"stl-city-public-streetlights:2:133461","sourceLayerId":2,"sourceObjectId":133461,"sourceURL":"https://maps8.stlouis-mo.gov/arcgis/rest/services/STREETS/Streets_Permitting/MapServer/2","title":"Street light L026177"},"type":"Feature"},{"geometry":{"coordinates":[-90.24984892152997,38.62072972236831],"type":"Point"},"id":"stl-city-public-streetlights:2:133483","properties":{"address":null,"attributes":{"Date_Installed":null,"LED_Powered":0,"LightID":"L026199","Light_Source":"LED","Light_Type":"Cobra","Lighting_Type":"LED-Powered Lamp","Verification_Date":null},"id":"stl-city-public-streetlights:2:133483","sourceLayerId":2,"sourceObjectId":133483,"sourceURL":"https://maps8.stlouis-mo.gov/arcgis/rest/services/STREETS/Streets_Permitting/MapServer/2","title":"Street light L026199"},"type":"Feature"},{"geometry":{"coordinates":[-90.24989411183235,38.620403263550536],"type":"Point"},"id":"stl-city-public-streetlights:2:133484","properties":{"address":null,"attributes":{"Date_Installed":null,"LED_Powered":0,"LightID":"L026200","Light_Source":"LED","Light_Type":"Cobra","Lighting_Type":"LED-Powered Lamp","Verification_Date":null},"id":"stl-city-public-streetlights:2:133484","sourceLayerId":2,"sourceObjectId":133484,"sourceURL":"https://maps8.stlouis-mo.gov/arcgis/rest/services/STREETS/Streets_Permitting/MapServer/2","title":"Street light L026200"},"type":"Feature"},{"geometry":{"coordinates":[-90.24994163869911,38.62008603392638],"type":"Point"},"id":"stl-city-public-streetlights:2:133485","properties":{"address":null,"attributes":{"Date_Installed":null,"LED_Powered":0,"LightID":"L026201","Light_Source":"LED","Light_Type":"Cobra","Lighting_Type":"LED-Powered Lamp","Verification_Date":null},"id":"stl-city-public-streetlights:2:133485","sourceLayerId":2,"sourceObjectId":133485,"sourceURL":"https://maps8.stlouis-mo.gov/arcgis/rest/services/STREETS/Streets_Permitting/MapServer/2","title":"Street light L026201"},"type":"Feature"},{"geometry":{"coordinates":[-90.24722738683943,38.62052565262369],"type":"Point"},"id":"stl-city-public-streetlights:2:133492","properties":{"address":null,"attributes":{"Date_Installed":null,"LED_Powered":0,"LightID":"L026208","Light_Source":"LED","Light_Type":"Cobra","Lighting_Type":"LED-Powered Lamp","Verification_Date":null},"id":"stl-city-public-streetlights:2:133492","sourceLayerId":2,"sourceObjectId":133492,"sourceURL":"https://maps8.stlouis-mo.gov/arcgis/rest/services/STREETS/Streets_Permitting/MapServer/2","title":"Street light L026208"},"type":"Feature"},{"geometry":{"coordinates":[-90.24728167459762,38.62016417516683],"type":"Point"},"id":"stl-city-public-streetlights:2:133493","properties":{"address":null,"attributes":{"Date_Installed":null,"LED_Powered":0,"LightID":"L026209","Light_Source":"LED","Light_Type":"Cobra","Lighting_Type":"LED-Powered Lamp","Verification_Date":null},"id":"stl-city-public-streetlights:2:133493","sourceLayerId":2,"sourceObjectId":133493,"sourceURL":"https://maps8.stlouis-mo.gov/arcgis/rest/services/STREETS/Streets_Permitting/MapServer/2","title":"Street light L026209"},"type":"Feature"},{"geometry":{"coordinates":[-90.24451026509013,38.62121689144446],"type":"Point"},"id":"stl-city-public-streetlights:2:133501","properties":{"address":null,"attributes":{"Date_Installed":null,"LED_Powered":0,"LightID":"L026217","Light_Source":"High Pressure Sodium","Light_Type":"Cobra","Lighting_Type":"200-W High Pressure Sodium Vapor Lamp","Verification_Date":null},"id":"stl-city-public-streetlights:2:133501","sourceLayerId":2,"sourceObjectId":133501,"sourceURL":"https://maps8.stlouis-mo.gov/arcgis/rest/services/STREETS/Streets_Permitting/MapServer/2","title":"Street light L026217"},"type":"Feature"},{"geometry":{"coordinates":[-90.24455686810855,38.62092738431632],"type":"Point"},"id":"stl-city-public-streetlights:2:133502","properties":{"address":null,"attributes":{"Date_Installed":null,"LED_Powered":0,"LightID":"L026218","Light_Source":"High Pressure Sodium","Light_Type":"Cobra","Lighting_Type":"200-W High Pressure Sodium Vapor Lamp","Verification_Date":null},"id":"stl-city-public-streetlights:2:133502","sourceLayerId":2,"sourceObjectId":133502,"sourceURL":"https://maps8.stlouis-mo.gov/arcgis/rest/services/STREETS/Streets_Permitting/MapServer/2","title":"Street light L026218"},"type":"Feature"},{"geometry":{"coordinates":[-90.24460247659242,38.6205866268331],"type":"Point"},"id":"stl-city-public-streetlights:2:133503","properties":{"address":null,"attributes":{"Date_Installed":null,"LED_Powered":0,"LightID":"L026219","Light_Source":"High Pressure Sodium","Light_Type":"Cobra","Lighting_Type":"200-W High Pressure Sodium Vapor Lamp","Verification_Date":null},"id":"stl-city-public-streetlights:2:133503","sourceLayerId":2,"sourceObjectId":133503,"sourceURL":"https://maps8.stlouis-mo.gov/arcgis/rest/services/STREETS/Streets_Permitting/MapServer/2","title":"Street light L026219"},"type":"Feature"},{"geometry":{"coordinates":[-90.244645983698,38.62031308209496],"type":"Point"},"id":"stl-city-public-streetlights:2:133504","properties":{"address":null,"attributes":{"Date_Installed":null,"LED_Powered":0,"LightID":"L026220","Light_Source":"High Pressure Sodium","Light_Type":"Cobra","Lighting_Type":"200-W High Pressure Sodium Vapor Lamp","Verification_Date":null},"id":"stl-city-public-streetlights:2:133504","sourceLayerId":2,"sourceObjectId":133504,"sourceURL":"https://maps8.stlouis-mo.gov/arcgis/rest/services/STREETS/Streets_Permitting/MapServer/2","title":"Street light L026220"},"type":"Feature"},{"geometry":{"coordinates":[-90.24613141233759,38.629711891035946],"type":"Point"},"id":"stl-city-public-streetlights:2:141627","properties":{"address":null,"attributes":{"Date_Installed":null,"LED_Powered":0,"LightID":"L034484","Light_Source":"High Pressure Sodium","Light_Type":"Cobra","Lighting_Type":"150-W High Pressure Sodium Vapor Lamp","Verification_Date":null},"id":"stl-city-public-streetlights:2:141627","sourceLayerId":2,"sourceObjectId":141627,"sourceURL":"https://maps8.stlouis-mo.gov/arcgis/rest/services/STREETS/Streets_Permitting/MapServer/2","title":"Street light L034484"},"type":"Feature"},{"geometry":{"coordinates":[-90.24652132692424,38.62979981111058],"type":"Point"},"id":"stl-city-public-streetlights:2:141628","properties":{"address":null,"attributes":{"Date_Installed":null,"LED_Powered":0,"LightID":"L034485","Light_Source":"High Pressure Sodium","Light_Type":"Cobra","Lighting_Type":"150-W High Pressure Sodium Vapor Lamp","Verification_Date":null},"id":"stl-city-public-streetlights:2:141628","sourceLayerId":2,"sourceObjectId":141628,"sourceURL":"https://maps8.stlouis-mo.gov/arcgis/rest/services/STREETS/Streets_Permitting/MapServer/2","title":"Street light L034485"},"type":"Feature"},{"geometry":{"coordinates":[-90.24686693889485,38.62987278196054],"type":"Point"},"id":"stl-city-public-streetlights:2:141629","properties":{"address":null,"attributes":{"Date_Installed":null,"LED_Powered":0,"LightID":"L034486","Light_Source":"High Pressure Sodium","Light_Type":"Cobra","Lighting_Type":"150-W High Pressure Sodium Vapor Lamp","Verification_Date":null},"id":"stl-city-public-streetlights:2:141629","sourceLayerId":2,"sourceObjectId":141629,"sourceURL":"https://maps8.stlouis-mo.gov/arcgis/rest/services/STREETS/Streets_Permitting/MapServer/2","title":"Street light L034486"},"type":"Feature"},{"geometry":{"coordinates":[-90.24727830158409,38.629961567525505],"type":"Point"},"id":"stl-city-public-streetlights:2:141630","properties":{"address":null,"attributes":{"Date_Installed":null,"LED_Powered":0,"LightID":"L034487","Light_Source":"High Pressure Sodium","Light_Type":"Cobra","Lighting_Type":"150-W High Pressure Sodium Vapor Lamp","Verification_Date":null},"id":"stl-city-public-streetlights:2:141630","sourceLayerId":2,"sourceObjectId":141630,"sourceURL":"https://maps8.stlouis-mo.gov/arcgis/rest/services/STREETS/Streets_Permitting/MapServer/2","title":"Street light L034487"},"type":"Feature"},{"geometry":{"coordinates":[-90.24693553568933,38.62899571943627],"type":"Point"},"id":"stl-city-public-streetlights:2:141636","properties":{"address":null,"attributes":{"Date_Installed":null,"LED_Powered":0,"LightID":"L034493","Light_Source":"High Pressure Sodium","Light_Type":"Cobra","Lighting_Type":"150-W High Pressure Sodium Vapor Lamp","Verification_Date":null},"id":"stl-city-public-streetlights:2:141636","sourceLayerId":2,"sourceObjectId":141636,"sourceURL":"https://maps8.stlouis-mo.gov/arcgis/rest/services/STREETS/Streets_Permitting/MapServer/2","title":"Street light L034493"},"type":"Feature"},{"geometry":{"coordinates":[-90.24734619381036,38.62907998617892],"type":"Point"},"id":"stl-city-public-streetlights:2:141637","properties":{"address":null,"attributes":{"Date_Installed":null,"LED_Powered":0,"LightID":"L034494","Light_Source":"High Pressure Sodium","Light_Type":"Cobra","Lighting_Type":"150-W High Pressure Sodium Vapor Lamp","Verification_Date":null},"id":"stl-city-public-streetlights:2:141637","sourceLayerId":2,"sourceObjectId":141637,"sourceURL":"https://maps8.stlouis-mo.gov/arcgis/rest/services/STREETS/Streets_Permitting/MapServer/2","title":"Street light L034494"},"type":"Feature"},{"geometry":{"coordinates":[-90.24778272382628,38.62916978917494],"type":"Point"},"id":"stl-city-public-streetlights:2:141638","properties":{"address":null,"attributes":{"Date_Installed":null,"LED_Powered":0,"LightID":"L034495","Light_Source":"High Pressure Sodium","Light_Type":"Cobra","Lighting_Type":"150-W High Pressure Sodium Vapor Lamp","Verification_Date":null},"id":"stl-city-public-streetlights:2:141638","sourceLayerId":2,"sourceObjectId":141638,"sourceURL":"https://maps8.stlouis-mo.gov/arcgis/rest/services/STREETS/Streets_Permitting/MapServer/2","title":"Street light L034495"},"type":"Feature"},{"geometry":{"coordinates":[-90.24819143607434,38.62925504874505],"type":"Point"},"id":"stl-city-public-streetlights:2:141639","properties":{"address":null,"attributes":{"Date_Installed":null,"LED_Powered":0,"LightID":"L034496","Light_Source":"High Pressure Sodium","Light_Type":"Cobra","Lighting_Type":"150-W High Pressure Sodium Vapor Lamp","Verification_Date":null},"id":"stl-city-public-streetlights:2:141639","sourceLayerId":2,"sourceObjectId":141639,"sourceURL":"https://maps8.stlouis-mo.gov/arcgis/rest/services/STREETS/Streets_Permitting/MapServer/2","title":"Street light L034496"},"type":"Feature"},{"geometry":{"coordinates":[-90.24858855824796,38.62933551627088],"type":"Point"},"id":"stl-city-public-streetlights:2:141640","properties":{"address":null,"attributes":{"Date_Installed":null,"LED_Powered":0,"LightID":"L034497","Light_Source":"High Pressure Sodium","Light_Type":"Cobra","Lighting_Type":"150-W High Pressure Sodium Vapor Lamp","Verification_Date":null},"id":"stl-city-public-streetlights:2:141640","sourceLayerId":2,"sourceObjectId":141640,"sourceURL":"https://maps8.stlouis-mo.gov/arcgis/rest/services/STREETS/Streets_Permitting/MapServer/2","title":"Street light L034497"},"type":"Feature"},{"geometry":{"coordinates":[-90.24901122066194,38.62942938393756],"type":"Point"},"id":"stl-city-public-streetlights:2:141641","properties":{"address":null,"attributes":{"Date_Installed":null,"LED_Powered":0,"LightID":"L034498","Light_Source":"High Pressure Sodium","Light_Type":"Cobra","Lighting_Type":"150-W High Pressure Sodium Vapor Lamp","Verification_Date":null},"id":"stl-city-public-streetlights:2:141641","sourceLayerId":2,"sourceObjectId":141641,"sourceURL":"https://maps8.stlouis-mo.gov/arcgis/rest/services/STREETS/Streets_Permitting/MapServer/2","title":"Street light L034498"},"type":"Feature"},{"geometry":{"coordinates":[-90.24941347908167,38.62951891633707],"type":"Point"},"id":"stl-city-public-streetlights:2:141642","properties":{"address":null,"attributes":{"Date_Installed":null,"LED_Powered":0,"LightID":"L034499","Light_Source":"High Pressure Sodium","Light_Type":"Cobra","Lighting_Type":"150-W High Pressure Sodium Vapor Lamp","Verification_Date":null},"id":"stl-city-public-streetlights:2:141642","sourceLayerId":2,"sourceObjectId":141642,"sourceURL":"https://maps8.stlouis-mo.gov/arcgis/rest/services/STREETS/Streets_Permitting/MapServer/2","title":"Street light L034499"},"type":"Feature"},{"geometry":{"coordinates":[-90.2498115765456,38.62959914306428],"type":"Point"},"id":"stl-city-public-streetlights:2:141643","properties":{"address":null,"attributes":{"Date_Installed":null,"LED_Powered":0,"LightID":"L034500","Light_Source":"High Pressure Sodium","Light_Type":"Cobra","Lighting_Type":"150-W High Pressure Sodium Vapor Lamp","Verification_Date":null},"id":"stl-city-public-streetlights:2:141643","sourceLayerId":2,"sourceObjectId":141643,"sourceURL":"https://maps8.stlouis-mo.gov/arcgis/rest/services/STREETS/Streets_Permitting/MapServer/2","title":"Street light L034500"},"type":"Feature"},{"geometry":{"coordinates":[-90.24996525535701,38.62890071717016],"type":"Point"},"id":"stl-city-public-streetlights:2:141699","properties":{"address":null,"attributes":{"Date_Installed":null,"LED_Powered":0,"LightID":"L034556","Light_Source":"High Pressure Sodium","Light_Type":"Cobra","Lighting_Type":"400-W High Pressure Sodium Vapor Lamp","Verification_Date":null},"id":"stl-city-public-streetlights:2:141699","sourceLayerId":2,"sourceObjectId":141699,"sourceURL":"https://maps8.stlouis-mo.gov/arcgis/rest/services/STREETS/Streets_Permitting/MapServer/2","title":"Street light L034556"},"type":"Feature"},{"geometry":{"coordinates":[-90.2498283526099,38.629297057975066],"type":"Point"},"id":"stl-city-public-streetlights:2:141700","properties":{"address":null,"attributes":{"Date_Installed":null,"LED_Powered":0,"LightID":"L034557","Light_Source":"High Pressure Sodium","Light_Type":"Cobra","Lighting_Type":"400-W High Pressure Sodium Vapor Lamp","Verification_Date":null},"id":"stl-city-public-streetlights:2:141700","sourceLayerId":2,"sourceObjectId":141700,"sourceURL":"https://maps8.stlouis-mo.gov/arcgis/rest/services/STREETS/Streets_Permitting/MapServer/2","title":"Street light L034557"},"type":"Feature"},{"geometry":{"coordinates":[-90.2496917323896,38.629699238769845],"type":"Point"},"id":"stl-city-public-streetlights:2:141701","properties":{"address":null,"attributes":{"Date_Installed":null,"LED_Powered":0,"LightID":"L034558","Light_Source":"High Pressure Sodium","Light_Type":"Cobra","Lighting_Type":"400-W High Pressure Sodium Vapor Lamp","Verification_Date":null},"id":"stl-city-public-streetlights:2:141701","sourceLayerId":2,"sourceObjectId":141701,"sourceURL":"https://maps8.stlouis-mo.gov/arcgis/rest/services/STREETS/Streets_Permitting/MapServer/2","title":"Street light L034558"},"type":"Feature"},{"geometry":{"coordinates":[-90.24588089832203,38.62981689647071],"type":"Point"},"id":"stl-city-public-streetlights:2:142013","properties":{"address":null,"attributes":{"Date_Installed":null,"LED_Powered":1,"LightID":"L034870","Light_Source":"LED","Light_Type":"Cobra","Lighting_Type":"LED-Powered Lamp","Verification_Date":null},"id":"stl-city-public-streetlights:2:142013","sourceLayerId":2,"sourceObjectId":142013,"sourceURL":"https://maps8.stlouis-mo.gov/arcgis/rest/services/STREETS/Streets_Permitting/MapServer/2","title":"Street light L034870"},"type":"Feature"},{"geometry":{"coordinates":[-90.24603230431202,38.62963988486651],"type":"Point"},"id":"stl-city-public-streetlights:2:142014","properties":{"address":null,"attributes":{"Date_Installed":null,"LED_Powered":1,"LightID":"L034871","Light_Source":"LED","Light_Type":"Cobra","Lighting_Type":"LED-Powered Lamp","Verification_Date":null},"id":"stl-city-public-streetlights:2:142014","sourceLayerId":2,"sourceObjectId":142014,"sourceURL":"https://maps8.stlouis-mo.gov/arcgis/rest/services/STREETS/Streets_Permitting/MapServer/2","title":"Street light L034871"},"type":"Feature"},{"geometry":{"coordinates":[-90.2470391020537,38.62846109795637],"type":"Point"},"id":"stl-city-public-streetlights:2:142015","properties":{"address":null,"attributes":{"Date_Installed":null,"LED_Powered":1,"LightID":"L034872","Light_Source":"LED","Light_Type":"Cobra","Lighting_Type":"LED-Powered Lamp","Verification_Date":1659086977000},"id":"stl-city-public-streetlights:2:142015","sourceLayerId":2,"sourceObjectId":142015,"sourceURL":"https://maps8.stlouis-mo.gov/arcgis/rest/services/STREETS/Streets_Permitting/MapServer/2","title":"Street light L034872"},"type":"Feature"},{"geometry":{"coordinates":[-90.24690523885202,38.62855987043894],"type":"Point"},"id":"stl-city-public-streetlights:2:142016","properties":{"address":null,"attributes":{"Date_Installed":null,"LED_Powered":1,"LightID":"L034873","Light_Source":"LED","Light_Type":"Cobra","Lighting_Type":"LED-Powered Lamp","Verification_Date":null},"id":"stl-city-public-streetlights:2:142016","sourceLayerId":2,"sourceObjectId":142016,"sourceURL":"https://maps8.stlouis-mo.gov/arcgis/rest/services/STREETS/Streets_Permitting/MapServer/2","title":"Street light L034873"},"type":"Feature"},{"geometry":{"coordinates":[-90.24648249015807,38.628817903696216],"type":"Point"},"id":"stl-city-public-streetlights:2:142017","properties":{"address":null,"attributes":{"Date_Installed":null,"LED_Powered":1,"LightID":"L034874","Light_Source":"LED","Light_Type":"Cobra","Lighting_Type":"LED-Powered Lamp","Verification_Date":null},"id":"stl-city-public-streetlights:2:142017","sourceLayerId":2,"sourceObjectId":142017,"sourceURL":"https://maps8.stlouis-mo.gov/arcgis/rest/services/STREETS/Streets_Permitting/MapServer/2","title":"Street light L034874"},"type":"Feature"},{"geometry":{"coordinates":[-90.2461053922867,38.62916439295659],"type":"Point"},"id":"stl-city-public-streetlights:2:142018","properties":{"address":null,"attributes":{"Date_Installed":null,"LED_Powered":1,"LightID":"L034875","Light_Source":"LED","Light_Type":"Cobra","Lighting_Type":"LED-Powered Lamp","Verification_Date":null},"id":"stl-city-public-streetlights:2:142018","sourceLayerId":2,"sourceObjectId":142018,"sourceURL":"https://maps8.stlouis-mo.gov/arcgis/rest/services/STREETS/Streets_Permitting/MapServer/2","title":"Street light L034875"},"type":"Feature"},{"geometry":{"coordinates":[-90.24579807027538,38.629522101839136],"type":"Point"},"id":"stl-city-public-streetlights:2:142019","properties":{"address":null,"attributes":{"Date_Installed":null,"LED_Powered":1,"LightID":"L034876","Light_Source":"LED","Light_Type":"Cobra","Lighting_Type":"LED-Powered Lamp","Verification_Date":null},"id":"stl-city-public-streetlights:2:142019","sourceLayerId":2,"sourceObjectId":142019,"sourceURL":"https://maps8.stlouis-mo.gov/arcgis/rest/services/STREETS/Streets_Permitting/MapServer/2","title":"Street light L034876"},"type":"Feature"},{"geometry":{"coordinates":[-90.24549004202352,38.6298594284022],"type":"Point"},"id":"stl-city-public-streetlights:2:142020","properties":{"address":null,"attributes":{"Date_Installed":null,"LED_Powered":1,"LightID":"L034877","Light_Source":"LED","Light_Type":"Cobra","Lighting_Type":"LED-Powered Lamp","Verification_Date":null},"id":"stl-city-public-streetlights:2:142020","sourceLayerId":2,"sourceObjectId":142020,"sourceURL":"https://maps8.stlouis-mo.gov/arcgis/rest/services/STREETS/Streets_Permitting/MapServer/2","title":"Street light L034877"},"type":"Feature"},{"geometry":{"coordinates":[-90.24610100588424,38.62892383025915],"type":"Point"},"id":"stl-city-public-streetlights:2:142944","properties":{"address":null,"attributes":{"Date_Installed":null,"LED_Powered":0,"LightID":"L035800","Light_Source":"LED","Light_Type":"Cobra","Lighting_Type":"LED-Powered Lamp","Verification_Date":null},"id":"stl-city-public-streetlights:2:142944","sourceLayerId":2,"sourceObjectId":142944,"sourceURL":"https://maps8.stlouis-mo.gov/arcgis/rest/services/STREETS/Streets_Permitting/MapServer/2","title":"Street light L035800"},"type":"Feature"},{"geometry":{"coordinates":[-90.24572284643331,38.62883564964308],"type":"Point"},"id":"stl-city-public-streetlights:2:142945","properties":{"address":null,"attributes":{"Date_Installed":null,"LED_Powered":0,"LightID":"L035801","Light_Source":"LED","Light_Type":"Cobra","Lighting_Type":"LED-Powered Lamp","Verification_Date":null},"id":"stl-city-public-streetlights:2:142945","sourceLayerId":2,"sourceObjectId":142945,"sourceURL":"https://maps8.stlouis-mo.gov/arcgis/rest/services/STREETS/Streets_Permitting/MapServer/2","title":"Street light L035801"},"type":"Feature"},{"geometry":{"coordinates":[-90.24533405969467,38.62875141760286],"type":"Point"},"id":"stl-city-public-streetlights:2:142946","properties":{"address":null,"attributes":{"Date_Installed":null,"LED_Powered":0,"LightID":"L035802","Light_Source":"LED","Light_Type":"Cobra","Lighting_Type":"LED-Powered Lamp","Verification_Date":null},"id":"stl-city-public-streetlights:2:142946","sourceLayerId":2,"sourceObjectId":142946,"sourceURL":"https://maps8.stlouis-mo.gov/arcgis/rest/services/STREETS/Streets_Permitting/MapServer/2","title":"Street light L035802"},"type":"Feature"},{"geometry":{"coordinates":[-90.24588910293191,38.62798213827314],"type":"Point"},"id":"stl-city-public-streetlights:2:142961","properties":{"address":null,"attributes":{"Date_Installed":null,"LED_Powered":0,"LightID":"L035817","Light_Source":"High Pressure Sodium","Light_Type":"Cobra","Lighting_Type":"400-W High Pressure Sodium Vapor Lamp","Verification_Date":1659086977000},"id":"stl-city-public-streetlights:2:142961","sourceLayerId":2,"sourceObjectId":142961,"sourceURL":"https://maps8.stlouis-mo.gov/arcgis/rest/services/STREETS/Streets_Permitting/MapServer/2","title":"Street light L035817"},"type":"Feature"},{"geometry":{"coordinates":[-90.24490689045872,38.62777520140372],"type":"Point"},"id":"stl-city-public-streetlights:2:142962","properties":{"address":null,"attributes":{"Date_Installed":null,"LED_Powered":0,"LightID":"L035818","Light_Source":"High Pressure Sodium","Light_Type":"Cobra","Lighting_Type":"400-W High Pressure Sodium Vapor Lamp","Verification_Date":1659086977000},"id":"stl-city-public-streetlights:2:142962","sourceLayerId":2,"sourceObjectId":142962,"sourceURL":"https://maps8.stlouis-mo.gov/arcgis/rest/services/STREETS/Streets_Permitting/MapServer/2","title":"Street light L035818"},"type":"Feature"},{"geometry":{"coordinates":[-90.24389313933892,38.627569425083045],"type":"Point"},"id":"stl-city-public-streetlights:2:142963","properties":{"address":null,"attributes":{"Date_Installed":null,"LED_Powered":0,"LightID":"L035819","Light_Source":"High Pressure Sodium","Light_Type":"Cobra","Lighting_Type":"400-W High Pressure Sodium Vapor Lamp","Verification_Date":1659086977000},"id":"stl-city-public-streetlights:2:142963","sourceLayerId":2,"sourceObjectId":142963,"sourceURL":"https://maps8.stlouis-mo.gov/arcgis/rest/services/STREETS/Streets_Permitting/MapServer/2","title":"Street light L035819"},"type":"Feature"},{"geometry":{"coordinates":[-90.24294362951656,38.627380707075204],"type":"Point"},"id":"stl-city-public-streetlights:2:142964","properties":{"address":null,"attributes":{"Date_Installed":null,"LED_Powered":0,"LightID":"L035820","Light_Source":"High Pressure Sodium","Light_Type":"Cobra","Lighting_Type":"400-W High Pressure Sodium Vapor Lamp","Verification_Date":1659086977000},"id":"stl-city-public-streetlights:2:142964","sourceLayerId":2,"sourceObjectId":142964,"sourceURL":"https://maps8.stlouis-mo.gov/arcgis/rest/services/STREETS/Streets_Permitting/MapServer/2","title":"Street light L035820"},"type":"Feature"},{"geometry":{"coordinates":[-90.24238951703897,38.62710402471911],"type":"Point"},"id":"stl-city-public-streetlights:2:142965","properties":{"address":null,"attributes":{"Date_Installed":null,"LED_Powered":0,"LightID":"L035821","Light_Source":"High Pressure Sodium","Light_Type":"Cobra","Lighting_Type":"400-W High Pressure Sodium Vapor Lamp","Verification_Date":1658880000000},"id":"stl-city-public-streetlights:2:142965","sourceLayerId":2,"sourceObjectId":142965,"sourceURL":"https://maps8.stlouis-mo.gov/arcgis/rest/services/STREETS/Streets_Permitting/MapServer/2","title":"Street light L035821"},"type":"Feature"},{"geometry":{"coordinates":[-90.24351892465208,38.62733092328318],"type":"Point"},"id":"stl-city-public-streetlights:2:142966","properties":{"address":null,"attributes":{"Date_Installed":null,"LED_Powered":0,"LightID":"L035822","Light_Source":"High Pressure Sodium","Light_Type":"Cobra","Lighting_Type":"400-W High Pressure Sodium Vapor Lamp","Verification_Date":1658880000000},"id":"stl-city-public-streetlights:2:142966","sourceLayerId":2,"sourceObjectId":142966,"sourceURL":"https://maps8.stlouis-mo.gov/arcgis/rest/services/STREETS/Streets_Permitting/MapServer/2","title":"Street light L035822"},"type":"Feature"},{"geometry":{"coordinates":[-90.24445745113226,38.62749870295526],"type":"Point"},"id":"stl-city-public-streetlights:2:142967","properties":{"address":null,"attributes":{"Date_Installed":null,"LED_Powered":1,"LightID":"L035823","Light_Source":"LED","Light_Type":"Cobra","Lighting_Type":"400-W High Pressure Sodium Vapor Lamp","Verification_Date":1658880000000},"id":"stl-city-public-streetlights:2:142967","sourceLayerId":2,"sourceObjectId":142967,"sourceURL":"https://maps8.stlouis-mo.gov/arcgis/rest/services/STREETS/Streets_Permitting/MapServer/2","title":"Street light L035823"},"type":"Feature"},{"geometry":{"coordinates":[-90.24544651396143,38.62770816838745],"type":"Point"},"id":"stl-city-public-streetlights:2:142968","properties":{"address":null,"attributes":{"Date_Installed":null,"LED_Powered":0,"LightID":"L035824","Light_Source":"High Pressure Sodium","Light_Type":"Cobra","Lighting_Type":"400-W High Pressure Sodium Vapor Lamp","Verification_Date":1658880000000},"id":"stl-city-public-streetlights:2:142968","sourceLayerId":2,"sourceObjectId":142968,"sourceURL":"https://maps8.stlouis-mo.gov/arcgis/rest/services/STREETS/Streets_Permitting/MapServer/2","title":"Street light L035824"},"type":"Feature"},{"geometry":{"coordinates":[-90.24646925658446,38.6279427909611],"type":"Point"},"id":"stl-city-public-streetlights:2:142969","properties":{"address":null,"attributes":{"Date_Installed":null,"LED_Powered":0,"LightID":"L035825","Light_Source":"High Pressure Sodium","Light_Type":"Cobra","Lighting_Type":"400-W High Pressure Sodium Vapor Lamp","Verification_Date":1658880000000},"id":"stl-city-public-streetlights:2:142969","sourceLayerId":2,"sourceObjectId":142969,"sourceURL":"https://maps8.stlouis-mo.gov/arcgis/rest/services/STREETS/Streets_Permitting/MapServer/2","title":"Street light L035825"},"type":"Feature"},{"geometry":{"coordinates":[-90.24692209620014,38.62795054512447],"type":"Point"},"id":"stl-city-public-streetlights:2:142970","properties":{"address":null,"attributes":{"Date_Installed":null,"LED_Powered":0,"LightID":"L035826","Light_Source":"High Pressure Sodium","Light_Type":"Cobra","Lighting_Type":"400-W High Pressure Sodium Vapor Lamp","Verification_Date":1658880000000},"id":"stl-city-public-streetlights:2:142970","sourceLayerId":2,"sourceObjectId":142970,"sourceURL":"https://maps8.stlouis-mo.gov/arcgis/rest/services/STREETS/Streets_Permitting/MapServer/2","title":"Street light L035826"},"type":"Feature"},{"geometry":{"coordinates":[-90.24615485048733,38.62777164986574],"type":"Point"},"id":"stl-city-public-streetlights:2:142971","properties":{"address":null,"attributes":{"Date_Installed":null,"LED_Powered":0,"LightID":"L035827","Light_Source":"High Pressure Sodium","Light_Type":"Cobra","Lighting_Type":"400-W High Pressure Sodium Vapor Lamp","Verification_Date":1658880000000},"id":"stl-city-public-streetlights:2:142971","sourceLayerId":2,"sourceObjectId":142971,"sourceURL":"https://maps8.stlouis-mo.gov/arcgis/rest/services/STREETS/Streets_Permitting/MapServer/2","title":"Street light L035827"},"type":"Feature"},{"geometry":{"coordinates":[-90.24025558892882,38.62708228011878],"type":"Point"},"id":"stl-city-public-streetlights:2:142972","properties":{"address":null,"attributes":{"Date_Installed":null,"LED_Powered":0,"LightID":"L035828","Light_Source":"LED","Light_Type":"Cobra","Lighting_Type":"LED-Powered Lamp","Verification_Date":1659086723000},"id":"stl-city-public-streetlights:2:142972","sourceLayerId":2,"sourceObjectId":142972,"sourceURL":"https://maps8.stlouis-mo.gov/arcgis/rest/services/STREETS/Streets_Permitting/MapServer/2","title":"Street light L035828"},"type":"Feature"},{"geometry":{"coordinates":[-90.24008869612473,38.627388536786825],"type":"Point"},"id":"stl-city-public-streetlights:2:142973","properties":{"address":null,"attributes":{"Date_Installed":null,"LED_Powered":0,"LightID":"L035829","Light_Source":"LED","Light_Type":"Cobra","Lighting_Type":"LED-Powered Lamp","Verification_Date":null},"id":"stl-city-public-streetlights:2:142973","sourceLayerId":2,"sourceObjectId":142973,"sourceURL":"https://maps8.stlouis-mo.gov/arcgis/rest/services/STREETS/Streets_Permitting/MapServer/2","title":"Street light L035829"},"type":"Feature"},{"geometry":{"coordinates":[-90.24203179672844,38.627006923205926],"type":"Point"},"id":"stl-city-public-streetlights:2:143923","properties":{"address":null,"attributes":{"Date_Installed":null,"LED_Powered":0,"LightID":"L036781","Light_Source":"High Pressure Sodium","Light_Type":"Cobra","Lighting_Type":"400-W High Pressure Sodium Vapor Lamp","Verification_Date":1658880000000},"id":"stl-city-public-streetlights:2:143923","sourceLayerId":2,"sourceObjectId":143923,"sourceURL":"https://maps8.stlouis-mo.gov/arcgis/rest/services/STREETS/Streets_Permitting/MapServer/2","title":"Street light L036781"},"type":"Feature"},{"geometry":{"coordinates":[-90.24144681648173,38.62689090621469],"type":"Point"},"id":"stl-city-public-streetlights:2:143924","properties":{"address":null,"attributes":{"Date_Installed":null,"LED_Powered":0,"LightID":"L036782","Light_Source":"LED","Light_Type":"Cobra","Lighting_Type":"LED-Powered Lamp","Verification_Date":1658880000000},"id":"stl-city-public-streetlights:2:143924","sourceLayerId":2,"sourceObjectId":143924,"sourceURL":"https://maps8.stlouis-mo.gov/arcgis/rest/services/STREETS/Streets_Permitting/MapServer/2","title":"Street light L036782"},"type":"Feature"},{"geometry":{"coordinates":[-90.2408675651424,38.62677560888906],"type":"Point"},"id":"stl-city-public-streetlights:2:143925","properties":{"address":null,"attributes":{"Date_Installed":null,"LED_Powered":0,"LightID":"L036783","Light_Source":"LED","Light_Type":"Cobra","Lighting_Type":"LED-Powered Lamp","Verification_Date":1658880000000},"id":"stl-city-public-streetlights:2:143925","sourceLayerId":2,"sourceObjectId":143925,"sourceURL":"https://maps8.stlouis-mo.gov/arcgis/rest/services/STREETS/Streets_Permitting/MapServer/2","title":"Street light L036783"},"type":"Feature"},{"geometry":{"coordinates":[-90.24028426928709,38.6266371810495],"type":"Point"},"id":"stl-city-public-streetlights:2:143926","properties":{"address":null,"attributes":{"Date_Installed":null,"LED_Powered":0,"LightID":"L036784","Light_Source":"High Pressure Sodium","Light_Type":"Cobra","Lighting_Type":"400-W High Pressure Sodium Vapor Lamp","Verification_Date":1658880000000},"id":"stl-city-public-streetlights:2:143926","sourceLayerId":2,"sourceObjectId":143926,"sourceURL":"https://maps8.stlouis-mo.gov/arcgis/rest/services/STREETS/Streets_Permitting/MapServer/2","title":"Street light L036784"},"type":"Feature"},{"geometry":{"coordinates":[-90.24980535228367,38.628106881352586],"type":"Point"},"id":"stl-city-public-streetlights:2:148576","properties":{"address":null,"attributes":{"Date_Installed":null,"LED_Powered":0,"LightID":"L041432","Light_Source":"High Pressure Sodium","Light_Type":"Decorative","Lighting_Type":"King Luminaire (Historic Light Fixture)","Verification_Date":1659088514000},"id":"stl-city-public-streetlights:2:148576","sourceLayerId":2,"sourceObjectId":148576,"sourceURL":"https://maps8.stlouis-mo.gov/arcgis/rest/services/STREETS/Streets_Permitting/MapServer/2","title":"Street light L041432"},"type":"Feature"},{"geometry":{"coordinates":[-90.24984364292025,38.6280187686906],"type":"Point"},"id":"stl-city-public-streetlights:2:148577","properties":{"address":null,"attributes":{"Date_Installed":null,"LED_Powered":0,"LightID":"L041433","Light_Source":"High Pressure Sodium","Light_Type":"Decorative","Lighting_Type":"King Luminaire (Historic Light Fixture)","Verification_Date":1659088514000},"id":"stl-city-public-streetlights:2:148577","sourceLayerId":2,"sourceObjectId":148577,"sourceURL":"https://maps8.stlouis-mo.gov/arcgis/rest/services/STREETS/Streets_Permitting/MapServer/2","title":"Street light L041433"},"type":"Feature"},{"geometry":{"coordinates":[-90.24981545343607,38.627889971980096],"type":"Point"},"id":"stl-city-public-streetlights:2:148910","properties":{"address":null,"attributes":{"Date_Installed":null,"LED_Powered":0,"LightID":"L041766","Light_Source":"High Pressure Sodium","Light_Type":"Decorative","Lighting_Type":"King Luminaire (Historic Light Fixture)","Verification_Date":1658793600000},"id":"stl-city-public-streetlights:2:148910","sourceLayerId":2,"sourceObjectId":148910,"sourceURL":"https://maps8.stlouis-mo.gov/arcgis/rest/services/STREETS/Streets_Permitting/MapServer/2","title":"Street light L041766"},"type":"Feature"},{"geometry":{"coordinates":[-90.24958254590963,38.62821249813896],"type":"Point"},"id":"stl-city-public-streetlights:2:148920","properties":{"address":null,"attributes":{"Date_Installed":null,"LED_Powered":0,"LightID":"L041776","Light_Source":"High Pressure Sodium","Light_Type":"Cobra","Lighting_Type":"150-W High Pressure Sodium Vapor Lamp","Verification_Date":1659087913000},"id":"stl-city-public-streetlights:2:148920","sourceLayerId":2,"sourceObjectId":148920,"sourceURL":"https://maps8.stlouis-mo.gov/arcgis/rest/services/STREETS/Streets_Permitting/MapServer/2","title":"Street light L041776"},"type":"Feature"},{"geometry":{"coordinates":[-90.24938629007943,38.62792757923758],"type":"Point"},"id":"stl-city-public-streetlights:2:148921","properties":{"address":null,"attributes":{"Date_Installed":null,"LED_Powered":0,"LightID":"L041777","Light_Source":"LED","Light_Type":"Cobra","Lighting_Type":"LED-Powered Lamp","Verification_Date":1658793600000},"id":"stl-city-public-streetlights:2:148921","sourceLayerId":2,"sourceObjectId":148921,"sourceURL":"https://maps8.stlouis-mo.gov/arcgis/rest/services/STREETS/Streets_Permitting/MapServer/2","title":"Street light L041777"},"type":"Feature"},{"geometry":{"coordinates":[-90.24883126815848,38.62800202701882],"type":"Point"},"id":"stl-city-public-streetlights:2:148922","properties":{"address":null,"attributes":{"Date_Installed":null,"LED_Powered":0,"LightID":"L041778","Light_Source":"LED","Light_Type":"Cobra","Lighting_Type":"LED-Powered Lamp","Verification_Date":1658837275000},"id":"stl-city-public-streetlights:2:148922","sourceLayerId":2,"sourceObjectId":148922,"sourceURL":"https://maps8.stlouis-mo.gov/arcgis/rest/services/STREETS/Streets_Permitting/MapServer/2","title":"Street light L041778"},"type":"Feature"},{"geometry":{"coordinates":[-90.24823175954997,38.628083585377134],"type":"Point"},"id":"stl-city-public-streetlights:2:148923","properties":{"address":null,"attributes":{"Date_Installed":null,"LED_Powered":0,"LightID":"L041779","Light_Source":"LED","Light_Type":"Cobra","Lighting_Type":"LED-Powered Lamp","Verification_Date":1658837280000},"id":"stl-city-public-streetlights:2:148923","sourceLayerId":2,"sourceObjectId":148923,"sourceURL":"https://maps8.stlouis-mo.gov/arcgis/rest/services/STREETS/Streets_Permitting/MapServer/2","title":"Street light L041779"},"type":"Feature"},{"geometry":{"coordinates":[-90.24054055620108,38.626874995726936],"type":"Point"},"id":"stl-city-public-streetlights:2:156355","properties":{"address":null,"attributes":{"Date_Installed":null,"LED_Powered":0,"LightID":"L049079","Light_Source":"LED","Light_Type":"Cobra","Lighting_Type":"LED-Powered Lamp","Verification_Date":1659086723000},"id":"stl-city-public-streetlights:2:156355","sourceLayerId":2,"sourceObjectId":156355,"sourceURL":"https://maps8.stlouis-mo.gov/arcgis/rest/services/STREETS/Streets_Permitting/MapServer/2","title":"Street light L049079"},"type":"Feature"},{"geometry":{"coordinates":[-90.24102515067912,38.62697737272275],"type":"Point"},"id":"stl-city-public-streetlights:2:156356","properties":{"address":null,"attributes":{"Date_Installed":null,"LED_Powered":0,"LightID":"L049080","Light_Source":"LED","Light_Type":"Cobra","Lighting_Type":"LED-Powered Lamp","Verification_Date":1659086723000},"id":"stl-city-public-streetlights:2:156356","sourceLayerId":2,"sourceObjectId":156356,"sourceURL":"https://maps8.stlouis-mo.gov/arcgis/rest/services/STREETS/Streets_Permitting/MapServer/2","title":"Street light L049080"},"type":"Feature"},{"geometry":{"coordinates":[-90.24007431727136,38.62682806230652],"type":"Point"},"id":"stl-city-public-streetlights:2:156357","properties":{"address":null,"attributes":{"Date_Installed":null,"LED_Powered":0,"LightID":"L049081","Light_Source":"LED","Light_Type":"Cobra","Lighting_Type":"LED-Powered Lamp","Verification_Date":1659086667000},"id":"stl-city-public-streetlights:2:156357","sourceLayerId":2,"sourceObjectId":156357,"sourceURL":"https://maps8.stlouis-mo.gov/arcgis/rest/services/STREETS/Streets_Permitting/MapServer/2","title":"Street light L049081"},"type":"Feature"},{"geometry":{"coordinates":[-90.24704123138727,38.628261691239075],"type":"Point"},"id":"stl-city-public-streetlights:2:160104","properties":{"address":null,"attributes":{"Date_Installed":null,"LED_Powered":null,"LightID":null,"Light_Source":null,"Light_Type":"Cobra","Lighting_Type":null,"Verification_Date":1659086977000},"id":"stl-city-public-streetlights:2:160104","sourceLayerId":2,"sourceObjectId":160104,"sourceURL":"https://maps8.stlouis-mo.gov/arcgis/rest/services/STREETS/Streets_Permitting/MapServer/2","title":"Street light 160104"},"type":"Feature"},{"geometry":{"coordinates":[-90.24819124224086,38.62830306515086],"type":"Point"},"id":"stl-city-public-streetlights:2:160105","properties":{"address":null,"attributes":{"Date_Installed":null,"LED_Powered":0,"LightID":null,"Light_Source":null,"Light_Type":"Decorative","Lighting_Type":null,"Verification_Date":1659087913000},"id":"stl-city-public-streetlights:2:160105","sourceLayerId":2,"sourceObjectId":160105,"sourceURL":"https://maps8.stlouis-mo.gov/arcgis/rest/services/STREETS/Streets_Permitting/MapServer/2","title":"Street light 160105"},"type":"Feature"},{"geometry":{"coordinates":[-90.24855511137494,38.62823277549081],"type":"Point"},"id":"stl-city-public-streetlights:2:160106","properties":{"address":null,"attributes":{"Date_Installed":null,"LED_Powered":0,"LightID":null,"Light_Source":null,"Light_Type":"Decorative","Lighting_Type":null,"Verification_Date":1659087913000},"id":"stl-city-public-streetlights:2:160106","sourceLayerId":2,"sourceObjectId":160106,"sourceURL":"https://maps8.stlouis-mo.gov/arcgis/rest/services/STREETS/Streets_Permitting/MapServer/2","title":"Street light 160106"},"type":"Feature"},{"geometry":{"coordinates":[-90.24884750554179,38.6281974849653],"type":"Point"},"id":"stl-city-public-streetlights:2:160107","properties":{"address":null,"attributes":{"Date_Installed":null,"LED_Powered":0,"LightID":null,"Light_Source":null,"Light_Type":"Decorative","Lighting_Type":null,"Verification_Date":1659087913000},"id":"stl-city-public-streetlights:2:160107","sourceLayerId":2,"sourceObjectId":160107,"sourceURL":"https://maps8.stlouis-mo.gov/arcgis/rest/services/STREETS/Streets_Permitting/MapServer/2","title":"Street light 160107"},"type":"Feature"},{"geometry":{"coordinates":[-90.2491837727521,38.62815311759566],"type":"Point"},"id":"stl-city-public-streetlights:2:160108","properties":{"address":null,"attributes":{"Date_Installed":null,"LED_Powered":0,"LightID":null,"Light_Source":null,"Light_Type":"Decorative","Lighting_Type":null,"Verification_Date":1659087913000},"id":"stl-city-public-streetlights:2:160108","sourceLayerId":2,"sourceObjectId":160108,"sourceURL":"https://maps8.stlouis-mo.gov/arcgis/rest/services/STREETS/Streets_Permitting/MapServer/2","title":"Street light 160108"},"type":"Feature"},{"geometry":{"coordinates":[-90.24938441509451,38.6281673032387],"type":"Point"},"id":"stl-city-public-streetlights:2:160109","properties":{"address":null,"attributes":{"Date_Installed":null,"LED_Powered":0,"LightID":null,"Light_Source":null,"Light_Type":"Decorative","Lighting_Type":null,"Verification_Date":1659087913000},"id":"stl-city-public-streetlights:2:160109","sourceLayerId":2,"sourceObjectId":160109,"sourceURL":"https://maps8.stlouis-mo.gov/arcgis/rest/services/STREETS/Streets_Permitting/MapServer/2","title":"Street light 160109"},"type":"Feature"},{"geometry":{"coordinates":[-90.24989551437413,38.62827538759363],"type":"Point"},"id":"stl-city-public-streetlights:2:160110","properties":{"address":null,"attributes":{"Date_Installed":null,"LED_Powered":0,"LightID":null,"Light_Source":null,"Light_Type":"Decorative","Lighting_Type":null,"Verification_Date":1659087913000},"id":"stl-city-public-streetlights:2:160110","sourceLayerId":2,"sourceObjectId":160110,"sourceURL":"https://maps8.stlouis-mo.gov/arcgis/rest/services/STREETS/Streets_Permitting/MapServer/2","title":"Street light 160110"},"type":"Feature"},{"geometry":{"coordinates":[-90.24973666523566,38.62802344617408],"type":"Point"},"id":"stl-city-public-streetlights:2:160111","properties":{"address":null,"attributes":{"Date_Installed":null,"LED_Powered":null,"LightID":null,"Light_Source":null,"Light_Type":"Cobra","Lighting_Type":null,"Verification_Date":1659088343000},"id":"stl-city-public-streetlights:2:160111","sourceLayerId":2,"sourceObjectId":160111,"sourceURL":"https://maps8.stlouis-mo.gov/arcgis/rest/services/STREETS/Streets_Permitting/MapServer/2","title":"Street light 160111"},"type":"Feature"},{"geometry":{"coordinates":[-90.24769230845847,38.62837597327915],"type":"Point"},"id":"stl-city-public-streetlights:2:160970","properties":{"address":null,"attributes":{"Date_Installed":null,"LED_Powered":null,"LightID":null,"Light_Source":"LED","Light_Type":"Cobra","Lighting_Type":"LED-Powered Lamp","Verification_Date":null},"id":"stl-city-public-streetlights:2:160970","sourceLayerId":2,"sourceObjectId":160970,"sourceURL":"https://maps8.stlouis-mo.gov/arcgis/rest/services/STREETS/Streets_Permitting/MapServer/2","title":"Street light 160970"},"type":"Feature"}],"layerId":"city-streetlights","retrievedAt":"2026-09-13T21:56:18.173251+00:00","schema":"property-infrastructure-geojson-v1","sourceId":"stl-city-public-streetlights","tileId":"-9025_3862","type":"FeatureCollection"}