{"features":[{"geometry":{"coordinates":[-90.198039588913,38.68010238482175],"type":"Point"},"id":"stl-city-public-streetlights:2:131503","properties":{"address":null,"attributes":{"Date_Installed":null,"LED_Powered":0,"LightID":"L024219","Light_Source":"LED","Light_Type":"Cobra","Lighting_Type":"LED-Powered Lamp","Verification_Date":null},"id":"stl-city-public-streetlights:2:131503","sourceLayerId":2,"sourceObjectId":131503,"sourceURL":"https://maps8.stlouis-mo.gov/arcgis/rest/services/STREETS/Streets_Permitting/MapServer/2","title":"Street light L024219"},"type":"Feature"},{"geometry":{"coordinates":[-90.19764026167103,38.680333991553134],"type":"Point"},"id":"stl-city-public-streetlights:2:131504","properties":{"address":null,"attributes":{"Date_Installed":null,"LED_Powered":0,"LightID":"L024220","Light_Source":"High Pressure Sodium","Light_Type":"Cobra","Lighting_Type":"100-W High Pressure Sodium Vapor Lamp","Verification_Date":null},"id":"stl-city-public-streetlights:2:131504","sourceLayerId":2,"sourceObjectId":131504,"sourceURL":"https://maps8.stlouis-mo.gov/arcgis/rest/services/STREETS/Streets_Permitting/MapServer/2","title":"Street light L024220"},"type":"Feature"},{"geometry":{"coordinates":[-90.19720137463852,38.68057169166248],"type":"Point"},"id":"stl-city-public-streetlights:2:131505","properties":{"address":null,"attributes":{"Date_Installed":null,"LED_Powered":0,"LightID":"L024221","Light_Source":"High Pressure Sodium","Light_Type":"Cobra","Lighting_Type":"400-W High Pressure Sodium Vapor Lamp","Verification_Date":null},"id":"stl-city-public-streetlights:2:131505","sourceLayerId":2,"sourceObjectId":131505,"sourceURL":"https://maps8.stlouis-mo.gov/arcgis/rest/services/STREETS/Streets_Permitting/MapServer/2","title":"Street light L024221"},"type":"Feature"},{"geometry":{"coordinates":[-90.19675947499329,38.68080223109808],"type":"Point"},"id":"stl-city-public-streetlights:2:131506","properties":{"address":null,"attributes":{"Date_Installed":null,"LED_Powered":0,"LightID":"L024222","Light_Source":"High Pressure Sodium","Light_Type":"Cobra","Lighting_Type":"400-W High Pressure Sodium Vapor Lamp","Verification_Date":null},"id":"stl-city-public-streetlights:2:131506","sourceLayerId":2,"sourceObjectId":131506,"sourceURL":"https://maps8.stlouis-mo.gov/arcgis/rest/services/STREETS/Streets_Permitting/MapServer/2","title":"Street light L024222"},"type":"Feature"},{"geometry":{"coordinates":[-90.19637933763312,38.680808396067896],"type":"Point"},"id":"stl-city-public-streetlights:2:131507","properties":{"address":null,"attributes":{"Date_Installed":null,"LED_Powered":0,"LightID":"L024223","Light_Source":"High Pressure Sodium","Light_Type":"Cobra","Lighting_Type":"400-W High Pressure Sodium Vapor Lamp","Verification_Date":null},"id":"stl-city-public-streetlights:2:131507","sourceLayerId":2,"sourceObjectId":131507,"sourceURL":"https://maps8.stlouis-mo.gov/arcgis/rest/services/STREETS/Streets_Permitting/MapServer/2","title":"Street light L024223"},"type":"Feature"},{"geometry":{"coordinates":[-90.19602783771157,38.68051430177418],"type":"Point"},"id":"stl-city-public-streetlights:2:131508","properties":{"address":null,"attributes":{"Date_Installed":null,"LED_Powered":0,"LightID":"L024224","Light_Source":"High Pressure Sodium","Light_Type":"Cobra","Lighting_Type":"400-W High Pressure Sodium Vapor Lamp","Verification_Date":null},"id":"stl-city-public-streetlights:2:131508","sourceLayerId":2,"sourceObjectId":131508,"sourceURL":"https://maps8.stlouis-mo.gov/arcgis/rest/services/STREETS/Streets_Permitting/MapServer/2","title":"Street light L024224"},"type":"Feature"},{"geometry":{"coordinates":[-90.19566891203219,38.680179665412716],"type":"Point"},"id":"stl-city-public-streetlights:2:131509","properties":{"address":null,"attributes":{"Date_Installed":null,"LED_Powered":0,"LightID":"L024225","Light_Source":"High Pressure Sodium","Light_Type":"Cobra","Lighting_Type":"400-W High Pressure Sodium Vapor Lamp","Verification_Date":null},"id":"stl-city-public-streetlights:2:131509","sourceLayerId":2,"sourceObjectId":131509,"sourceURL":"https://maps8.stlouis-mo.gov/arcgis/rest/services/STREETS/Streets_Permitting/MapServer/2","title":"Street light L024225"},"type":"Feature"}],"layerId":"city-streetlights","retrievedAt":"2026-09-13T21:56:18.173251+00:00","schema":"property-infrastructure-geojson-v1","sourceId":"stl-city-public-streetlights","tileId":"-9020_3868","type":"FeatureCollection"}