{"features":[{"geometry":{"coordinates":[-90.21980182966928,38.729891281443294],"type":"Point"},"id":"stl-city-public-streetlights:2:137705","properties":{"address":null,"attributes":{"Date_Installed":null,"LED_Powered":0,"LightID":"L030421","Light_Source":"High Pressure Sodium","Light_Type":"Cobra","Lighting_Type":"400-W High Pressure Sodium Vapor Lamp (Twin Lights)","Verification_Date":null},"id":"stl-city-public-streetlights:2:137705","sourceLayerId":2,"sourceObjectId":137705,"sourceURL":"https://maps8.stlouis-mo.gov/arcgis/rest/services/STREETS/Streets_Permitting/MapServer/2","title":"Street light L030421"},"type":"Feature"}],"layerId":"city-streetlights","retrievedAt":"2026-09-13T21:56:18.173251+00:00","schema":"property-infrastructure-geojson-v1","sourceId":"stl-city-public-streetlights","tileId":"-9022_3872","type":"FeatureCollection"}