{"features":[{"geometry":{"coordinates":[-90.2302222431504,38.7097572623773],"type":"Point"},"id":"stl-city-public-streetlights:2:126178","properties":{"address":null,"attributes":{"Date_Installed":null,"LED_Powered":1,"LightID":"L018906","Light_Source":"LED","Light_Type":"Cobra","Lighting_Type":"LED-Powered Lamp","Verification_Date":null},"id":"stl-city-public-streetlights:2:126178","sourceLayerId":2,"sourceObjectId":126178,"sourceURL":"https://maps8.stlouis-mo.gov/arcgis/rest/services/STREETS/Streets_Permitting/MapServer/2","title":"Street light L018906"},"type":"Feature"},{"geometry":{"coordinates":[-90.23022996128964,38.7093222776246],"type":"Point"},"id":"stl-city-public-streetlights:2:126179","properties":{"address":null,"attributes":{"Date_Installed":null,"LED_Powered":1,"LightID":"L018907","Light_Source":"LED","Light_Type":"Cobra","Lighting_Type":"LED-Powered Lamp","Verification_Date":null},"id":"stl-city-public-streetlights:2:126179","sourceLayerId":2,"sourceObjectId":126179,"sourceURL":"https://maps8.stlouis-mo.gov/arcgis/rest/services/STREETS/Streets_Permitting/MapServer/2","title":"Street light L018907"},"type":"Feature"},{"geometry":{"coordinates":[-90.23019431069258,38.709094920899666],"type":"Point"},"id":"stl-city-public-streetlights:2:126180","properties":{"address":null,"attributes":{"Date_Installed":null,"LED_Powered":1,"LightID":"L018908","Light_Source":"LED","Light_Type":"Cobra","Lighting_Type":"LED-Powered Lamp","Verification_Date":null},"id":"stl-city-public-streetlights:2:126180","sourceLayerId":2,"sourceObjectId":126180,"sourceURL":"https://maps8.stlouis-mo.gov/arcgis/rest/services/STREETS/Streets_Permitting/MapServer/2","title":"Street light L018908"},"type":"Feature"},{"geometry":{"coordinates":[-90.23017319632277,38.7086422303718],"type":"Point"},"id":"stl-city-public-streetlights:2:126181","properties":{"address":null,"attributes":{"Date_Installed":null,"LED_Powered":1,"LightID":"L018909","Light_Source":"LED","Light_Type":"Cobra","Lighting_Type":"LED-Powered Lamp","Verification_Date":null},"id":"stl-city-public-streetlights:2:126181","sourceLayerId":2,"sourceObjectId":126181,"sourceURL":"https://maps8.stlouis-mo.gov/arcgis/rest/services/STREETS/Streets_Permitting/MapServer/2","title":"Street light L018909"},"type":"Feature"},{"geometry":{"coordinates":[-90.23015535153517,38.70812912363286],"type":"Point"},"id":"stl-city-public-streetlights:2:126182","properties":{"address":null,"attributes":{"Date_Installed":null,"LED_Powered":1,"LightID":"L018910","Light_Source":"LED","Light_Type":"Cobra","Lighting_Type":"LED-Powered Lamp","Verification_Date":null},"id":"stl-city-public-streetlights:2:126182","sourceLayerId":2,"sourceObjectId":126182,"sourceURL":"https://maps8.stlouis-mo.gov/arcgis/rest/services/STREETS/Streets_Permitting/MapServer/2","title":"Street light L018910"},"type":"Feature"},{"geometry":{"coordinates":[-90.23014033995285,38.7076716805601],"type":"Point"},"id":"stl-city-public-streetlights:2:126183","properties":{"address":null,"attributes":{"Date_Installed":null,"LED_Powered":1,"LightID":"L018911","Light_Source":"LED","Light_Type":"Cobra","Lighting_Type":"LED-Powered Lamp","Verification_Date":null},"id":"stl-city-public-streetlights:2:126183","sourceLayerId":2,"sourceObjectId":126183,"sourceURL":"https://maps8.stlouis-mo.gov/arcgis/rest/services/STREETS/Streets_Permitting/MapServer/2","title":"Street light L018911"},"type":"Feature"},{"geometry":{"coordinates":[-90.23012079665503,38.707205883954266],"type":"Point"},"id":"stl-city-public-streetlights:2:126184","properties":{"address":null,"attributes":{"Date_Installed":null,"LED_Powered":1,"LightID":"L018912","Light_Source":"LED","Light_Type":"Cobra","Lighting_Type":"LED-Powered Lamp","Verification_Date":null},"id":"stl-city-public-streetlights:2:126184","sourceLayerId":2,"sourceObjectId":126184,"sourceURL":"https://maps8.stlouis-mo.gov/arcgis/rest/services/STREETS/Streets_Permitting/MapServer/2","title":"Street light L018912"},"type":"Feature"},{"geometry":{"coordinates":[-90.23010423704615,38.706755707322955],"type":"Point"},"id":"stl-city-public-streetlights:2:126185","properties":{"address":null,"attributes":{"Date_Installed":null,"LED_Powered":1,"LightID":"L018913","Light_Source":"LED","Light_Type":"Cobra","Lighting_Type":"LED-Powered Lamp","Verification_Date":null},"id":"stl-city-public-streetlights:2:126185","sourceLayerId":2,"sourceObjectId":126185,"sourceURL":"https://maps8.stlouis-mo.gov/arcgis/rest/services/STREETS/Streets_Permitting/MapServer/2","title":"Street light L018913"},"type":"Feature"},{"geometry":{"coordinates":[-90.23008015007665,38.70628513270033],"type":"Point"},"id":"stl-city-public-streetlights:2:126186","properties":{"address":null,"attributes":{"Date_Installed":null,"LED_Powered":1,"LightID":"L018914","Light_Source":"LED","Light_Type":"Cobra","Lighting_Type":"LED-Powered Lamp","Verification_Date":null},"id":"stl-city-public-streetlights:2:126186","sourceLayerId":2,"sourceObjectId":126186,"sourceURL":"https://maps8.stlouis-mo.gov/arcgis/rest/services/STREETS/Streets_Permitting/MapServer/2","title":"Street light L018914"},"type":"Feature"},{"geometry":{"coordinates":[-90.23006816770436,38.70583103332248],"type":"Point"},"id":"stl-city-public-streetlights:2:126187","properties":{"address":null,"attributes":{"Date_Installed":null,"LED_Powered":1,"LightID":"L018915","Light_Source":"LED","Light_Type":"Cobra","Lighting_Type":"LED-Powered Lamp","Verification_Date":null},"id":"stl-city-public-streetlights:2:126187","sourceLayerId":2,"sourceObjectId":126187,"sourceURL":"https://maps8.stlouis-mo.gov/arcgis/rest/services/STREETS/Streets_Permitting/MapServer/2","title":"Street light L018915"},"type":"Feature"},{"geometry":{"coordinates":[-90.23002224638742,38.705339278095714],"type":"Point"},"id":"stl-city-public-streetlights:2:126189","properties":{"address":null,"attributes":{"Date_Installed":"6/25/2018","LED_Powered":1,"LightID":"L018917","Light_Source":"LED","Light_Type":"Cobra","Lighting_Type":"LED-Powered Lamp","Verification_Date":null},"id":"stl-city-public-streetlights:2:126189","sourceLayerId":2,"sourceObjectId":126189,"sourceURL":"https://maps8.stlouis-mo.gov/arcgis/rest/services/STREETS/Streets_Permitting/MapServer/2","title":"Street light L018917"},"type":"Feature"},{"geometry":{"coordinates":[-90.23024781169829,38.70509406863566],"type":"Point"},"id":"stl-city-public-streetlights:2:126194","properties":{"address":null,"attributes":{"Date_Installed":"8/1/2016","LED_Powered":1,"LightID":"L018922","Light_Source":"LED","Light_Type":"Cobra","Lighting_Type":"LED-Powered Lamp","Verification_Date":null},"id":"stl-city-public-streetlights:2:126194","sourceLayerId":2,"sourceObjectId":126194,"sourceURL":"https://maps8.stlouis-mo.gov/arcgis/rest/services/STREETS/Streets_Permitting/MapServer/2","title":"Street light L018922"},"type":"Feature"},{"geometry":{"coordinates":[-90.2302083673172,38.70458141175214],"type":"Point"},"id":"stl-city-public-streetlights:2:126195","properties":{"address":null,"attributes":{"Date_Installed":"8/1/2016","LED_Powered":1,"LightID":"L018923","Light_Source":"LED","Light_Type":"Cobra","Lighting_Type":"LED-Powered Lamp","Verification_Date":null},"id":"stl-city-public-streetlights:2:126195","sourceLayerId":2,"sourceObjectId":126195,"sourceURL":"https://maps8.stlouis-mo.gov/arcgis/rest/services/STREETS/Streets_Permitting/MapServer/2","title":"Street light L018923"},"type":"Feature"},{"geometry":{"coordinates":[-90.23013223758906,38.704117868058674],"type":"Point"},"id":"stl-city-public-streetlights:2:126196","properties":{"address":null,"attributes":{"Date_Installed":"8/1/2016","LED_Powered":1,"LightID":"L018924","Light_Source":"LED","Light_Type":"Cobra","Lighting_Type":"LED-Powered Lamp","Verification_Date":null},"id":"stl-city-public-streetlights:2:126196","sourceLayerId":2,"sourceObjectId":126196,"sourceURL":"https://maps8.stlouis-mo.gov/arcgis/rest/services/STREETS/Streets_Permitting/MapServer/2","title":"Street light L018924"},"type":"Feature"},{"geometry":{"coordinates":[-90.23001460558714,38.70367631621933],"type":"Point"},"id":"stl-city-public-streetlights:2:126197","properties":{"address":null,"attributes":{"Date_Installed":"8/1/2016","LED_Powered":1,"LightID":"L018925","Light_Source":"LED","Light_Type":"Cobra","Lighting_Type":"LED-Powered Lamp","Verification_Date":null},"id":"stl-city-public-streetlights:2:126197","sourceLayerId":2,"sourceObjectId":126197,"sourceURL":"https://maps8.stlouis-mo.gov/arcgis/rest/services/STREETS/Streets_Permitting/MapServer/2","title":"Street light L018925"},"type":"Feature"},{"geometry":{"coordinates":[-90.23278908207467,38.70997685818272],"type":"Point"},"id":"stl-city-public-streetlights:2:151879","properties":{"address":null,"attributes":{"Date_Installed":"8/1/2016","LED_Powered":1,"LightID":"L044733","Light_Source":"LED","Light_Type":"Cobra","Lighting_Type":"LED-Powered Lamp","Verification_Date":null},"id":"stl-city-public-streetlights:2:151879","sourceLayerId":2,"sourceObjectId":151879,"sourceURL":"https://maps8.stlouis-mo.gov/arcgis/rest/services/STREETS/Streets_Permitting/MapServer/2","title":"Street light L044733"},"type":"Feature"},{"geometry":{"coordinates":[-90.2332618856588,38.709887743567755],"type":"Point"},"id":"stl-city-public-streetlights:2:151880","properties":{"address":null,"attributes":{"Date_Installed":"8/1/2016","LED_Powered":1,"LightID":"L044734","Light_Source":"LED","Light_Type":"Cobra","Lighting_Type":"LED-Powered Lamp","Verification_Date":null},"id":"stl-city-public-streetlights:2:151880","sourceLayerId":2,"sourceObjectId":151880,"sourceURL":"https://maps8.stlouis-mo.gov/arcgis/rest/services/STREETS/Streets_Permitting/MapServer/2","title":"Street light L044734"},"type":"Feature"},{"geometry":{"coordinates":[-90.2337154897441,38.7097993932061],"type":"Point"},"id":"stl-city-public-streetlights:2:151881","properties":{"address":null,"attributes":{"Date_Installed":"8/1/2016","LED_Powered":1,"LightID":"L044735","Light_Source":"LED","Light_Type":"Cobra","Lighting_Type":"LED-Powered Lamp","Verification_Date":null},"id":"stl-city-public-streetlights:2:151881","sourceLayerId":2,"sourceObjectId":151881,"sourceURL":"https://maps8.stlouis-mo.gov/arcgis/rest/services/STREETS/Streets_Permitting/MapServer/2","title":"Street light L044735"},"type":"Feature"},{"geometry":{"coordinates":[-90.23418406985955,38.70970571219963],"type":"Point"},"id":"stl-city-public-streetlights:2:151882","properties":{"address":null,"attributes":{"Date_Installed":"8/1/2016","LED_Powered":1,"LightID":"L044736","Light_Source":"LED","Light_Type":"Cobra","Lighting_Type":"LED-Powered Lamp","Verification_Date":null},"id":"stl-city-public-streetlights:2:151882","sourceLayerId":2,"sourceObjectId":151882,"sourceURL":"https://maps8.stlouis-mo.gov/arcgis/rest/services/STREETS/Streets_Permitting/MapServer/2","title":"Street light L044736"},"type":"Feature"},{"geometry":{"coordinates":[-90.2345980013014,38.709568165843905],"type":"Point"},"id":"stl-city-public-streetlights:2:151883","properties":{"address":null,"attributes":{"Date_Installed":"8/1/2016","LED_Powered":1,"LightID":"L044737","Light_Source":"LED","Light_Type":"Cobra","Lighting_Type":"LED-Powered Lamp","Verification_Date":null},"id":"stl-city-public-streetlights:2:151883","sourceLayerId":2,"sourceObjectId":151883,"sourceURL":"https://maps8.stlouis-mo.gov/arcgis/rest/services/STREETS/Streets_Permitting/MapServer/2","title":"Street light L044737"},"type":"Feature"},{"geometry":{"coordinates":[-90.23501467076895,38.70943038639058],"type":"Point"},"id":"stl-city-public-streetlights:2:151884","properties":{"address":null,"attributes":{"Date_Installed":"8/1/2016","LED_Powered":1,"LightID":"L044738","Light_Source":"LED","Light_Type":"Cobra","Lighting_Type":"LED-Powered Lamp","Verification_Date":null},"id":"stl-city-public-streetlights:2:151884","sourceLayerId":2,"sourceObjectId":151884,"sourceURL":"https://maps8.stlouis-mo.gov/arcgis/rest/services/STREETS/Streets_Permitting/MapServer/2","title":"Street light L044738"},"type":"Feature"},{"geometry":{"coordinates":[-90.23047466241464,38.705852654255274],"type":"Point"},"id":"stl-city-public-streetlights:2:151885","properties":{"address":null,"attributes":{"Date_Installed":"8/1/2016","LED_Powered":1,"LightID":"L044739","Light_Source":"LED","Light_Type":"Cobra","Lighting_Type":"LED-Powered Lamp","Verification_Date":null},"id":"stl-city-public-streetlights:2:151885","sourceLayerId":2,"sourceObjectId":151885,"sourceURL":"https://maps8.stlouis-mo.gov/arcgis/rest/services/STREETS/Streets_Permitting/MapServer/2","title":"Street light L044739"},"type":"Feature"},{"geometry":{"coordinates":[-90.2307644369865,38.70612886369242],"type":"Point"},"id":"stl-city-public-streetlights:2:151886","properties":{"address":null,"attributes":{"Date_Installed":"8/1/2016","LED_Powered":1,"LightID":"L044740","Light_Source":"LED","Light_Type":"Cobra","Lighting_Type":"LED-Powered Lamp","Verification_Date":null},"id":"stl-city-public-streetlights:2:151886","sourceLayerId":2,"sourceObjectId":151886,"sourceURL":"https://maps8.stlouis-mo.gov/arcgis/rest/services/STREETS/Streets_Permitting/MapServer/2","title":"Street light L044740"},"type":"Feature"},{"geometry":{"coordinates":[-90.23106031591372,38.70640031899103],"type":"Point"},"id":"stl-city-public-streetlights:2:151887","properties":{"address":null,"attributes":{"Date_Installed":"8/1/2016","LED_Powered":1,"LightID":"L044741","Light_Source":"LED","Light_Type":"Cobra","Lighting_Type":"LED-Powered Lamp","Verification_Date":null},"id":"stl-city-public-streetlights:2:151887","sourceLayerId":2,"sourceObjectId":151887,"sourceURL":"https://maps8.stlouis-mo.gov/arcgis/rest/services/STREETS/Streets_Permitting/MapServer/2","title":"Street light L044741"},"type":"Feature"},{"geometry":{"coordinates":[-90.2313378086489,38.70664312839089],"type":"Point"},"id":"stl-city-public-streetlights:2:151888","properties":{"address":null,"attributes":{"Date_Installed":"8/1/2016","LED_Powered":1,"LightID":"L044742","Light_Source":"LED","Light_Type":"Cobra","Lighting_Type":"LED-Powered Lamp","Verification_Date":null},"id":"stl-city-public-streetlights:2:151888","sourceLayerId":2,"sourceObjectId":151888,"sourceURL":"https://maps8.stlouis-mo.gov/arcgis/rest/services/STREETS/Streets_Permitting/MapServer/2","title":"Street light L044742"},"type":"Feature"},{"geometry":{"coordinates":[-90.23164590209812,38.70690316999482],"type":"Point"},"id":"stl-city-public-streetlights:2:151889","properties":{"address":null,"attributes":{"Date_Installed":"8/1/2016","LED_Powered":1,"LightID":"L044743","Light_Source":"LED","Light_Type":"Cobra","Lighting_Type":"LED-Powered Lamp","Verification_Date":null},"id":"stl-city-public-streetlights:2:151889","sourceLayerId":2,"sourceObjectId":151889,"sourceURL":"https://maps8.stlouis-mo.gov/arcgis/rest/services/STREETS/Streets_Permitting/MapServer/2","title":"Street light L044743"},"type":"Feature"},{"geometry":{"coordinates":[-90.23193827459095,38.707137812304175],"type":"Point"},"id":"stl-city-public-streetlights:2:151890","properties":{"address":null,"attributes":{"Date_Installed":"8/1/2016","LED_Powered":1,"LightID":"L044744","Light_Source":"LED","Light_Type":"Cobra","Lighting_Type":"LED-Powered Lamp","Verification_Date":null},"id":"stl-city-public-streetlights:2:151890","sourceLayerId":2,"sourceObjectId":151890,"sourceURL":"https://maps8.stlouis-mo.gov/arcgis/rest/services/STREETS/Streets_Permitting/MapServer/2","title":"Street light L044744"},"type":"Feature"},{"geometry":{"coordinates":[-90.23226586314577,38.7073921754684],"type":"Point"},"id":"stl-city-public-streetlights:2:151891","properties":{"address":null,"attributes":{"Date_Installed":"8/1/2016","LED_Powered":1,"LightID":"L044745","Light_Source":"LED","Light_Type":"Cobra","Lighting_Type":"LED-Powered Lamp","Verification_Date":null},"id":"stl-city-public-streetlights:2:151891","sourceLayerId":2,"sourceObjectId":151891,"sourceURL":"https://maps8.stlouis-mo.gov/arcgis/rest/services/STREETS/Streets_Permitting/MapServer/2","title":"Street light L044745"},"type":"Feature"},{"geometry":{"coordinates":[-90.23258629413863,38.70760838444664],"type":"Point"},"id":"stl-city-public-streetlights:2:151892","properties":{"address":null,"attributes":{"Date_Installed":"8/1/2016","LED_Powered":1,"LightID":"L044746","Light_Source":"LED","Light_Type":"Cobra","Lighting_Type":"LED-Powered Lamp","Verification_Date":null},"id":"stl-city-public-streetlights:2:151892","sourceLayerId":2,"sourceObjectId":151892,"sourceURL":"https://maps8.stlouis-mo.gov/arcgis/rest/services/STREETS/Streets_Permitting/MapServer/2","title":"Street light L044746"},"type":"Feature"},{"geometry":{"coordinates":[-90.2329212744957,38.707839499278236],"type":"Point"},"id":"stl-city-public-streetlights:2:151893","properties":{"address":null,"attributes":{"Date_Installed":"8/1/2016","LED_Powered":1,"LightID":"L044747","Light_Source":"LED","Light_Type":"Cobra","Lighting_Type":"LED-Powered Lamp","Verification_Date":null},"id":"stl-city-public-streetlights:2:151893","sourceLayerId":2,"sourceObjectId":151893,"sourceURL":"https://maps8.stlouis-mo.gov/arcgis/rest/services/STREETS/Streets_Permitting/MapServer/2","title":"Street light L044747"},"type":"Feature"},{"geometry":{"coordinates":[-90.23324681410723,38.70805762526302],"type":"Point"},"id":"stl-city-public-streetlights:2:151894","properties":{"address":null,"attributes":{"Date_Installed":"8/1/2016","LED_Powered":1,"LightID":"L044748","Light_Source":"LED","Light_Type":"Cobra","Lighting_Type":"LED-Powered Lamp","Verification_Date":null},"id":"stl-city-public-streetlights:2:151894","sourceLayerId":2,"sourceObjectId":151894,"sourceURL":"https://maps8.stlouis-mo.gov/arcgis/rest/services/STREETS/Streets_Permitting/MapServer/2","title":"Street light L044748"},"type":"Feature"},{"geometry":{"coordinates":[-90.23357574248101,38.70828112008575],"type":"Point"},"id":"stl-city-public-streetlights:2:151895","properties":{"address":null,"attributes":{"Date_Installed":"8/1/2016","LED_Powered":1,"LightID":"L044749","Light_Source":"LED","Light_Type":"Cobra","Lighting_Type":"LED-Powered Lamp","Verification_Date":null},"id":"stl-city-public-streetlights:2:151895","sourceLayerId":2,"sourceObjectId":151895,"sourceURL":"https://maps8.stlouis-mo.gov/arcgis/rest/services/STREETS/Streets_Permitting/MapServer/2","title":"Street light L044749"},"type":"Feature"},{"geometry":{"coordinates":[-90.23392646370135,38.708493580061024],"type":"Point"},"id":"stl-city-public-streetlights:2:151896","properties":{"address":null,"attributes":{"Date_Installed":"8/1/2016","LED_Powered":1,"LightID":"L044750","Light_Source":"LED","Light_Type":"Cobra","Lighting_Type":"LED-Powered Lamp","Verification_Date":null},"id":"stl-city-public-streetlights:2:151896","sourceLayerId":2,"sourceObjectId":151896,"sourceURL":"https://maps8.stlouis-mo.gov/arcgis/rest/services/STREETS/Streets_Permitting/MapServer/2","title":"Street light L044750"},"type":"Feature"},{"geometry":{"coordinates":[-90.23428114786466,38.70870449937493],"type":"Point"},"id":"stl-city-public-streetlights:2:151897","properties":{"address":null,"attributes":{"Date_Installed":"8/1/2016","LED_Powered":1,"LightID":"L044751","Light_Source":"LED","Light_Type":"Cobra","Lighting_Type":"LED-Powered Lamp","Verification_Date":null},"id":"stl-city-public-streetlights:2:151897","sourceLayerId":2,"sourceObjectId":151897,"sourceURL":"https://maps8.stlouis-mo.gov/arcgis/rest/services/STREETS/Streets_Permitting/MapServer/2","title":"Street light L044751"},"type":"Feature"},{"geometry":{"coordinates":[-90.2346351803302,38.708895084204784],"type":"Point"},"id":"stl-city-public-streetlights:2:151898","properties":{"address":null,"attributes":{"Date_Installed":"8/1/2016","LED_Powered":1,"LightID":"L044752","Light_Source":"LED","Light_Type":"Cobra","Lighting_Type":"LED-Powered Lamp","Verification_Date":null},"id":"stl-city-public-streetlights:2:151898","sourceLayerId":2,"sourceObjectId":151898,"sourceURL":"https://maps8.stlouis-mo.gov/arcgis/rest/services/STREETS/Streets_Permitting/MapServer/2","title":"Street light L044752"},"type":"Feature"},{"geometry":{"coordinates":[-90.23499858461906,38.70909362593718],"type":"Point"},"id":"stl-city-public-streetlights:2:151899","properties":{"address":null,"attributes":{"Date_Installed":"8/1/2016","LED_Powered":1,"LightID":"L044753","Light_Source":"LED","Light_Type":"Cobra","Lighting_Type":"LED-Powered Lamp","Verification_Date":null},"id":"stl-city-public-streetlights:2:151899","sourceLayerId":2,"sourceObjectId":151899,"sourceURL":"https://maps8.stlouis-mo.gov/arcgis/rest/services/STREETS/Streets_Permitting/MapServer/2","title":"Street light L044753"},"type":"Feature"},{"geometry":{"coordinates":[-90.2353426469691,38.709381745739115],"type":"Point"},"id":"stl-city-public-streetlights:2:151900","properties":{"address":null,"attributes":{"Date_Installed":"6/25/2018","LED_Powered":1,"LightID":"L044754","Light_Source":"LED","Light_Type":"Cobra","Lighting_Type":"LED-Powered Lamp","Verification_Date":null},"id":"stl-city-public-streetlights:2:151900","sourceLayerId":2,"sourceObjectId":151900,"sourceURL":"https://maps8.stlouis-mo.gov/arcgis/rest/services/STREETS/Streets_Permitting/MapServer/2","title":"Street light L044754"},"type":"Feature"},{"geometry":{"coordinates":[-90.23572163155609,38.70956375512641],"type":"Point"},"id":"stl-city-public-streetlights:2:151901","properties":{"address":null,"attributes":{"Date_Installed":"6/25/2018","LED_Powered":1,"LightID":"L044755","Light_Source":"LED","Light_Type":"Cobra","Lighting_Type":"LED-Powered Lamp","Verification_Date":null},"id":"stl-city-public-streetlights:2:151901","sourceLayerId":2,"sourceObjectId":151901,"sourceURL":"https://maps8.stlouis-mo.gov/arcgis/rest/services/STREETS/Streets_Permitting/MapServer/2","title":"Street light L044755"},"type":"Feature"},{"geometry":{"coordinates":[-90.23603208782862,38.7097846031163],"type":"Point"},"id":"stl-city-public-streetlights:2:151902","properties":{"address":null,"attributes":{"Date_Installed":"6/25/2018","LED_Powered":1,"LightID":"L044756","Light_Source":"LED","Light_Type":"Cobra","Lighting_Type":"LED-Powered Lamp","Verification_Date":null},"id":"stl-city-public-streetlights:2:151902","sourceLayerId":2,"sourceObjectId":151902,"sourceURL":"https://maps8.stlouis-mo.gov/arcgis/rest/services/STREETS/Streets_Permitting/MapServer/2","title":"Street light L044756"},"type":"Feature"},{"geometry":{"coordinates":[-90.23045485046498,38.709787593556676],"type":"Point"},"id":"stl-city-public-streetlights:2:151990","properties":{"address":null,"attributes":{"Date_Installed":null,"LED_Powered":1,"LightID":"L044844","Light_Source":"LED","Light_Type":"Cobra","Lighting_Type":"LED-Powered Lamp","Verification_Date":null},"id":"stl-city-public-streetlights:2:151990","sourceLayerId":2,"sourceObjectId":151990,"sourceURL":"https://maps8.stlouis-mo.gov/arcgis/rest/services/STREETS/Streets_Permitting/MapServer/2","title":"Street light L044844"},"type":"Feature"},{"geometry":{"coordinates":[-90.23043068261423,38.70933739962836],"type":"Point"},"id":"stl-city-public-streetlights:2:151991","properties":{"address":null,"attributes":{"Date_Installed":null,"LED_Powered":1,"LightID":"L044845","Light_Source":"LED","Light_Type":"Cobra","Lighting_Type":"LED-Powered Lamp","Verification_Date":null},"id":"stl-city-public-streetlights:2:151991","sourceLayerId":2,"sourceObjectId":151991,"sourceURL":"https://maps8.stlouis-mo.gov/arcgis/rest/services/STREETS/Streets_Permitting/MapServer/2","title":"Street light L044845"},"type":"Feature"},{"geometry":{"coordinates":[-90.2304126178823,38.708882332466956],"type":"Point"},"id":"stl-city-public-streetlights:2:151992","properties":{"address":null,"attributes":{"Date_Installed":null,"LED_Powered":1,"LightID":"L044846","Light_Source":"LED","Light_Type":"Cobra","Lighting_Type":"LED-Powered Lamp","Verification_Date":null},"id":"stl-city-public-streetlights:2:151992","sourceLayerId":2,"sourceObjectId":151992,"sourceURL":"https://maps8.stlouis-mo.gov/arcgis/rest/services/STREETS/Streets_Permitting/MapServer/2","title":"Street light L044846"},"type":"Feature"},{"geometry":{"coordinates":[-90.23039471762412,38.708383527100025],"type":"Point"},"id":"stl-city-public-streetlights:2:151993","properties":{"address":null,"attributes":{"Date_Installed":null,"LED_Powered":1,"LightID":"L044847","Light_Source":"LED","Light_Type":"Cobra","Lighting_Type":"LED-Powered Lamp","Verification_Date":null},"id":"stl-city-public-streetlights:2:151993","sourceLayerId":2,"sourceObjectId":151993,"sourceURL":"https://maps8.stlouis-mo.gov/arcgis/rest/services/STREETS/Streets_Permitting/MapServer/2","title":"Street light L044847"},"type":"Feature"},{"geometry":{"coordinates":[-90.230375258702,38.70789508720526],"type":"Point"},"id":"stl-city-public-streetlights:2:151994","properties":{"address":null,"attributes":{"Date_Installed":null,"LED_Powered":1,"LightID":"L044848","Light_Source":"LED","Light_Type":"Cobra","Lighting_Type":"LED-Powered Lamp","Verification_Date":null},"id":"stl-city-public-streetlights:2:151994","sourceLayerId":2,"sourceObjectId":151994,"sourceURL":"https://maps8.stlouis-mo.gov/arcgis/rest/services/STREETS/Streets_Permitting/MapServer/2","title":"Street light L044848"},"type":"Feature"},{"geometry":{"coordinates":[-90.2303646789628,38.70747197783257],"type":"Point"},"id":"stl-city-public-streetlights:2:151995","properties":{"address":null,"attributes":{"Date_Installed":null,"LED_Powered":1,"LightID":"L044849","Light_Source":"LED","Light_Type":"Cobra","Lighting_Type":"LED-Powered Lamp","Verification_Date":null},"id":"stl-city-public-streetlights:2:151995","sourceLayerId":2,"sourceObjectId":151995,"sourceURL":"https://maps8.stlouis-mo.gov/arcgis/rest/services/STREETS/Streets_Permitting/MapServer/2","title":"Street light L044849"},"type":"Feature"},{"geometry":{"coordinates":[-90.23034356841245,38.70701809535536],"type":"Point"},"id":"stl-city-public-streetlights:2:151996","properties":{"address":null,"attributes":{"Date_Installed":null,"LED_Powered":1,"LightID":"L044850","Light_Source":"LED","Light_Type":"Cobra","Lighting_Type":"LED-Powered Lamp","Verification_Date":null},"id":"stl-city-public-streetlights:2:151996","sourceLayerId":2,"sourceObjectId":151996,"sourceURL":"https://maps8.stlouis-mo.gov/arcgis/rest/services/STREETS/Streets_Permitting/MapServer/2","title":"Street light L044850"},"type":"Feature"},{"geometry":{"coordinates":[-90.23032840317076,38.706601291402016],"type":"Point"},"id":"stl-city-public-streetlights:2:151997","properties":{"address":null,"attributes":{"Date_Installed":null,"LED_Powered":1,"LightID":"L044851","Light_Source":"LED","Light_Type":"Cobra","Lighting_Type":"LED-Powered Lamp","Verification_Date":null},"id":"stl-city-public-streetlights:2:151997","sourceLayerId":2,"sourceObjectId":151997,"sourceURL":"https://maps8.stlouis-mo.gov/arcgis/rest/services/STREETS/Streets_Permitting/MapServer/2","title":"Street light L044851"},"type":"Feature"},{"geometry":{"coordinates":[-90.23029989933391,38.70609137786158],"type":"Point"},"id":"stl-city-public-streetlights:2:151998","properties":{"address":null,"attributes":{"Date_Installed":null,"LED_Powered":1,"LightID":"L044852","Light_Source":"LED","Light_Type":"Cobra","Lighting_Type":"LED-Powered Lamp","Verification_Date":null},"id":"stl-city-public-streetlights:2:151998","sourceLayerId":2,"sourceObjectId":151998,"sourceURL":"https://maps8.stlouis-mo.gov/arcgis/rest/services/STREETS/Streets_Permitting/MapServer/2","title":"Street light L044852"},"type":"Feature"},{"geometry":{"coordinates":[-90.23027474823985,38.70562527633581],"type":"Point"},"id":"stl-city-public-streetlights:2:151999","properties":{"address":null,"attributes":{"Date_Installed":"6/25/2018","LED_Powered":1,"LightID":"L044853","Light_Source":"LED","Light_Type":"Cobra","Lighting_Type":"LED-Powered Lamp","Verification_Date":null},"id":"stl-city-public-streetlights:2:151999","sourceLayerId":2,"sourceObjectId":151999,"sourceURL":"https://maps8.stlouis-mo.gov/arcgis/rest/services/STREETS/Streets_Permitting/MapServer/2","title":"Street light L044853"},"type":"Feature"},{"geometry":{"coordinates":[-90.2308264183819,38.707275677180284],"type":"Point"},"id":"stl-city-public-streetlights:2:152000","properties":{"address":null,"attributes":{"Date_Installed":"6/25/2018","LED_Powered":1,"LightID":"L044854","Light_Source":"LED","Light_Type":"Cobra","Lighting_Type":"LED-Powered Lamp","Verification_Date":null},"id":"stl-city-public-streetlights:2:152000","sourceLayerId":2,"sourceObjectId":152000,"sourceURL":"https://maps8.stlouis-mo.gov/arcgis/rest/services/STREETS/Streets_Permitting/MapServer/2","title":"Street light L044854"},"type":"Feature"},{"geometry":{"coordinates":[-90.23094749201859,38.707600027064686],"type":"Point"},"id":"stl-city-public-streetlights:2:152001","properties":{"address":null,"attributes":{"Date_Installed":"6/25/2018","LED_Powered":1,"LightID":"L044855","Light_Source":"LED","Light_Type":"Cobra","Lighting_Type":"LED-Powered Lamp","Verification_Date":null},"id":"stl-city-public-streetlights:2:152001","sourceLayerId":2,"sourceObjectId":152001,"sourceURL":"https://maps8.stlouis-mo.gov/arcgis/rest/services/STREETS/Streets_Permitting/MapServer/2","title":"Street light L044855"},"type":"Feature"},{"geometry":{"coordinates":[-90.23106675489002,38.70792065471705],"type":"Point"},"id":"stl-city-public-streetlights:2:152002","properties":{"address":null,"attributes":{"Date_Installed":"6/25/2018","LED_Powered":1,"LightID":"L044856","Light_Source":"LED","Light_Type":"Cobra","Lighting_Type":"LED-Powered Lamp","Verification_Date":null},"id":"stl-city-public-streetlights:2:152002","sourceLayerId":2,"sourceObjectId":152002,"sourceURL":"https://maps8.stlouis-mo.gov/arcgis/rest/services/STREETS/Streets_Permitting/MapServer/2","title":"Street light L044856"},"type":"Feature"},{"geometry":{"coordinates":[-90.23118788201688,38.70823098857594],"type":"Point"},"id":"stl-city-public-streetlights:2:152003","properties":{"address":null,"attributes":{"Date_Installed":"6/25/2018","LED_Powered":1,"LightID":"L044857","Light_Source":"LED","Light_Type":"Cobra","Lighting_Type":"LED-Powered Lamp","Verification_Date":null},"id":"stl-city-public-streetlights:2:152003","sourceLayerId":2,"sourceObjectId":152003,"sourceURL":"https://maps8.stlouis-mo.gov/arcgis/rest/services/STREETS/Streets_Permitting/MapServer/2","title":"Street light L044857"},"type":"Feature"},{"geometry":{"coordinates":[-90.23132530935452,38.7085759705954],"type":"Point"},"id":"stl-city-public-streetlights:2:152004","properties":{"address":null,"attributes":{"Date_Installed":"6/25/2018","LED_Powered":1,"LightID":"L044858","Light_Source":"LED","Light_Type":"Cobra","Lighting_Type":"LED-Powered Lamp","Verification_Date":null},"id":"stl-city-public-streetlights:2:152004","sourceLayerId":2,"sourceObjectId":152004,"sourceURL":"https://maps8.stlouis-mo.gov/arcgis/rest/services/STREETS/Streets_Permitting/MapServer/2","title":"Street light L044858"},"type":"Feature"},{"geometry":{"coordinates":[-90.23151679158721,38.70886472752316],"type":"Point"},"id":"stl-city-public-streetlights:2:152005","properties":{"address":null,"attributes":{"Date_Installed":"6/25/2018","LED_Powered":1,"LightID":"L044859","Light_Source":"LED","Light_Type":"Cobra","Lighting_Type":"LED-Powered Lamp","Verification_Date":null},"id":"stl-city-public-streetlights:2:152005","sourceLayerId":2,"sourceObjectId":152005,"sourceURL":"https://maps8.stlouis-mo.gov/arcgis/rest/services/STREETS/Streets_Permitting/MapServer/2","title":"Street light L044859"},"type":"Feature"},{"geometry":{"coordinates":[-90.231743884344,38.70914927584406],"type":"Point"},"id":"stl-city-public-streetlights:2:152006","properties":{"address":null,"attributes":{"Date_Installed":"6/25/2018","LED_Powered":1,"LightID":"L044860","Light_Source":"LED","Light_Type":"Cobra","Lighting_Type":"LED-Powered Lamp","Verification_Date":null},"id":"stl-city-public-streetlights:2:152006","sourceLayerId":2,"sourceObjectId":152006,"sourceURL":"https://maps8.stlouis-mo.gov/arcgis/rest/services/STREETS/Streets_Permitting/MapServer/2","title":"Street light L044860"},"type":"Feature"},{"geometry":{"coordinates":[-90.23185765144252,38.70947704117592],"type":"Point"},"id":"stl-city-public-streetlights:2:152007","properties":{"address":null,"attributes":{"Date_Installed":"6/25/2018","LED_Powered":1,"LightID":"L044861","Light_Source":"LED","Light_Type":"Cobra","Lighting_Type":"LED-Powered Lamp","Verification_Date":null},"id":"stl-city-public-streetlights:2:152007","sourceLayerId":2,"sourceObjectId":152007,"sourceURL":"https://maps8.stlouis-mo.gov/arcgis/rest/services/STREETS/Streets_Permitting/MapServer/2","title":"Street light L044861"},"type":"Feature"},{"geometry":{"coordinates":[-90.23197040360203,38.709832405159915],"type":"Point"},"id":"stl-city-public-streetlights:2:152008","properties":{"address":null,"attributes":{"Date_Installed":"6/25/2018","LED_Powered":1,"LightID":"L044862","Light_Source":"LED","Light_Type":"Cobra","Lighting_Type":"LED-Powered Lamp","Verification_Date":null},"id":"stl-city-public-streetlights:2:152008","sourceLayerId":2,"sourceObjectId":152008,"sourceURL":"https://maps8.stlouis-mo.gov/arcgis/rest/services/STREETS/Streets_Permitting/MapServer/2","title":"Street light L044862"},"type":"Feature"},{"geometry":{"coordinates":[-90.23307518518456,38.709776987866064],"type":"Point"},"id":"stl-city-public-streetlights:2:152029","properties":{"address":null,"attributes":{"Date_Installed":"6/25/2018","LED_Powered":1,"LightID":"L044883","Light_Source":"LED","Light_Type":"Cobra","Lighting_Type":"LED-Powered Lamp","Verification_Date":null},"id":"stl-city-public-streetlights:2:152029","sourceLayerId":2,"sourceObjectId":152029,"sourceURL":"https://maps8.stlouis-mo.gov/arcgis/rest/services/STREETS/Streets_Permitting/MapServer/2","title":"Street light L044883"},"type":"Feature"},{"geometry":{"coordinates":[-90.23296933835316,38.709444952734],"type":"Point"},"id":"stl-city-public-streetlights:2:152030","properties":{"address":null,"attributes":{"Date_Installed":"6/25/2018","LED_Powered":1,"LightID":"L044884","Light_Source":"LED","Light_Type":"Cobra","Lighting_Type":"LED-Powered Lamp","Verification_Date":null},"id":"stl-city-public-streetlights:2:152030","sourceLayerId":2,"sourceObjectId":152030,"sourceURL":"https://maps8.stlouis-mo.gov/arcgis/rest/services/STREETS/Streets_Permitting/MapServer/2","title":"Street light L044884"},"type":"Feature"},{"geometry":{"coordinates":[-90.23286873706843,38.70913379291336],"type":"Point"},"id":"stl-city-public-streetlights:2:152031","properties":{"address":null,"attributes":{"Date_Installed":"6/25/2018","LED_Powered":1,"LightID":"L044885","Light_Source":"LED","Light_Type":"Cobra","Lighting_Type":"LED-Powered Lamp","Verification_Date":null},"id":"stl-city-public-streetlights:2:152031","sourceLayerId":2,"sourceObjectId":152031,"sourceURL":"https://maps8.stlouis-mo.gov/arcgis/rest/services/STREETS/Streets_Permitting/MapServer/2","title":"Street light L044885"},"type":"Feature"},{"geometry":{"coordinates":[-90.23276470542083,38.70880481208298],"type":"Point"},"id":"stl-city-public-streetlights:2:152032","properties":{"address":null,"attributes":{"Date_Installed":"6/25/2018","LED_Powered":1,"LightID":"L044886","Light_Source":"LED","Light_Type":"Cobra","Lighting_Type":"LED-Powered Lamp","Verification_Date":null},"id":"stl-city-public-streetlights:2:152032","sourceLayerId":2,"sourceObjectId":152032,"sourceURL":"https://maps8.stlouis-mo.gov/arcgis/rest/services/STREETS/Streets_Permitting/MapServer/2","title":"Street light L044886"},"type":"Feature"},{"geometry":{"coordinates":[-90.23249932719283,38.708507687466174],"type":"Point"},"id":"stl-city-public-streetlights:2:152033","properties":{"address":null,"attributes":{"Date_Installed":"6/25/2018","LED_Powered":1,"LightID":"L044887","Light_Source":"LED","Light_Type":"Cobra","Lighting_Type":"LED-Powered Lamp","Verification_Date":null},"id":"stl-city-public-streetlights:2:152033","sourceLayerId":2,"sourceObjectId":152033,"sourceURL":"https://maps8.stlouis-mo.gov/arcgis/rest/services/STREETS/Streets_Permitting/MapServer/2","title":"Street light L044887"},"type":"Feature"},{"geometry":{"coordinates":[-90.2322373756151,38.708205803533694],"type":"Point"},"id":"stl-city-public-streetlights:2:152034","properties":{"address":null,"attributes":{"Date_Installed":"6/25/2018","LED_Powered":1,"LightID":"L044888","Light_Source":"LED","Light_Type":"Cobra","Lighting_Type":"LED-Powered Lamp","Verification_Date":null},"id":"stl-city-public-streetlights:2:152034","sourceLayerId":2,"sourceObjectId":152034,"sourceURL":"https://maps8.stlouis-mo.gov/arcgis/rest/services/STREETS/Streets_Permitting/MapServer/2","title":"Street light L044888"},"type":"Feature"},{"geometry":{"coordinates":[-90.23196767934337,38.70812099764791],"type":"Point"},"id":"stl-city-public-streetlights:2:152035","properties":{"address":null,"attributes":{"Date_Installed":"6/25/2018","LED_Powered":1,"LightID":"L044889","Light_Source":"LED","Light_Type":"Cobra","Lighting_Type":"LED-Powered Lamp","Verification_Date":null},"id":"stl-city-public-streetlights:2:152035","sourceLayerId":2,"sourceObjectId":152035,"sourceURL":"https://maps8.stlouis-mo.gov/arcgis/rest/services/STREETS/Streets_Permitting/MapServer/2","title":"Street light L044889"},"type":"Feature"},{"geometry":{"coordinates":[-90.23156255356672,38.707580283533005],"type":"Point"},"id":"stl-city-public-streetlights:2:152036","properties":{"address":null,"attributes":{"Date_Installed":"6/25/2018","LED_Powered":1,"LightID":"L044890","Light_Source":"LED","Light_Type":"Cobra","Lighting_Type":"LED-Powered Lamp","Verification_Date":null},"id":"stl-city-public-streetlights:2:152036","sourceLayerId":2,"sourceObjectId":152036,"sourceURL":"https://maps8.stlouis-mo.gov/arcgis/rest/services/STREETS/Streets_Permitting/MapServer/2","title":"Street light L044890"},"type":"Feature"},{"geometry":{"coordinates":[-90.23120628892454,38.707177569680695],"type":"Point"},"id":"stl-city-public-streetlights:2:152037","properties":{"address":null,"attributes":{"Date_Installed":"6/25/2018","LED_Powered":1,"LightID":"L044891","Light_Source":"LED","Light_Type":"Cobra","Lighting_Type":"LED-Powered Lamp","Verification_Date":null},"id":"stl-city-public-streetlights:2:152037","sourceLayerId":2,"sourceObjectId":152037,"sourceURL":"https://maps8.stlouis-mo.gov/arcgis/rest/services/STREETS/Streets_Permitting/MapServer/2","title":"Street light L044891"},"type":"Feature"},{"geometry":{"coordinates":[-90.2312877265109,38.70691348050843],"type":"Point"},"id":"stl-city-public-streetlights:2:152038","properties":{"address":null,"attributes":{"Date_Installed":"8/1/2016","LED_Powered":1,"LightID":"L044892","Light_Source":"LED","Light_Type":"Cobra","Lighting_Type":"LED-Powered Lamp","Verification_Date":null},"id":"stl-city-public-streetlights:2:152038","sourceLayerId":2,"sourceObjectId":152038,"sourceURL":"https://maps8.stlouis-mo.gov/arcgis/rest/services/STREETS/Streets_Permitting/MapServer/2","title":"Street light L044892"},"type":"Feature"},{"geometry":{"coordinates":[-90.23090732488168,38.70711625834053],"type":"Point"},"id":"stl-city-public-streetlights:2:152039","properties":{"address":null,"attributes":{"Date_Installed":"8/1/2016","LED_Powered":1,"LightID":"L044893","Light_Source":"LED","Light_Type":"Cobra","Lighting_Type":"LED-Powered Lamp","Verification_Date":null},"id":"stl-city-public-streetlights:2:152039","sourceLayerId":2,"sourceObjectId":152039,"sourceURL":"https://maps8.stlouis-mo.gov/arcgis/rest/services/STREETS/Streets_Permitting/MapServer/2","title":"Street light L044893"},"type":"Feature"},{"geometry":{"coordinates":[-90.23052693398752,38.707315603503574],"type":"Point"},"id":"stl-city-public-streetlights:2:152040","properties":{"address":null,"attributes":{"Date_Installed":"8/1/2016","LED_Powered":1,"LightID":"L044894","Light_Source":"LED","Light_Type":"Cobra","Lighting_Type":"LED-Powered Lamp","Verification_Date":null},"id":"stl-city-public-streetlights:2:152040","sourceLayerId":2,"sourceObjectId":152040,"sourceURL":"https://maps8.stlouis-mo.gov/arcgis/rest/services/STREETS/Streets_Permitting/MapServer/2","title":"Street light L044894"},"type":"Feature"},{"geometry":{"coordinates":[-90.23014757432057,38.70925937558331],"type":"Point"},"id":"stl-city-public-streetlights:2:152069","properties":{"address":null,"attributes":{"Date_Installed":"8/1/2016","LED_Powered":1,"LightID":"L044923","Light_Source":"LED","Light_Type":"Cobra","Lighting_Type":"LED-Powered Lamp","Verification_Date":null},"id":"stl-city-public-streetlights:2:152069","sourceLayerId":2,"sourceObjectId":152069,"sourceURL":"https://maps8.stlouis-mo.gov/arcgis/rest/services/STREETS/Streets_Permitting/MapServer/2","title":"Street light L044923"},"type":"Feature"},{"geometry":{"coordinates":[-90.23004151366752,38.70852143665158],"type":"Point"},"id":"stl-city-public-streetlights:2:152075","properties":{"address":null,"attributes":{"Date_Installed":"8/1/2016","LED_Powered":1,"LightID":"L044929","Light_Source":"LED","Light_Type":"Cobra","Lighting_Type":"LED-Powered Lamp","Verification_Date":null},"id":"stl-city-public-streetlights:2:152075","sourceLayerId":2,"sourceObjectId":152075,"sourceURL":"https://maps8.stlouis-mo.gov/arcgis/rest/services/STREETS/Streets_Permitting/MapServer/2","title":"Street light L044929"},"type":"Feature"},{"geometry":{"coordinates":[-90.23006878129833,38.707431624054706],"type":"Point"},"id":"stl-city-public-streetlights:2:152081","properties":{"address":null,"attributes":{"Date_Installed":"8/1/2016","LED_Powered":1,"LightID":"L044935","Light_Source":"LED","Light_Type":"Cobra","Lighting_Type":"LED-Powered Lamp","Verification_Date":null},"id":"stl-city-public-streetlights:2:152081","sourceLayerId":2,"sourceObjectId":152081,"sourceURL":"https://maps8.stlouis-mo.gov/arcgis/rest/services/STREETS/Streets_Permitting/MapServer/2","title":"Street light L044935"},"type":"Feature"},{"geometry":{"coordinates":[-90.23046620114725,38.70997343935672],"type":"Point"},"id":"stl-city-public-streetlights:2:158326","properties":{"address":null,"attributes":{"Date_Installed":null,"LED_Powered":0,"LightID":"L051029","Light_Source":"High Pressure Sodium","Light_Type":"Decorative","Lighting_Type":"King Luminaire (Historic Light Fixture)","Verification_Date":null},"id":"stl-city-public-streetlights:2:158326","sourceLayerId":2,"sourceObjectId":158326,"sourceURL":"https://maps8.stlouis-mo.gov/arcgis/rest/services/STREETS/Streets_Permitting/MapServer/2","title":"Street light L051029"},"type":"Feature"},{"geometry":{"coordinates":[-90.23044368906922,38.709527777075834],"type":"Point"},"id":"stl-city-public-streetlights:2:158327","properties":{"address":null,"attributes":{"Date_Installed":null,"LED_Powered":0,"LightID":"L051030","Light_Source":"High Pressure Sodium","Light_Type":"Decorative","Lighting_Type":"King Luminaire (Historic Light Fixture)","Verification_Date":null},"id":"stl-city-public-streetlights:2:158327","sourceLayerId":2,"sourceObjectId":158327,"sourceURL":"https://maps8.stlouis-mo.gov/arcgis/rest/services/STREETS/Streets_Permitting/MapServer/2","title":"Street light L051030"},"type":"Feature"},{"geometry":{"coordinates":[-90.23041731862506,38.708574798753006],"type":"Point"},"id":"stl-city-public-streetlights:2:158328","properties":{"address":null,"attributes":{"Date_Installed":null,"LED_Powered":0,"LightID":"L051031","Light_Source":"High Pressure Sodium","Light_Type":"Decorative","Lighting_Type":"King Luminaire (Historic Light Fixture)","Verification_Date":null},"id":"stl-city-public-streetlights:2:158328","sourceLayerId":2,"sourceObjectId":158328,"sourceURL":"https://maps8.stlouis-mo.gov/arcgis/rest/services/STREETS/Streets_Permitting/MapServer/2","title":"Street light L051031"},"type":"Feature"},{"geometry":{"coordinates":[-90.23038544521917,38.70818811960707],"type":"Point"},"id":"stl-city-public-streetlights:2:158329","properties":{"address":null,"attributes":{"Date_Installed":null,"LED_Powered":0,"LightID":"L051032","Light_Source":"High Pressure Sodium","Light_Type":"Decorative","Lighting_Type":"King Luminaire (Historic Light Fixture)","Verification_Date":null},"id":"stl-city-public-streetlights:2:158329","sourceLayerId":2,"sourceObjectId":158329,"sourceURL":"https://maps8.stlouis-mo.gov/arcgis/rest/services/STREETS/Streets_Permitting/MapServer/2","title":"Street light L051032"},"type":"Feature"},{"geometry":{"coordinates":[-90.23036548984882,38.70766964506228],"type":"Point"},"id":"stl-city-public-streetlights:2:158330","properties":{"address":null,"attributes":{"Date_Installed":null,"LED_Powered":0,"LightID":"L051033","Light_Source":"High Pressure Sodium","Light_Type":"Decorative","Lighting_Type":"King Luminaire (Historic Light Fixture)","Verification_Date":null},"id":"stl-city-public-streetlights:2:158330","sourceLayerId":2,"sourceObjectId":158330,"sourceURL":"https://maps8.stlouis-mo.gov/arcgis/rest/services/STREETS/Streets_Permitting/MapServer/2","title":"Street light L051033"},"type":"Feature"},{"geometry":{"coordinates":[-90.23034945204068,38.70728275281854],"type":"Point"},"id":"stl-city-public-streetlights:2:158331","properties":{"address":null,"attributes":{"Date_Installed":null,"LED_Powered":0,"LightID":"L051034","Light_Source":"High Pressure Sodium","Light_Type":"Decorative","Lighting_Type":"King Luminaire (Historic Light Fixture)","Verification_Date":null},"id":"stl-city-public-streetlights:2:158331","sourceLayerId":2,"sourceObjectId":158331,"sourceURL":"https://maps8.stlouis-mo.gov/arcgis/rest/services/STREETS/Streets_Permitting/MapServer/2","title":"Street light L051034"},"type":"Feature"},{"geometry":{"coordinates":[-90.23013663510095,38.70757329697745],"type":"Point"},"id":"stl-city-public-streetlights:2:158332","properties":{"address":null,"attributes":{"Date_Installed":null,"LED_Powered":0,"LightID":"L051035","Light_Source":"High Pressure Sodium","Light_Type":"Decorative","Lighting_Type":"King Luminaire (Historic Light Fixture)","Verification_Date":null},"id":"stl-city-public-streetlights:2:158332","sourceLayerId":2,"sourceObjectId":158332,"sourceURL":"https://maps8.stlouis-mo.gov/arcgis/rest/services/STREETS/Streets_Permitting/MapServer/2","title":"Street light L051035"},"type":"Feature"},{"geometry":{"coordinates":[-90.23018363983678,38.70890737575686],"type":"Point"},"id":"stl-city-public-streetlights:2:158333","properties":{"address":null,"attributes":{"Date_Installed":null,"LED_Powered":0,"LightID":"L051036","Light_Source":"High Pressure Sodium","Light_Type":"Decorative","Lighting_Type":"King Luminaire (Historic Light Fixture)","Verification_Date":null},"id":"stl-city-public-streetlights:2:158333","sourceLayerId":2,"sourceObjectId":158333,"sourceURL":"https://maps8.stlouis-mo.gov/arcgis/rest/services/STREETS/Streets_Permitting/MapServer/2","title":"Street light L051036"},"type":"Feature"},{"geometry":{"coordinates":[-90.23021520877481,38.70961348850991],"type":"Point"},"id":"stl-city-public-streetlights:2:158334","properties":{"address":null,"attributes":{"Date_Installed":null,"LED_Powered":0,"LightID":"L051037","Light_Source":"High Pressure Sodium","Light_Type":"Decorative","Lighting_Type":"King Luminaire (Historic Light Fixture)","Verification_Date":null},"id":"stl-city-public-streetlights:2:158334","sourceLayerId":2,"sourceObjectId":158334,"sourceURL":"https://maps8.stlouis-mo.gov/arcgis/rest/services/STREETS/Streets_Permitting/MapServer/2","title":"Street light L051037"},"type":"Feature"},{"geometry":{"coordinates":[-90.23021948456153,38.7099329452731],"type":"Point"},"id":"stl-city-public-streetlights:2:158335","properties":{"address":null,"attributes":{"Date_Installed":null,"LED_Powered":0,"LightID":"L051038","Light_Source":"High Pressure Sodium","Light_Type":"Decorative","Lighting_Type":"King Luminaire (Historic Light Fixture)","Verification_Date":null},"id":"stl-city-public-streetlights:2:158335","sourceLayerId":2,"sourceObjectId":158335,"sourceURL":"https://maps8.stlouis-mo.gov/arcgis/rest/services/STREETS/Streets_Permitting/MapServer/2","title":"Street light L051038"},"type":"Feature"}],"layerId":"city-streetlights","retrievedAt":"2026-09-13T21:56:18.173251+00:00","schema":"property-infrastructure-geojson-v1","sourceId":"stl-city-public-streetlights","tileId":"-9024_3870","type":"FeatureCollection"}