{"features":[{"geometry":{"coordinates":[-90.20516153568023,38.739732102412454],"type":"Point"},"id":"stl-city-public-streetlights:2:120579","properties":{"address":null,"attributes":{"Date_Installed":null,"LED_Powered":0,"LightID":"L013304","Light_Source":"High Pressure Sodium","Light_Type":"Cobra","Lighting_Type":"400-W High Pressure Sodium Vapor Lamp","Verification_Date":null},"id":"stl-city-public-streetlights:2:120579","sourceLayerId":2,"sourceObjectId":120579,"sourceURL":"https://maps8.stlouis-mo.gov/arcgis/rest/services/STREETS/Streets_Permitting/MapServer/2","title":"Street light L013304"},"type":"Feature"},{"geometry":{"coordinates":[-90.20556118987433,38.73941454562418],"type":"Point"},"id":"stl-city-public-streetlights:2:137633","properties":{"address":null,"attributes":{"Date_Installed":null,"LED_Powered":0,"LightID":"L030349","Light_Source":"High Pressure Sodium","Light_Type":"Cobra","Lighting_Type":"400-W High Pressure Sodium Vapor Lamp","Verification_Date":null},"id":"stl-city-public-streetlights:2:137633","sourceLayerId":2,"sourceObjectId":137633,"sourceURL":"https://maps8.stlouis-mo.gov/arcgis/rest/services/STREETS/Streets_Permitting/MapServer/2","title":"Street light L030349"},"type":"Feature"},{"geometry":{"coordinates":[-90.20591905396658,38.73912655889438],"type":"Point"},"id":"stl-city-public-streetlights:2:137634","properties":{"address":null,"attributes":{"Date_Installed":null,"LED_Powered":0,"LightID":"L030350","Light_Source":"High Pressure Sodium","Light_Type":"Cobra","Lighting_Type":"400-W High Pressure Sodium Vapor Lamp","Verification_Date":null},"id":"stl-city-public-streetlights:2:137634","sourceLayerId":2,"sourceObjectId":137634,"sourceURL":"https://maps8.stlouis-mo.gov/arcgis/rest/services/STREETS/Streets_Permitting/MapServer/2","title":"Street light L030350"},"type":"Feature"},{"geometry":{"coordinates":[-90.20628118851742,38.738835435030005],"type":"Point"},"id":"stl-city-public-streetlights:2:137635","properties":{"address":null,"attributes":{"Date_Installed":null,"LED_Powered":0,"LightID":"L030351","Light_Source":"High Pressure Sodium","Light_Type":"Cobra","Lighting_Type":"400-W High Pressure Sodium Vapor Lamp","Verification_Date":null},"id":"stl-city-public-streetlights:2:137635","sourceLayerId":2,"sourceObjectId":137635,"sourceURL":"https://maps8.stlouis-mo.gov/arcgis/rest/services/STREETS/Streets_Permitting/MapServer/2","title":"Street light L030351"},"type":"Feature"},{"geometry":{"coordinates":[-90.20665487665356,38.738546531742706],"type":"Point"},"id":"stl-city-public-streetlights:2:137636","properties":{"address":null,"attributes":{"Date_Installed":null,"LED_Powered":0,"LightID":"L030352","Light_Source":"High Pressure Sodium","Light_Type":"Cobra","Lighting_Type":"400-W High Pressure Sodium Vapor Lamp","Verification_Date":null},"id":"stl-city-public-streetlights:2:137636","sourceLayerId":2,"sourceObjectId":137636,"sourceURL":"https://maps8.stlouis-mo.gov/arcgis/rest/services/STREETS/Streets_Permitting/MapServer/2","title":"Street light L030352"},"type":"Feature"},{"geometry":{"coordinates":[-90.20702420945769,38.73824998863237],"type":"Point"},"id":"stl-city-public-streetlights:2:137637","properties":{"address":null,"attributes":{"Date_Installed":null,"LED_Powered":0,"LightID":"L030353","Light_Source":"High Pressure Sodium","Light_Type":"Cobra","Lighting_Type":"400-W High Pressure Sodium Vapor Lamp","Verification_Date":null},"id":"stl-city-public-streetlights:2:137637","sourceLayerId":2,"sourceObjectId":137637,"sourceURL":"https://maps8.stlouis-mo.gov/arcgis/rest/services/STREETS/Streets_Permitting/MapServer/2","title":"Street light L030353"},"type":"Feature"},{"geometry":{"coordinates":[-90.20739304447639,38.73795573220937],"type":"Point"},"id":"stl-city-public-streetlights:2:137638","properties":{"address":null,"attributes":{"Date_Installed":null,"LED_Powered":0,"LightID":"L030354","Light_Source":"High Pressure Sodium","Light_Type":"Cobra","Lighting_Type":"400-W High Pressure Sodium Vapor Lamp","Verification_Date":null},"id":"stl-city-public-streetlights:2:137638","sourceLayerId":2,"sourceObjectId":137638,"sourceURL":"https://maps8.stlouis-mo.gov/arcgis/rest/services/STREETS/Streets_Permitting/MapServer/2","title":"Street light L030354"},"type":"Feature"},{"geometry":{"coordinates":[-90.2077610916357,38.73766693102665],"type":"Point"},"id":"stl-city-public-streetlights:2:137639","properties":{"address":null,"attributes":{"Date_Installed":null,"LED_Powered":0,"LightID":"L030355","Light_Source":"High Pressure Sodium","Light_Type":"Cobra","Lighting_Type":"400-W High Pressure Sodium Vapor Lamp","Verification_Date":null},"id":"stl-city-public-streetlights:2:137639","sourceLayerId":2,"sourceObjectId":137639,"sourceURL":"https://maps8.stlouis-mo.gov/arcgis/rest/services/STREETS/Streets_Permitting/MapServer/2","title":"Street light L030355"},"type":"Feature"},{"geometry":{"coordinates":[-90.20813066743888,38.73737598570157],"type":"Point"},"id":"stl-city-public-streetlights:2:137640","properties":{"address":null,"attributes":{"Date_Installed":null,"LED_Powered":0,"LightID":"L030356","Light_Source":"High Pressure Sodium","Light_Type":"Cobra","Lighting_Type":"400-W High Pressure Sodium Vapor Lamp","Verification_Date":null},"id":"stl-city-public-streetlights:2:137640","sourceLayerId":2,"sourceObjectId":137640,"sourceURL":"https://maps8.stlouis-mo.gov/arcgis/rest/services/STREETS/Streets_Permitting/MapServer/2","title":"Street light L030356"},"type":"Feature"},{"geometry":{"coordinates":[-90.20850726745056,38.73708574947569],"type":"Point"},"id":"stl-city-public-streetlights:2:137641","properties":{"address":null,"attributes":{"Date_Installed":null,"LED_Powered":0,"LightID":"L030357","Light_Source":"High Pressure Sodium","Light_Type":"Cobra","Lighting_Type":"400-W High Pressure Sodium Vapor Lamp","Verification_Date":null},"id":"stl-city-public-streetlights:2:137641","sourceLayerId":2,"sourceObjectId":137641,"sourceURL":"https://maps8.stlouis-mo.gov/arcgis/rest/services/STREETS/Streets_Permitting/MapServer/2","title":"Street light L030357"},"type":"Feature"},{"geometry":{"coordinates":[-90.20888486690278,38.73680328364108],"type":"Point"},"id":"stl-city-public-streetlights:2:137642","properties":{"address":null,"attributes":{"Date_Installed":null,"LED_Powered":0,"LightID":"L030358","Light_Source":"High Pressure Sodium","Light_Type":"Cobra","Lighting_Type":"400-W High Pressure Sodium Vapor Lamp","Verification_Date":null},"id":"stl-city-public-streetlights:2:137642","sourceLayerId":2,"sourceObjectId":137642,"sourceURL":"https://maps8.stlouis-mo.gov/arcgis/rest/services/STREETS/Streets_Permitting/MapServer/2","title":"Street light L030358"},"type":"Feature"},{"geometry":{"coordinates":[-90.20926402469844,38.736511048667495],"type":"Point"},"id":"stl-city-public-streetlights:2:137643","properties":{"address":null,"attributes":{"Date_Installed":null,"LED_Powered":0,"LightID":"L030359","Light_Source":"High Pressure Sodium","Light_Type":"Cobra","Lighting_Type":"400-W High Pressure Sodium Vapor Lamp","Verification_Date":null},"id":"stl-city-public-streetlights:2:137643","sourceLayerId":2,"sourceObjectId":137643,"sourceURL":"https://maps8.stlouis-mo.gov/arcgis/rest/services/STREETS/Streets_Permitting/MapServer/2","title":"Street light L030359"},"type":"Feature"},{"geometry":{"coordinates":[-90.20963769063647,38.73622165907924],"type":"Point"},"id":"stl-city-public-streetlights:2:137644","properties":{"address":null,"attributes":{"Date_Installed":null,"LED_Powered":0,"LightID":"L030360","Light_Source":"High Pressure Sodium","Light_Type":"Cobra","Lighting_Type":"400-W High Pressure Sodium Vapor Lamp","Verification_Date":null},"id":"stl-city-public-streetlights:2:137644","sourceLayerId":2,"sourceObjectId":137644,"sourceURL":"https://maps8.stlouis-mo.gov/arcgis/rest/services/STREETS/Streets_Permitting/MapServer/2","title":"Street light L030360"},"type":"Feature"},{"geometry":{"coordinates":[-90.20586197384229,38.73959804223171],"type":"Point"},"id":"stl-city-public-streetlights:2:137647","properties":{"address":null,"attributes":{"Date_Installed":null,"LED_Powered":0,"LightID":"L030363","Light_Source":"LED","Light_Type":"Cobra","Lighting_Type":"LED-Powered Lamp","Verification_Date":null},"id":"stl-city-public-streetlights:2:137647","sourceLayerId":2,"sourceObjectId":137647,"sourceURL":"https://maps8.stlouis-mo.gov/arcgis/rest/services/STREETS/Streets_Permitting/MapServer/2","title":"Street light L030363"},"type":"Feature"},{"geometry":{"coordinates":[-90.20628092795185,38.73962722086742],"type":"Point"},"id":"stl-city-public-streetlights:2:137648","properties":{"address":null,"attributes":{"Date_Installed":null,"LED_Powered":0,"LightID":"L030364","Light_Source":"LED","Light_Type":"Cobra","Lighting_Type":"LED-Powered Lamp","Verification_Date":null},"id":"stl-city-public-streetlights:2:137648","sourceLayerId":2,"sourceObjectId":137648,"sourceURL":"https://maps8.stlouis-mo.gov/arcgis/rest/services/STREETS/Streets_Permitting/MapServer/2","title":"Street light L030364"},"type":"Feature"},{"geometry":{"coordinates":[-90.20675092095101,38.73967845599906],"type":"Point"},"id":"stl-city-public-streetlights:2:137649","properties":{"address":null,"attributes":{"Date_Installed":null,"LED_Powered":0,"LightID":"L030365","Light_Source":"LED","Light_Type":"Cobra","Lighting_Type":"LED-Powered Lamp","Verification_Date":null},"id":"stl-city-public-streetlights:2:137649","sourceLayerId":2,"sourceObjectId":137649,"sourceURL":"https://maps8.stlouis-mo.gov/arcgis/rest/services/STREETS/Streets_Permitting/MapServer/2","title":"Street light L030365"},"type":"Feature"},{"geometry":{"coordinates":[-90.20721043008346,38.73971869845727],"type":"Point"},"id":"stl-city-public-streetlights:2:137650","properties":{"address":null,"attributes":{"Date_Installed":null,"LED_Powered":0,"LightID":"L030366","Light_Source":"LED","Light_Type":"Cobra","Lighting_Type":"LED-Powered Lamp","Verification_Date":null},"id":"stl-city-public-streetlights:2:137650","sourceLayerId":2,"sourceObjectId":137650,"sourceURL":"https://maps8.stlouis-mo.gov/arcgis/rest/services/STREETS/Streets_Permitting/MapServer/2","title":"Street light L030366"},"type":"Feature"},{"geometry":{"coordinates":[-90.20769168021423,38.73977091112503],"type":"Point"},"id":"stl-city-public-streetlights:2:137651","properties":{"address":null,"attributes":{"Date_Installed":null,"LED_Powered":0,"LightID":"L030367","Light_Source":"LED","Light_Type":"Cobra","Lighting_Type":"LED-Powered Lamp","Verification_Date":null},"id":"stl-city-public-streetlights:2:137651","sourceLayerId":2,"sourceObjectId":137651,"sourceURL":"https://maps8.stlouis-mo.gov/arcgis/rest/services/STREETS/Streets_Permitting/MapServer/2","title":"Street light L030367"},"type":"Feature"},{"geometry":{"coordinates":[-90.20814292239454,38.73985355586947],"type":"Point"},"id":"stl-city-public-streetlights:2:137652","properties":{"address":null,"attributes":{"Date_Installed":null,"LED_Powered":0,"LightID":"L030368","Light_Source":"LED","Light_Type":"Cobra","Lighting_Type":"LED-Powered Lamp","Verification_Date":null},"id":"stl-city-public-streetlights:2:137652","sourceLayerId":2,"sourceObjectId":137652,"sourceURL":"https://maps8.stlouis-mo.gov/arcgis/rest/services/STREETS/Streets_Permitting/MapServer/2","title":"Street light L030368"},"type":"Feature"}],"layerId":"city-streetlights","retrievedAt":"2026-09-13T21:56:18.173251+00:00","schema":"property-infrastructure-geojson-v1","sourceId":"stl-city-public-streetlights","tileId":"-9021_3873","type":"FeatureCollection"}