{"features":[{"geometry":{"coordinates":[-90.22336302624771,38.68998601020409],"type":"Point"},"id":"stl-city-public-streetlights:2:126305","properties":{"address":null,"attributes":{"Date_Installed":"8/1/2016","LED_Powered":1,"LightID":"L019033","Light_Source":"LED","Light_Type":"Cobra","Lighting_Type":"LED-Powered Lamp","Verification_Date":null},"id":"stl-city-public-streetlights:2:126305","sourceLayerId":2,"sourceObjectId":126305,"sourceURL":"https://maps8.stlouis-mo.gov/arcgis/rest/services/STREETS/Streets_Permitting/MapServer/2","title":"Street light L019033"},"type":"Feature"},{"geometry":{"coordinates":[-90.22314120346712,38.689463003035826],"type":"Point"},"id":"stl-city-public-streetlights:2:126306","properties":{"address":null,"attributes":{"Date_Installed":"8/1/2016","LED_Powered":1,"LightID":"L019034","Light_Source":"LED","Light_Type":"Cobra","Lighting_Type":"LED-Powered Lamp","Verification_Date":null},"id":"stl-city-public-streetlights:2:126306","sourceLayerId":2,"sourceObjectId":126306,"sourceURL":"https://maps8.stlouis-mo.gov/arcgis/rest/services/STREETS/Streets_Permitting/MapServer/2","title":"Street light L019034"},"type":"Feature"},{"geometry":{"coordinates":[-90.22286567488584,38.688987730169124],"type":"Point"},"id":"stl-city-public-streetlights:2:126307","properties":{"address":null,"attributes":{"Date_Installed":"8/1/2016","LED_Powered":1,"LightID":"L019035","Light_Source":"LED","Light_Type":"Cobra","Lighting_Type":"LED-Powered Lamp","Verification_Date":null},"id":"stl-city-public-streetlights:2:126307","sourceLayerId":2,"sourceObjectId":126307,"sourceURL":"https://maps8.stlouis-mo.gov/arcgis/rest/services/STREETS/Streets_Permitting/MapServer/2","title":"Street light L019035"},"type":"Feature"},{"geometry":{"coordinates":[-90.22259977860249,38.68853898609882],"type":"Point"},"id":"stl-city-public-streetlights:2:126308","properties":{"address":null,"attributes":{"Date_Installed":"8/1/2016","LED_Powered":1,"LightID":"L019036","Light_Source":"LED","Light_Type":"Cobra","Lighting_Type":"LED-Powered Lamp","Verification_Date":null},"id":"stl-city-public-streetlights:2:126308","sourceLayerId":2,"sourceObjectId":126308,"sourceURL":"https://maps8.stlouis-mo.gov/arcgis/rest/services/STREETS/Streets_Permitting/MapServer/2","title":"Street light L019036"},"type":"Feature"},{"geometry":{"coordinates":[-90.22227473368609,38.688098299867164],"type":"Point"},"id":"stl-city-public-streetlights:2:126309","properties":{"address":null,"attributes":{"Date_Installed":"8/1/2016","LED_Powered":1,"LightID":"L019037","Light_Source":"LED","Light_Type":"Cobra","Lighting_Type":"LED-Powered Lamp","Verification_Date":null},"id":"stl-city-public-streetlights:2:126309","sourceLayerId":2,"sourceObjectId":126309,"sourceURL":"https://maps8.stlouis-mo.gov/arcgis/rest/services/STREETS/Streets_Permitting/MapServer/2","title":"Street light L019037"},"type":"Feature"},{"geometry":{"coordinates":[-90.22192598456952,38.68768558727072],"type":"Point"},"id":"stl-city-public-streetlights:2:126310","properties":{"address":null,"attributes":{"Date_Installed":"8/1/2016","LED_Powered":1,"LightID":"L019038","Light_Source":"LED","Light_Type":"Cobra","Lighting_Type":"LED-Powered Lamp","Verification_Date":null},"id":"stl-city-public-streetlights:2:126310","sourceLayerId":2,"sourceObjectId":126310,"sourceURL":"https://maps8.stlouis-mo.gov/arcgis/rest/services/STREETS/Streets_Permitting/MapServer/2","title":"Street light L019038"},"type":"Feature"},{"geometry":{"coordinates":[-90.2216799302621,38.68742036983406],"type":"Point"},"id":"stl-city-public-streetlights:2:126311","properties":{"address":null,"attributes":{"Date_Installed":null,"LED_Powered":0,"LightID":"L019039","Light_Source":"High Pressure Sodium","Light_Type":"Cobra","Lighting_Type":"70-W High Pressure Sodium Vapor Wallpack","Verification_Date":null},"id":"stl-city-public-streetlights:2:126311","sourceLayerId":2,"sourceObjectId":126311,"sourceURL":"https://maps8.stlouis-mo.gov/arcgis/rest/services/STREETS/Streets_Permitting/MapServer/2","title":"Street light L019039"},"type":"Feature"},{"geometry":{"coordinates":[-90.2255401565899,38.68165217711897],"type":"Point"},"id":"stl-city-public-streetlights:2:127091","properties":{"address":null,"attributes":{"Date_Installed":null,"LED_Powered":1,"LightID":"L019807","Light_Source":"LED","Light_Type":"Cobra","Lighting_Type":"LED-Powered Lamp","Verification_Date":null},"id":"stl-city-public-streetlights:2:127091","sourceLayerId":2,"sourceObjectId":127091,"sourceURL":"https://maps8.stlouis-mo.gov/arcgis/rest/services/STREETS/Streets_Permitting/MapServer/2","title":"Street light L019807"},"type":"Feature"},{"geometry":{"coordinates":[-90.22528211201553,38.68133967856405],"type":"Point"},"id":"stl-city-public-streetlights:2:127092","properties":{"address":null,"attributes":{"Date_Installed":null,"LED_Powered":1,"LightID":"L019808","Light_Source":"LED","Light_Type":"Cobra","Lighting_Type":"LED-Powered Lamp","Verification_Date":null},"id":"stl-city-public-streetlights:2:127092","sourceLayerId":2,"sourceObjectId":127092,"sourceURL":"https://maps8.stlouis-mo.gov/arcgis/rest/services/STREETS/Streets_Permitting/MapServer/2","title":"Street light L019808"},"type":"Feature"},{"geometry":{"coordinates":[-90.22503233648547,38.68105246501845],"type":"Point"},"id":"stl-city-public-streetlights:2:127093","properties":{"address":null,"attributes":{"Date_Installed":null,"LED_Powered":1,"LightID":"L019809","Light_Source":"LED","Light_Type":"Cobra","Lighting_Type":"LED-Powered Lamp","Verification_Date":null},"id":"stl-city-public-streetlights:2:127093","sourceLayerId":2,"sourceObjectId":127093,"sourceURL":"https://maps8.stlouis-mo.gov/arcgis/rest/services/STREETS/Streets_Permitting/MapServer/2","title":"Street light L019809"},"type":"Feature"},{"geometry":{"coordinates":[-90.22484441804458,38.68075614801183],"type":"Point"},"id":"stl-city-public-streetlights:2:127094","properties":{"address":null,"attributes":{"Date_Installed":null,"LED_Powered":1,"LightID":"L019810","Light_Source":"LED","Light_Type":"Cobra","Lighting_Type":"LED-Powered Lamp","Verification_Date":null},"id":"stl-city-public-streetlights:2:127094","sourceLayerId":2,"sourceObjectId":127094,"sourceURL":"https://maps8.stlouis-mo.gov/arcgis/rest/services/STREETS/Streets_Permitting/MapServer/2","title":"Street light L019810"},"type":"Feature"},{"geometry":{"coordinates":[-90.22459207569159,38.680282602416085],"type":"Point"},"id":"stl-city-public-streetlights:2:127095","properties":{"address":null,"attributes":{"Date_Installed":null,"LED_Powered":1,"LightID":"L019811","Light_Source":"LED","Light_Type":"Cobra","Lighting_Type":"LED-Powered Lamp","Verification_Date":null},"id":"stl-city-public-streetlights:2:127095","sourceLayerId":2,"sourceObjectId":127095,"sourceURL":"https://maps8.stlouis-mo.gov/arcgis/rest/services/STREETS/Streets_Permitting/MapServer/2","title":"Street light L019811"},"type":"Feature"},{"geometry":{"coordinates":[-90.22422815262463,38.68004269387412],"type":"Point"},"id":"stl-city-public-streetlights:2:127131","properties":{"address":null,"attributes":{"Date_Installed":null,"LED_Powered":1,"LightID":"L019847","Light_Source":"LED","Light_Type":"Cobra","Lighting_Type":"LED-Powered Lamp","Verification_Date":null},"id":"stl-city-public-streetlights:2:127131","sourceLayerId":2,"sourceObjectId":127131,"sourceURL":"https://maps8.stlouis-mo.gov/arcgis/rest/services/STREETS/Streets_Permitting/MapServer/2","title":"Street light L019847"},"type":"Feature"},{"geometry":{"coordinates":[-90.22443181858262,38.68044192529605],"type":"Point"},"id":"stl-city-public-streetlights:2:127132","properties":{"address":null,"attributes":{"Date_Installed":null,"LED_Powered":1,"LightID":"L019848","Light_Source":"LED","Light_Type":"Cobra","Lighting_Type":"LED-Powered Lamp","Verification_Date":null},"id":"stl-city-public-streetlights:2:127132","sourceLayerId":2,"sourceObjectId":127132,"sourceURL":"https://maps8.stlouis-mo.gov/arcgis/rest/services/STREETS/Streets_Permitting/MapServer/2","title":"Street light L019848"},"type":"Feature"},{"geometry":{"coordinates":[-90.22466719365315,38.68088353913871],"type":"Point"},"id":"stl-city-public-streetlights:2:127133","properties":{"address":null,"attributes":{"Date_Installed":null,"LED_Powered":1,"LightID":"L019849","Light_Source":"LED","Light_Type":"Cobra","Lighting_Type":"LED-Powered Lamp","Verification_Date":null},"id":"stl-city-public-streetlights:2:127133","sourceLayerId":2,"sourceObjectId":127133,"sourceURL":"https://maps8.stlouis-mo.gov/arcgis/rest/services/STREETS/Streets_Permitting/MapServer/2","title":"Street light L019849"},"type":"Feature"},{"geometry":{"coordinates":[-90.22482201172997,38.68118366405398],"type":"Point"},"id":"stl-city-public-streetlights:2:127134","properties":{"address":null,"attributes":{"Date_Installed":null,"LED_Powered":1,"LightID":"L019850","Light_Source":"LED","Light_Type":"Cobra","Lighting_Type":"LED-Powered Lamp","Verification_Date":null},"id":"stl-city-public-streetlights:2:127134","sourceLayerId":2,"sourceObjectId":127134,"sourceURL":"https://maps8.stlouis-mo.gov/arcgis/rest/services/STREETS/Streets_Permitting/MapServer/2","title":"Street light L019850"},"type":"Feature"},{"geometry":{"coordinates":[-90.22499044437278,38.68147038860749],"type":"Point"},"id":"stl-city-public-streetlights:2:127135","properties":{"address":null,"attributes":{"Date_Installed":null,"LED_Powered":1,"LightID":"L019851","Light_Source":"LED","Light_Type":"Cobra","Lighting_Type":"LED-Powered Lamp","Verification_Date":null},"id":"stl-city-public-streetlights:2:127135","sourceLayerId":2,"sourceObjectId":127135,"sourceURL":"https://maps8.stlouis-mo.gov/arcgis/rest/services/STREETS/Streets_Permitting/MapServer/2","title":"Street light L019851"},"type":"Feature"},{"geometry":{"coordinates":[-90.22515989811366,38.681689422099765],"type":"Point"},"id":"stl-city-public-streetlights:2:127136","properties":{"address":null,"attributes":{"Date_Installed":null,"LED_Powered":1,"LightID":"L019852","Light_Source":"LED","Light_Type":"Cobra","Lighting_Type":"LED-Powered Lamp","Verification_Date":null},"id":"stl-city-public-streetlights:2:127136","sourceLayerId":2,"sourceObjectId":127136,"sourceURL":"https://maps8.stlouis-mo.gov/arcgis/rest/services/STREETS/Streets_Permitting/MapServer/2","title":"Street light L019852"},"type":"Feature"},{"geometry":{"coordinates":[-90.22542648209027,38.68195581847936],"type":"Point"},"id":"stl-city-public-streetlights:2:127137","properties":{"address":null,"attributes":{"Date_Installed":null,"LED_Powered":1,"LightID":"L019853","Light_Source":"LED","Light_Type":"Cobra","Lighting_Type":"LED-Powered Lamp","Verification_Date":null},"id":"stl-city-public-streetlights:2:127137","sourceLayerId":2,"sourceObjectId":127137,"sourceURL":"https://maps8.stlouis-mo.gov/arcgis/rest/services/STREETS/Streets_Permitting/MapServer/2","title":"Street light L019853"},"type":"Feature"},{"geometry":{"coordinates":[-90.22578621586136,38.682217069727095],"type":"Point"},"id":"stl-city-public-streetlights:2:127138","properties":{"address":null,"attributes":{"Date_Installed":null,"LED_Powered":1,"LightID":"L019854","Light_Source":"LED","Light_Type":"Cobra","Lighting_Type":"LED-Powered Lamp","Verification_Date":null},"id":"stl-city-public-streetlights:2:127138","sourceLayerId":2,"sourceObjectId":127138,"sourceURL":"https://maps8.stlouis-mo.gov/arcgis/rest/services/STREETS/Streets_Permitting/MapServer/2","title":"Street light L019854"},"type":"Feature"},{"geometry":{"coordinates":[-90.22383988943297,38.68018212895294],"type":"Point"},"id":"stl-city-public-streetlights:2:127298","properties":{"address":null,"attributes":{"Date_Installed":null,"LED_Powered":0,"LightID":"L020014","Light_Source":"LED","Light_Type":"Cobra","Lighting_Type":"LED-Powered Lamp","Verification_Date":null},"id":"stl-city-public-streetlights:2:127298","sourceLayerId":2,"sourceObjectId":127298,"sourceURL":"https://maps8.stlouis-mo.gov/arcgis/rest/services/STREETS/Streets_Permitting/MapServer/2","title":"Street light L020014"},"type":"Feature"},{"geometry":{"coordinates":[-90.22374859213602,38.68051704617833],"type":"Point"},"id":"stl-city-public-streetlights:2:127299","properties":{"address":null,"attributes":{"Date_Installed":null,"LED_Powered":0,"LightID":"L020015","Light_Source":"LED","Light_Type":"Cobra","Lighting_Type":"LED-Powered Lamp","Verification_Date":null},"id":"stl-city-public-streetlights:2:127299","sourceLayerId":2,"sourceObjectId":127299,"sourceURL":"https://maps8.stlouis-mo.gov/arcgis/rest/services/STREETS/Streets_Permitting/MapServer/2","title":"Street light L020015"},"type":"Feature"},{"geometry":{"coordinates":[-90.2236603909922,38.68083771686428],"type":"Point"},"id":"stl-city-public-streetlights:2:127300","properties":{"address":null,"attributes":{"Date_Installed":null,"LED_Powered":0,"LightID":"L020016","Light_Source":"LED","Light_Type":"Cobra","Lighting_Type":"LED-Powered Lamp","Verification_Date":null},"id":"stl-city-public-streetlights:2:127300","sourceLayerId":2,"sourceObjectId":127300,"sourceURL":"https://maps8.stlouis-mo.gov/arcgis/rest/services/STREETS/Streets_Permitting/MapServer/2","title":"Street light L020016"},"type":"Feature"},{"geometry":{"coordinates":[-90.22361898653855,38.681166553752306],"type":"Point"},"id":"stl-city-public-streetlights:2:127301","properties":{"address":null,"attributes":{"Date_Installed":null,"LED_Powered":0,"LightID":"L020017","Light_Source":"LED","Light_Type":"Cobra","Lighting_Type":"LED-Powered Lamp","Verification_Date":null},"id":"stl-city-public-streetlights:2:127301","sourceLayerId":2,"sourceObjectId":127301,"sourceURL":"https://maps8.stlouis-mo.gov/arcgis/rest/services/STREETS/Streets_Permitting/MapServer/2","title":"Street light L020017"},"type":"Feature"},{"geometry":{"coordinates":[-90.22381496979487,38.68144418131953],"type":"Point"},"id":"stl-city-public-streetlights:2:127302","properties":{"address":null,"attributes":{"Date_Installed":null,"LED_Powered":0,"LightID":"L020018","Light_Source":"LED","Light_Type":"Cobra","Lighting_Type":"LED-Powered Lamp","Verification_Date":null},"id":"stl-city-public-streetlights:2:127302","sourceLayerId":2,"sourceObjectId":127302,"sourceURL":"https://maps8.stlouis-mo.gov/arcgis/rest/services/STREETS/Streets_Permitting/MapServer/2","title":"Street light L020018"},"type":"Feature"},{"geometry":{"coordinates":[-90.22418999214904,38.681566628692195],"type":"Point"},"id":"stl-city-public-streetlights:2:127303","properties":{"address":null,"attributes":{"Date_Installed":null,"LED_Powered":0,"LightID":"L020019","Light_Source":"LED","Light_Type":"Cobra","Lighting_Type":"LED-Powered Lamp","Verification_Date":null},"id":"stl-city-public-streetlights:2:127303","sourceLayerId":2,"sourceObjectId":127303,"sourceURL":"https://maps8.stlouis-mo.gov/arcgis/rest/services/STREETS/Streets_Permitting/MapServer/2","title":"Street light L020019"},"type":"Feature"},{"geometry":{"coordinates":[-90.22460476198842,38.681649125139515],"type":"Point"},"id":"stl-city-public-streetlights:2:127304","properties":{"address":null,"attributes":{"Date_Installed":null,"LED_Powered":0,"LightID":"L020020","Light_Source":"LED","Light_Type":"Cobra","Lighting_Type":"LED-Powered Lamp","Verification_Date":null},"id":"stl-city-public-streetlights:2:127304","sourceLayerId":2,"sourceObjectId":127304,"sourceURL":"https://maps8.stlouis-mo.gov/arcgis/rest/services/STREETS/Streets_Permitting/MapServer/2","title":"Street light L020020"},"type":"Feature"},{"geometry":{"coordinates":[-90.22502044534467,38.68173162226377],"type":"Point"},"id":"stl-city-public-streetlights:2:127305","properties":{"address":null,"attributes":{"Date_Installed":null,"LED_Powered":0,"LightID":"L020021","Light_Source":"LED","Light_Type":"Cobra","Lighting_Type":"LED-Powered Lamp","Verification_Date":null},"id":"stl-city-public-streetlights:2:127305","sourceLayerId":2,"sourceObjectId":127305,"sourceURL":"https://maps8.stlouis-mo.gov/arcgis/rest/services/STREETS/Streets_Permitting/MapServer/2","title":"Street light L020021"},"type":"Feature"},{"geometry":{"coordinates":[-90.22027605211491,38.68627180898765],"type":"Point"},"id":"stl-city-public-streetlights:2:130875","properties":{"address":null,"attributes":{"Date_Installed":"4/1/2017","LED_Powered":1,"LightID":"L023591","Light_Source":"LED","Light_Type":"Cobra","Lighting_Type":"LED-Powered Lamp","Verification_Date":null},"id":"stl-city-public-streetlights:2:130875","sourceLayerId":2,"sourceObjectId":130875,"sourceURL":"https://maps8.stlouis-mo.gov/arcgis/rest/services/STREETS/Streets_Permitting/MapServer/2","title":"Street light L023591"},"type":"Feature"},{"geometry":{"coordinates":[-90.22082452968885,38.68669959060437],"type":"Point"},"id":"stl-city-public-streetlights:2:130876","properties":{"address":null,"attributes":{"Date_Installed":"8/1/2016","LED_Powered":1,"LightID":"L023592","Light_Source":"LED","Light_Type":"Cobra","Lighting_Type":"LED-Powered Lamp","Verification_Date":null},"id":"stl-city-public-streetlights:2:130876","sourceLayerId":2,"sourceObjectId":130876,"sourceURL":"https://maps8.stlouis-mo.gov/arcgis/rest/services/STREETS/Streets_Permitting/MapServer/2","title":"Street light L023592"},"type":"Feature"},{"geometry":{"coordinates":[-90.22122795712885,38.68699993119957],"type":"Point"},"id":"stl-city-public-streetlights:2:130877","properties":{"address":null,"attributes":{"Date_Installed":"8/1/2016","LED_Powered":1,"LightID":"L023593","Light_Source":"LED","Light_Type":"Cobra","Lighting_Type":"LED-Powered Lamp","Verification_Date":null},"id":"stl-city-public-streetlights:2:130877","sourceLayerId":2,"sourceObjectId":130877,"sourceURL":"https://maps8.stlouis-mo.gov/arcgis/rest/services/STREETS/Streets_Permitting/MapServer/2","title":"Street light L023593"},"type":"Feature"},{"geometry":{"coordinates":[-90.22153592481119,38.68726133405985],"type":"Point"},"id":"stl-city-public-streetlights:2:130878","properties":{"address":null,"attributes":{"Date_Installed":"8/1/2016","LED_Powered":1,"LightID":"L023594","Light_Source":"LED","Light_Type":"Cobra","Lighting_Type":"LED-Powered Lamp","Verification_Date":null},"id":"stl-city-public-streetlights:2:130878","sourceLayerId":2,"sourceObjectId":130878,"sourceURL":"https://maps8.stlouis-mo.gov/arcgis/rest/services/STREETS/Streets_Permitting/MapServer/2","title":"Street light L023594"},"type":"Feature"},{"geometry":{"coordinates":[-90.22033326428648,38.68602738887633],"type":"Point"},"id":"stl-city-public-streetlights:2:130884","properties":{"address":null,"attributes":{"Date_Installed":"4/1/2017","LED_Powered":1,"LightID":"L023600","Light_Source":"LED","Light_Type":"Cobra","Lighting_Type":"LED-Powered Lamp","Verification_Date":null},"id":"stl-city-public-streetlights:2:130884","sourceLayerId":2,"sourceObjectId":130884,"sourceURL":"https://maps8.stlouis-mo.gov/arcgis/rest/services/STREETS/Streets_Permitting/MapServer/2","title":"Street light L023600"},"type":"Feature"},{"geometry":{"coordinates":[-90.22081794548913,38.686398289448896],"type":"Point"},"id":"stl-city-public-streetlights:2:130885","properties":{"address":null,"attributes":{"Date_Installed":"8/1/2016","LED_Powered":1,"LightID":"L023601","Light_Source":"LED","Light_Type":"Cobra","Lighting_Type":"LED-Powered Lamp","Verification_Date":null},"id":"stl-city-public-streetlights:2:130885","sourceLayerId":2,"sourceObjectId":130885,"sourceURL":"https://maps8.stlouis-mo.gov/arcgis/rest/services/STREETS/Streets_Permitting/MapServer/2","title":"Street light L023601"},"type":"Feature"},{"geometry":{"coordinates":[-90.22122421639973,38.686710078054155],"type":"Point"},"id":"stl-city-public-streetlights:2:130886","properties":{"address":null,"attributes":{"Date_Installed":"8/1/2016","LED_Powered":1,"LightID":"L023602","Light_Source":"LED","Light_Type":"Cobra","Lighting_Type":"LED-Powered Lamp","Verification_Date":null},"id":"stl-city-public-streetlights:2:130886","sourceLayerId":2,"sourceObjectId":130886,"sourceURL":"https://maps8.stlouis-mo.gov/arcgis/rest/services/STREETS/Streets_Permitting/MapServer/2","title":"Street light L023602"},"type":"Feature"},{"geometry":{"coordinates":[-90.2216264183022,38.6870210204337],"type":"Point"},"id":"stl-city-public-streetlights:2:130887","properties":{"address":null,"attributes":{"Date_Installed":"8/1/2016","LED_Powered":1,"LightID":"L023603","Light_Source":"LED","Light_Type":"Cobra","Lighting_Type":"LED-Powered Lamp","Verification_Date":null},"id":"stl-city-public-streetlights:2:130887","sourceLayerId":2,"sourceObjectId":130887,"sourceURL":"https://maps8.stlouis-mo.gov/arcgis/rest/services/STREETS/Streets_Permitting/MapServer/2","title":"Street light L023603"},"type":"Feature"},{"geometry":{"coordinates":[-90.2291665102087,38.68078987296071],"type":"Point"},"id":"stl-city-public-streetlights:2:134166","properties":{"address":null,"attributes":{"Date_Installed":"2/19/20","LED_Powered":1,"LightID":"L026882","Light_Source":"LED","Light_Type":"Cobra","Lighting_Type":"LED-Powered Lamp","Verification_Date":null},"id":"stl-city-public-streetlights:2:134166","sourceLayerId":2,"sourceObjectId":134166,"sourceURL":"https://maps8.stlouis-mo.gov/arcgis/rest/services/STREETS/Streets_Permitting/MapServer/2","title":"Street light L026882"},"type":"Feature"},{"geometry":{"coordinates":[-90.2289328265323,38.68053762497688],"type":"Point"},"id":"stl-city-public-streetlights:2:134167","properties":{"address":null,"attributes":{"Date_Installed":"2/19/20","LED_Powered":1,"LightID":"L026883","Light_Source":"LED","Light_Type":"Cobra","Lighting_Type":"LED-Powered Lamp","Verification_Date":null},"id":"stl-city-public-streetlights:2:134167","sourceLayerId":2,"sourceObjectId":134167,"sourceURL":"https://maps8.stlouis-mo.gov/arcgis/rest/services/STREETS/Streets_Permitting/MapServer/2","title":"Street light L026883"},"type":"Feature"},{"geometry":{"coordinates":[-90.22871478496691,38.68029856929194],"type":"Point"},"id":"stl-city-public-streetlights:2:134168","properties":{"address":null,"attributes":{"Date_Installed":"2/19/20","LED_Powered":1,"LightID":"L026884","Light_Source":"LED","Light_Type":"Cobra","Lighting_Type":"LED-Powered Lamp","Verification_Date":null},"id":"stl-city-public-streetlights:2:134168","sourceLayerId":2,"sourceObjectId":134168,"sourceURL":"https://maps8.stlouis-mo.gov/arcgis/rest/services/STREETS/Streets_Permitting/MapServer/2","title":"Street light L026884"},"type":"Feature"},{"geometry":{"coordinates":[-90.22847947409217,38.680043456308205],"type":"Point"},"id":"stl-city-public-streetlights:2:134169","properties":{"address":null,"attributes":{"Date_Installed":"2/19/20","LED_Powered":1,"LightID":"L026885","Light_Source":"LED","Light_Type":"Cobra","Lighting_Type":"LED-Powered Lamp","Verification_Date":null},"id":"stl-city-public-streetlights:2:134169","sourceLayerId":2,"sourceObjectId":134169,"sourceURL":"https://maps8.stlouis-mo.gov/arcgis/rest/services/STREETS/Streets_Permitting/MapServer/2","title":"Street light L026885"},"type":"Feature"},{"geometry":{"coordinates":[-90.22496680017657,38.680770219372846],"type":"Point"},"id":"stl-city-public-streetlights:2:134172","properties":{"address":null,"attributes":{"Date_Installed":null,"LED_Powered":1,"LightID":"L026888","Light_Source":"LED","Light_Type":"Cobra","Lighting_Type":"LED-Powered Lamp","Verification_Date":null},"id":"stl-city-public-streetlights:2:134172","sourceLayerId":2,"sourceObjectId":134172,"sourceURL":"https://maps8.stlouis-mo.gov/arcgis/rest/services/STREETS/Streets_Permitting/MapServer/2","title":"Street light L026888"},"type":"Feature"},{"geometry":{"coordinates":[-90.22540605257534,38.68053265454206],"type":"Point"},"id":"stl-city-public-streetlights:2:134173","properties":{"address":null,"attributes":{"Date_Installed":null,"LED_Powered":1,"LightID":"L026889","Light_Source":"LED","Light_Type":"Cobra","Lighting_Type":"LED-Powered Lamp","Verification_Date":null},"id":"stl-city-public-streetlights:2:134173","sourceLayerId":2,"sourceObjectId":134173,"sourceURL":"https://maps8.stlouis-mo.gov/arcgis/rest/services/STREETS/Streets_Permitting/MapServer/2","title":"Street light L026889"},"type":"Feature"},{"geometry":{"coordinates":[-90.2258576272002,38.680292375545726],"type":"Point"},"id":"stl-city-public-streetlights:2:134174","properties":{"address":null,"attributes":{"Date_Installed":null,"LED_Powered":1,"LightID":"L026890","Light_Source":"LED","Light_Type":"Cobra","Lighting_Type":"LED-Powered Lamp","Verification_Date":null},"id":"stl-city-public-streetlights:2:134174","sourceLayerId":2,"sourceObjectId":134174,"sourceURL":"https://maps8.stlouis-mo.gov/arcgis/rest/services/STREETS/Streets_Permitting/MapServer/2","title":"Street light L026890"},"type":"Feature"},{"geometry":{"coordinates":[-90.2263096573497,38.68005149947356],"type":"Point"},"id":"stl-city-public-streetlights:2:134175","properties":{"address":null,"attributes":{"Date_Installed":null,"LED_Powered":1,"LightID":"L026891","Light_Source":"LED","Light_Type":"Cobra","Lighting_Type":"LED-Powered Lamp","Verification_Date":null},"id":"stl-city-public-streetlights:2:134175","sourceLayerId":2,"sourceObjectId":134175,"sourceURL":"https://maps8.stlouis-mo.gov/arcgis/rest/services/STREETS/Streets_Permitting/MapServer/2","title":"Street light L026891"},"type":"Feature"},{"geometry":{"coordinates":[-90.2259458715592,38.68285846675566],"type":"Point"},"id":"stl-city-public-streetlights:2:151096","properties":{"address":null,"attributes":{"Date_Installed":null,"LED_Powered":0,"LightID":"L043961","Light_Source":"High Pressure Sodium","Light_Type":"Decorative","Lighting_Type":"GE Americana Series (Historic Light Fixture)","Verification_Date":null},"id":"stl-city-public-streetlights:2:151096","sourceLayerId":2,"sourceObjectId":151096,"sourceURL":"https://maps8.stlouis-mo.gov/arcgis/rest/services/STREETS/Streets_Permitting/MapServer/2","title":"Street light L043961"},"type":"Feature"},{"geometry":{"coordinates":[-90.2258359755675,38.68296880779933],"type":"Point"},"id":"stl-city-public-streetlights:2:151097","properties":{"address":null,"attributes":{"Date_Installed":null,"LED_Powered":0,"LightID":"L043962","Light_Source":"High Pressure Sodium","Light_Type":"Decorative","Lighting_Type":"GE Americana Series (Historic Light Fixture)","Verification_Date":null},"id":"stl-city-public-streetlights:2:151097","sourceLayerId":2,"sourceObjectId":151097,"sourceURL":"https://maps8.stlouis-mo.gov/arcgis/rest/services/STREETS/Streets_Permitting/MapServer/2","title":"Street light L043962"},"type":"Feature"},{"geometry":{"coordinates":[-90.22573342119777,38.68306772474995],"type":"Point"},"id":"stl-city-public-streetlights:2:151098","properties":{"address":null,"attributes":{"Date_Installed":null,"LED_Powered":0,"LightID":"L043963","Light_Source":"High Pressure Sodium","Light_Type":"Decorative","Lighting_Type":"GE Americana Series (Historic Light Fixture)","Verification_Date":null},"id":"stl-city-public-streetlights:2:151098","sourceLayerId":2,"sourceObjectId":151098,"sourceURL":"https://maps8.stlouis-mo.gov/arcgis/rest/services/STREETS/Streets_Permitting/MapServer/2","title":"Street light L043963"},"type":"Feature"},{"geometry":{"coordinates":[-90.22563085926299,38.683168548758466],"type":"Point"},"id":"stl-city-public-streetlights:2:151099","properties":{"address":null,"attributes":{"Date_Installed":null,"LED_Powered":0,"LightID":"L043964","Light_Source":"High Pressure Sodium","Light_Type":"Decorative","Lighting_Type":"GE Americana Series (Historic Light Fixture)","Verification_Date":null},"id":"stl-city-public-streetlights:2:151099","sourceLayerId":2,"sourceObjectId":151099,"sourceURL":"https://maps8.stlouis-mo.gov/arcgis/rest/services/STREETS/Streets_Permitting/MapServer/2","title":"Street light L043964"},"type":"Feature"},{"geometry":{"coordinates":[-90.22552828247325,38.68327318607435],"type":"Point"},"id":"stl-city-public-streetlights:2:151100","properties":{"address":null,"attributes":{"Date_Installed":null,"LED_Powered":0,"LightID":"L043965","Light_Source":"High Pressure Sodium","Light_Type":"Decorative","Lighting_Type":"GE Americana Series (Historic Light Fixture)","Verification_Date":null},"id":"stl-city-public-streetlights:2:151100","sourceLayerId":2,"sourceObjectId":151100,"sourceURL":"https://maps8.stlouis-mo.gov/arcgis/rest/services/STREETS/Streets_Permitting/MapServer/2","title":"Street light L043965"},"type":"Feature"},{"geometry":{"coordinates":[-90.22542084635671,38.6833759056229],"type":"Point"},"id":"stl-city-public-streetlights:2:151101","properties":{"address":null,"attributes":{"Date_Installed":null,"LED_Powered":0,"LightID":"L043966","Light_Source":"High Pressure Sodium","Light_Type":"Decorative","Lighting_Type":"GE Americana Series (Historic Light Fixture)","Verification_Date":null},"id":"stl-city-public-streetlights:2:151101","sourceLayerId":2,"sourceObjectId":151101,"sourceURL":"https://maps8.stlouis-mo.gov/arcgis/rest/services/STREETS/Streets_Permitting/MapServer/2","title":"Street light L043966"},"type":"Feature"},{"geometry":{"coordinates":[-90.2253279847299,38.6834843781004],"type":"Point"},"id":"stl-city-public-streetlights:2:151102","properties":{"address":null,"attributes":{"Date_Installed":null,"LED_Powered":0,"LightID":"L043967","Light_Source":"High Pressure Sodium","Light_Type":"Decorative","Lighting_Type":"GE Americana Series (Historic Light Fixture)","Verification_Date":null},"id":"stl-city-public-streetlights:2:151102","sourceLayerId":2,"sourceObjectId":151102,"sourceURL":"https://maps8.stlouis-mo.gov/arcgis/rest/services/STREETS/Streets_Permitting/MapServer/2","title":"Street light L043967"},"type":"Feature"},{"geometry":{"coordinates":[-90.22522057833342,38.68357946886034],"type":"Point"},"id":"stl-city-public-streetlights:2:151103","properties":{"address":null,"attributes":{"Date_Installed":null,"LED_Powered":0,"LightID":"L043968","Light_Source":"High Pressure Sodium","Light_Type":"Decorative","Lighting_Type":"GE Americana Series (Historic Light Fixture)","Verification_Date":null},"id":"stl-city-public-streetlights:2:151103","sourceLayerId":2,"sourceObjectId":151103,"sourceURL":"https://maps8.stlouis-mo.gov/arcgis/rest/services/STREETS/Streets_Permitting/MapServer/2","title":"Street light L043968"},"type":"Feature"},{"geometry":{"coordinates":[-90.2251326481145,38.683670793662685],"type":"Point"},"id":"stl-city-public-streetlights:2:151104","properties":{"address":null,"attributes":{"Date_Installed":null,"LED_Powered":0,"LightID":"L043969","Light_Source":"High Pressure Sodium","Light_Type":"Decorative","Lighting_Type":"GE Americana Series (Historic Light Fixture)","Verification_Date":null},"id":"stl-city-public-streetlights:2:151104","sourceLayerId":2,"sourceObjectId":151104,"sourceURL":"https://maps8.stlouis-mo.gov/arcgis/rest/services/STREETS/Streets_Permitting/MapServer/2","title":"Street light L043969"},"type":"Feature"},{"geometry":{"coordinates":[-90.22550987477821,38.6836335416814],"type":"Point"},"id":"stl-city-public-streetlights:2:151105","properties":{"address":null,"attributes":{"Date_Installed":null,"LED_Powered":0,"LightID":"L043970","Light_Source":"High Pressure Sodium","Light_Type":"Decorative","Lighting_Type":"GE Americana Series (Historic Light Fixture)","Verification_Date":null},"id":"stl-city-public-streetlights:2:151105","sourceLayerId":2,"sourceObjectId":151105,"sourceURL":"https://maps8.stlouis-mo.gov/arcgis/rest/services/STREETS/Streets_Permitting/MapServer/2","title":"Street light L043970"},"type":"Feature"},{"geometry":{"coordinates":[-90.22559539430108,38.683536492138174],"type":"Point"},"id":"stl-city-public-streetlights:2:151106","properties":{"address":null,"attributes":{"Date_Installed":null,"LED_Powered":0,"LightID":"L043971","Light_Source":"High Pressure Sodium","Light_Type":"Decorative","Lighting_Type":"GE Americana Series (Historic Light Fixture)","Verification_Date":null},"id":"stl-city-public-streetlights:2:151106","sourceLayerId":2,"sourceObjectId":151106,"sourceURL":"https://maps8.stlouis-mo.gov/arcgis/rest/services/STREETS/Streets_Permitting/MapServer/2","title":"Street light L043971"},"type":"Feature"},{"geometry":{"coordinates":[-90.22570283040712,38.683433773332965],"type":"Point"},"id":"stl-city-public-streetlights:2:151107","properties":{"address":null,"attributes":{"Date_Installed":null,"LED_Powered":0,"LightID":"L043972","Light_Source":"High Pressure Sodium","Light_Type":"Decorative","Lighting_Type":"GE Americana Series (Historic Light Fixture)","Verification_Date":null},"id":"stl-city-public-streetlights:2:151107","sourceLayerId":2,"sourceObjectId":151107,"sourceURL":"https://maps8.stlouis-mo.gov/arcgis/rest/services/STREETS/Streets_Permitting/MapServer/2","title":"Street light L043972"},"type":"Feature"},{"geometry":{"coordinates":[-90.22579320731641,38.68333864129998],"type":"Point"},"id":"stl-city-public-streetlights:2:151108","properties":{"address":null,"attributes":{"Date_Installed":null,"LED_Powered":0,"LightID":"L043973","Light_Source":"High Pressure Sodium","Light_Type":"Decorative","Lighting_Type":"GE Americana Series (Historic Light Fixture)","Verification_Date":null},"id":"stl-city-public-streetlights:2:151108","sourceLayerId":2,"sourceObjectId":151108,"sourceURL":"https://maps8.stlouis-mo.gov/arcgis/rest/services/STREETS/Streets_Permitting/MapServer/2","title":"Street light L043973"},"type":"Feature"},{"geometry":{"coordinates":[-90.22590062715024,38.68323973480411],"type":"Point"},"id":"stl-city-public-streetlights:2:151109","properties":{"address":null,"attributes":{"Date_Installed":null,"LED_Powered":0,"LightID":"L043974","Light_Source":"High Pressure Sodium","Light_Type":"Decorative","Lighting_Type":"GE Americana Series (Historic Light Fixture)","Verification_Date":null},"id":"stl-city-public-streetlights:2:151109","sourceLayerId":2,"sourceObjectId":151109,"sourceURL":"https://maps8.stlouis-mo.gov/arcgis/rest/services/STREETS/Streets_Permitting/MapServer/2","title":"Street light L043974"},"type":"Feature"},{"geometry":{"coordinates":[-90.2259909962733,38.68314651156562],"type":"Point"},"id":"stl-city-public-streetlights:2:151110","properties":{"address":null,"attributes":{"Date_Installed":null,"LED_Powered":0,"LightID":"L043975","Light_Source":"High Pressure Sodium","Light_Type":"Decorative","Lighting_Type":"GE Americana Series (Historic Light Fixture)","Verification_Date":null},"id":"stl-city-public-streetlights:2:151110","sourceLayerId":2,"sourceObjectId":151110,"sourceURL":"https://maps8.stlouis-mo.gov/arcgis/rest/services/STREETS/Streets_Permitting/MapServer/2","title":"Street light L043975"},"type":"Feature"},{"geometry":{"coordinates":[-90.226096012628,38.68303997148536],"type":"Point"},"id":"stl-city-public-streetlights:2:151111","properties":{"address":null,"attributes":{"Date_Installed":null,"LED_Powered":0,"LightID":"L043976","Light_Source":"High Pressure Sodium","Light_Type":"Decorative","Lighting_Type":"GE Americana Series (Historic Light Fixture)","Verification_Date":null},"id":"stl-city-public-streetlights:2:151111","sourceLayerId":2,"sourceObjectId":151111,"sourceURL":"https://maps8.stlouis-mo.gov/arcgis/rest/services/STREETS/Streets_Permitting/MapServer/2","title":"Street light L043976"},"type":"Feature"},{"geometry":{"coordinates":[-90.22621567492425,38.68292011902438],"type":"Point"},"id":"stl-city-public-streetlights:2:151112","properties":{"address":null,"attributes":{"Date_Installed":null,"LED_Powered":0,"LightID":"L043977","Light_Source":"High Pressure Sodium","Light_Type":"Decorative","Lighting_Type":"GE Americana Series (Historic Light Fixture)","Verification_Date":null},"id":"stl-city-public-streetlights:2:151112","sourceLayerId":2,"sourceObjectId":151112,"sourceURL":"https://maps8.stlouis-mo.gov/arcgis/rest/services/STREETS/Streets_Permitting/MapServer/2","title":"Street light L043977"},"type":"Feature"},{"geometry":{"coordinates":[-90.22631335603094,38.68282309741104],"type":"Point"},"id":"stl-city-public-streetlights:2:151113","properties":{"address":null,"attributes":{"Date_Installed":null,"LED_Powered":0,"LightID":"L043978","Light_Source":"High Pressure Sodium","Light_Type":"Decorative","Lighting_Type":"GE Americana Series (Historic Light Fixture)","Verification_Date":null},"id":"stl-city-public-streetlights:2:151113","sourceLayerId":2,"sourceObjectId":151113,"sourceURL":"https://maps8.stlouis-mo.gov/arcgis/rest/services/STREETS/Streets_Permitting/MapServer/2","title":"Street light L043978"},"type":"Feature"},{"geometry":{"coordinates":[-90.22697792198997,38.68284162241053],"type":"Point"},"id":"stl-city-public-streetlights:2:151114","properties":{"address":null,"attributes":{"Date_Installed":null,"LED_Powered":0,"LightID":"L043979","Light_Source":"High Pressure Sodium","Light_Type":"Decorative","Lighting_Type":"GE Americana Series (Historic Light Fixture)","Verification_Date":null},"id":"stl-city-public-streetlights:2:151114","sourceLayerId":2,"sourceObjectId":151114,"sourceURL":"https://maps8.stlouis-mo.gov/arcgis/rest/services/STREETS/Streets_Permitting/MapServer/2","title":"Street light L043979"},"type":"Feature"},{"geometry":{"coordinates":[-90.22713334353735,38.68291444579374],"type":"Point"},"id":"stl-city-public-streetlights:2:151115","properties":{"address":null,"attributes":{"Date_Installed":null,"LED_Powered":0,"LightID":"L043980","Light_Source":"High Pressure Sodium","Light_Type":"Decorative","Lighting_Type":"GE Americana Series (Historic Light Fixture)","Verification_Date":null},"id":"stl-city-public-streetlights:2:151115","sourceLayerId":2,"sourceObjectId":151115,"sourceURL":"https://maps8.stlouis-mo.gov/arcgis/rest/services/STREETS/Streets_Permitting/MapServer/2","title":"Street light L043980"},"type":"Feature"},{"geometry":{"coordinates":[-90.22729116844478,38.68299490234409],"type":"Point"},"id":"stl-city-public-streetlights:2:151116","properties":{"address":null,"attributes":{"Date_Installed":null,"LED_Powered":0,"LightID":"L043981","Light_Source":"High Pressure Sodium","Light_Type":"Decorative","Lighting_Type":"GE Americana Series (Historic Light Fixture)","Verification_Date":null},"id":"stl-city-public-streetlights:2:151116","sourceLayerId":2,"sourceObjectId":151116,"sourceURL":"https://maps8.stlouis-mo.gov/arcgis/rest/services/STREETS/Streets_Permitting/MapServer/2","title":"Street light L043981"},"type":"Feature"},{"geometry":{"coordinates":[-90.2274417182657,38.68306962112432],"type":"Point"},"id":"stl-city-public-streetlights:2:151117","properties":{"address":null,"attributes":{"Date_Installed":null,"LED_Powered":0,"LightID":"L043982","Light_Source":"High Pressure Sodium","Light_Type":"Decorative","Lighting_Type":"GE Americana Series (Historic Light Fixture)","Verification_Date":null},"id":"stl-city-public-streetlights:2:151117","sourceLayerId":2,"sourceObjectId":151117,"sourceURL":"https://maps8.stlouis-mo.gov/arcgis/rest/services/STREETS/Streets_Permitting/MapServer/2","title":"Street light L043982"},"type":"Feature"},{"geometry":{"coordinates":[-90.22759956669707,38.683144356709846],"type":"Point"},"id":"stl-city-public-streetlights:2:151118","properties":{"address":null,"attributes":{"Date_Installed":null,"LED_Powered":0,"LightID":"L043983","Light_Source":"High Pressure Sodium","Light_Type":"Decorative","Lighting_Type":"GE Americana Series (Historic Light Fixture)","Verification_Date":null},"id":"stl-city-public-streetlights:2:151118","sourceLayerId":2,"sourceObjectId":151118,"sourceURL":"https://maps8.stlouis-mo.gov/arcgis/rest/services/STREETS/Streets_Permitting/MapServer/2","title":"Street light L043983"},"type":"Feature"},{"geometry":{"coordinates":[-90.22773313074282,38.683207595247055],"type":"Point"},"id":"stl-city-public-streetlights:2:151119","properties":{"address":null,"attributes":{"Date_Installed":null,"LED_Powered":0,"LightID":"L043984","Light_Source":"High Pressure Sodium","Light_Type":"Decorative","Lighting_Type":"GE Americana Series (Historic Light Fixture)","Verification_Date":null},"id":"stl-city-public-streetlights:2:151119","sourceLayerId":2,"sourceObjectId":151119,"sourceURL":"https://maps8.stlouis-mo.gov/arcgis/rest/services/STREETS/Streets_Permitting/MapServer/2","title":"Street light L043984"},"type":"Feature"},{"geometry":{"coordinates":[-90.2278715385223,38.68327656370223],"type":"Point"},"id":"stl-city-public-streetlights:2:151120","properties":{"address":null,"attributes":{"Date_Installed":null,"LED_Powered":0,"LightID":"L043985","Light_Source":"High Pressure Sodium","Light_Type":"Decorative","Lighting_Type":"GE Americana Series (Historic Light Fixture)","Verification_Date":null},"id":"stl-city-public-streetlights:2:151120","sourceLayerId":2,"sourceObjectId":151120,"sourceURL":"https://maps8.stlouis-mo.gov/arcgis/rest/services/STREETS/Streets_Permitting/MapServer/2","title":"Street light L043985"},"type":"Feature"},{"geometry":{"coordinates":[-90.22800751340567,38.68334552813688],"type":"Point"},"id":"stl-city-public-streetlights:2:151121","properties":{"address":null,"attributes":{"Date_Installed":null,"LED_Powered":0,"LightID":"L043986","Light_Source":"High Pressure Sodium","Light_Type":"Decorative","Lighting_Type":"GE Americana Series (Historic Light Fixture)","Verification_Date":null},"id":"stl-city-public-streetlights:2:151121","sourceLayerId":2,"sourceObjectId":151121,"sourceURL":"https://maps8.stlouis-mo.gov/arcgis/rest/services/STREETS/Streets_Permitting/MapServer/2","title":"Street light L043986"},"type":"Feature"},{"geometry":{"coordinates":[-90.22815319233051,38.683422140937374],"type":"Point"},"id":"stl-city-public-streetlights:2:151122","properties":{"address":null,"attributes":{"Date_Installed":null,"LED_Powered":0,"LightID":"L043987","Light_Source":"High Pressure Sodium","Light_Type":"Decorative","Lighting_Type":"GE Americana Series (Historic Light Fixture)","Verification_Date":null},"id":"stl-city-public-streetlights:2:151122","sourceLayerId":2,"sourceObjectId":151122,"sourceURL":"https://maps8.stlouis-mo.gov/arcgis/rest/services/STREETS/Streets_Permitting/MapServer/2","title":"Street light L043987"},"type":"Feature"},{"geometry":{"coordinates":[-90.22865949797979,38.68334704170459],"type":"Point"},"id":"stl-city-public-streetlights:2:151123","properties":{"address":null,"attributes":{"Date_Installed":null,"LED_Powered":0,"LightID":"L043988","Light_Source":"High Pressure Sodium","Light_Type":"Decorative","Lighting_Type":"GE Americana Series (Historic Light Fixture)","Verification_Date":null},"id":"stl-city-public-streetlights:2:151123","sourceLayerId":2,"sourceObjectId":151123,"sourceURL":"https://maps8.stlouis-mo.gov/arcgis/rest/services/STREETS/Streets_Permitting/MapServer/2","title":"Street light L043988"},"type":"Feature"},{"geometry":{"coordinates":[-90.22853323951325,38.68328191581711],"type":"Point"},"id":"stl-city-public-streetlights:2:151124","properties":{"address":null,"attributes":{"Date_Installed":null,"LED_Powered":0,"LightID":"L043989","Light_Source":"High Pressure Sodium","Light_Type":"Decorative","Lighting_Type":"GE Americana Series (Historic Light Fixture)","Verification_Date":null},"id":"stl-city-public-streetlights:2:151124","sourceLayerId":2,"sourceObjectId":151124,"sourceURL":"https://maps8.stlouis-mo.gov/arcgis/rest/services/STREETS/Streets_Permitting/MapServer/2","title":"Street light L043989"},"type":"Feature"},{"geometry":{"coordinates":[-90.22840453977007,38.683218690390476],"type":"Point"},"id":"stl-city-public-streetlights:2:151125","properties":{"address":null,"attributes":{"Date_Installed":null,"LED_Powered":0,"LightID":"L043990","Light_Source":"High Pressure Sodium","Light_Type":"Decorative","Lighting_Type":"GE Americana Series (Historic Light Fixture)","Verification_Date":null},"id":"stl-city-public-streetlights:2:151125","sourceLayerId":2,"sourceObjectId":151125,"sourceURL":"https://maps8.stlouis-mo.gov/arcgis/rest/services/STREETS/Streets_Permitting/MapServer/2","title":"Street light L043990"},"type":"Feature"},{"geometry":{"coordinates":[-90.22826368401924,38.68315352941084],"type":"Point"},"id":"stl-city-public-streetlights:2:151126","properties":{"address":null,"attributes":{"Date_Installed":null,"LED_Powered":0,"LightID":"L043991","Light_Source":"High Pressure Sodium","Light_Type":"Decorative","Lighting_Type":"GE Americana Series (Historic Light Fixture)","Verification_Date":null},"id":"stl-city-public-streetlights:2:151126","sourceLayerId":2,"sourceObjectId":151126,"sourceURL":"https://maps8.stlouis-mo.gov/arcgis/rest/services/STREETS/Streets_Permitting/MapServer/2","title":"Street light L043991"},"type":"Feature"},{"geometry":{"coordinates":[-90.22812527610371,38.68308455961602],"type":"Point"},"id":"stl-city-public-streetlights:2:151127","properties":{"address":null,"attributes":{"Date_Installed":null,"LED_Powered":0,"LightID":"L043992","Light_Source":"High Pressure Sodium","Light_Type":"Decorative","Lighting_Type":"GE Americana Series (Historic Light Fixture)","Verification_Date":null},"id":"stl-city-public-streetlights:2:151127","sourceLayerId":2,"sourceObjectId":151127,"sourceURL":"https://maps8.stlouis-mo.gov/arcgis/rest/services/STREETS/Streets_Permitting/MapServer/2","title":"Street light L043992"},"type":"Feature"},{"geometry":{"coordinates":[-90.22797715867631,38.68300984827335],"type":"Point"},"id":"stl-city-public-streetlights:2:151128","properties":{"address":null,"attributes":{"Date_Installed":null,"LED_Powered":0,"LightID":"L043993","Light_Source":"High Pressure Sodium","Light_Type":"Decorative","Lighting_Type":"GE Americana Series (Historic Light Fixture)","Verification_Date":null},"id":"stl-city-public-streetlights:2:151128","sourceLayerId":2,"sourceObjectId":151128,"sourceURL":"https://maps8.stlouis-mo.gov/arcgis/rest/services/STREETS/Streets_Permitting/MapServer/2","title":"Street light L043993"},"type":"Feature"},{"geometry":{"coordinates":[-90.22781446667967,38.68292938132085],"type":"Point"},"id":"stl-city-public-streetlights:2:151129","properties":{"address":null,"attributes":{"Date_Installed":null,"LED_Powered":0,"LightID":"L043994","Light_Source":"High Pressure Sodium","Light_Type":"Decorative","Lighting_Type":"GE Americana Series (Historic Light Fixture)","Verification_Date":null},"id":"stl-city-public-streetlights:2:151129","sourceLayerId":2,"sourceObjectId":151129,"sourceURL":"https://maps8.stlouis-mo.gov/arcgis/rest/services/STREETS/Streets_Permitting/MapServer/2","title":"Street light L043994"},"type":"Feature"},{"geometry":{"coordinates":[-90.22768092475437,38.682860423224014],"type":"Point"},"id":"stl-city-public-streetlights:2:151130","properties":{"address":null,"attributes":{"Date_Installed":null,"LED_Powered":0,"LightID":"L043995","Light_Source":"High Pressure Sodium","Light_Type":"Decorative","Lighting_Type":"GE Americana Series (Historic Light Fixture)","Verification_Date":null},"id":"stl-city-public-streetlights:2:151130","sourceLayerId":2,"sourceObjectId":151130,"sourceURL":"https://maps8.stlouis-mo.gov/arcgis/rest/services/STREETS/Streets_Permitting/MapServer/2","title":"Street light L043995"},"type":"Feature"},{"geometry":{"coordinates":[-90.22753280102799,38.6827876166683],"type":"Point"},"id":"stl-city-public-streetlights:2:151131","properties":{"address":null,"attributes":{"Date_Installed":null,"LED_Powered":0,"LightID":"L043996","Light_Source":"High Pressure Sodium","Light_Type":"Decorative","Lighting_Type":"GE Americana Series (Historic Light Fixture)","Verification_Date":null},"id":"stl-city-public-streetlights:2:151131","sourceLayerId":2,"sourceObjectId":151131,"sourceURL":"https://maps8.stlouis-mo.gov/arcgis/rest/services/STREETS/Streets_Permitting/MapServer/2","title":"Street light L043996"},"type":"Feature"},{"geometry":{"coordinates":[-90.22922152551851,38.683631178972504],"type":"Point"},"id":"stl-city-public-streetlights:2:151513","properties":{"address":null,"attributes":{"Date_Installed":"6/15/2017","LED_Powered":1,"LightID":"L044378","Light_Source":"LED","Light_Type":"Cobra","Lighting_Type":"LED-Powered Lamp","Verification_Date":null},"id":"stl-city-public-streetlights:2:151513","sourceLayerId":2,"sourceObjectId":151513,"sourceURL":"https://maps8.stlouis-mo.gov/arcgis/rest/services/STREETS/Streets_Permitting/MapServer/2","title":"Street light L044378"},"type":"Feature"},{"geometry":{"coordinates":[-90.22193496039475,38.687334571137434],"type":"Point"},"id":"stl-city-public-streetlights:2:152122","properties":{"address":null,"attributes":{"Date_Installed":null,"LED_Powered":0,"LightID":"L044976","Light_Source":"High Pressure Sodium","Light_Type":"Cobra","Lighting_Type":"70-W High Pressure Sodium Vapor Wallpack","Verification_Date":null},"id":"stl-city-public-streetlights:2:152122","sourceLayerId":2,"sourceObjectId":152122,"sourceURL":"https://maps8.stlouis-mo.gov/arcgis/rest/services/STREETS/Streets_Permitting/MapServer/2","title":"Street light L044976"},"type":"Feature"},{"geometry":{"coordinates":[-90.22201218521218,38.68741501696014],"type":"Point"},"id":"stl-city-public-streetlights:2:152123","properties":{"address":null,"attributes":{"Date_Installed":"8/1/2016","LED_Powered":1,"LightID":"L044977","Light_Source":"LED","Light_Type":"Cobra","Lighting_Type":"LED-Powered Lamp","Verification_Date":null},"id":"stl-city-public-streetlights:2:152123","sourceLayerId":2,"sourceObjectId":152123,"sourceURL":"https://maps8.stlouis-mo.gov/arcgis/rest/services/STREETS/Streets_Permitting/MapServer/2","title":"Street light L044977"},"type":"Feature"},{"geometry":{"coordinates":[-90.22231729453905,38.68778758062743],"type":"Point"},"id":"stl-city-public-streetlights:2:152124","properties":{"address":null,"attributes":{"Date_Installed":"8/1/2016","LED_Powered":1,"LightID":"L044978","Light_Source":"LED","Light_Type":"Cobra","Lighting_Type":"LED-Powered Lamp","Verification_Date":null},"id":"stl-city-public-streetlights:2:152124","sourceLayerId":2,"sourceObjectId":152124,"sourceURL":"https://maps8.stlouis-mo.gov/arcgis/rest/services/STREETS/Streets_Permitting/MapServer/2","title":"Street light L044978"},"type":"Feature"},{"geometry":{"coordinates":[-90.22267403313236,38.68821118013326],"type":"Point"},"id":"stl-city-public-streetlights:2:152125","properties":{"address":null,"attributes":{"Date_Installed":"8/1/2016","LED_Powered":1,"LightID":"L044979","Light_Source":"LED","Light_Type":"Cobra","Lighting_Type":"LED-Powered Lamp","Verification_Date":null},"id":"stl-city-public-streetlights:2:152125","sourceLayerId":2,"sourceObjectId":152125,"sourceURL":"https://maps8.stlouis-mo.gov/arcgis/rest/services/STREETS/Streets_Permitting/MapServer/2","title":"Street light L044979"},"type":"Feature"},{"geometry":{"coordinates":[-90.22295448226204,38.688671400628294],"type":"Point"},"id":"stl-city-public-streetlights:2:152126","properties":{"address":null,"attributes":{"Date_Installed":"8/1/2016","LED_Powered":1,"LightID":"L044980","Light_Source":"LED","Light_Type":"Cobra","Lighting_Type":"LED-Powered Lamp","Verification_Date":null},"id":"stl-city-public-streetlights:2:152126","sourceLayerId":2,"sourceObjectId":152126,"sourceURL":"https://maps8.stlouis-mo.gov/arcgis/rest/services/STREETS/Streets_Permitting/MapServer/2","title":"Street light L044980"},"type":"Feature"},{"geometry":{"coordinates":[-90.22323979391129,38.68913334810549],"type":"Point"},"id":"stl-city-public-streetlights:2:152127","properties":{"address":null,"attributes":{"Date_Installed":"8/1/2016","LED_Powered":1,"LightID":"L044981","Light_Source":"LED","Light_Type":"Cobra","Lighting_Type":"LED-Powered Lamp","Verification_Date":null},"id":"stl-city-public-streetlights:2:152127","sourceLayerId":2,"sourceObjectId":152127,"sourceURL":"https://maps8.stlouis-mo.gov/arcgis/rest/services/STREETS/Streets_Permitting/MapServer/2","title":"Street light L044981"},"type":"Feature"},{"geometry":{"coordinates":[-90.2234762069808,38.68965829588014],"type":"Point"},"id":"stl-city-public-streetlights:2:152128","properties":{"address":null,"attributes":{"Date_Installed":"8/1/2016","LED_Powered":1,"LightID":"L044982","Light_Source":"LED","Light_Type":"Cobra","Lighting_Type":"LED-Powered Lamp","Verification_Date":null},"id":"stl-city-public-streetlights:2:152128","sourceLayerId":2,"sourceObjectId":152128,"sourceURL":"https://maps8.stlouis-mo.gov/arcgis/rest/services/STREETS/Streets_Permitting/MapServer/2","title":"Street light L044982"},"type":"Feature"},{"geometry":{"coordinates":[-90.22202850809121,38.689894578383246],"type":"Point"},"id":"stl-city-public-streetlights:2:152153","properties":{"address":null,"attributes":{"Date_Installed":null,"LED_Powered":0,"LightID":"L045007","Light_Source":"LED","Light_Type":"Cobra","Lighting_Type":"LED-Powered Lamp","Verification_Date":null},"id":"stl-city-public-streetlights:2:152153","sourceLayerId":2,"sourceObjectId":152153,"sourceURL":"https://maps8.stlouis-mo.gov/arcgis/rest/services/STREETS/Streets_Permitting/MapServer/2","title":"Street light L045007"},"type":"Feature"},{"geometry":{"coordinates":[-90.22244722616993,38.689675329065196],"type":"Point"},"id":"stl-city-public-streetlights:2:152154","properties":{"address":null,"attributes":{"Date_Installed":null,"LED_Powered":0,"LightID":"L045008","Light_Source":"LED","Light_Type":"Cobra","Lighting_Type":"LED-Powered Lamp","Verification_Date":null},"id":"stl-city-public-streetlights:2:152154","sourceLayerId":2,"sourceObjectId":152154,"sourceURL":"https://maps8.stlouis-mo.gov/arcgis/rest/services/STREETS/Streets_Permitting/MapServer/2","title":"Street light L045008"},"type":"Feature"},{"geometry":{"coordinates":[-90.22285564479503,38.689445090104904],"type":"Point"},"id":"stl-city-public-streetlights:2:152155","properties":{"address":null,"attributes":{"Date_Installed":null,"LED_Powered":0,"LightID":"L045009","Light_Source":"LED","Light_Type":"Cobra","Lighting_Type":"LED-Powered Lamp","Verification_Date":null},"id":"stl-city-public-streetlights:2:152155","sourceLayerId":2,"sourceObjectId":152155,"sourceURL":"https://maps8.stlouis-mo.gov/arcgis/rest/services/STREETS/Streets_Permitting/MapServer/2","title":"Street light L045009"},"type":"Feature"},{"geometry":{"coordinates":[-90.22164508086908,38.68897193342213],"type":"Point"},"id":"stl-city-public-streetlights:2:152159","properties":{"address":null,"attributes":{"Date_Installed":null,"LED_Powered":0,"LightID":"L045013","Light_Source":"LED","Light_Type":"Cobra","Lighting_Type":"LED-Powered Lamp","Verification_Date":null},"id":"stl-city-public-streetlights:2:152159","sourceLayerId":2,"sourceObjectId":152159,"sourceURL":"https://maps8.stlouis-mo.gov/arcgis/rest/services/STREETS/Streets_Permitting/MapServer/2","title":"Street light L045013"},"type":"Feature"},{"geometry":{"coordinates":[-90.22200923332234,38.688784734323484],"type":"Point"},"id":"stl-city-public-streetlights:2:152160","properties":{"address":null,"attributes":{"Date_Installed":null,"LED_Powered":0,"LightID":"L045014","Light_Source":"LED","Light_Type":"Cobra","Lighting_Type":"LED-Powered Lamp","Verification_Date":null},"id":"stl-city-public-streetlights:2:152160","sourceLayerId":2,"sourceObjectId":152160,"sourceURL":"https://maps8.stlouis-mo.gov/arcgis/rest/services/STREETS/Streets_Permitting/MapServer/2","title":"Street light L045014"},"type":"Feature"},{"geometry":{"coordinates":[-90.22238834673739,38.688581599674436],"type":"Point"},"id":"stl-city-public-streetlights:2:152161","properties":{"address":null,"attributes":{"Date_Installed":null,"LED_Powered":0,"LightID":"L045015","Light_Source":"LED","Light_Type":"Cobra","Lighting_Type":"LED-Powered Lamp","Verification_Date":null},"id":"stl-city-public-streetlights:2:152161","sourceLayerId":2,"sourceObjectId":152161,"sourceURL":"https://maps8.stlouis-mo.gov/arcgis/rest/services/STREETS/Streets_Permitting/MapServer/2","title":"Street light L045015"},"type":"Feature"},{"geometry":{"coordinates":[-90.22163156138281,38.68761444872363],"type":"Point"},"id":"stl-city-public-streetlights:2:152162","properties":{"address":null,"attributes":{"Date_Installed":null,"LED_Powered":0,"LightID":"L045016","Light_Source":"LED","Light_Type":"Cobra","Lighting_Type":"LED-Powered Lamp","Verification_Date":null},"id":"stl-city-public-streetlights:2:152162","sourceLayerId":2,"sourceObjectId":152162,"sourceURL":"https://maps8.stlouis-mo.gov/arcgis/rest/services/STREETS/Streets_Permitting/MapServer/2","title":"Street light L045016"},"type":"Feature"},{"geometry":{"coordinates":[-90.22127762426142,38.68779571170621],"type":"Point"},"id":"stl-city-public-streetlights:2:152163","properties":{"address":null,"attributes":{"Date_Installed":null,"LED_Powered":0,"LightID":"L045017","Light_Source":"LED","Light_Type":"Cobra","Lighting_Type":"LED-Powered Lamp","Verification_Date":null},"id":"stl-city-public-streetlights:2:152163","sourceLayerId":2,"sourceObjectId":152163,"sourceURL":"https://maps8.stlouis-mo.gov/arcgis/rest/services/STREETS/Streets_Permitting/MapServer/2","title":"Street light L045017"},"type":"Feature"},{"geometry":{"coordinates":[-90.22091471231005,38.6879780242414],"type":"Point"},"id":"stl-city-public-streetlights:2:152164","properties":{"address":null,"attributes":{"Date_Installed":null,"LED_Powered":0,"LightID":"L045018","Light_Source":"LED","Light_Type":"Cobra","Lighting_Type":"LED-Powered Lamp","Verification_Date":null},"id":"stl-city-public-streetlights:2:152164","sourceLayerId":2,"sourceObjectId":152164,"sourceURL":"https://maps8.stlouis-mo.gov/arcgis/rest/services/STREETS/Streets_Permitting/MapServer/2","title":"Street light L045018"},"type":"Feature"},{"geometry":{"coordinates":[-90.22061390880168,38.68814177362818],"type":"Point"},"id":"stl-city-public-streetlights:2:152165","properties":{"address":null,"attributes":{"Date_Installed":null,"LED_Powered":0,"LightID":"L045019","Light_Source":"LED","Light_Type":"Cobra","Lighting_Type":"LED-Powered Lamp","Verification_Date":null},"id":"stl-city-public-streetlights:2:152165","sourceLayerId":2,"sourceObjectId":152165,"sourceURL":"https://maps8.stlouis-mo.gov/arcgis/rest/services/STREETS/Streets_Permitting/MapServer/2","title":"Street light L045019"},"type":"Feature"},{"geometry":{"coordinates":[-90.22031227385152,38.6882710264013],"type":"Point"},"id":"stl-city-public-streetlights:2:152166","properties":{"address":null,"attributes":{"Date_Installed":null,"LED_Powered":0,"LightID":"L045020","Light_Source":"High Pressure Sodium","Light_Type":"Cobra","Lighting_Type":"150-W High Pressure Sodium Vapor Lamp","Verification_Date":null},"id":"stl-city-public-streetlights:2:152166","sourceLayerId":2,"sourceObjectId":152166,"sourceURL":"https://maps8.stlouis-mo.gov/arcgis/rest/services/STREETS/Streets_Permitting/MapServer/2","title":"Street light L045020"},"type":"Feature"},{"geometry":{"coordinates":[-90.22990863804682,38.68407730721183],"type":"Point"},"id":"stl-city-public-streetlights:2:152668","properties":{"address":null,"attributes":{"Date_Installed":"6/15/2017","LED_Powered":1,"LightID":"L045522","Light_Source":"LED","Light_Type":"Cobra","Lighting_Type":"LED-Powered Lamp","Verification_Date":null},"id":"stl-city-public-streetlights:2:152668","sourceLayerId":2,"sourceObjectId":152668,"sourceURL":"https://maps8.stlouis-mo.gov/arcgis/rest/services/STREETS/Streets_Permitting/MapServer/2","title":"Street light L045522"},"type":"Feature"},{"geometry":{"coordinates":[-90.22911700374526,38.68393007755604],"type":"Point"},"id":"stl-city-public-streetlights:2:152669","properties":{"address":null,"attributes":{"Date_Installed":"6/15/2017","LED_Powered":1,"LightID":"L045523","Light_Source":"LED","Light_Type":"Cobra","Lighting_Type":"LED-Powered Lamp","Verification_Date":null},"id":"stl-city-public-streetlights:2:152669","sourceLayerId":2,"sourceObjectId":152669,"sourceURL":"https://maps8.stlouis-mo.gov/arcgis/rest/services/STREETS/Streets_Permitting/MapServer/2","title":"Street light L045523"},"type":"Feature"},{"geometry":{"coordinates":[-90.22950492171991,38.68412285428316],"type":"Point"},"id":"stl-city-public-streetlights:2:152670","properties":{"address":null,"attributes":{"Date_Installed":"6/15/2017","LED_Powered":1,"LightID":"L045524","Light_Source":"LED","Light_Type":"Cobra","Lighting_Type":"LED-Powered Lamp","Verification_Date":null},"id":"stl-city-public-streetlights:2:152670","sourceLayerId":2,"sourceObjectId":152670,"sourceURL":"https://maps8.stlouis-mo.gov/arcgis/rest/services/STREETS/Streets_Permitting/MapServer/2","title":"Street light L045524"},"type":"Feature"},{"geometry":{"coordinates":[-90.22987953275431,38.684377214817005],"type":"Point"},"id":"stl-city-public-streetlights:2:152671","properties":{"address":null,"attributes":{"Date_Installed":"6/15/2017","LED_Powered":1,"LightID":"L045525","Light_Source":"LED","Light_Type":"Cobra","Lighting_Type":"LED-Powered Lamp","Verification_Date":null},"id":"stl-city-public-streetlights:2:152671","sourceLayerId":2,"sourceObjectId":152671,"sourceURL":"https://maps8.stlouis-mo.gov/arcgis/rest/services/STREETS/Streets_Permitting/MapServer/2","title":"Street light L045525"},"type":"Feature"},{"geometry":{"coordinates":[-90.22575718944721,38.683060561716864],"type":"Point"},"id":"stl-city-public-streetlights:2:153666","properties":{"address":null,"attributes":{"Date_Installed":null,"LED_Powered":0,"LightID":"L046520","Light_Source":"LED","Light_Type":"Cobra","Lighting_Type":"LED-Powered Lamp","Verification_Date":null},"id":"stl-city-public-streetlights:2:153666","sourceLayerId":2,"sourceObjectId":153666,"sourceURL":"https://maps8.stlouis-mo.gov/arcgis/rest/services/STREETS/Streets_Permitting/MapServer/2","title":"Street light L046520"},"type":"Feature"},{"geometry":{"coordinates":[-90.22528752090003,38.68353900894937],"type":"Point"},"id":"stl-city-public-streetlights:2:153667","properties":{"address":null,"attributes":{"Date_Installed":null,"LED_Powered":0,"LightID":"L046521","Light_Source":"LED","Light_Type":"Cobra","Lighting_Type":"LED-Powered Lamp","Verification_Date":null},"id":"stl-city-public-streetlights:2:153667","sourceLayerId":2,"sourceObjectId":153667,"sourceURL":"https://maps8.stlouis-mo.gov/arcgis/rest/services/STREETS/Streets_Permitting/MapServer/2","title":"Street light L046521"},"type":"Feature"},{"geometry":{"coordinates":[-90.2246943271667,38.684038863082655],"type":"Point"},"id":"stl-city-public-streetlights:2:153668","properties":{"address":null,"attributes":{"Date_Installed":null,"LED_Powered":0,"LightID":"L046522","Light_Source":"LED","Light_Type":"Cobra","Lighting_Type":"LED-Powered Lamp","Verification_Date":null},"id":"stl-city-public-streetlights:2:153668","sourceLayerId":2,"sourceObjectId":153668,"sourceURL":"https://maps8.stlouis-mo.gov/arcgis/rest/services/STREETS/Streets_Permitting/MapServer/2","title":"Street light L046522"},"type":"Feature"},{"geometry":{"coordinates":[-90.22410167642893,38.684359537215286],"type":"Point"},"id":"stl-city-public-streetlights:2:153669","properties":{"address":null,"attributes":{"Date_Installed":null,"LED_Powered":0,"LightID":"L046523","Light_Source":"LED","Light_Type":"Cobra","Lighting_Type":"LED-Powered Lamp","Verification_Date":null},"id":"stl-city-public-streetlights:2:153669","sourceLayerId":2,"sourceObjectId":153669,"sourceURL":"https://maps8.stlouis-mo.gov/arcgis/rest/services/STREETS/Streets_Permitting/MapServer/2","title":"Street light L046523"},"type":"Feature"},{"geometry":{"coordinates":[-90.22350270916755,38.68467663400211],"type":"Point"},"id":"stl-city-public-streetlights:2:153670","properties":{"address":null,"attributes":{"Date_Installed":null,"LED_Powered":0,"LightID":"L046524","Light_Source":"LED","Light_Type":"Cobra","Lighting_Type":"LED-Powered Lamp","Verification_Date":null},"id":"stl-city-public-streetlights:2:153670","sourceLayerId":2,"sourceObjectId":153670,"sourceURL":"https://maps8.stlouis-mo.gov/arcgis/rest/services/STREETS/Streets_Permitting/MapServer/2","title":"Street light L046524"},"type":"Feature"},{"geometry":{"coordinates":[-90.22297210471433,38.68496102728098],"type":"Point"},"id":"stl-city-public-streetlights:2:153671","properties":{"address":null,"attributes":{"Date_Installed":null,"LED_Powered":0,"LightID":"L046525","Light_Source":"LED","Light_Type":"Cobra","Lighting_Type":"LED-Powered Lamp","Verification_Date":null},"id":"stl-city-public-streetlights:2:153671","sourceLayerId":2,"sourceObjectId":153671,"sourceURL":"https://maps8.stlouis-mo.gov/arcgis/rest/services/STREETS/Streets_Permitting/MapServer/2","title":"Street light L046525"},"type":"Feature"},{"geometry":{"coordinates":[-90.22235355347915,38.685275147482976],"type":"Point"},"id":"stl-city-public-streetlights:2:153672","properties":{"address":null,"attributes":{"Date_Installed":null,"LED_Powered":0,"LightID":"L046526","Light_Source":"LED","Light_Type":"Cobra","Lighting_Type":"LED-Powered Lamp","Verification_Date":null},"id":"stl-city-public-streetlights:2:153672","sourceLayerId":2,"sourceObjectId":153672,"sourceURL":"https://maps8.stlouis-mo.gov/arcgis/rest/services/STREETS/Streets_Permitting/MapServer/2","title":"Street light L046526"},"type":"Feature"},{"geometry":{"coordinates":[-90.22175590758545,38.68559284198093],"type":"Point"},"id":"stl-city-public-streetlights:2:153673","properties":{"address":null,"attributes":{"Date_Installed":null,"LED_Powered":0,"LightID":"L046527","Light_Source":"LED","Light_Type":"Cobra","Lighting_Type":"LED-Powered Lamp","Verification_Date":null},"id":"stl-city-public-streetlights:2:153673","sourceLayerId":2,"sourceObjectId":153673,"sourceURL":"https://maps8.stlouis-mo.gov/arcgis/rest/services/STREETS/Streets_Permitting/MapServer/2","title":"Street light L046527"},"type":"Feature"},{"geometry":{"coordinates":[-90.2211664781158,38.68592294732066],"type":"Point"},"id":"stl-city-public-streetlights:2:153674","properties":{"address":null,"attributes":{"Date_Installed":null,"LED_Powered":0,"LightID":"L046528","Light_Source":"LED","Light_Type":"Cobra","Lighting_Type":"LED-Powered Lamp","Verification_Date":null},"id":"stl-city-public-streetlights:2:153674","sourceLayerId":2,"sourceObjectId":153674,"sourceURL":"https://maps8.stlouis-mo.gov/arcgis/rest/services/STREETS/Streets_Permitting/MapServer/2","title":"Street light L046528"},"type":"Feature"},{"geometry":{"coordinates":[-90.22063231984791,38.68616827361079],"type":"Point"},"id":"stl-city-public-streetlights:2:153675","properties":{"address":null,"attributes":{"Date_Installed":null,"LED_Powered":0,"LightID":"L046529","Light_Source":"LED","Light_Type":"Cobra","Lighting_Type":"LED-Powered Lamp","Verification_Date":null},"id":"stl-city-public-streetlights:2:153675","sourceLayerId":2,"sourceObjectId":153675,"sourceURL":"https://maps8.stlouis-mo.gov/arcgis/rest/services/STREETS/Streets_Permitting/MapServer/2","title":"Street light L046529"},"type":"Feature"},{"geometry":{"coordinates":[-90.22104951763234,38.68622061700443],"type":"Point"},"id":"stl-city-public-streetlights:2:153676","properties":{"address":null,"attributes":{"Date_Installed":null,"LED_Powered":0,"LightID":"L046530","Light_Source":"LED","Light_Type":"Cobra","Lighting_Type":"LED-Powered Lamp","Verification_Date":null},"id":"stl-city-public-streetlights:2:153676","sourceLayerId":2,"sourceObjectId":153676,"sourceURL":"https://maps8.stlouis-mo.gov/arcgis/rest/services/STREETS/Streets_Permitting/MapServer/2","title":"Street light L046530"},"type":"Feature"},{"geometry":{"coordinates":[-90.22161540443899,38.68590780812036],"type":"Point"},"id":"stl-city-public-streetlights:2:153677","properties":{"address":null,"attributes":{"Date_Installed":null,"LED_Powered":0,"LightID":"L046531","Light_Source":"LED","Light_Type":"Cobra","Lighting_Type":"LED-Powered Lamp","Verification_Date":null},"id":"stl-city-public-streetlights:2:153677","sourceLayerId":2,"sourceObjectId":153677,"sourceURL":"https://maps8.stlouis-mo.gov/arcgis/rest/services/STREETS/Streets_Permitting/MapServer/2","title":"Street light L046531"},"type":"Feature"},{"geometry":{"coordinates":[-90.22219904723063,38.685594848566744],"type":"Point"},"id":"stl-city-public-streetlights:2:153678","properties":{"address":null,"attributes":{"Date_Installed":null,"LED_Powered":0,"LightID":"L046532","Light_Source":"LED","Light_Type":"Cobra","Lighting_Type":"LED-Powered Lamp","Verification_Date":null},"id":"stl-city-public-streetlights:2:153678","sourceLayerId":2,"sourceObjectId":153678,"sourceURL":"https://maps8.stlouis-mo.gov/arcgis/rest/services/STREETS/Streets_Permitting/MapServer/2","title":"Street light L046532"},"type":"Feature"},{"geometry":{"coordinates":[-90.22278592570774,38.6852933349458],"type":"Point"},"id":"stl-city-public-streetlights:2:153679","properties":{"address":null,"attributes":{"Date_Installed":null,"LED_Powered":0,"LightID":"L046533","Light_Source":"LED","Light_Type":"Cobra","Lighting_Type":"LED-Powered Lamp","Verification_Date":null},"id":"stl-city-public-streetlights:2:153679","sourceLayerId":2,"sourceObjectId":153679,"sourceURL":"https://maps8.stlouis-mo.gov/arcgis/rest/services/STREETS/Streets_Permitting/MapServer/2","title":"Street light L046533"},"type":"Feature"},{"geometry":{"coordinates":[-90.22336892320104,38.68498713720434],"type":"Point"},"id":"stl-city-public-streetlights:2:153680","properties":{"address":null,"attributes":{"Date_Installed":null,"LED_Powered":0,"LightID":"L046534","Light_Source":"LED","Light_Type":"Cobra","Lighting_Type":"LED-Powered Lamp","Verification_Date":null},"id":"stl-city-public-streetlights:2:153680","sourceLayerId":2,"sourceObjectId":153680,"sourceURL":"https://maps8.stlouis-mo.gov/arcgis/rest/services/STREETS/Streets_Permitting/MapServer/2","title":"Street light L046534"},"type":"Feature"},{"geometry":{"coordinates":[-90.22394962529752,38.684675782575624],"type":"Point"},"id":"stl-city-public-streetlights:2:153681","properties":{"address":null,"attributes":{"Date_Installed":null,"LED_Powered":0,"LightID":"L046535","Light_Source":"LED","Light_Type":"Cobra","Lighting_Type":"LED-Powered Lamp","Verification_Date":null},"id":"stl-city-public-streetlights:2:153681","sourceLayerId":2,"sourceObjectId":153681,"sourceURL":"https://maps8.stlouis-mo.gov/arcgis/rest/services/STREETS/Streets_Permitting/MapServer/2","title":"Street light L046535"},"type":"Feature"},{"geometry":{"coordinates":[-90.22453127053127,38.684371037933815],"type":"Point"},"id":"stl-city-public-streetlights:2:153682","properties":{"address":null,"attributes":{"Date_Installed":null,"LED_Powered":0,"LightID":"L046536","Light_Source":"LED","Light_Type":"Cobra","Lighting_Type":"LED-Powered Lamp","Verification_Date":null},"id":"stl-city-public-streetlights:2:153682","sourceLayerId":2,"sourceObjectId":153682,"sourceURL":"https://maps8.stlouis-mo.gov/arcgis/rest/services/STREETS/Streets_Permitting/MapServer/2","title":"Street light L046536"},"type":"Feature"},{"geometry":{"coordinates":[-90.22524020104778,38.683893318326604],"type":"Point"},"id":"stl-city-public-streetlights:2:153683","properties":{"address":null,"attributes":{"Date_Installed":null,"LED_Powered":0,"LightID":"L046537","Light_Source":"LED","Light_Type":"Cobra","Lighting_Type":"LED-Powered Lamp","Verification_Date":null},"id":"stl-city-public-streetlights:2:153683","sourceLayerId":2,"sourceObjectId":153683,"sourceURL":"https://maps8.stlouis-mo.gov/arcgis/rest/services/STREETS/Streets_Permitting/MapServer/2","title":"Street light L046537"},"type":"Feature"},{"geometry":{"coordinates":[-90.22572917096761,38.68339019367305],"type":"Point"},"id":"stl-city-public-streetlights:2:153684","properties":{"address":null,"attributes":{"Date_Installed":null,"LED_Powered":0,"LightID":"L046538","Light_Source":"LED","Light_Type":"Cobra","Lighting_Type":"LED-Powered Lamp","Verification_Date":null},"id":"stl-city-public-streetlights:2:153684","sourceLayerId":2,"sourceObjectId":153684,"sourceURL":"https://maps8.stlouis-mo.gov/arcgis/rest/services/STREETS/Streets_Permitting/MapServer/2","title":"Street light L046538"},"type":"Feature"},{"geometry":{"coordinates":[-90.22619143003224,38.68294561669146],"type":"Point"},"id":"stl-city-public-streetlights:2:153685","properties":{"address":null,"attributes":{"Date_Installed":null,"LED_Powered":0,"LightID":"L046539","Light_Source":"LED","Light_Type":"Cobra","Lighting_Type":"LED-Powered Lamp","Verification_Date":null},"id":"stl-city-public-streetlights:2:153685","sourceLayerId":2,"sourceObjectId":153685,"sourceURL":"https://maps8.stlouis-mo.gov/arcgis/rest/services/STREETS/Streets_Permitting/MapServer/2","title":"Street light L046539"},"type":"Feature"},{"geometry":{"coordinates":[-90.22032075497215,38.68651941330497],"type":"Point"},"id":"stl-city-public-streetlights:2:153686","properties":{"address":null,"attributes":{"Date_Installed":null,"LED_Powered":0,"LightID":"L046540","Light_Source":"LED","Light_Type":"Cobra","Lighting_Type":"LED-Powered Lamp","Verification_Date":null},"id":"stl-city-public-streetlights:2:153686","sourceLayerId":2,"sourceObjectId":153686,"sourceURL":"https://maps8.stlouis-mo.gov/arcgis/rest/services/STREETS/Streets_Permitting/MapServer/2","title":"Street light L046540"},"type":"Feature"},{"geometry":{"coordinates":[-90.22968715313165,38.68266806522443],"type":"Point"},"id":"stl-city-public-streetlights:2:153789","properties":{"address":null,"attributes":{"Date_Installed":"2/19/20","LED_Powered":1,"LightID":"L046643","Light_Source":"LED","Light_Type":"Cobra","Lighting_Type":"LED-Powered Lamp","Verification_Date":null},"id":"stl-city-public-streetlights:2:153789","sourceLayerId":2,"sourceObjectId":153789,"sourceURL":"https://maps8.stlouis-mo.gov/arcgis/rest/services/STREETS/Streets_Permitting/MapServer/2","title":"Street light L046643"},"type":"Feature"},{"geometry":{"coordinates":[-90.22923568760896,38.68263663052797],"type":"Point"},"id":"stl-city-public-streetlights:2:153790","properties":{"address":null,"attributes":{"Date_Installed":"2/19/20","LED_Powered":1,"LightID":"L046644","Light_Source":"LED","Light_Type":"Cobra","Lighting_Type":"LED-Powered Lamp","Verification_Date":null},"id":"stl-city-public-streetlights:2:153790","sourceLayerId":2,"sourceObjectId":153790,"sourceURL":"https://maps8.stlouis-mo.gov/arcgis/rest/services/STREETS/Streets_Permitting/MapServer/2","title":"Street light L046644"},"type":"Feature"},{"geometry":{"coordinates":[-90.22887078194475,38.68245248712539],"type":"Point"},"id":"stl-city-public-streetlights:2:153791","properties":{"address":null,"attributes":{"Date_Installed":"2/19/20","LED_Powered":1,"LightID":"L046645","Light_Source":"LED","Light_Type":"Cobra","Lighting_Type":"LED-Powered Lamp","Verification_Date":null},"id":"stl-city-public-streetlights:2:153791","sourceLayerId":2,"sourceObjectId":153791,"sourceURL":"https://maps8.stlouis-mo.gov/arcgis/rest/services/STREETS/Streets_Permitting/MapServer/2","title":"Street light L046645"},"type":"Feature"},{"geometry":{"coordinates":[-90.22852014481902,38.68217465240219],"type":"Point"},"id":"stl-city-public-streetlights:2:153792","properties":{"address":null,"attributes":{"Date_Installed":"2/19/20","LED_Powered":1,"LightID":"L046646","Light_Source":"LED","Light_Type":"Cobra","Lighting_Type":"LED-Powered Lamp","Verification_Date":null},"id":"stl-city-public-streetlights:2:153792","sourceLayerId":2,"sourceObjectId":153792,"sourceURL":"https://maps8.stlouis-mo.gov/arcgis/rest/services/STREETS/Streets_Permitting/MapServer/2","title":"Street light L046646"},"type":"Feature"},{"geometry":{"coordinates":[-90.22991190359852,38.682260069441476],"type":"Point"},"id":"stl-city-public-streetlights:2:153793","properties":{"address":null,"attributes":{"Date_Installed":"2/19/20","LED_Powered":1,"LightID":"L046647","Light_Source":"LED","Light_Type":"Cobra","Lighting_Type":"LED-Powered Lamp","Verification_Date":null},"id":"stl-city-public-streetlights:2:153793","sourceLayerId":2,"sourceObjectId":153793,"sourceURL":"https://maps8.stlouis-mo.gov/arcgis/rest/services/STREETS/Streets_Permitting/MapServer/2","title":"Street light L046647"},"type":"Feature"},{"geometry":{"coordinates":[-90.22953023640855,38.682186725841724],"type":"Point"},"id":"stl-city-public-streetlights:2:153794","properties":{"address":null,"attributes":{"Date_Installed":"2/19/20","LED_Powered":1,"LightID":"L046648","Light_Source":"LED","Light_Type":"Cobra","Lighting_Type":"LED-Powered Lamp","Verification_Date":null},"id":"stl-city-public-streetlights:2:153794","sourceLayerId":2,"sourceObjectId":153794,"sourceURL":"https://maps8.stlouis-mo.gov/arcgis/rest/services/STREETS/Streets_Permitting/MapServer/2","title":"Street light L046648"},"type":"Feature"},{"geometry":{"coordinates":[-90.22910616668561,38.682197185573244],"type":"Point"},"id":"stl-city-public-streetlights:2:153795","properties":{"address":null,"attributes":{"Date_Installed":"2/19/20","LED_Powered":1,"LightID":"L046649","Light_Source":"LED","Light_Type":"Cobra","Lighting_Type":"LED-Powered Lamp","Verification_Date":null},"id":"stl-city-public-streetlights:2:153795","sourceLayerId":2,"sourceObjectId":153795,"sourceURL":"https://maps8.stlouis-mo.gov/arcgis/rest/services/STREETS/Streets_Permitting/MapServer/2","title":"Street light L046649"},"type":"Feature"},{"geometry":{"coordinates":[-90.22999214525503,38.68254367322185],"type":"Point"},"id":"stl-city-public-streetlights:2:153815","properties":{"address":null,"attributes":{"Date_Installed":"2/19/20","LED_Powered":1,"LightID":"L046669","Light_Source":"LED","Light_Type":"Cobra","Lighting_Type":"LED-Powered Lamp","Verification_Date":null},"id":"stl-city-public-streetlights:2:153815","sourceLayerId":2,"sourceObjectId":153815,"sourceURL":"https://maps8.stlouis-mo.gov/arcgis/rest/services/STREETS/Streets_Permitting/MapServer/2","title":"Street light L046669"},"type":"Feature"},{"geometry":{"coordinates":[-90.22891681354128,38.68002327122426],"type":"Point"},"id":"stl-city-public-streetlights:2:153859","properties":{"address":null,"attributes":{"Date_Installed":"2/19/20","LED_Powered":1,"LightID":"L046713","Light_Source":"LED","Light_Type":"Cobra","Lighting_Type":"LED-Powered Lamp","Verification_Date":null},"id":"stl-city-public-streetlights:2:153859","sourceLayerId":2,"sourceObjectId":153859,"sourceURL":"https://maps8.stlouis-mo.gov/arcgis/rest/services/STREETS/Streets_Permitting/MapServer/2","title":"Street light L046713"},"type":"Feature"},{"geometry":{"coordinates":[-90.22853544361546,38.68022878249356],"type":"Point"},"id":"stl-city-public-streetlights:2:153860","properties":{"address":null,"attributes":{"Date_Installed":"2/19/20","LED_Powered":1,"LightID":"L046714","Light_Source":"LED","Light_Type":"Cobra","Lighting_Type":"LED-Powered Lamp","Verification_Date":null},"id":"stl-city-public-streetlights:2:153860","sourceLayerId":2,"sourceObjectId":153860,"sourceURL":"https://maps8.stlouis-mo.gov/arcgis/rest/services/STREETS/Streets_Permitting/MapServer/2","title":"Street light L046714"},"type":"Feature"},{"geometry":{"coordinates":[-90.22811131429599,38.68045090088382],"type":"Point"},"id":"stl-city-public-streetlights:2:153861","properties":{"address":null,"attributes":{"Date_Installed":"2/19/20","LED_Powered":1,"LightID":"L046715","Light_Source":"LED","Light_Type":"Cobra","Lighting_Type":"LED-Powered Lamp","Verification_Date":null},"id":"stl-city-public-streetlights:2:153861","sourceLayerId":2,"sourceObjectId":153861,"sourceURL":"https://maps8.stlouis-mo.gov/arcgis/rest/services/STREETS/Streets_Permitting/MapServer/2","title":"Street light L046715"},"type":"Feature"},{"geometry":{"coordinates":[-90.22774964511187,38.6806402223625],"type":"Point"},"id":"stl-city-public-streetlights:2:153862","properties":{"address":null,"attributes":{"Date_Installed":"2/19/20","LED_Powered":1,"LightID":"L046716","Light_Source":"LED","Light_Type":"Cobra","Lighting_Type":"LED-Powered Lamp","Verification_Date":null},"id":"stl-city-public-streetlights:2:153862","sourceLayerId":2,"sourceObjectId":153862,"sourceURL":"https://maps8.stlouis-mo.gov/arcgis/rest/services/STREETS/Streets_Permitting/MapServer/2","title":"Street light L046716"},"type":"Feature"},{"geometry":{"coordinates":[-90.22734699749341,38.680849874703085],"type":"Point"},"id":"stl-city-public-streetlights:2:153863","properties":{"address":null,"attributes":{"Date_Installed":"2/19/20","LED_Powered":1,"LightID":"L046717","Light_Source":"LED","Light_Type":"Cobra","Lighting_Type":"LED-Powered Lamp","Verification_Date":null},"id":"stl-city-public-streetlights:2:153863","sourceLayerId":2,"sourceObjectId":153863,"sourceURL":"https://maps8.stlouis-mo.gov/arcgis/rest/services/STREETS/Streets_Permitting/MapServer/2","title":"Street light L046717"},"type":"Feature"},{"geometry":{"coordinates":[-90.22697720487858,38.68105509703502],"type":"Point"},"id":"stl-city-public-streetlights:2:153864","properties":{"address":null,"attributes":{"Date_Installed":"2/19/20","LED_Powered":1,"LightID":"L046718","Light_Source":"LED","Light_Type":"Cobra","Lighting_Type":"LED-Powered Lamp","Verification_Date":null},"id":"stl-city-public-streetlights:2:153864","sourceLayerId":2,"sourceObjectId":153864,"sourceURL":"https://maps8.stlouis-mo.gov/arcgis/rest/services/STREETS/Streets_Permitting/MapServer/2","title":"Street light L046718"},"type":"Feature"},{"geometry":{"coordinates":[-90.22652266137607,38.68129182119962],"type":"Point"},"id":"stl-city-public-streetlights:2:153865","properties":{"address":null,"attributes":{"Date_Installed":"2/19/20","LED_Powered":1,"LightID":"L046719","Light_Source":"LED","Light_Type":"Cobra","Lighting_Type":"LED-Powered Lamp","Verification_Date":null},"id":"stl-city-public-streetlights:2:153865","sourceLayerId":2,"sourceObjectId":153865,"sourceURL":"https://maps8.stlouis-mo.gov/arcgis/rest/services/STREETS/Streets_Permitting/MapServer/2","title":"Street light L046719"},"type":"Feature"},{"geometry":{"coordinates":[-90.22612643479509,38.68150476082884],"type":"Point"},"id":"stl-city-public-streetlights:2:153866","properties":{"address":null,"attributes":{"Date_Installed":"2/19/20","LED_Powered":1,"LightID":"L046720","Light_Source":"LED","Light_Type":"Cobra","Lighting_Type":"LED-Powered Lamp","Verification_Date":null},"id":"stl-city-public-streetlights:2:153866","sourceLayerId":2,"sourceObjectId":153866,"sourceURL":"https://maps8.stlouis-mo.gov/arcgis/rest/services/STREETS/Streets_Permitting/MapServer/2","title":"Street light L046720"},"type":"Feature"},{"geometry":{"coordinates":[-90.22580445650743,38.6816753290272],"type":"Point"},"id":"stl-city-public-streetlights:2:153867","properties":{"address":null,"attributes":{"Date_Installed":"2/19/20","LED_Powered":1,"LightID":"L046721","Light_Source":"LED","Light_Type":"Cobra","Lighting_Type":"LED-Powered Lamp","Verification_Date":null},"id":"stl-city-public-streetlights:2:153867","sourceLayerId":2,"sourceObjectId":153867,"sourceURL":"https://maps8.stlouis-mo.gov/arcgis/rest/services/STREETS/Streets_Permitting/MapServer/2","title":"Street light L046721"},"type":"Feature"},{"geometry":{"coordinates":[-90.2257341194923,38.68182425113667],"type":"Point"},"id":"stl-city-public-streetlights:2:153868","properties":{"address":null,"attributes":{"Date_Installed":null,"LED_Powered":1,"LightID":"L046722","Light_Source":"LED","Light_Type":"Cobra","Lighting_Type":"LED-Powered Lamp","Verification_Date":null},"id":"stl-city-public-streetlights:2:153868","sourceLayerId":2,"sourceObjectId":153868,"sourceURL":"https://maps8.stlouis-mo.gov/arcgis/rest/services/STREETS/Streets_Permitting/MapServer/2","title":"Street light L046722"},"type":"Feature"},{"geometry":{"coordinates":[-90.22616889600567,38.682043844696196],"type":"Point"},"id":"stl-city-public-streetlights:2:153869","properties":{"address":null,"attributes":{"Date_Installed":null,"LED_Powered":1,"LightID":"L046723","Light_Source":"LED","Light_Type":"Cobra","Lighting_Type":"LED-Powered Lamp","Verification_Date":null},"id":"stl-city-public-streetlights:2:153869","sourceLayerId":2,"sourceObjectId":153869,"sourceURL":"https://maps8.stlouis-mo.gov/arcgis/rest/services/STREETS/Streets_Permitting/MapServer/2","title":"Street light L046723"},"type":"Feature"},{"geometry":{"coordinates":[-90.22594270858015,38.6805431941859],"type":"Point"},"id":"stl-city-public-streetlights:2:153870","properties":{"address":null,"attributes":{"Date_Installed":"2/19/20","LED_Powered":1,"LightID":"L046724","Light_Source":"LED","Light_Type":"Cobra","Lighting_Type":"LED-Powered Lamp","Verification_Date":null},"id":"stl-city-public-streetlights:2:153870","sourceLayerId":2,"sourceObjectId":153870,"sourceURL":"https://maps8.stlouis-mo.gov/arcgis/rest/services/STREETS/Streets_Permitting/MapServer/2","title":"Street light L046724"},"type":"Feature"},{"geometry":{"coordinates":[-90.22619005611114,38.680829565913186],"type":"Point"},"id":"stl-city-public-streetlights:2:153871","properties":{"address":null,"attributes":{"Date_Installed":"2/19/20","LED_Powered":1,"LightID":"L046725","Light_Source":"LED","Light_Type":"Cobra","Lighting_Type":"LED-Powered Lamp","Verification_Date":null},"id":"stl-city-public-streetlights:2:153871","sourceLayerId":2,"sourceObjectId":153871,"sourceURL":"https://maps8.stlouis-mo.gov/arcgis/rest/services/STREETS/Streets_Permitting/MapServer/2","title":"Street light L046725"},"type":"Feature"},{"geometry":{"coordinates":[-90.22644286547528,38.68112000205083],"type":"Point"},"id":"stl-city-public-streetlights:2:153872","properties":{"address":null,"attributes":{"Date_Installed":"2/19/20","LED_Powered":1,"LightID":"L046726","Light_Source":"LED","Light_Type":"Cobra","Lighting_Type":"LED-Powered Lamp","Verification_Date":null},"id":"stl-city-public-streetlights:2:153872","sourceLayerId":2,"sourceObjectId":153872,"sourceURL":"https://maps8.stlouis-mo.gov/arcgis/rest/services/STREETS/Streets_Permitting/MapServer/2","title":"Street light L046726"},"type":"Feature"},{"geometry":{"coordinates":[-90.22680663074122,38.68137275079093],"type":"Point"},"id":"stl-city-public-streetlights:2:153873","properties":{"address":null,"attributes":{"Date_Installed":"2/19/20","LED_Powered":1,"LightID":"L046727","Light_Source":"LED","Light_Type":"Cobra","Lighting_Type":"LED-Powered Lamp","Verification_Date":null},"id":"stl-city-public-streetlights:2:153873","sourceLayerId":2,"sourceObjectId":153873,"sourceURL":"https://maps8.stlouis-mo.gov/arcgis/rest/services/STREETS/Streets_Permitting/MapServer/2","title":"Street light L046727"},"type":"Feature"},{"geometry":{"coordinates":[-90.22715412806082,38.681633849459004],"type":"Point"},"id":"stl-city-public-streetlights:2:153874","properties":{"address":null,"attributes":{"Date_Installed":"2/19/20","LED_Powered":1,"LightID":"L046728","Light_Source":"LED","Light_Type":"Cobra","Lighting_Type":"LED-Powered Lamp","Verification_Date":null},"id":"stl-city-public-streetlights:2:153874","sourceLayerId":2,"sourceObjectId":153874,"sourceURL":"https://maps8.stlouis-mo.gov/arcgis/rest/services/STREETS/Streets_Permitting/MapServer/2","title":"Street light L046728"},"type":"Feature"},{"geometry":{"coordinates":[-90.2275233233835,38.6817310748715],"type":"Point"},"id":"stl-city-public-streetlights:2:153875","properties":{"address":null,"attributes":{"Date_Installed":"2/19/20","LED_Powered":1,"LightID":"L046729","Light_Source":"LED","Light_Type":"Cobra","Lighting_Type":"LED-Powered Lamp","Verification_Date":null},"id":"stl-city-public-streetlights:2:153875","sourceLayerId":2,"sourceObjectId":153875,"sourceURL":"https://maps8.stlouis-mo.gov/arcgis/rest/services/STREETS/Streets_Permitting/MapServer/2","title":"Street light L046729"},"type":"Feature"},{"geometry":{"coordinates":[-90.22791048258713,38.68152536602826],"type":"Point"},"id":"stl-city-public-streetlights:2:153876","properties":{"address":null,"attributes":{"Date_Installed":"2/19/20","LED_Powered":1,"LightID":"L046730","Light_Source":"LED","Light_Type":"Cobra","Lighting_Type":"LED-Powered Lamp","Verification_Date":null},"id":"stl-city-public-streetlights:2:153876","sourceLayerId":2,"sourceObjectId":153876,"sourceURL":"https://maps8.stlouis-mo.gov/arcgis/rest/services/STREETS/Streets_Permitting/MapServer/2","title":"Street light L046730"},"type":"Feature"},{"geometry":{"coordinates":[-90.22830201682046,38.68132009577787],"type":"Point"},"id":"stl-city-public-streetlights:2:153877","properties":{"address":null,"attributes":{"Date_Installed":"2/19/20","LED_Powered":1,"LightID":"L046731","Light_Source":"LED","Light_Type":"Cobra","Lighting_Type":"LED-Powered Lamp","Verification_Date":null},"id":"stl-city-public-streetlights:2:153877","sourceLayerId":2,"sourceObjectId":153877,"sourceURL":"https://maps8.stlouis-mo.gov/arcgis/rest/services/STREETS/Streets_Permitting/MapServer/2","title":"Street light L046731"},"type":"Feature"},{"geometry":{"coordinates":[-90.22867071794582,38.68112144587641],"type":"Point"},"id":"stl-city-public-streetlights:2:153878","properties":{"address":null,"attributes":{"Date_Installed":"2/19/20","LED_Powered":1,"LightID":"L046732","Light_Source":"LED","Light_Type":"Cobra","Lighting_Type":"LED-Powered Lamp","Verification_Date":null},"id":"stl-city-public-streetlights:2:153878","sourceLayerId":2,"sourceObjectId":153878,"sourceURL":"https://maps8.stlouis-mo.gov/arcgis/rest/services/STREETS/Streets_Permitting/MapServer/2","title":"Street light L046732"},"type":"Feature"},{"geometry":{"coordinates":[-90.22905781797282,38.68092176357581],"type":"Point"},"id":"stl-city-public-streetlights:2:153879","properties":{"address":null,"attributes":{"Date_Installed":"2/19/20","LED_Powered":1,"LightID":"L046733","Light_Source":"LED","Light_Type":"Cobra","Lighting_Type":"LED-Powered Lamp","Verification_Date":null},"id":"stl-city-public-streetlights:2:153879","sourceLayerId":2,"sourceObjectId":153879,"sourceURL":"https://maps8.stlouis-mo.gov/arcgis/rest/services/STREETS/Streets_Permitting/MapServer/2","title":"Street light L046733"},"type":"Feature"}],"layerId":"city-streetlights","retrievedAt":"2026-09-13T21:56:18.173251+00:00","schema":"property-infrastructure-geojson-v1","sourceId":"stl-city-public-streetlights","tileId":"-9023_3868","type":"FeatureCollection"}