{"features":[{"geometry":{"coordinates":[-90.19846154018856,38.676232915585565],"type":"Point"},"id":"stl-city-public-streetlights:2:131447","properties":{"address":null,"attributes":{"Date_Installed":null,"LED_Powered":0,"LightID":"L024163","Light_Source":"High Pressure Sodium","Light_Type":"Cobra","Lighting_Type":"400-W High Pressure Sodium Vapor Lamp","Verification_Date":null},"id":"stl-city-public-streetlights:2:131447","sourceLayerId":2,"sourceObjectId":131447,"sourceURL":"https://maps8.stlouis-mo.gov/arcgis/rest/services/STREETS/Streets_Permitting/MapServer/2","title":"Street light L024163"},"type":"Feature"},{"geometry":{"coordinates":[-90.19879014722109,38.67661518527505],"type":"Point"},"id":"stl-city-public-streetlights:2:131448","properties":{"address":null,"attributes":{"Date_Installed":null,"LED_Powered":0,"LightID":"L024164","Light_Source":"High Pressure Sodium","Light_Type":"Cobra","Lighting_Type":"400-W High Pressure Sodium Vapor Lamp","Verification_Date":null},"id":"stl-city-public-streetlights:2:131448","sourceLayerId":2,"sourceObjectId":131448,"sourceURL":"https://maps8.stlouis-mo.gov/arcgis/rest/services/STREETS/Streets_Permitting/MapServer/2","title":"Street light L024164"},"type":"Feature"},{"geometry":{"coordinates":[-90.19914221933708,38.677022789548595],"type":"Point"},"id":"stl-city-public-streetlights:2:131449","properties":{"address":null,"attributes":{"Date_Installed":null,"LED_Powered":0,"LightID":"L024165","Light_Source":"High Pressure Sodium","Light_Type":"Cobra","Lighting_Type":"400-W High Pressure Sodium Vapor Lamp","Verification_Date":null},"id":"stl-city-public-streetlights:2:131449","sourceLayerId":2,"sourceObjectId":131449,"sourceURL":"https://maps8.stlouis-mo.gov/arcgis/rest/services/STREETS/Streets_Permitting/MapServer/2","title":"Street light L024165"},"type":"Feature"},{"geometry":{"coordinates":[-90.19955229952953,38.67748620280067],"type":"Point"},"id":"stl-city-public-streetlights:2:131450","properties":{"address":null,"attributes":{"Date_Installed":null,"LED_Powered":0,"LightID":"L024166","Light_Source":"High Pressure Sodium","Light_Type":"Cobra","Lighting_Type":"400-W High Pressure Sodium Vapor Lamp","Verification_Date":null},"id":"stl-city-public-streetlights:2:131450","sourceLayerId":2,"sourceObjectId":131450,"sourceURL":"https://maps8.stlouis-mo.gov/arcgis/rest/services/STREETS/Streets_Permitting/MapServer/2","title":"Street light L024166"},"type":"Feature"},{"geometry":{"coordinates":[-90.19990307086363,38.67789994180967],"type":"Point"},"id":"stl-city-public-streetlights:2:131451","properties":{"address":null,"attributes":{"Date_Installed":null,"LED_Powered":0,"LightID":"L024167","Light_Source":"High Pressure Sodium","Light_Type":"Cobra","Lighting_Type":"400-W High Pressure Sodium Vapor Lamp","Verification_Date":null},"id":"stl-city-public-streetlights:2:131451","sourceLayerId":2,"sourceObjectId":131451,"sourceURL":"https://maps8.stlouis-mo.gov/arcgis/rest/services/STREETS/Streets_Permitting/MapServer/2","title":"Street light L024167"},"type":"Feature"},{"geometry":{"coordinates":[-90.1999983783592,38.677649909420765],"type":"Point"},"id":"stl-city-public-streetlights:2:131495","properties":{"address":null,"attributes":{"Date_Installed":null,"LED_Powered":0,"LightID":"L024211","Light_Source":"LED","Light_Type":"Cobra","Lighting_Type":"LED-Powered Lamp","Verification_Date":null},"id":"stl-city-public-streetlights:2:131495","sourceLayerId":2,"sourceObjectId":131495,"sourceURL":"https://maps8.stlouis-mo.gov/arcgis/rest/services/STREETS/Streets_Permitting/MapServer/2","title":"Street light L024211"},"type":"Feature"},{"geometry":{"coordinates":[-90.19959183654397,38.677193599477825],"type":"Point"},"id":"stl-city-public-streetlights:2:131496","properties":{"address":null,"attributes":{"Date_Installed":null,"LED_Powered":0,"LightID":"L024212","Light_Source":"LED","Light_Type":"Cobra","Lighting_Type":"LED-Powered Lamp","Verification_Date":null},"id":"stl-city-public-streetlights:2:131496","sourceLayerId":2,"sourceObjectId":131496,"sourceURL":"https://maps8.stlouis-mo.gov/arcgis/rest/services/STREETS/Streets_Permitting/MapServer/2","title":"Street light L024212"},"type":"Feature"},{"geometry":{"coordinates":[-90.19920955843192,38.67673749463769],"type":"Point"},"id":"stl-city-public-streetlights:2:131497","properties":{"address":null,"attributes":{"Date_Installed":null,"LED_Powered":0,"LightID":"L024213","Light_Source":"LED","Light_Type":"Cobra","Lighting_Type":"LED-Powered Lamp","Verification_Date":null},"id":"stl-city-public-streetlights:2:131497","sourceLayerId":2,"sourceObjectId":131497,"sourceURL":"https://maps8.stlouis-mo.gov/arcgis/rest/services/STREETS/Streets_Permitting/MapServer/2","title":"Street light L024213"},"type":"Feature"},{"geometry":{"coordinates":[-90.19996122028971,38.67909211977271],"type":"Point"},"id":"stl-city-public-streetlights:2:131499","properties":{"address":null,"attributes":{"Date_Installed":null,"LED_Powered":0,"LightID":"L024215","Light_Source":"LED","Light_Type":"Cobra","Lighting_Type":"LED-Powered Lamp","Verification_Date":null},"id":"stl-city-public-streetlights:2:131499","sourceLayerId":2,"sourceObjectId":131499,"sourceURL":"https://maps8.stlouis-mo.gov/arcgis/rest/services/STREETS/Streets_Permitting/MapServer/2","title":"Street light L024215"},"type":"Feature"},{"geometry":{"coordinates":[-90.19930899703654,38.67944798333935],"type":"Point"},"id":"stl-city-public-streetlights:2:131500","properties":{"address":null,"attributes":{"Date_Installed":null,"LED_Powered":0,"LightID":"L024216","Light_Source":"LED","Light_Type":"Cobra","Lighting_Type":"LED-Powered Lamp","Verification_Date":null},"id":"stl-city-public-streetlights:2:131500","sourceLayerId":2,"sourceObjectId":131500,"sourceURL":"https://maps8.stlouis-mo.gov/arcgis/rest/services/STREETS/Streets_Permitting/MapServer/2","title":"Street light L024216"},"type":"Feature"},{"geometry":{"coordinates":[-90.19885186810359,38.679687549961535],"type":"Point"},"id":"stl-city-public-streetlights:2:131501","properties":{"address":null,"attributes":{"Date_Installed":null,"LED_Powered":0,"LightID":"L024217","Light_Source":"LED","Light_Type":"Cobra","Lighting_Type":"LED-Powered Lamp","Verification_Date":null},"id":"stl-city-public-streetlights:2:131501","sourceLayerId":2,"sourceObjectId":131501,"sourceURL":"https://maps8.stlouis-mo.gov/arcgis/rest/services/STREETS/Streets_Permitting/MapServer/2","title":"Street light L024217"},"type":"Feature"},{"geometry":{"coordinates":[-90.19843679294941,38.67990505521375],"type":"Point"},"id":"stl-city-public-streetlights:2:131502","properties":{"address":null,"attributes":{"Date_Installed":null,"LED_Powered":0,"LightID":"L024218","Light_Source":"LED","Light_Type":"Cobra","Lighting_Type":"LED-Powered Lamp","Verification_Date":null},"id":"stl-city-public-streetlights:2:131502","sourceLayerId":2,"sourceObjectId":131502,"sourceURL":"https://maps8.stlouis-mo.gov/arcgis/rest/services/STREETS/Streets_Permitting/MapServer/2","title":"Street light L024218"},"type":"Feature"},{"geometry":{"coordinates":[-90.19534952310339,38.679860216200474],"type":"Point"},"id":"stl-city-public-streetlights:2:131510","properties":{"address":null,"attributes":{"Date_Installed":null,"LED_Powered":0,"LightID":"L024226","Light_Source":"High Pressure Sodium","Light_Type":"Cobra","Lighting_Type":"400-W High Pressure Sodium Vapor Lamp","Verification_Date":null},"id":"stl-city-public-streetlights:2:131510","sourceLayerId":2,"sourceObjectId":131510,"sourceURL":"https://maps8.stlouis-mo.gov/arcgis/rest/services/STREETS/Streets_Permitting/MapServer/2","title":"Street light L024226"},"type":"Feature"},{"geometry":{"coordinates":[-90.1950281708499,38.67954205555104],"type":"Point"},"id":"stl-city-public-streetlights:2:131511","properties":{"address":null,"attributes":{"Date_Installed":null,"LED_Powered":0,"LightID":"L024227","Light_Source":"High Pressure Sodium","Light_Type":"Cobra","Lighting_Type":"400-W High Pressure Sodium Vapor Lamp","Verification_Date":null},"id":"stl-city-public-streetlights:2:131511","sourceLayerId":2,"sourceObjectId":131511,"sourceURL":"https://maps8.stlouis-mo.gov/arcgis/rest/services/STREETS/Streets_Permitting/MapServer/2","title":"Street light L024227"},"type":"Feature"},{"geometry":{"coordinates":[-90.19471937665257,38.67921946471534],"type":"Point"},"id":"stl-city-public-streetlights:2:131512","properties":{"address":null,"attributes":{"Date_Installed":null,"LED_Powered":0,"LightID":"L024228","Light_Source":"High Pressure Sodium","Light_Type":"Cobra","Lighting_Type":"400-W High Pressure Sodium Vapor Lamp","Verification_Date":null},"id":"stl-city-public-streetlights:2:131512","sourceLayerId":2,"sourceObjectId":131512,"sourceURL":"https://maps8.stlouis-mo.gov/arcgis/rest/services/STREETS/Streets_Permitting/MapServer/2","title":"Street light L024228"},"type":"Feature"},{"geometry":{"coordinates":[-90.19441976776187,38.67888259644404],"type":"Point"},"id":"stl-city-public-streetlights:2:131513","properties":{"address":null,"attributes":{"Date_Installed":null,"LED_Powered":0,"LightID":"L024229","Light_Source":"High Pressure Sodium","Light_Type":"Cobra","Lighting_Type":"400-W High Pressure Sodium Vapor Lamp","Verification_Date":null},"id":"stl-city-public-streetlights:2:131513","sourceLayerId":2,"sourceObjectId":131513,"sourceURL":"https://maps8.stlouis-mo.gov/arcgis/rest/services/STREETS/Streets_Permitting/MapServer/2","title":"Street light L024229"},"type":"Feature"},{"geometry":{"coordinates":[-90.1941414358453,38.678548166768564],"type":"Point"},"id":"stl-city-public-streetlights:2:131514","properties":{"address":null,"attributes":{"Date_Installed":null,"LED_Powered":0,"LightID":"L024230","Light_Source":"High Pressure Sodium","Light_Type":"Cobra","Lighting_Type":"400-W High Pressure Sodium Vapor Lamp","Verification_Date":null},"id":"stl-city-public-streetlights:2:131514","sourceLayerId":2,"sourceObjectId":131514,"sourceURL":"https://maps8.stlouis-mo.gov/arcgis/rest/services/STREETS/Streets_Permitting/MapServer/2","title":"Street light L024230"},"type":"Feature"},{"geometry":{"coordinates":[-90.19369924976199,38.67848980353144],"type":"Point"},"id":"stl-city-public-streetlights:2:131515","properties":{"address":null,"attributes":{"Date_Installed":null,"LED_Powered":0,"LightID":"L024231","Light_Source":"High Pressure Sodium","Light_Type":"Cobra","Lighting_Type":"400-W High Pressure Sodium Vapor Lamp","Verification_Date":null},"id":"stl-city-public-streetlights:2:131515","sourceLayerId":2,"sourceObjectId":131515,"sourceURL":"https://maps8.stlouis-mo.gov/arcgis/rest/services/STREETS/Streets_Permitting/MapServer/2","title":"Street light L024231"},"type":"Feature"},{"geometry":{"coordinates":[-90.19980111214397,38.67524941367336],"type":"Point"},"id":"stl-city-public-streetlights:2:140253","properties":{"address":null,"attributes":{"Date_Installed":null,"LED_Powered":1,"LightID":"L033110","Light_Source":"LED","Light_Type":"Cobra","Lighting_Type":"LED-Powered Lamp","Verification_Date":null},"id":"stl-city-public-streetlights:2:140253","sourceLayerId":2,"sourceObjectId":140253,"sourceURL":"https://maps8.stlouis-mo.gov/arcgis/rest/services/STREETS/Streets_Permitting/MapServer/2","title":"Street light L033110"},"type":"Feature"},{"geometry":{"coordinates":[-90.1993329908027,38.67550678264806],"type":"Point"},"id":"stl-city-public-streetlights:2:140254","properties":{"address":null,"attributes":{"Date_Installed":null,"LED_Powered":1,"LightID":"L033111","Light_Source":"LED","Light_Type":"Cobra","Lighting_Type":"LED-Powered Lamp","Verification_Date":null},"id":"stl-city-public-streetlights:2:140254","sourceLayerId":2,"sourceObjectId":140254,"sourceURL":"https://maps8.stlouis-mo.gov/arcgis/rest/services/STREETS/Streets_Permitting/MapServer/2","title":"Street light L033111"},"type":"Feature"},{"geometry":{"coordinates":[-90.19887365989753,38.67575540136942],"type":"Point"},"id":"stl-city-public-streetlights:2:140255","properties":{"address":null,"attributes":{"Date_Installed":null,"LED_Powered":1,"LightID":"L033112","Light_Source":"LED","Light_Type":"Cobra","Lighting_Type":"LED-Powered Lamp","Verification_Date":null},"id":"stl-city-public-streetlights:2:140255","sourceLayerId":2,"sourceObjectId":140255,"sourceURL":"https://maps8.stlouis-mo.gov/arcgis/rest/services/STREETS/Streets_Permitting/MapServer/2","title":"Street light L033112"},"type":"Feature"},{"geometry":{"coordinates":[-90.19840560076533,38.675996367990315],"type":"Point"},"id":"stl-city-public-streetlights:2:140256","properties":{"address":null,"attributes":{"Date_Installed":null,"LED_Powered":1,"LightID":"L033113","Light_Source":"LED","Light_Type":"Cobra","Lighting_Type":"LED-Powered Lamp","Verification_Date":null},"id":"stl-city-public-streetlights:2:140256","sourceLayerId":2,"sourceObjectId":140256,"sourceURL":"https://maps8.stlouis-mo.gov/arcgis/rest/services/STREETS/Streets_Permitting/MapServer/2","title":"Street light L033113"},"type":"Feature"},{"geometry":{"coordinates":[-90.19798587095562,38.67620475458361],"type":"Point"},"id":"stl-city-public-streetlights:2:140257","properties":{"address":null,"attributes":{"Date_Installed":null,"LED_Powered":1,"LightID":"L033114","Light_Source":"LED","Light_Type":"Cobra","Lighting_Type":"LED-Powered Lamp","Verification_Date":null},"id":"stl-city-public-streetlights:2:140257","sourceLayerId":2,"sourceObjectId":140257,"sourceURL":"https://maps8.stlouis-mo.gov/arcgis/rest/services/STREETS/Streets_Permitting/MapServer/2","title":"Street light L033114"},"type":"Feature"},{"geometry":{"coordinates":[-90.19962112632489,38.670009192248],"type":"Point"},"id":"stl-city-public-streetlights:2:141301","properties":{"address":null,"attributes":{"Date_Installed":null,"LED_Powered":0,"LightID":"L034158","Light_Source":"LED","Light_Type":"Cobra","Lighting_Type":"LED-Powered Lamp","Verification_Date":null},"id":"stl-city-public-streetlights:2:141301","sourceLayerId":2,"sourceObjectId":141301,"sourceURL":"https://maps8.stlouis-mo.gov/arcgis/rest/services/STREETS/Streets_Permitting/MapServer/2","title":"Street light L034158"},"type":"Feature"},{"geometry":{"coordinates":[-90.19922714676098,38.670227280139066],"type":"Point"},"id":"stl-city-public-streetlights:2:141302","properties":{"address":null,"attributes":{"Date_Installed":null,"LED_Powered":0,"LightID":"L034159","Light_Source":"LED","Light_Type":"Cobra","Lighting_Type":"LED-Powered Lamp","Verification_Date":null},"id":"stl-city-public-streetlights:2:141302","sourceLayerId":2,"sourceObjectId":141302,"sourceURL":"https://maps8.stlouis-mo.gov/arcgis/rest/services/STREETS/Streets_Permitting/MapServer/2","title":"Street light L034159"},"type":"Feature"},{"geometry":{"coordinates":[-90.19882799423115,38.67043124192948],"type":"Point"},"id":"stl-city-public-streetlights:2:141303","properties":{"address":null,"attributes":{"Date_Installed":null,"LED_Powered":0,"LightID":"L034160","Light_Source":"LED","Light_Type":"Cobra","Lighting_Type":"LED-Powered Lamp","Verification_Date":null},"id":"stl-city-public-streetlights:2:141303","sourceLayerId":2,"sourceObjectId":141303,"sourceURL":"https://maps8.stlouis-mo.gov/arcgis/rest/services/STREETS/Streets_Permitting/MapServer/2","title":"Street light L034160"},"type":"Feature"},{"geometry":{"coordinates":[-90.1984726154915,38.670636744903774],"type":"Point"},"id":"stl-city-public-streetlights:2:141304","properties":{"address":null,"attributes":{"Date_Installed":null,"LED_Powered":0,"LightID":"L034161","Light_Source":"LED","Light_Type":"Cobra","Lighting_Type":"LED-Powered Lamp","Verification_Date":null},"id":"stl-city-public-streetlights:2:141304","sourceLayerId":2,"sourceObjectId":141304,"sourceURL":"https://maps8.stlouis-mo.gov/arcgis/rest/services/STREETS/Streets_Permitting/MapServer/2","title":"Street light L034161"},"type":"Feature"},{"geometry":{"coordinates":[-90.19805271031693,38.670858289828054],"type":"Point"},"id":"stl-city-public-streetlights:2:141305","properties":{"address":null,"attributes":{"Date_Installed":null,"LED_Powered":0,"LightID":"L034162","Light_Source":"LED","Light_Type":"Cobra","Lighting_Type":"LED-Powered Lamp","Verification_Date":null},"id":"stl-city-public-streetlights:2:141305","sourceLayerId":2,"sourceObjectId":141305,"sourceURL":"https://maps8.stlouis-mo.gov/arcgis/rest/services/STREETS/Streets_Permitting/MapServer/2","title":"Street light L034162"},"type":"Feature"},{"geometry":{"coordinates":[-90.19750696482546,38.67115182267723],"type":"Point"},"id":"stl-city-public-streetlights:2:141306","properties":{"address":null,"attributes":{"Date_Installed":null,"LED_Powered":0,"LightID":"L034163","Light_Source":"LED","Light_Type":"Cobra","Lighting_Type":"LED-Powered Lamp","Verification_Date":null},"id":"stl-city-public-streetlights:2:141306","sourceLayerId":2,"sourceObjectId":141306,"sourceURL":"https://maps8.stlouis-mo.gov/arcgis/rest/services/STREETS/Streets_Permitting/MapServer/2","title":"Street light L034163"},"type":"Feature"},{"geometry":{"coordinates":[-90.19722760904367,38.671300934825126],"type":"Point"},"id":"stl-city-public-streetlights:2:141307","properties":{"address":null,"attributes":{"Date_Installed":null,"LED_Powered":0,"LightID":"L034164","Light_Source":"LED","Light_Type":"Cobra","Lighting_Type":"LED-Powered Lamp","Verification_Date":null},"id":"stl-city-public-streetlights:2:141307","sourceLayerId":2,"sourceObjectId":141307,"sourceURL":"https://maps8.stlouis-mo.gov/arcgis/rest/services/STREETS/Streets_Permitting/MapServer/2","title":"Street light L034164"},"type":"Feature"},{"geometry":{"coordinates":[-90.19986430809298,38.670932016932476],"type":"Point"},"id":"stl-city-public-streetlights:2:141311","properties":{"address":null,"attributes":{"Date_Installed":null,"LED_Powered":0,"LightID":"L034168","Light_Source":"High Pressure Sodium","Light_Type":"Cobra","Lighting_Type":"150-W High Pressure Sodium Vapor Lamp","Verification_Date":null},"id":"stl-city-public-streetlights:2:141311","sourceLayerId":2,"sourceObjectId":141311,"sourceURL":"https://maps8.stlouis-mo.gov/arcgis/rest/services/STREETS/Streets_Permitting/MapServer/2","title":"Street light L034168"},"type":"Feature"},{"geometry":{"coordinates":[-90.19985235733674,38.67047394727603],"type":"Point"},"id":"stl-city-public-streetlights:2:141323","properties":{"address":null,"attributes":{"Date_Installed":null,"LED_Powered":0,"LightID":"L034180","Light_Source":"LED","Light_Type":"Cobra","Lighting_Type":"LED-Powered Lamp","Verification_Date":null},"id":"stl-city-public-streetlights:2:141323","sourceLayerId":2,"sourceObjectId":141323,"sourceURL":"https://maps8.stlouis-mo.gov/arcgis/rest/services/STREETS/Streets_Permitting/MapServer/2","title":"Street light L034180"},"type":"Feature"},{"geometry":{"coordinates":[-90.19956685314403,38.670184203578515],"type":"Point"},"id":"stl-city-public-streetlights:2:141324","properties":{"address":null,"attributes":{"Date_Installed":null,"LED_Powered":0,"LightID":"L034181","Light_Source":"LED","Light_Type":"Cobra","Lighting_Type":"LED-Powered Lamp","Verification_Date":null},"id":"stl-city-public-streetlights:2:141324","sourceLayerId":2,"sourceObjectId":141324,"sourceURL":"https://maps8.stlouis-mo.gov/arcgis/rest/services/STREETS/Streets_Permitting/MapServer/2","title":"Street light L034181"},"type":"Feature"},{"geometry":{"coordinates":[-90.19624837149355,38.671665820309954],"type":"Point"},"id":"stl-city-public-streetlights:2:154410","properties":{"address":null,"attributes":{"Date_Installed":null,"LED_Powered":0,"LightID":"L052397","Light_Source":"LED","Light_Type":"Cobra","Lighting_Type":"LED-Powered Lamp","Verification_Date":null},"id":"stl-city-public-streetlights:2:154410","sourceLayerId":2,"sourceObjectId":154410,"sourceURL":"https://maps8.stlouis-mo.gov/arcgis/rest/services/STREETS/Streets_Permitting/MapServer/2","title":"Street light L052397"},"type":"Feature"},{"geometry":{"coordinates":[-90.19599601386669,38.67175985472977],"type":"Point"},"id":"stl-city-public-streetlights:2:154411","properties":{"address":null,"attributes":{"Date_Installed":null,"LED_Powered":0,"LightID":"L052398","Light_Source":"LED","Light_Type":"Cobra","Lighting_Type":"LED-Powered Lamp","Verification_Date":null},"id":"stl-city-public-streetlights:2:154411","sourceLayerId":2,"sourceObjectId":154411,"sourceURL":"https://maps8.stlouis-mo.gov/arcgis/rest/services/STREETS/Streets_Permitting/MapServer/2","title":"Street light L052398"},"type":"Feature"},{"geometry":{"coordinates":[-90.19294118397379,38.67005451939922],"type":"Point"},"id":"stl-city-public-streetlights:2:157710","properties":{"address":null,"attributes":{"Date_Installed":null,"LED_Powered":0,"LightID":"L050423","Light_Source":"LED","Light_Type":"Cobra","Lighting_Type":"LED-Powered Lamp","Verification_Date":null},"id":"stl-city-public-streetlights:2:157710","sourceLayerId":2,"sourceObjectId":157710,"sourceURL":"https://maps8.stlouis-mo.gov/arcgis/rest/services/STREETS/Streets_Permitting/MapServer/2","title":"Street light L050423"},"type":"Feature"},{"geometry":{"coordinates":[-90.19249118977051,38.670213228731114],"type":"Point"},"id":"stl-city-public-streetlights:2:157711","properties":{"address":null,"attributes":{"Date_Installed":null,"LED_Powered":0,"LightID":"L050424","Light_Source":"LED","Light_Type":"Cobra","Lighting_Type":"LED-Powered Lamp","Verification_Date":null},"id":"stl-city-public-streetlights:2:157711","sourceLayerId":2,"sourceObjectId":157711,"sourceURL":"https://maps8.stlouis-mo.gov/arcgis/rest/services/STREETS/Streets_Permitting/MapServer/2","title":"Street light L050424"},"type":"Feature"},{"geometry":{"coordinates":[-90.19214405741715,38.67033530871585],"type":"Point"},"id":"stl-city-public-streetlights:2:157712","properties":{"address":null,"attributes":{"Date_Installed":null,"LED_Powered":0,"LightID":"L050425","Light_Source":"LED","Light_Type":"Cobra","Lighting_Type":"LED-Powered Lamp","Verification_Date":null},"id":"stl-city-public-streetlights:2:157712","sourceLayerId":2,"sourceObjectId":157712,"sourceURL":"https://maps8.stlouis-mo.gov/arcgis/rest/services/STREETS/Streets_Permitting/MapServer/2","title":"Street light L050425"},"type":"Feature"},{"geometry":{"coordinates":[-90.19174683969688,38.6704801381225],"type":"Point"},"id":"stl-city-public-streetlights:2:157713","properties":{"address":null,"attributes":{"Date_Installed":null,"LED_Powered":0,"LightID":"L050426","Light_Source":"LED","Light_Type":"Cobra","Lighting_Type":"LED-Powered Lamp","Verification_Date":null},"id":"stl-city-public-streetlights:2:157713","sourceLayerId":2,"sourceObjectId":157713,"sourceURL":"https://maps8.stlouis-mo.gov/arcgis/rest/services/STREETS/Streets_Permitting/MapServer/2","title":"Street light L050426"},"type":"Feature"},{"geometry":{"coordinates":[-90.19131929655916,38.67063489766519],"type":"Point"},"id":"stl-city-public-streetlights:2:157714","properties":{"address":null,"attributes":{"Date_Installed":null,"LED_Powered":0,"LightID":"L050427","Light_Source":"LED","Light_Type":"Cobra","Lighting_Type":"LED-Powered Lamp","Verification_Date":null},"id":"stl-city-public-streetlights:2:157714","sourceLayerId":2,"sourceObjectId":157714,"sourceURL":"https://maps8.stlouis-mo.gov/arcgis/rest/services/STREETS/Streets_Permitting/MapServer/2","title":"Street light L050427"},"type":"Feature"},{"geometry":{"coordinates":[-90.1908473567591,38.670804555127354],"type":"Point"},"id":"stl-city-public-streetlights:2:157715","properties":{"address":null,"attributes":{"Date_Installed":null,"LED_Powered":0,"LightID":"L050428","Light_Source":"LED","Light_Type":"Cobra","Lighting_Type":"LED-Powered Lamp","Verification_Date":null},"id":"stl-city-public-streetlights:2:157715","sourceLayerId":2,"sourceObjectId":157715,"sourceURL":"https://maps8.stlouis-mo.gov/arcgis/rest/services/STREETS/Streets_Permitting/MapServer/2","title":"Street light L050428"},"type":"Feature"},{"geometry":{"coordinates":[-90.19045597258777,38.67082211152523],"type":"Point"},"id":"stl-city-public-streetlights:2:157716","properties":{"address":null,"attributes":{"Date_Installed":null,"LED_Powered":0,"LightID":"L050429","Light_Source":"LED","Light_Type":"Cobra","Lighting_Type":"LED-Powered Lamp","Verification_Date":null},"id":"stl-city-public-streetlights:2:157716","sourceLayerId":2,"sourceObjectId":157716,"sourceURL":"https://maps8.stlouis-mo.gov/arcgis/rest/services/STREETS/Streets_Permitting/MapServer/2","title":"Street light L050429"},"type":"Feature"}],"layerId":"city-streetlights","retrievedAt":"2026-09-13T21:56:18.173251+00:00","schema":"property-infrastructure-geojson-v1","sourceId":"stl-city-public-streetlights","tileId":"-9020_3867","type":"FeatureCollection"}