{"features":[{"geometry":{"coordinates":[-90.26838681219988,38.68006536534208],"type":"Point"},"id":"stl-city-public-streetlights:2:126972","properties":{"address":null,"attributes":{"Date_Installed":"1/2020","LED_Powered":1,"LightID":"L019688","Light_Source":"LED","Light_Type":"Cobra","Lighting_Type":"LED-Powered Lamp","Verification_Date":null},"id":"stl-city-public-streetlights:2:126972","sourceLayerId":2,"sourceObjectId":126972,"sourceURL":"https://maps8.stlouis-mo.gov/arcgis/rest/services/STREETS/Streets_Permitting/MapServer/2","title":"Street light L019688"},"type":"Feature"},{"geometry":{"coordinates":[-90.26405079990691,38.68985541725354],"type":"Point"},"id":"stl-city-public-streetlights:2:127196","properties":{"address":null,"attributes":{"Date_Installed":null,"LED_Powered":0,"LightID":"L019912","Light_Source":"LED","Light_Type":"Cobra","Lighting_Type":"LED-Powered Lamp","Verification_Date":null},"id":"stl-city-public-streetlights:2:127196","sourceLayerId":2,"sourceObjectId":127196,"sourceURL":"https://maps8.stlouis-mo.gov/arcgis/rest/services/STREETS/Streets_Permitting/MapServer/2","title":"Street light L019912"},"type":"Feature"},{"geometry":{"coordinates":[-90.26429278485334,38.689515528655996],"type":"Point"},"id":"stl-city-public-streetlights:2:127197","properties":{"address":null,"attributes":{"Date_Installed":null,"LED_Powered":0,"LightID":"L019913","Light_Source":"LED","Light_Type":"Cobra","Lighting_Type":"LED-Powered Lamp","Verification_Date":null},"id":"stl-city-public-streetlights:2:127197","sourceLayerId":2,"sourceObjectId":127197,"sourceURL":"https://maps8.stlouis-mo.gov/arcgis/rest/services/STREETS/Streets_Permitting/MapServer/2","title":"Street light L019913"},"type":"Feature"},{"geometry":{"coordinates":[-90.26455247246996,38.68919245590349],"type":"Point"},"id":"stl-city-public-streetlights:2:127198","properties":{"address":null,"attributes":{"Date_Installed":null,"LED_Powered":0,"LightID":"L019914","Light_Source":"LED","Light_Type":"Cobra","Lighting_Type":"LED-Powered Lamp","Verification_Date":null},"id":"stl-city-public-streetlights:2:127198","sourceLayerId":2,"sourceObjectId":127198,"sourceURL":"https://maps8.stlouis-mo.gov/arcgis/rest/services/STREETS/Streets_Permitting/MapServer/2","title":"Street light L019914"},"type":"Feature"},{"geometry":{"coordinates":[-90.26995294284673,38.68974104647627],"type":"Point"},"id":"stl-city-public-streetlights:2:131526","properties":{"address":null,"attributes":{"Date_Installed":null,"LED_Powered":1,"LightID":"L024242","Light_Source":"LED","Light_Type":"Cobra","Lighting_Type":"LED-Powered Lamp","Verification_Date":null},"id":"stl-city-public-streetlights:2:131526","sourceLayerId":2,"sourceObjectId":131526,"sourceURL":"https://maps8.stlouis-mo.gov/arcgis/rest/services/STREETS/Streets_Permitting/MapServer/2","title":"Street light L024242"},"type":"Feature"},{"geometry":{"coordinates":[-90.2695054630623,38.6898694752661],"type":"Point"},"id":"stl-city-public-streetlights:2:131545","properties":{"address":null,"attributes":{"Date_Installed":null,"LED_Powered":1,"LightID":"L024261","Light_Source":"LED","Light_Type":"Cobra","Lighting_Type":"LED-Powered Lamp","Verification_Date":null},"id":"stl-city-public-streetlights:2:131545","sourceLayerId":2,"sourceObjectId":131545,"sourceURL":"https://maps8.stlouis-mo.gov/arcgis/rest/services/STREETS/Streets_Permitting/MapServer/2","title":"Street light L024261"},"type":"Feature"},{"geometry":{"coordinates":[-90.2696861828469,38.689469030765],"type":"Point"},"id":"stl-city-public-streetlights:2:131546","properties":{"address":null,"attributes":{"Date_Installed":null,"LED_Powered":1,"LightID":"L024262","Light_Source":"LED","Light_Type":"Cobra","Lighting_Type":"LED-Powered Lamp","Verification_Date":null},"id":"stl-city-public-streetlights:2:131546","sourceLayerId":2,"sourceObjectId":131546,"sourceURL":"https://maps8.stlouis-mo.gov/arcgis/rest/services/STREETS/Streets_Permitting/MapServer/2","title":"Street light L024262"},"type":"Feature"},{"geometry":{"coordinates":[-90.26986848010283,38.68904987774051],"type":"Point"},"id":"stl-city-public-streetlights:2:131547","properties":{"address":null,"attributes":{"Date_Installed":null,"LED_Powered":1,"LightID":"L024263","Light_Source":"LED","Light_Type":"Cobra","Lighting_Type":"LED-Powered Lamp","Verification_Date":null},"id":"stl-city-public-streetlights:2:131547","sourceLayerId":2,"sourceObjectId":131547,"sourceURL":"https://maps8.stlouis-mo.gov/arcgis/rest/services/STREETS/Streets_Permitting/MapServer/2","title":"Street light L024263"},"type":"Feature"},{"geometry":{"coordinates":[-90.26964308333635,38.68926749156365],"type":"Point"},"id":"stl-city-public-streetlights:2:131549","properties":{"address":null,"attributes":{"Date_Installed":null,"LED_Powered":0,"LightID":"L024265","Light_Source":"LED","Light_Type":"Cobra","Lighting_Type":"LED-Powered Lamp","Verification_Date":null},"id":"stl-city-public-streetlights:2:131549","sourceLayerId":2,"sourceObjectId":131549,"sourceURL":"https://maps8.stlouis-mo.gov/arcgis/rest/services/STREETS/Streets_Permitting/MapServer/2","title":"Street light L024265"},"type":"Feature"},{"geometry":{"coordinates":[-90.26921305108006,38.68907786301204],"type":"Point"},"id":"stl-city-public-streetlights:2:131550","properties":{"address":null,"attributes":{"Date_Installed":null,"LED_Powered":0,"LightID":"L024266","Light_Source":"LED","Light_Type":"Cobra","Lighting_Type":"LED-Powered Lamp","Verification_Date":null},"id":"stl-city-public-streetlights:2:131550","sourceLayerId":2,"sourceObjectId":131550,"sourceURL":"https://maps8.stlouis-mo.gov/arcgis/rest/services/STREETS/Streets_Permitting/MapServer/2","title":"Street light L024266"},"type":"Feature"},{"geometry":{"coordinates":[-90.26679971458779,38.687175552209425],"type":"Point"},"id":"stl-city-public-streetlights:2:131551","properties":{"address":null,"attributes":{"Date_Installed":null,"LED_Powered":0,"LightID":"L024267","Light_Source":"LED","Light_Type":"Cobra","Lighting_Type":"LED-Powered Lamp","Verification_Date":null},"id":"stl-city-public-streetlights:2:131551","sourceLayerId":2,"sourceObjectId":131551,"sourceURL":"https://maps8.stlouis-mo.gov/arcgis/rest/services/STREETS/Streets_Permitting/MapServer/2","title":"Street light L024267"},"type":"Feature"},{"geometry":{"coordinates":[-90.26750313783056,38.687456667645996],"type":"Point"},"id":"stl-city-public-streetlights:2:131552","properties":{"address":null,"attributes":{"Date_Installed":null,"LED_Powered":0,"LightID":"L024268","Light_Source":"LED","Light_Type":"Cobra","Lighting_Type":"LED-Powered Lamp","Verification_Date":null},"id":"stl-city-public-streetlights:2:131552","sourceLayerId":2,"sourceObjectId":131552,"sourceURL":"https://maps8.stlouis-mo.gov/arcgis/rest/services/STREETS/Streets_Permitting/MapServer/2","title":"Street light L024268"},"type":"Feature"},{"geometry":{"coordinates":[-90.26791616426499,38.68763446902098],"type":"Point"},"id":"stl-city-public-streetlights:2:131553","properties":{"address":null,"attributes":{"Date_Installed":null,"LED_Powered":0,"LightID":"L024269","Light_Source":"LED","Light_Type":"Cobra","Lighting_Type":"LED-Powered Lamp","Verification_Date":null},"id":"stl-city-public-streetlights:2:131553","sourceLayerId":2,"sourceObjectId":131553,"sourceURL":"https://maps8.stlouis-mo.gov/arcgis/rest/services/STREETS/Streets_Permitting/MapServer/2","title":"Street light L024269"},"type":"Feature"},{"geometry":{"coordinates":[-90.26831854300839,38.68781344060913],"type":"Point"},"id":"stl-city-public-streetlights:2:131554","properties":{"address":null,"attributes":{"Date_Installed":null,"LED_Powered":0,"LightID":"L024270","Light_Source":"LED","Light_Type":"Cobra","Lighting_Type":"LED-Powered Lamp","Verification_Date":null},"id":"stl-city-public-streetlights:2:131554","sourceLayerId":2,"sourceObjectId":131554,"sourceURL":"https://maps8.stlouis-mo.gov/arcgis/rest/services/STREETS/Streets_Permitting/MapServer/2","title":"Street light L024270"},"type":"Feature"},{"geometry":{"coordinates":[-90.26873678772822,38.687996111477936],"type":"Point"},"id":"stl-city-public-streetlights:2:131555","properties":{"address":null,"attributes":{"Date_Installed":null,"LED_Powered":0,"LightID":"L024271","Light_Source":"LED","Light_Type":"Cobra","Lighting_Type":"LED-Powered Lamp","Verification_Date":null},"id":"stl-city-public-streetlights:2:131555","sourceLayerId":2,"sourceObjectId":131555,"sourceURL":"https://maps8.stlouis-mo.gov/arcgis/rest/services/STREETS/Streets_Permitting/MapServer/2","title":"Street light L024271"},"type":"Feature"},{"geometry":{"coordinates":[-90.2691558256085,38.68817871214442],"type":"Point"},"id":"stl-city-public-streetlights:2:131556","properties":{"address":null,"attributes":{"Date_Installed":null,"LED_Powered":0,"LightID":"L024272","Light_Source":"LED","Light_Type":"Cobra","Lighting_Type":"LED-Powered Lamp","Verification_Date":null},"id":"stl-city-public-streetlights:2:131556","sourceLayerId":2,"sourceObjectId":131556,"sourceURL":"https://maps8.stlouis-mo.gov/arcgis/rest/services/STREETS/Streets_Permitting/MapServer/2","title":"Street light L024272"},"type":"Feature"},{"geometry":{"coordinates":[-90.26956580821748,38.68835948179031],"type":"Point"},"id":"stl-city-public-streetlights:2:131557","properties":{"address":null,"attributes":{"Date_Installed":null,"LED_Powered":0,"LightID":"L024273","Light_Source":"LED","Light_Type":"Cobra","Lighting_Type":"LED-Powered Lamp","Verification_Date":null},"id":"stl-city-public-streetlights:2:131557","sourceLayerId":2,"sourceObjectId":131557,"sourceURL":"https://maps8.stlouis-mo.gov/arcgis/rest/services/STREETS/Streets_Permitting/MapServer/2","title":"Street light L024273"},"type":"Feature"},{"geometry":{"coordinates":[-90.26997731740425,38.6885390611312],"type":"Point"},"id":"stl-city-public-streetlights:2:131558","properties":{"address":null,"attributes":{"Date_Installed":null,"LED_Powered":0,"LightID":"L024274","Light_Source":"LED","Light_Type":"Cobra","Lighting_Type":"LED-Powered Lamp","Verification_Date":null},"id":"stl-city-public-streetlights:2:131558","sourceLayerId":2,"sourceObjectId":131558,"sourceURL":"https://maps8.stlouis-mo.gov/arcgis/rest/services/STREETS/Streets_Permitting/MapServer/2","title":"Street light L024274"},"type":"Feature"},{"geometry":{"coordinates":[-90.26991912437722,38.685311579950536],"type":"Point"},"id":"stl-city-public-streetlights:2:131757","properties":{"address":null,"attributes":{"Date_Installed":null,"LED_Powered":1,"LightID":"L024473","Light_Source":"LED","Light_Type":"Cobra","Lighting_Type":"LED-Powered Lamp","Verification_Date":null},"id":"stl-city-public-streetlights:2:131757","sourceLayerId":2,"sourceObjectId":131757,"sourceURL":"https://maps8.stlouis-mo.gov/arcgis/rest/services/STREETS/Streets_Permitting/MapServer/2","title":"Street light L024473"},"type":"Feature"},{"geometry":{"coordinates":[-90.26949507230925,38.685018755385485],"type":"Point"},"id":"stl-city-public-streetlights:2:131758","properties":{"address":null,"attributes":{"Date_Installed":null,"LED_Powered":1,"LightID":"L024474","Light_Source":"LED","Light_Type":"Cobra","Lighting_Type":"LED-Powered Lamp","Verification_Date":null},"id":"stl-city-public-streetlights:2:131758","sourceLayerId":2,"sourceObjectId":131758,"sourceURL":"https://maps8.stlouis-mo.gov/arcgis/rest/services/STREETS/Streets_Permitting/MapServer/2","title":"Street light L024474"},"type":"Feature"},{"geometry":{"coordinates":[-90.26905966564787,38.68471196298988],"type":"Point"},"id":"stl-city-public-streetlights:2:131759","properties":{"address":null,"attributes":{"Date_Installed":null,"LED_Powered":1,"LightID":"L024475","Light_Source":"LED","Light_Type":"Cobra","Lighting_Type":"LED-Powered Lamp","Verification_Date":null},"id":"stl-city-public-streetlights:2:131759","sourceLayerId":2,"sourceObjectId":131759,"sourceURL":"https://maps8.stlouis-mo.gov/arcgis/rest/services/STREETS/Streets_Permitting/MapServer/2","title":"Street light L024475"},"type":"Feature"},{"geometry":{"coordinates":[-90.26858929198865,38.68438090567331],"type":"Point"},"id":"stl-city-public-streetlights:2:131760","properties":{"address":null,"attributes":{"Date_Installed":null,"LED_Powered":1,"LightID":"L024476","Light_Source":"LED","Light_Type":"Cobra","Lighting_Type":"LED-Powered Lamp","Verification_Date":null},"id":"stl-city-public-streetlights:2:131760","sourceLayerId":2,"sourceObjectId":131760,"sourceURL":"https://maps8.stlouis-mo.gov/arcgis/rest/services/STREETS/Streets_Permitting/MapServer/2","title":"Street light L024476"},"type":"Feature"},{"geometry":{"coordinates":[-90.26836209954072,38.68422373475861],"type":"Point"},"id":"stl-city-public-streetlights:2:131761","properties":{"address":null,"attributes":{"Date_Installed":null,"LED_Powered":1,"LightID":"L024477","Light_Source":"LED","Light_Type":"Cobra","Lighting_Type":"LED-Powered Lamp","Verification_Date":null},"id":"stl-city-public-streetlights:2:131761","sourceLayerId":2,"sourceObjectId":131761,"sourceURL":"https://maps8.stlouis-mo.gov/arcgis/rest/services/STREETS/Streets_Permitting/MapServer/2","title":"Street light L024477"},"type":"Feature"},{"geometry":{"coordinates":[-90.26799395854553,38.683995610528484],"type":"Point"},"id":"stl-city-public-streetlights:2:131762","properties":{"address":null,"attributes":{"Date_Installed":null,"LED_Powered":1,"LightID":"L024478","Light_Source":"LED","Light_Type":"Cobra","Lighting_Type":"LED-Powered Lamp","Verification_Date":null},"id":"stl-city-public-streetlights:2:131762","sourceLayerId":2,"sourceObjectId":131762,"sourceURL":"https://maps8.stlouis-mo.gov/arcgis/rest/services/STREETS/Streets_Permitting/MapServer/2","title":"Street light L024478"},"type":"Feature"},{"geometry":{"coordinates":[-90.26757591193804,38.68373139389726],"type":"Point"},"id":"stl-city-public-streetlights:2:131763","properties":{"address":null,"attributes":{"Date_Installed":null,"LED_Powered":1,"LightID":"L024479","Light_Source":"LED","Light_Type":"Cobra","Lighting_Type":"LED-Powered Lamp","Verification_Date":null},"id":"stl-city-public-streetlights:2:131763","sourceLayerId":2,"sourceObjectId":131763,"sourceURL":"https://maps8.stlouis-mo.gov/arcgis/rest/services/STREETS/Streets_Permitting/MapServer/2","title":"Street light L024479"},"type":"Feature"},{"geometry":{"coordinates":[-90.26704708004864,38.68340259788349],"type":"Point"},"id":"stl-city-public-streetlights:2:131764","properties":{"address":null,"attributes":{"Date_Installed":null,"LED_Powered":1,"LightID":"L024480","Light_Source":"LED","Light_Type":"Cobra","Lighting_Type":"LED-Powered Lamp","Verification_Date":null},"id":"stl-city-public-streetlights:2:131764","sourceLayerId":2,"sourceObjectId":131764,"sourceURL":"https://maps8.stlouis-mo.gov/arcgis/rest/services/STREETS/Streets_Permitting/MapServer/2","title":"Street light L024480"},"type":"Feature"},{"geometry":{"coordinates":[-90.26651775569341,38.68306803012938],"type":"Point"},"id":"stl-city-public-streetlights:2:131765","properties":{"address":null,"attributes":{"Date_Installed":null,"LED_Powered":1,"LightID":"L024481","Light_Source":"LED","Light_Type":"Cobra","Lighting_Type":"LED-Powered Lamp","Verification_Date":null},"id":"stl-city-public-streetlights:2:131765","sourceLayerId":2,"sourceObjectId":131765,"sourceURL":"https://maps8.stlouis-mo.gov/arcgis/rest/services/STREETS/Streets_Permitting/MapServer/2","title":"Street light L024481"},"type":"Feature"},{"geometry":{"coordinates":[-90.26604494889688,38.682785869289084],"type":"Point"},"id":"stl-city-public-streetlights:2:131766","properties":{"address":null,"attributes":{"Date_Installed":null,"LED_Powered":1,"LightID":"L024482","Light_Source":"LED","Light_Type":"Cobra","Lighting_Type":"LED-Powered Lamp","Verification_Date":null},"id":"stl-city-public-streetlights:2:131766","sourceLayerId":2,"sourceObjectId":131766,"sourceURL":"https://maps8.stlouis-mo.gov/arcgis/rest/services/STREETS/Streets_Permitting/MapServer/2","title":"Street light L024482"},"type":"Feature"},{"geometry":{"coordinates":[-90.26563142466989,38.6825845813868],"type":"Point"},"id":"stl-city-public-streetlights:2:131767","properties":{"address":null,"attributes":{"Date_Installed":null,"LED_Powered":1,"LightID":"L024483","Light_Source":"LED","Light_Type":"Cobra","Lighting_Type":"LED-Powered Lamp","Verification_Date":null},"id":"stl-city-public-streetlights:2:131767","sourceLayerId":2,"sourceObjectId":131767,"sourceURL":"https://maps8.stlouis-mo.gov/arcgis/rest/services/STREETS/Streets_Permitting/MapServer/2","title":"Street light L024483"},"type":"Feature"},{"geometry":{"coordinates":[-90.26535114356888,38.68246197948055],"type":"Point"},"id":"stl-city-public-streetlights:2:131768","properties":{"address":null,"attributes":{"Date_Installed":null,"LED_Powered":1,"LightID":"L024484","Light_Source":"LED","Light_Type":"Cobra","Lighting_Type":"LED-Powered Lamp","Verification_Date":null},"id":"stl-city-public-streetlights:2:131768","sourceLayerId":2,"sourceObjectId":131768,"sourceURL":"https://maps8.stlouis-mo.gov/arcgis/rest/services/STREETS/Streets_Permitting/MapServer/2","title":"Street light L024484"},"type":"Feature"},{"geometry":{"coordinates":[-90.26474976062485,38.6821979450727],"type":"Point"},"id":"stl-city-public-streetlights:2:131769","properties":{"address":null,"attributes":{"Date_Installed":null,"LED_Powered":1,"LightID":"L024485","Light_Source":"LED","Light_Type":"Cobra","Lighting_Type":"LED-Powered Lamp","Verification_Date":null},"id":"stl-city-public-streetlights:2:131769","sourceLayerId":2,"sourceObjectId":131769,"sourceURL":"https://maps8.stlouis-mo.gov/arcgis/rest/services/STREETS/Streets_Permitting/MapServer/2","title":"Street light L024485"},"type":"Feature"},{"geometry":{"coordinates":[-90.26429548008285,38.68200121810294],"type":"Point"},"id":"stl-city-public-streetlights:2:131770","properties":{"address":null,"attributes":{"Date_Installed":null,"LED_Powered":1,"LightID":"L024486","Light_Source":"LED","Light_Type":"Cobra","Lighting_Type":"LED-Powered Lamp","Verification_Date":null},"id":"stl-city-public-streetlights:2:131770","sourceLayerId":2,"sourceObjectId":131770,"sourceURL":"https://maps8.stlouis-mo.gov/arcgis/rest/services/STREETS/Streets_Permitting/MapServer/2","title":"Street light L024486"},"type":"Feature"},{"geometry":{"coordinates":[-90.26404084378402,38.681890905027046],"type":"Point"},"id":"stl-city-public-streetlights:2:131771","properties":{"address":null,"attributes":{"Date_Installed":null,"LED_Powered":1,"LightID":"L024487","Light_Source":"LED","Light_Type":"Cobra","Lighting_Type":"LED-Powered Lamp","Verification_Date":null},"id":"stl-city-public-streetlights:2:131771","sourceLayerId":2,"sourceObjectId":131771,"sourceURL":"https://maps8.stlouis-mo.gov/arcgis/rest/services/STREETS/Streets_Permitting/MapServer/2","title":"Street light L024487"},"type":"Feature"},{"geometry":{"coordinates":[-90.26859044471577,38.684140761455744],"type":"Point"},"id":"stl-city-public-streetlights:2:131772","properties":{"address":null,"attributes":{"Date_Installed":null,"LED_Powered":1,"LightID":"L024488","Light_Source":"LED","Light_Type":"Cobra","Lighting_Type":"LED-Powered Lamp","Verification_Date":null},"id":"stl-city-public-streetlights:2:131772","sourceLayerId":2,"sourceObjectId":131772,"sourceURL":"https://maps8.stlouis-mo.gov/arcgis/rest/services/STREETS/Streets_Permitting/MapServer/2","title":"Street light L024488"},"type":"Feature"},{"geometry":{"coordinates":[-90.26899403425897,38.68441090433208],"type":"Point"},"id":"stl-city-public-streetlights:2:131773","properties":{"address":null,"attributes":{"Date_Installed":null,"LED_Powered":1,"LightID":"L024489","Light_Source":"LED","Light_Type":"Cobra","Lighting_Type":"LED-Powered Lamp","Verification_Date":null},"id":"stl-city-public-streetlights:2:131773","sourceLayerId":2,"sourceObjectId":131773,"sourceURL":"https://maps8.stlouis-mo.gov/arcgis/rest/services/STREETS/Streets_Permitting/MapServer/2","title":"Street light L024489"},"type":"Feature"},{"geometry":{"coordinates":[-90.26940605642775,38.68470752135651],"type":"Point"},"id":"stl-city-public-streetlights:2:131774","properties":{"address":null,"attributes":{"Date_Installed":null,"LED_Powered":1,"LightID":"L024490","Light_Source":"LED","Light_Type":"Cobra","Lighting_Type":"LED-Powered Lamp","Verification_Date":null},"id":"stl-city-public-streetlights:2:131774","sourceLayerId":2,"sourceObjectId":131774,"sourceURL":"https://maps8.stlouis-mo.gov/arcgis/rest/services/STREETS/Streets_Permitting/MapServer/2","title":"Street light L024490"},"type":"Feature"},{"geometry":{"coordinates":[-90.26982658585405,38.68500749053066],"type":"Point"},"id":"stl-city-public-streetlights:2:131775","properties":{"address":null,"attributes":{"Date_Installed":null,"LED_Powered":1,"LightID":"L024491","Light_Source":"LED","Light_Type":"Cobra","Lighting_Type":"LED-Powered Lamp","Verification_Date":null},"id":"stl-city-public-streetlights:2:131775","sourceLayerId":2,"sourceObjectId":131775,"sourceURL":"https://maps8.stlouis-mo.gov/arcgis/rest/services/STREETS/Streets_Permitting/MapServer/2","title":"Street light L024491"},"type":"Feature"},{"geometry":{"coordinates":[-90.26063206216607,38.680177802803705],"type":"Point"},"id":"stl-city-public-streetlights:2:132657","properties":{"address":null,"attributes":{"Date_Installed":null,"LED_Powered":1,"LightID":"L025373","Light_Source":"LED","Light_Type":"Cobra","Lighting_Type":"LED-Powered Lamp","Verification_Date":null},"id":"stl-city-public-streetlights:2:132657","sourceLayerId":2,"sourceObjectId":132657,"sourceURL":"https://maps8.stlouis-mo.gov/arcgis/rest/services/STREETS/Streets_Permitting/MapServer/2","title":"Street light L025373"},"type":"Feature"},{"geometry":{"coordinates":[-90.26117224866229,38.68041367998858],"type":"Point"},"id":"stl-city-public-streetlights:2:132658","properties":{"address":null,"attributes":{"Date_Installed":null,"LED_Powered":1,"LightID":"L025374","Light_Source":"LED","Light_Type":"Cobra","Lighting_Type":"LED-Powered Lamp","Verification_Date":null},"id":"stl-city-public-streetlights:2:132658","sourceLayerId":2,"sourceObjectId":132658,"sourceURL":"https://maps8.stlouis-mo.gov/arcgis/rest/services/STREETS/Streets_Permitting/MapServer/2","title":"Street light L025374"},"type":"Feature"},{"geometry":{"coordinates":[-90.26157827997622,38.68058821219946],"type":"Point"},"id":"stl-city-public-streetlights:2:132659","properties":{"address":null,"attributes":{"Date_Installed":null,"LED_Powered":1,"LightID":"L025375","Light_Source":"LED","Light_Type":"Cobra","Lighting_Type":"LED-Powered Lamp","Verification_Date":null},"id":"stl-city-public-streetlights:2:132659","sourceLayerId":2,"sourceObjectId":132659,"sourceURL":"https://maps8.stlouis-mo.gov/arcgis/rest/services/STREETS/Streets_Permitting/MapServer/2","title":"Street light L025375"},"type":"Feature"},{"geometry":{"coordinates":[-90.26212778679235,38.680826140857924],"type":"Point"},"id":"stl-city-public-streetlights:2:132660","properties":{"address":null,"attributes":{"Date_Installed":null,"LED_Powered":1,"LightID":"L025376","Light_Source":"LED","Light_Type":"Cobra","Lighting_Type":"LED-Powered Lamp","Verification_Date":null},"id":"stl-city-public-streetlights:2:132660","sourceLayerId":2,"sourceObjectId":132660,"sourceURL":"https://maps8.stlouis-mo.gov/arcgis/rest/services/STREETS/Streets_Permitting/MapServer/2","title":"Street light L025376"},"type":"Feature"},{"geometry":{"coordinates":[-90.26259540858904,38.68103064914658],"type":"Point"},"id":"stl-city-public-streetlights:2:132661","properties":{"address":null,"attributes":{"Date_Installed":null,"LED_Powered":1,"LightID":"L025377","Light_Source":"LED","Light_Type":"Cobra","Lighting_Type":"LED-Powered Lamp","Verification_Date":null},"id":"stl-city-public-streetlights:2:132661","sourceLayerId":2,"sourceObjectId":132661,"sourceURL":"https://maps8.stlouis-mo.gov/arcgis/rest/services/STREETS/Streets_Permitting/MapServer/2","title":"Street light L025377"},"type":"Feature"},{"geometry":{"coordinates":[-90.2630703324304,38.68123479018152],"type":"Point"},"id":"stl-city-public-streetlights:2:132662","properties":{"address":null,"attributes":{"Date_Installed":null,"LED_Powered":1,"LightID":"L025378","Light_Source":"LED","Light_Type":"Cobra","Lighting_Type":"LED-Powered Lamp","Verification_Date":null},"id":"stl-city-public-streetlights:2:132662","sourceLayerId":2,"sourceObjectId":132662,"sourceURL":"https://maps8.stlouis-mo.gov/arcgis/rest/services/STREETS/Streets_Permitting/MapServer/2","title":"Street light L025378"},"type":"Feature"},{"geometry":{"coordinates":[-90.263461129642,38.68140719943509],"type":"Point"},"id":"stl-city-public-streetlights:2:132663","properties":{"address":null,"attributes":{"Date_Installed":null,"LED_Powered":1,"LightID":"L025379","Light_Source":"LED","Light_Type":"Cobra","Lighting_Type":"LED-Powered Lamp","Verification_Date":null},"id":"stl-city-public-streetlights:2:132663","sourceLayerId":2,"sourceObjectId":132663,"sourceURL":"https://maps8.stlouis-mo.gov/arcgis/rest/services/STREETS/Streets_Permitting/MapServer/2","title":"Street light L025379"},"type":"Feature"},{"geometry":{"coordinates":[-90.26348939032762,38.68165372017133],"type":"Point"},"id":"stl-city-public-streetlights:2:132664","properties":{"address":null,"attributes":{"Date_Installed":null,"LED_Powered":1,"LightID":"L025380","Light_Source":"LED","Light_Type":"Cobra","Lighting_Type":"LED-Powered Lamp","Verification_Date":null},"id":"stl-city-public-streetlights:2:132664","sourceLayerId":2,"sourceObjectId":132664,"sourceURL":"https://maps8.stlouis-mo.gov/arcgis/rest/services/STREETS/Streets_Permitting/MapServer/2","title":"Street light L025380"},"type":"Feature"},{"geometry":{"coordinates":[-90.26312876610116,38.6814966267841],"type":"Point"},"id":"stl-city-public-streetlights:2:132665","properties":{"address":null,"attributes":{"Date_Installed":null,"LED_Powered":1,"LightID":"L025381","Light_Source":"LED","Light_Type":"Cobra","Lighting_Type":"LED-Powered Lamp","Verification_Date":null},"id":"stl-city-public-streetlights:2:132665","sourceLayerId":2,"sourceObjectId":132665,"sourceURL":"https://maps8.stlouis-mo.gov/arcgis/rest/services/STREETS/Streets_Permitting/MapServer/2","title":"Street light L025381"},"type":"Feature"},{"geometry":{"coordinates":[-90.26269697475611,38.6813069705296],"type":"Point"},"id":"stl-city-public-streetlights:2:132666","properties":{"address":null,"attributes":{"Date_Installed":null,"LED_Powered":1,"LightID":"L025382","Light_Source":"LED","Light_Type":"Cobra","Lighting_Type":"LED-Powered Lamp","Verification_Date":null},"id":"stl-city-public-streetlights:2:132666","sourceLayerId":2,"sourceObjectId":132666,"sourceURL":"https://maps8.stlouis-mo.gov/arcgis/rest/services/STREETS/Streets_Permitting/MapServer/2","title":"Street light L025382"},"type":"Feature"},{"geometry":{"coordinates":[-90.26170965483452,38.680883925467754],"type":"Point"},"id":"stl-city-public-streetlights:2:132667","properties":{"address":null,"attributes":{"Date_Installed":null,"LED_Powered":1,"LightID":"L025383","Light_Source":"LED","Light_Type":"Cobra","Lighting_Type":"LED-Powered Lamp","Verification_Date":null},"id":"stl-city-public-streetlights:2:132667","sourceLayerId":2,"sourceObjectId":132667,"sourceURL":"https://maps8.stlouis-mo.gov/arcgis/rest/services/STREETS/Streets_Permitting/MapServer/2","title":"Street light L025383"},"type":"Feature"},{"geometry":{"coordinates":[-90.26123342883245,38.680670576425236],"type":"Point"},"id":"stl-city-public-streetlights:2:132668","properties":{"address":null,"attributes":{"Date_Installed":null,"LED_Powered":1,"LightID":"L025384","Light_Source":"LED","Light_Type":"Cobra","Lighting_Type":"LED-Powered Lamp","Verification_Date":null},"id":"stl-city-public-streetlights:2:132668","sourceLayerId":2,"sourceObjectId":132668,"sourceURL":"https://maps8.stlouis-mo.gov/arcgis/rest/services/STREETS/Streets_Permitting/MapServer/2","title":"Street light L025384"},"type":"Feature"},{"geometry":{"coordinates":[-90.26077004806119,38.68047274510298],"type":"Point"},"id":"stl-city-public-streetlights:2:132669","properties":{"address":null,"attributes":{"Date_Installed":null,"LED_Powered":1,"LightID":"L025385","Light_Source":"LED","Light_Type":"Cobra","Lighting_Type":"LED-Powered Lamp","Verification_Date":null},"id":"stl-city-public-streetlights:2:132669","sourceLayerId":2,"sourceObjectId":132669,"sourceURL":"https://maps8.stlouis-mo.gov/arcgis/rest/services/STREETS/Streets_Permitting/MapServer/2","title":"Street light L025385"},"type":"Feature"},{"geometry":{"coordinates":[-90.26036042384813,38.6802959496152],"type":"Point"},"id":"stl-city-public-streetlights:2:132670","properties":{"address":null,"attributes":{"Date_Installed":null,"LED_Powered":1,"LightID":"L025386","Light_Source":"LED","Light_Type":"Cobra","Lighting_Type":"LED-Powered Lamp","Verification_Date":null},"id":"stl-city-public-streetlights:2:132670","sourceLayerId":2,"sourceObjectId":132670,"sourceURL":"https://maps8.stlouis-mo.gov/arcgis/rest/services/STREETS/Streets_Permitting/MapServer/2","title":"Street light L025386"},"type":"Feature"},{"geometry":{"coordinates":[-90.26492410759566,38.68003414823862],"type":"Point"},"id":"stl-city-public-streetlights:2:132737","properties":{"address":null,"attributes":{"Date_Installed":"1/2020","LED_Powered":1,"LightID":"L025453","Light_Source":"LED","Light_Type":"Cobra","Lighting_Type":"LED-Powered Lamp","Verification_Date":null},"id":"stl-city-public-streetlights:2:132737","sourceLayerId":2,"sourceObjectId":132737,"sourceURL":"https://maps8.stlouis-mo.gov/arcgis/rest/services/STREETS/Streets_Permitting/MapServer/2","title":"Street light L025453"},"type":"Feature"},{"geometry":{"coordinates":[-90.26471394647774,38.68032452355113],"type":"Point"},"id":"stl-city-public-streetlights:2:132738","properties":{"address":null,"attributes":{"Date_Installed":"1/2020","LED_Powered":1,"LightID":"L025454","Light_Source":"LED","Light_Type":"Cobra","Lighting_Type":"LED-Powered Lamp","Verification_Date":null},"id":"stl-city-public-streetlights:2:132738","sourceLayerId":2,"sourceObjectId":132738,"sourceURL":"https://maps8.stlouis-mo.gov/arcgis/rest/services/STREETS/Streets_Permitting/MapServer/2","title":"Street light L025454"},"type":"Feature"},{"geometry":{"coordinates":[-90.26450838468462,38.680621105806885],"type":"Point"},"id":"stl-city-public-streetlights:2:132739","properties":{"address":null,"attributes":{"Date_Installed":"1/2020","LED_Powered":1,"LightID":"L025455","Light_Source":"LED","Light_Type":"Cobra","Lighting_Type":"LED-Powered Lamp","Verification_Date":null},"id":"stl-city-public-streetlights:2:132739","sourceLayerId":2,"sourceObjectId":132739,"sourceURL":"https://maps8.stlouis-mo.gov/arcgis/rest/services/STREETS/Streets_Permitting/MapServer/2","title":"Street light L025455"},"type":"Feature"},{"geometry":{"coordinates":[-90.26430804212173,38.68088346914696],"type":"Point"},"id":"stl-city-public-streetlights:2:132740","properties":{"address":null,"attributes":{"Date_Installed":"1/2020","LED_Powered":1,"LightID":"L025456","Light_Source":"LED","Light_Type":"Cobra","Lighting_Type":"LED-Powered Lamp","Verification_Date":null},"id":"stl-city-public-streetlights:2:132740","sourceLayerId":2,"sourceObjectId":132740,"sourceURL":"https://maps8.stlouis-mo.gov/arcgis/rest/services/STREETS/Streets_Permitting/MapServer/2","title":"Street light L025456"},"type":"Feature"},{"geometry":{"coordinates":[-90.26410640246716,38.68117009480084],"type":"Point"},"id":"stl-city-public-streetlights:2:132741","properties":{"address":null,"attributes":{"Date_Installed":"1/2020","LED_Powered":1,"LightID":"L025457","Light_Source":"LED","Light_Type":"Cobra","Lighting_Type":"LED-Powered Lamp","Verification_Date":null},"id":"stl-city-public-streetlights:2:132741","sourceLayerId":2,"sourceObjectId":132741,"sourceURL":"https://maps8.stlouis-mo.gov/arcgis/rest/services/STREETS/Streets_Permitting/MapServer/2","title":"Street light L025457"},"type":"Feature"},{"geometry":{"coordinates":[-90.26389470518222,38.68146284921538],"type":"Point"},"id":"stl-city-public-streetlights:2:132742","properties":{"address":null,"attributes":{"Date_Installed":"1/2020","LED_Powered":1,"LightID":"L025458","Light_Source":"LED","Light_Type":"Cobra","Lighting_Type":"LED-Powered Lamp","Verification_Date":null},"id":"stl-city-public-streetlights:2:132742","sourceLayerId":2,"sourceObjectId":132742,"sourceURL":"https://maps8.stlouis-mo.gov/arcgis/rest/services/STREETS/Streets_Permitting/MapServer/2","title":"Street light L025458"},"type":"Feature"},{"geometry":{"coordinates":[-90.26141959241127,38.68039168164806],"type":"Point"},"id":"stl-city-public-streetlights:2:132756","properties":{"address":null,"attributes":{"Date_Installed":"1/2020","LED_Powered":1,"LightID":"L025472","Light_Source":"LED","Light_Type":"Cobra","Lighting_Type":"LED-Powered Lamp","Verification_Date":null},"id":"stl-city-public-streetlights:2:132756","sourceLayerId":2,"sourceObjectId":132756,"sourceURL":"https://maps8.stlouis-mo.gov/arcgis/rest/services/STREETS/Streets_Permitting/MapServer/2","title":"Street light L025472"},"type":"Feature"},{"geometry":{"coordinates":[-90.26159922697147,38.68014105648031],"type":"Point"},"id":"stl-city-public-streetlights:2:132757","properties":{"address":null,"attributes":{"Date_Installed":"1/2020","LED_Powered":1,"LightID":"L025473","Light_Source":"LED","Light_Type":"Cobra","Lighting_Type":"LED-Powered Lamp","Verification_Date":null},"id":"stl-city-public-streetlights:2:132757","sourceLayerId":2,"sourceObjectId":132757,"sourceURL":"https://maps8.stlouis-mo.gov/arcgis/rest/services/STREETS/Streets_Permitting/MapServer/2","title":"Street light L025473"},"type":"Feature"},{"geometry":{"coordinates":[-90.26420377347507,38.681725335120134],"type":"Point"},"id":"stl-city-public-streetlights:2:132812","properties":{"address":null,"attributes":{"Date_Installed":null,"LED_Powered":1,"LightID":"L025528","Light_Source":"LED","Light_Type":"Cobra","Lighting_Type":"LED-Powered Lamp","Verification_Date":null},"id":"stl-city-public-streetlights:2:132812","sourceLayerId":2,"sourceObjectId":132812,"sourceURL":"https://maps8.stlouis-mo.gov/arcgis/rest/services/STREETS/Streets_Permitting/MapServer/2","title":"Street light L025528"},"type":"Feature"},{"geometry":{"coordinates":[-90.26465433506452,38.681924176549096],"type":"Point"},"id":"stl-city-public-streetlights:2:132813","properties":{"address":null,"attributes":{"Date_Installed":null,"LED_Powered":1,"LightID":"L025529","Light_Source":"LED","Light_Type":"Cobra","Lighting_Type":"LED-Powered Lamp","Verification_Date":null},"id":"stl-city-public-streetlights:2:132813","sourceLayerId":2,"sourceObjectId":132813,"sourceURL":"https://maps8.stlouis-mo.gov/arcgis/rest/services/STREETS/Streets_Permitting/MapServer/2","title":"Street light L025529"},"type":"Feature"},{"geometry":{"coordinates":[-90.26509050532191,38.68211726582574],"type":"Point"},"id":"stl-city-public-streetlights:2:132814","properties":{"address":null,"attributes":{"Date_Installed":null,"LED_Powered":1,"LightID":"L025530","Light_Source":"LED","Light_Type":"Cobra","Lighting_Type":"LED-Powered Lamp","Verification_Date":null},"id":"stl-city-public-streetlights:2:132814","sourceLayerId":2,"sourceObjectId":132814,"sourceURL":"https://maps8.stlouis-mo.gov/arcgis/rest/services/STREETS/Streets_Permitting/MapServer/2","title":"Street light L025530"},"type":"Feature"},{"geometry":{"coordinates":[-90.26554231068998,38.682309098355695],"type":"Point"},"id":"stl-city-public-streetlights:2:132815","properties":{"address":null,"attributes":{"Date_Installed":null,"LED_Powered":1,"LightID":"L025531","Light_Source":"LED","Light_Type":"Cobra","Lighting_Type":"LED-Powered Lamp","Verification_Date":null},"id":"stl-city-public-streetlights:2:132815","sourceLayerId":2,"sourceObjectId":132815,"sourceURL":"https://maps8.stlouis-mo.gov/arcgis/rest/services/STREETS/Streets_Permitting/MapServer/2","title":"Street light L025531"},"type":"Feature"},{"geometry":{"coordinates":[-90.26597528499309,38.682513762371904],"type":"Point"},"id":"stl-city-public-streetlights:2:132816","properties":{"address":null,"attributes":{"Date_Installed":null,"LED_Powered":1,"LightID":"L025532","Light_Source":"LED","Light_Type":"Cobra","Lighting_Type":"LED-Powered Lamp","Verification_Date":null},"id":"stl-city-public-streetlights:2:132816","sourceLayerId":2,"sourceObjectId":132816,"sourceURL":"https://maps8.stlouis-mo.gov/arcgis/rest/services/STREETS/Streets_Permitting/MapServer/2","title":"Street light L025532"},"type":"Feature"},{"geometry":{"coordinates":[-90.26640567133957,38.682766448381834],"type":"Point"},"id":"stl-city-public-streetlights:2:132817","properties":{"address":null,"attributes":{"Date_Installed":null,"LED_Powered":1,"LightID":"L025533","Light_Source":"LED","Light_Type":"Cobra","Lighting_Type":"LED-Powered Lamp","Verification_Date":null},"id":"stl-city-public-streetlights:2:132817","sourceLayerId":2,"sourceObjectId":132817,"sourceURL":"https://maps8.stlouis-mo.gov/arcgis/rest/services/STREETS/Streets_Permitting/MapServer/2","title":"Street light L025533"},"type":"Feature"},{"geometry":{"coordinates":[-90.26691506204602,38.683086508753476],"type":"Point"},"id":"stl-city-public-streetlights:2:132818","properties":{"address":null,"attributes":{"Date_Installed":null,"LED_Powered":1,"LightID":"L025534","Light_Source":"LED","Light_Type":"Cobra","Lighting_Type":"LED-Powered Lamp","Verification_Date":null},"id":"stl-city-public-streetlights:2:132818","sourceLayerId":2,"sourceObjectId":132818,"sourceURL":"https://maps8.stlouis-mo.gov/arcgis/rest/services/STREETS/Streets_Permitting/MapServer/2","title":"Street light L025534"},"type":"Feature"},{"geometry":{"coordinates":[-90.26748711392143,38.68344965548804],"type":"Point"},"id":"stl-city-public-streetlights:2:132819","properties":{"address":null,"attributes":{"Date_Installed":null,"LED_Powered":1,"LightID":"L025535","Light_Source":"LED","Light_Type":"Cobra","Lighting_Type":"LED-Powered Lamp","Verification_Date":null},"id":"stl-city-public-streetlights:2:132819","sourceLayerId":2,"sourceObjectId":132819,"sourceURL":"https://maps8.stlouis-mo.gov/arcgis/rest/services/STREETS/Streets_Permitting/MapServer/2","title":"Street light L025535"},"type":"Feature"},{"geometry":{"coordinates":[-90.26800685329921,38.68376919472521],"type":"Point"},"id":"stl-city-public-streetlights:2:132820","properties":{"address":null,"attributes":{"Date_Installed":null,"LED_Powered":1,"LightID":"L025536","Light_Source":"LED","Light_Type":"Cobra","Lighting_Type":"LED-Powered Lamp","Verification_Date":null},"id":"stl-city-public-streetlights:2:132820","sourceLayerId":2,"sourceObjectId":132820,"sourceURL":"https://maps8.stlouis-mo.gov/arcgis/rest/services/STREETS/Streets_Permitting/MapServer/2","title":"Street light L025536"},"type":"Feature"},{"geometry":{"coordinates":[-90.26823537654111,38.68391361698174],"type":"Point"},"id":"stl-city-public-streetlights:2:132821","properties":{"address":null,"attributes":{"Date_Installed":null,"LED_Powered":1,"LightID":"L025537","Light_Source":"LED","Light_Type":"Cobra","Lighting_Type":"LED-Powered Lamp","Verification_Date":null},"id":"stl-city-public-streetlights:2:132821","sourceLayerId":2,"sourceObjectId":132821,"sourceURL":"https://maps8.stlouis-mo.gov/arcgis/rest/services/STREETS/Streets_Permitting/MapServer/2","title":"Street light L025537"},"type":"Feature"},{"geometry":{"coordinates":[-90.26452931439576,38.6809993089728],"type":"Point"},"id":"stl-city-public-streetlights:2:132822","properties":{"address":null,"attributes":{"Date_Installed":"1/2020","LED_Powered":1,"LightID":"L025538","Light_Source":"LED","Light_Type":"Cobra","Lighting_Type":"LED-Powered Lamp","Verification_Date":null},"id":"stl-city-public-streetlights:2:132822","sourceLayerId":2,"sourceObjectId":132822,"sourceURL":"https://maps8.stlouis-mo.gov/arcgis/rest/services/STREETS/Streets_Permitting/MapServer/2","title":"Street light L025538"},"type":"Feature"},{"geometry":{"coordinates":[-90.26493337895035,38.68117462375409],"type":"Point"},"id":"stl-city-public-streetlights:2:132823","properties":{"address":null,"attributes":{"Date_Installed":"1/2020","LED_Powered":1,"LightID":"L025539","Light_Source":"LED","Light_Type":"Cobra","Lighting_Type":"LED-Powered Lamp","Verification_Date":null},"id":"stl-city-public-streetlights:2:132823","sourceLayerId":2,"sourceObjectId":132823,"sourceURL":"https://maps8.stlouis-mo.gov/arcgis/rest/services/STREETS/Streets_Permitting/MapServer/2","title":"Street light L025539"},"type":"Feature"},{"geometry":{"coordinates":[-90.26531721364199,38.68133843280746],"type":"Point"},"id":"stl-city-public-streetlights:2:132824","properties":{"address":null,"attributes":{"Date_Installed":"1/2020","LED_Powered":1,"LightID":"L025540","Light_Source":"LED","Light_Type":"Cobra","Lighting_Type":"LED-Powered Lamp","Verification_Date":null},"id":"stl-city-public-streetlights:2:132824","sourceLayerId":2,"sourceObjectId":132824,"sourceURL":"https://maps8.stlouis-mo.gov/arcgis/rest/services/STREETS/Streets_Permitting/MapServer/2","title":"Street light L025540"},"type":"Feature"},{"geometry":{"coordinates":[-90.26568433338353,38.68150041885901],"type":"Point"},"id":"stl-city-public-streetlights:2:132825","properties":{"address":null,"attributes":{"Date_Installed":"1/2020","LED_Powered":1,"LightID":"L025541","Light_Source":"LED","Light_Type":"Cobra","Lighting_Type":"LED-Powered Lamp","Verification_Date":null},"id":"stl-city-public-streetlights:2:132825","sourceLayerId":2,"sourceObjectId":132825,"sourceURL":"https://maps8.stlouis-mo.gov/arcgis/rest/services/STREETS/Streets_Permitting/MapServer/2","title":"Street light L025541"},"type":"Feature"},{"geometry":{"coordinates":[-90.26606953378074,38.681666253359346],"type":"Point"},"id":"stl-city-public-streetlights:2:132826","properties":{"address":null,"attributes":{"Date_Installed":"1/2020","LED_Powered":1,"LightID":"L025542","Light_Source":"LED","Light_Type":"Cobra","Lighting_Type":"LED-Powered Lamp","Verification_Date":null},"id":"stl-city-public-streetlights:2:132826","sourceLayerId":2,"sourceObjectId":132826,"sourceURL":"https://maps8.stlouis-mo.gov/arcgis/rest/services/STREETS/Streets_Permitting/MapServer/2","title":"Street light L025542"},"type":"Feature"},{"geometry":{"coordinates":[-90.26645397012693,38.681834325558704],"type":"Point"},"id":"stl-city-public-streetlights:2:132827","properties":{"address":null,"attributes":{"Date_Installed":"1/2020","LED_Powered":1,"LightID":"L025543","Light_Source":"LED","Light_Type":"Cobra","Lighting_Type":"LED-Powered Lamp","Verification_Date":null},"id":"stl-city-public-streetlights:2:132827","sourceLayerId":2,"sourceObjectId":132827,"sourceURL":"https://maps8.stlouis-mo.gov/arcgis/rest/services/STREETS/Streets_Permitting/MapServer/2","title":"Street light L025543"},"type":"Feature"},{"geometry":{"coordinates":[-90.26683796035447,38.68199946502974],"type":"Point"},"id":"stl-city-public-streetlights:2:132828","properties":{"address":null,"attributes":{"Date_Installed":"1/2020","LED_Powered":1,"LightID":"L025544","Light_Source":"LED","Light_Type":"Cobra","Lighting_Type":"LED-Powered Lamp","Verification_Date":null},"id":"stl-city-public-streetlights:2:132828","sourceLayerId":2,"sourceObjectId":132828,"sourceURL":"https://maps8.stlouis-mo.gov/arcgis/rest/services/STREETS/Streets_Permitting/MapServer/2","title":"Street light L025544"},"type":"Feature"},{"geometry":{"coordinates":[-90.26505199303399,38.68026983213721],"type":"Point"},"id":"stl-city-public-streetlights:2:132829","properties":{"address":null,"attributes":{"Date_Installed":"1/2020","LED_Powered":1,"LightID":"L025545","Light_Source":"LED","Light_Type":"Cobra","Lighting_Type":"LED-Powered Lamp","Verification_Date":null},"id":"stl-city-public-streetlights:2:132829","sourceLayerId":2,"sourceObjectId":132829,"sourceURL":"https://maps8.stlouis-mo.gov/arcgis/rest/services/STREETS/Streets_Permitting/MapServer/2","title":"Street light L025545"},"type":"Feature"},{"geometry":{"coordinates":[-90.26545511053516,38.68044077124582],"type":"Point"},"id":"stl-city-public-streetlights:2:132830","properties":{"address":null,"attributes":{"Date_Installed":"1/2020","LED_Powered":1,"LightID":"L025546","Light_Source":"LED","Light_Type":"Cobra","Lighting_Type":"LED-Powered Lamp","Verification_Date":null},"id":"stl-city-public-streetlights:2:132830","sourceLayerId":2,"sourceObjectId":132830,"sourceURL":"https://maps8.stlouis-mo.gov/arcgis/rest/services/STREETS/Streets_Permitting/MapServer/2","title":"Street light L025546"},"type":"Feature"},{"geometry":{"coordinates":[-90.26583695249862,38.680608983537134],"type":"Point"},"id":"stl-city-public-streetlights:2:132831","properties":{"address":null,"attributes":{"Date_Installed":"1/2020","LED_Powered":1,"LightID":"L025547","Light_Source":"LED","Light_Type":"Cobra","Lighting_Type":"LED-Powered Lamp","Verification_Date":null},"id":"stl-city-public-streetlights:2:132831","sourceLayerId":2,"sourceObjectId":132831,"sourceURL":"https://maps8.stlouis-mo.gov/arcgis/rest/services/STREETS/Streets_Permitting/MapServer/2","title":"Street light L025547"},"type":"Feature"},{"geometry":{"coordinates":[-90.26621165529798,38.68077586952336],"type":"Point"},"id":"stl-city-public-streetlights:2:132832","properties":{"address":null,"attributes":{"Date_Installed":"1/2020","LED_Powered":1,"LightID":"L025548","Light_Source":"LED","Light_Type":"Cobra","Lighting_Type":"LED-Powered Lamp","Verification_Date":null},"id":"stl-city-public-streetlights:2:132832","sourceLayerId":2,"sourceObjectId":132832,"sourceURL":"https://maps8.stlouis-mo.gov/arcgis/rest/services/STREETS/Streets_Permitting/MapServer/2","title":"Street light L025548"},"type":"Feature"},{"geometry":{"coordinates":[-90.26659427019277,38.68094110076003],"type":"Point"},"id":"stl-city-public-streetlights:2:132833","properties":{"address":null,"attributes":{"Date_Installed":"1/2020","LED_Powered":1,"LightID":"L025549","Light_Source":"LED","Light_Type":"Cobra","Lighting_Type":"LED-Powered Lamp","Verification_Date":null},"id":"stl-city-public-streetlights:2:132833","sourceLayerId":2,"sourceObjectId":132833,"sourceURL":"https://maps8.stlouis-mo.gov/arcgis/rest/services/STREETS/Streets_Permitting/MapServer/2","title":"Street light L025549"},"type":"Feature"},{"geometry":{"coordinates":[-90.26698902794598,38.68111350704651],"type":"Point"},"id":"stl-city-public-streetlights:2:132834","properties":{"address":null,"attributes":{"Date_Installed":"1/2020","LED_Powered":1,"LightID":"L025550","Light_Source":"LED","Light_Type":"Cobra","Lighting_Type":"LED-Powered Lamp","Verification_Date":null},"id":"stl-city-public-streetlights:2:132834","sourceLayerId":2,"sourceObjectId":132834,"sourceURL":"https://maps8.stlouis-mo.gov/arcgis/rest/services/STREETS/Streets_Permitting/MapServer/2","title":"Street light L025550"},"type":"Feature"},{"geometry":{"coordinates":[-90.26737772202539,38.68128113156281],"type":"Point"},"id":"stl-city-public-streetlights:2:132835","properties":{"address":null,"attributes":{"Date_Installed":"1/2020","LED_Powered":1,"LightID":"L025551","Light_Source":"LED","Light_Type":"Cobra","Lighting_Type":"LED-Powered Lamp","Verification_Date":null},"id":"stl-city-public-streetlights:2:132835","sourceLayerId":2,"sourceObjectId":132835,"sourceURL":"https://maps8.stlouis-mo.gov/arcgis/rest/services/STREETS/Streets_Permitting/MapServer/2","title":"Street light L025551"},"type":"Feature"},{"geometry":{"coordinates":[-90.26776057190469,38.68145390884359],"type":"Point"},"id":"stl-city-public-streetlights:2:132836","properties":{"address":null,"attributes":{"Date_Installed":"1/2020","LED_Powered":1,"LightID":"L025552","Light_Source":"LED","Light_Type":"Cobra","Lighting_Type":"LED-Powered Lamp","Verification_Date":null},"id":"stl-city-public-streetlights:2:132836","sourceLayerId":2,"sourceObjectId":132836,"sourceURL":"https://maps8.stlouis-mo.gov/arcgis/rest/services/STREETS/Streets_Permitting/MapServer/2","title":"Street light L025552"},"type":"Feature"},{"geometry":{"coordinates":[-90.26812191632295,38.681616709996675],"type":"Point"},"id":"stl-city-public-streetlights:2:132837","properties":{"address":null,"attributes":{"Date_Installed":"1/2020","LED_Powered":1,"LightID":"L025553","Light_Source":"LED","Light_Type":"Cobra","Lighting_Type":"LED-Powered Lamp","Verification_Date":null},"id":"stl-city-public-streetlights:2:132837","sourceLayerId":2,"sourceObjectId":132837,"sourceURL":"https://maps8.stlouis-mo.gov/arcgis/rest/services/STREETS/Streets_Permitting/MapServer/2","title":"Street light L025553"},"type":"Feature"},{"geometry":{"coordinates":[-90.26849237685406,38.68178191181259],"type":"Point"},"id":"stl-city-public-streetlights:2:132838","properties":{"address":null,"attributes":{"Date_Installed":"1/2020","LED_Powered":1,"LightID":"L025554","Light_Source":"LED","Light_Type":"Cobra","Lighting_Type":"LED-Powered Lamp","Verification_Date":null},"id":"stl-city-public-streetlights:2:132838","sourceLayerId":2,"sourceObjectId":132838,"sourceURL":"https://maps8.stlouis-mo.gov/arcgis/rest/services/STREETS/Streets_Permitting/MapServer/2","title":"Street light L025554"},"type":"Feature"},{"geometry":{"coordinates":[-90.26885355371816,38.6819903256806],"type":"Point"},"id":"stl-city-public-streetlights:2:132839","properties":{"address":null,"attributes":{"Date_Installed":"1/2020","LED_Powered":1,"LightID":"L025555","Light_Source":"LED","Light_Type":"Cobra","Lighting_Type":"LED-Powered Lamp","Verification_Date":null},"id":"stl-city-public-streetlights:2:132839","sourceLayerId":2,"sourceObjectId":132839,"sourceURL":"https://maps8.stlouis-mo.gov/arcgis/rest/services/STREETS/Streets_Permitting/MapServer/2","title":"Street light L025555"},"type":"Feature"},{"geometry":{"coordinates":[-90.26917632515172,38.68224210501782],"type":"Point"},"id":"stl-city-public-streetlights:2:132840","properties":{"address":null,"attributes":{"Date_Installed":"1/2020","LED_Powered":1,"LightID":"L025556","Light_Source":"LED","Light_Type":"Cobra","Lighting_Type":"LED-Powered Lamp","Verification_Date":null},"id":"stl-city-public-streetlights:2:132840","sourceLayerId":2,"sourceObjectId":132840,"sourceURL":"https://maps8.stlouis-mo.gov/arcgis/rest/services/STREETS/Streets_Permitting/MapServer/2","title":"Street light L025556"},"type":"Feature"},{"geometry":{"coordinates":[-90.2694917945254,38.682488236743964],"type":"Point"},"id":"stl-city-public-streetlights:2:132841","properties":{"address":null,"attributes":{"Date_Installed":"1/2020","LED_Powered":1,"LightID":"L025557","Light_Source":"LED","Light_Type":"Cobra","Lighting_Type":"LED-Powered Lamp","Verification_Date":null},"id":"stl-city-public-streetlights:2:132841","sourceLayerId":2,"sourceObjectId":132841,"sourceURL":"https://maps8.stlouis-mo.gov/arcgis/rest/services/STREETS/Streets_Permitting/MapServer/2","title":"Street light L025557"},"type":"Feature"},{"geometry":{"coordinates":[-90.2698865066959,38.68267970122102],"type":"Point"},"id":"stl-city-public-streetlights:2:132842","properties":{"address":null,"attributes":{"Date_Installed":"1/2020","LED_Powered":1,"LightID":"L025558","Light_Source":"LED","Light_Type":"Cobra","Lighting_Type":"LED-Powered Lamp","Verification_Date":null},"id":"stl-city-public-streetlights:2:132842","sourceLayerId":2,"sourceObjectId":132842,"sourceURL":"https://maps8.stlouis-mo.gov/arcgis/rest/services/STREETS/Streets_Permitting/MapServer/2","title":"Street light L025558"},"type":"Feature"},{"geometry":{"coordinates":[-90.26998340882739,38.68126362167711],"type":"Point"},"id":"stl-city-public-streetlights:2:132848","properties":{"address":null,"attributes":{"Date_Installed":"1/2020","LED_Powered":1,"LightID":"L025564","Light_Source":"LED","Light_Type":"Cobra","Lighting_Type":"LED-Powered Lamp","Verification_Date":null},"id":"stl-city-public-streetlights:2:132848","sourceLayerId":2,"sourceObjectId":132848,"sourceURL":"https://maps8.stlouis-mo.gov/arcgis/rest/services/STREETS/Streets_Permitting/MapServer/2","title":"Street light L025564"},"type":"Feature"},{"geometry":{"coordinates":[-90.26959775247244,38.681095534329785],"type":"Point"},"id":"stl-city-public-streetlights:2:132849","properties":{"address":null,"attributes":{"Date_Installed":"1/2020","LED_Powered":1,"LightID":"L025565","Light_Source":"LED","Light_Type":"Cobra","Lighting_Type":"LED-Powered Lamp","Verification_Date":null},"id":"stl-city-public-streetlights:2:132849","sourceLayerId":2,"sourceObjectId":132849,"sourceURL":"https://maps8.stlouis-mo.gov/arcgis/rest/services/STREETS/Streets_Permitting/MapServer/2","title":"Street light L025565"},"type":"Feature"},{"geometry":{"coordinates":[-90.26921756632812,38.68092888710469],"type":"Point"},"id":"stl-city-public-streetlights:2:132850","properties":{"address":null,"attributes":{"Date_Installed":"1/2020","LED_Powered":1,"LightID":"L025566","Light_Source":"LED","Light_Type":"Cobra","Lighting_Type":"LED-Powered Lamp","Verification_Date":null},"id":"stl-city-public-streetlights:2:132850","sourceLayerId":2,"sourceObjectId":132850,"sourceURL":"https://maps8.stlouis-mo.gov/arcgis/rest/services/STREETS/Streets_Permitting/MapServer/2","title":"Street light L025566"},"type":"Feature"},{"geometry":{"coordinates":[-90.26880699501599,38.68074911577396],"type":"Point"},"id":"stl-city-public-streetlights:2:132851","properties":{"address":null,"attributes":{"Date_Installed":"1/2020","LED_Powered":1,"LightID":"L025567","Light_Source":"LED","Light_Type":"Cobra","Lighting_Type":"LED-Powered Lamp","Verification_Date":null},"id":"stl-city-public-streetlights:2:132851","sourceLayerId":2,"sourceObjectId":132851,"sourceURL":"https://maps8.stlouis-mo.gov/arcgis/rest/services/STREETS/Streets_Permitting/MapServer/2","title":"Street light L025567"},"type":"Feature"},{"geometry":{"coordinates":[-90.26840418979437,38.68057276731959],"type":"Point"},"id":"stl-city-public-streetlights:2:132852","properties":{"address":null,"attributes":{"Date_Installed":"1/2020","LED_Powered":1,"LightID":"L025568","Light_Source":"LED","Light_Type":"Cobra","Lighting_Type":"LED-Powered Lamp","Verification_Date":null},"id":"stl-city-public-streetlights:2:132852","sourceLayerId":2,"sourceObjectId":132852,"sourceURL":"https://maps8.stlouis-mo.gov/arcgis/rest/services/STREETS/Streets_Permitting/MapServer/2","title":"Street light L025568"},"type":"Feature"},{"geometry":{"coordinates":[-90.26774611294098,38.680647570767775],"type":"Point"},"id":"stl-city-public-streetlights:2:132853","properties":{"address":null,"attributes":{"Date_Installed":"1/2020","LED_Powered":1,"LightID":"L025569","Light_Source":"LED","Light_Type":"Cobra","Lighting_Type":"LED-Powered Lamp","Verification_Date":null},"id":"stl-city-public-streetlights:2:132853","sourceLayerId":2,"sourceObjectId":132853,"sourceURL":"https://maps8.stlouis-mo.gov/arcgis/rest/services/STREETS/Streets_Permitting/MapServer/2","title":"Street light L025569"},"type":"Feature"},{"geometry":{"coordinates":[-90.26742225312678,38.68044251047581],"type":"Point"},"id":"stl-city-public-streetlights:2:132854","properties":{"address":null,"attributes":{"Date_Installed":"1/2020","LED_Powered":1,"LightID":"L025570","Light_Source":"LED","Light_Type":"Cobra","Lighting_Type":"LED-Powered Lamp","Verification_Date":null},"id":"stl-city-public-streetlights:2:132854","sourceLayerId":2,"sourceObjectId":132854,"sourceURL":"https://maps8.stlouis-mo.gov/arcgis/rest/services/STREETS/Streets_Permitting/MapServer/2","title":"Street light L025570"},"type":"Feature"},{"geometry":{"coordinates":[-90.26711296062146,38.680246916843906],"type":"Point"},"id":"stl-city-public-streetlights:2:132855","properties":{"address":null,"attributes":{"Date_Installed":"1/2020","LED_Powered":1,"LightID":"L025571","Light_Source":"LED","Light_Type":"Cobra","Lighting_Type":"LED-Powered Lamp","Verification_Date":null},"id":"stl-city-public-streetlights:2:132855","sourceLayerId":2,"sourceObjectId":132855,"sourceURL":"https://maps8.stlouis-mo.gov/arcgis/rest/services/STREETS/Streets_Permitting/MapServer/2","title":"Street light L025571"},"type":"Feature"},{"geometry":{"coordinates":[-90.26681359451611,38.680057539357335],"type":"Point"},"id":"stl-city-public-streetlights:2:132856","properties":{"address":null,"attributes":{"Date_Installed":"1/2020","LED_Powered":1,"LightID":"L025572","Light_Source":"LED","Light_Type":"Cobra","Lighting_Type":"LED-Powered Lamp","Verification_Date":null},"id":"stl-city-public-streetlights:2:132856","sourceLayerId":2,"sourceObjectId":132856,"sourceURL":"https://maps8.stlouis-mo.gov/arcgis/rest/services/STREETS/Streets_Permitting/MapServer/2","title":"Street light L025572"},"type":"Feature"},{"geometry":{"coordinates":[-90.26963053553841,38.680102118345246],"type":"Point"},"id":"stl-city-public-streetlights:2:132869","properties":{"address":null,"attributes":{"Date_Installed":"1/2020","LED_Powered":1,"LightID":"L025585","Light_Source":"LED","Light_Type":"Cobra","Lighting_Type":"LED-Powered Lamp","Verification_Date":null},"id":"stl-city-public-streetlights:2:132869","sourceLayerId":2,"sourceObjectId":132869,"sourceURL":"https://maps8.stlouis-mo.gov/arcgis/rest/services/STREETS/Streets_Permitting/MapServer/2","title":"Street light L025585"},"type":"Feature"},{"geometry":{"coordinates":[-90.26230980765914,38.68114066778112],"type":"Point"},"id":"stl-city-public-streetlights:2:151424","properties":{"address":null,"attributes":{"Date_Installed":null,"LED_Powered":1,"LightID":"L044290","Light_Source":"LED","Light_Type":"Cobra","Lighting_Type":"LED-Powered Lamp","Verification_Date":null},"id":"stl-city-public-streetlights:2:151424","sourceLayerId":2,"sourceObjectId":151424,"sourceURL":"https://maps8.stlouis-mo.gov/arcgis/rest/services/STREETS/Streets_Permitting/MapServer/2","title":"Street light L044290"},"type":"Feature"},{"geometry":{"coordinates":[-90.26653735197566,38.68264144895241],"type":"Point"},"id":"stl-city-public-streetlights:2:153220","properties":{"address":null,"attributes":{"Date_Installed":"1/2020","LED_Powered":1,"LightID":"L046074","Light_Source":"LED","Light_Type":"Cobra","Lighting_Type":"LED-Powered Lamp","Verification_Date":null},"id":"stl-city-public-streetlights:2:153220","sourceLayerId":2,"sourceObjectId":153220,"sourceURL":"https://maps8.stlouis-mo.gov/arcgis/rest/services/STREETS/Streets_Permitting/MapServer/2","title":"Street light L046074"},"type":"Feature"},{"geometry":{"coordinates":[-90.2667435631211,38.682350108564926],"type":"Point"},"id":"stl-city-public-streetlights:2:153221","properties":{"address":null,"attributes":{"Date_Installed":"1/2020","LED_Powered":1,"LightID":"L046075","Light_Source":"LED","Light_Type":"Cobra","Lighting_Type":"LED-Powered Lamp","Verification_Date":null},"id":"stl-city-public-streetlights:2:153221","sourceLayerId":2,"sourceObjectId":153221,"sourceURL":"https://maps8.stlouis-mo.gov/arcgis/rest/services/STREETS/Streets_Permitting/MapServer/2","title":"Street light L046075"},"type":"Feature"},{"geometry":{"coordinates":[-90.26692562840692,38.682096381094844],"type":"Point"},"id":"stl-city-public-streetlights:2:153222","properties":{"address":null,"attributes":{"Date_Installed":"1/2020","LED_Powered":1,"LightID":"L046076","Light_Source":"LED","Light_Type":"Cobra","Lighting_Type":"LED-Powered Lamp","Verification_Date":null},"id":"stl-city-public-streetlights:2:153222","sourceLayerId":2,"sourceObjectId":153222,"sourceURL":"https://maps8.stlouis-mo.gov/arcgis/rest/services/STREETS/Streets_Permitting/MapServer/2","title":"Street light L046076"},"type":"Feature"},{"geometry":{"coordinates":[-90.26714508053668,38.681799942132436],"type":"Point"},"id":"stl-city-public-streetlights:2:153223","properties":{"address":null,"attributes":{"Date_Installed":"1/2020","LED_Powered":1,"LightID":"L046077","Light_Source":"LED","Light_Type":"Cobra","Lighting_Type":"LED-Powered Lamp","Verification_Date":null},"id":"stl-city-public-streetlights:2:153223","sourceLayerId":2,"sourceObjectId":153223,"sourceURL":"https://maps8.stlouis-mo.gov/arcgis/rest/services/STREETS/Streets_Permitting/MapServer/2","title":"Street light L046077"},"type":"Feature"},{"geometry":{"coordinates":[-90.26737237054742,38.68147718011276],"type":"Point"},"id":"stl-city-public-streetlights:2:153224","properties":{"address":null,"attributes":{"Date_Installed":"1/2020","LED_Powered":1,"LightID":"L046078","Light_Source":"LED","Light_Type":"Cobra","Lighting_Type":"LED-Powered Lamp","Verification_Date":null},"id":"stl-city-public-streetlights:2:153224","sourceLayerId":2,"sourceObjectId":153224,"sourceURL":"https://maps8.stlouis-mo.gov/arcgis/rest/services/STREETS/Streets_Permitting/MapServer/2","title":"Street light L046078"},"type":"Feature"},{"geometry":{"coordinates":[-90.26758770202942,38.681184664443016],"type":"Point"},"id":"stl-city-public-streetlights:2:153225","properties":{"address":null,"attributes":{"Date_Installed":"1/2020","LED_Powered":1,"LightID":"L046079","Light_Source":"LED","Light_Type":"Cobra","Lighting_Type":"LED-Powered Lamp","Verification_Date":null},"id":"stl-city-public-streetlights:2:153225","sourceLayerId":2,"sourceObjectId":153225,"sourceURL":"https://maps8.stlouis-mo.gov/arcgis/rest/services/STREETS/Streets_Permitting/MapServer/2","title":"Street light L046079"},"type":"Feature"},{"geometry":{"coordinates":[-90.26778475648726,38.680901408286495],"type":"Point"},"id":"stl-city-public-streetlights:2:153226","properties":{"address":null,"attributes":{"Date_Installed":"1/2020","LED_Powered":1,"LightID":"L046080","Light_Source":"LED","Light_Type":"Cobra","Lighting_Type":"LED-Powered Lamp","Verification_Date":null},"id":"stl-city-public-streetlights:2:153226","sourceLayerId":2,"sourceObjectId":153226,"sourceURL":"https://maps8.stlouis-mo.gov/arcgis/rest/services/STREETS/Streets_Permitting/MapServer/2","title":"Street light L046080"},"type":"Feature"},{"geometry":{"coordinates":[-90.26799427470331,38.68061853415811],"type":"Point"},"id":"stl-city-public-streetlights:2:153227","properties":{"address":null,"attributes":{"Date_Installed":"1/2020","LED_Powered":1,"LightID":"L046081","Light_Source":"LED","Light_Type":"Cobra","Lighting_Type":"LED-Powered Lamp","Verification_Date":null},"id":"stl-city-public-streetlights:2:153227","sourceLayerId":2,"sourceObjectId":153227,"sourceURL":"https://maps8.stlouis-mo.gov/arcgis/rest/services/STREETS/Streets_Permitting/MapServer/2","title":"Street light L046081"},"type":"Feature"},{"geometry":{"coordinates":[-90.26819129908525,38.68034362030617],"type":"Point"},"id":"stl-city-public-streetlights:2:153228","properties":{"address":null,"attributes":{"Date_Installed":"1/2020","LED_Powered":1,"LightID":"L046082","Light_Source":"LED","Light_Type":"Cobra","Lighting_Type":"LED-Powered Lamp","Verification_Date":null},"id":"stl-city-public-streetlights:2:153228","sourceLayerId":2,"sourceObjectId":153228,"sourceURL":"https://maps8.stlouis-mo.gov/arcgis/rest/services/STREETS/Streets_Permitting/MapServer/2","title":"Street light L046082"},"type":"Feature"},{"geometry":{"coordinates":[-90.26022039998801,38.685115342449734],"type":"Point"},"id":"stl-city-public-streetlights:2:159557","properties":{"address":null,"attributes":{"Date_Installed":null,"LED_Powered":0,"LightID":"L052423","Light_Source":"LED","Light_Type":"Cobra","Lighting_Type":"LED-Powered Lamp","Verification_Date":null},"id":"stl-city-public-streetlights:2:159557","sourceLayerId":2,"sourceObjectId":159557,"sourceURL":"https://maps8.stlouis-mo.gov/arcgis/rest/services/STREETS/Streets_Permitting/MapServer/2","title":"Street light L052423"},"type":"Feature"},{"geometry":{"coordinates":[-90.26079038478004,38.68464026174107],"type":"Point"},"id":"stl-city-public-streetlights:2:159558","properties":{"address":null,"attributes":{"Date_Installed":null,"LED_Powered":0,"LightID":"L052484","Light_Source":"LED","Light_Type":"Cobra","Lighting_Type":"LED-Powered Lamp","Verification_Date":null},"id":"stl-city-public-streetlights:2:159558","sourceLayerId":2,"sourceObjectId":159558,"sourceURL":"https://maps8.stlouis-mo.gov/arcgis/rest/services/STREETS/Streets_Permitting/MapServer/2","title":"Street light L052484"},"type":"Feature"},{"geometry":{"coordinates":[-90.26154509968006,38.684515949675614],"type":"Point"},"id":"stl-city-public-streetlights:2:159559","properties":{"address":null,"attributes":{"Date_Installed":null,"LED_Powered":0,"LightID":"L052485","Light_Source":"LED","Light_Type":"Cobra","Lighting_Type":"LED-Powered Lamp","Verification_Date":null},"id":"stl-city-public-streetlights:2:159559","sourceLayerId":2,"sourceObjectId":159559,"sourceURL":"https://maps8.stlouis-mo.gov/arcgis/rest/services/STREETS/Streets_Permitting/MapServer/2","title":"Street light L052485"},"type":"Feature"},{"geometry":{"coordinates":[-90.26237718332163,38.68422434200665],"type":"Point"},"id":"stl-city-public-streetlights:2:159560","properties":{"address":null,"attributes":{"Date_Installed":null,"LED_Powered":0,"LightID":"L052486","Light_Source":"LED","Light_Type":"Cobra","Lighting_Type":"LED-Powered Lamp","Verification_Date":null},"id":"stl-city-public-streetlights:2:159560","sourceLayerId":2,"sourceObjectId":159560,"sourceURL":"https://maps8.stlouis-mo.gov/arcgis/rest/services/STREETS/Streets_Permitting/MapServer/2","title":"Street light L052486"},"type":"Feature"},{"geometry":{"coordinates":[-90.26304794148703,38.68429905818575],"type":"Point"},"id":"stl-city-public-streetlights:2:159561","properties":{"address":null,"attributes":{"Date_Installed":null,"LED_Powered":0,"LightID":"L052487","Light_Source":"LED","Light_Type":"Cobra","Lighting_Type":"LED-Powered Lamp","Verification_Date":null},"id":"stl-city-public-streetlights:2:159561","sourceLayerId":2,"sourceObjectId":159561,"sourceURL":"https://maps8.stlouis-mo.gov/arcgis/rest/services/STREETS/Streets_Permitting/MapServer/2","title":"Street light L052487"},"type":"Feature"},{"geometry":{"coordinates":[-90.26372611925446,38.68394485816541],"type":"Point"},"id":"stl-city-public-streetlights:2:159562","properties":{"address":null,"attributes":{"Date_Installed":null,"LED_Powered":0,"LightID":"L052488","Light_Source":"LED","Light_Type":"Cobra","Lighting_Type":"LED-Powered Lamp","Verification_Date":null},"id":"stl-city-public-streetlights:2:159562","sourceLayerId":2,"sourceObjectId":159562,"sourceURL":"https://maps8.stlouis-mo.gov/arcgis/rest/services/STREETS/Streets_Permitting/MapServer/2","title":"Street light L052488"},"type":"Feature"},{"geometry":{"coordinates":[-90.26447384881465,38.68389763041951],"type":"Point"},"id":"stl-city-public-streetlights:2:159563","properties":{"address":null,"attributes":{"Date_Installed":null,"LED_Powered":0,"LightID":"L052489","Light_Source":"LED","Light_Type":"Cobra","Lighting_Type":"LED-Powered Lamp","Verification_Date":null},"id":"stl-city-public-streetlights:2:159563","sourceLayerId":2,"sourceObjectId":159563,"sourceURL":"https://maps8.stlouis-mo.gov/arcgis/rest/services/STREETS/Streets_Permitting/MapServer/2","title":"Street light L052489"},"type":"Feature"},{"geometry":{"coordinates":[-90.264600320912,38.68335108886424],"type":"Point"},"id":"stl-city-public-streetlights:2:159564","properties":{"address":null,"attributes":{"Date_Installed":null,"LED_Powered":0,"LightID":"L052490","Light_Source":"LED","Light_Type":"Cobra","Lighting_Type":"LED-Powered Lamp","Verification_Date":null},"id":"stl-city-public-streetlights:2:159564","sourceLayerId":2,"sourceObjectId":159564,"sourceURL":"https://maps8.stlouis-mo.gov/arcgis/rest/services/STREETS/Streets_Permitting/MapServer/2","title":"Street light L052490"},"type":"Feature"},{"geometry":{"coordinates":[-90.26500495982035,38.68282913381486],"type":"Point"},"id":"stl-city-public-streetlights:2:159565","properties":{"address":null,"attributes":{"Date_Installed":null,"LED_Powered":0,"LightID":"L052491","Light_Source":"LED","Light_Type":"Cobra","Lighting_Type":"LED-Powered Lamp","Verification_Date":null},"id":"stl-city-public-streetlights:2:159565","sourceLayerId":2,"sourceObjectId":159565,"sourceURL":"https://maps8.stlouis-mo.gov/arcgis/rest/services/STREETS/Streets_Permitting/MapServer/2","title":"Street light L052491"},"type":"Feature"},{"geometry":{"coordinates":[-90.26479826463692,38.68270853784348],"type":"Point"},"id":"stl-city-public-streetlights:2:159566","properties":{"address":null,"attributes":{"Date_Installed":null,"LED_Powered":0,"LightID":"L052492","Light_Source":"LED","Light_Type":"Cobra","Lighting_Type":"LED-Powered Lamp","Verification_Date":null},"id":"stl-city-public-streetlights:2:159566","sourceLayerId":2,"sourceObjectId":159566,"sourceURL":"https://maps8.stlouis-mo.gov/arcgis/rest/services/STREETS/Streets_Permitting/MapServer/2","title":"Street light L052492"},"type":"Feature"}],"layerId":"city-streetlights","retrievedAt":"2026-09-13T21:56:18.173251+00:00","schema":"property-infrastructure-geojson-v1","sourceId":"stl-city-public-streetlights","tileId":"-9027_3868","type":"FeatureCollection"}