{"features":[{"geometry":{"coordinates":[-90.2468370317474,38.55864087352663],"type":"Point"},"id":"stl-city-public-streetlights:2:107809","properties":{"address":null,"attributes":{"Date_Installed":null,"LED_Powered":0,"LightID":"L000553","Light_Source":"LED","Light_Type":"Cobra","Lighting_Type":"LED-Powered Lamp","Verification_Date":null},"id":"stl-city-public-streetlights:2:107809","sourceLayerId":2,"sourceObjectId":107809,"sourceURL":"https://maps8.stlouis-mo.gov/arcgis/rest/services/STREETS/Streets_Permitting/MapServer/2","title":"Street light L000553"},"type":"Feature"},{"geometry":{"coordinates":[-90.24652028189486,38.558900481139034],"type":"Point"},"id":"stl-city-public-streetlights:2:107810","properties":{"address":null,"attributes":{"Date_Installed":null,"LED_Powered":0,"LightID":"L000554","Light_Source":"LED","Light_Type":"Cobra","Lighting_Type":"LED-Powered Lamp","Verification_Date":null},"id":"stl-city-public-streetlights:2:107810","sourceLayerId":2,"sourceObjectId":107810,"sourceURL":"https://maps8.stlouis-mo.gov/arcgis/rest/services/STREETS/Streets_Permitting/MapServer/2","title":"Street light L000554"},"type":"Feature"},{"geometry":{"coordinates":[-90.24620225892349,38.559158655389005],"type":"Point"},"id":"stl-city-public-streetlights:2:107811","properties":{"address":null,"attributes":{"Date_Installed":null,"LED_Powered":0,"LightID":"L000555","Light_Source":"LED","Light_Type":"Cobra","Lighting_Type":"LED-Powered Lamp","Verification_Date":null},"id":"stl-city-public-streetlights:2:107811","sourceLayerId":2,"sourceObjectId":107811,"sourceURL":"https://maps8.stlouis-mo.gov/arcgis/rest/services/STREETS/Streets_Permitting/MapServer/2","title":"Street light L000555"},"type":"Feature"},{"geometry":{"coordinates":[-90.24589391585069,38.55941339391393],"type":"Point"},"id":"stl-city-public-streetlights:2:107812","properties":{"address":null,"attributes":{"Date_Installed":null,"LED_Powered":0,"LightID":"L000556","Light_Source":"LED","Light_Type":"Cobra","Lighting_Type":"LED-Powered Lamp","Verification_Date":null},"id":"stl-city-public-streetlights:2:107812","sourceLayerId":2,"sourceObjectId":107812,"sourceURL":"https://maps8.stlouis-mo.gov/arcgis/rest/services/STREETS/Streets_Permitting/MapServer/2","title":"Street light L000556"},"type":"Feature"},{"geometry":{"coordinates":[-90.24558135732568,38.5596649044312],"type":"Point"},"id":"stl-city-public-streetlights:2:107813","properties":{"address":null,"attributes":{"Date_Installed":null,"LED_Powered":0,"LightID":"L000557","Light_Source":"LED","Light_Type":"Cobra","Lighting_Type":"LED-Powered Lamp","Verification_Date":null},"id":"stl-city-public-streetlights:2:107813","sourceLayerId":2,"sourceObjectId":107813,"sourceURL":"https://maps8.stlouis-mo.gov/arcgis/rest/services/STREETS/Streets_Permitting/MapServer/2","title":"Street light L000557"},"type":"Feature"},{"geometry":{"coordinates":[-90.24527691112083,38.559910829946574],"type":"Point"},"id":"stl-city-public-streetlights:2:107814","properties":{"address":null,"attributes":{"Date_Installed":null,"LED_Powered":0,"LightID":"L000558","Light_Source":"LED","Light_Type":"Cobra","Lighting_Type":"LED-Powered Lamp","Verification_Date":null},"id":"stl-city-public-streetlights:2:107814","sourceLayerId":2,"sourceObjectId":107814,"sourceURL":"https://maps8.stlouis-mo.gov/arcgis/rest/services/STREETS/Streets_Permitting/MapServer/2","title":"Street light L000558"},"type":"Feature"},{"geometry":{"coordinates":[-90.24810012839028,38.559022858920244],"type":"Point"},"id":"stl-city-public-streetlights:2:107816","properties":{"address":null,"attributes":{"Date_Installed":null,"LED_Powered":0,"LightID":"L000560","Light_Source":"LED","Light_Type":"Cobra","Lighting_Type":"LED-Powered Lamp","Verification_Date":null},"id":"stl-city-public-streetlights:2:107816","sourceLayerId":2,"sourceObjectId":107816,"sourceURL":"https://maps8.stlouis-mo.gov/arcgis/rest/services/STREETS/Streets_Permitting/MapServer/2","title":"Street light L000560"},"type":"Feature"},{"geometry":{"coordinates":[-90.2477987651943,38.559258548111075],"type":"Point"},"id":"stl-city-public-streetlights:2:107817","properties":{"address":null,"attributes":{"Date_Installed":null,"LED_Powered":0,"LightID":"L000561","Light_Source":"LED","Light_Type":"Cobra","Lighting_Type":"LED-Powered Lamp","Verification_Date":null},"id":"stl-city-public-streetlights:2:107817","sourceLayerId":2,"sourceObjectId":107817,"sourceURL":"https://maps8.stlouis-mo.gov/arcgis/rest/services/STREETS/Streets_Permitting/MapServer/2","title":"Street light L000561"},"type":"Feature"},{"geometry":{"coordinates":[-90.24748365565003,38.55951816273833],"type":"Point"},"id":"stl-city-public-streetlights:2:107818","properties":{"address":null,"attributes":{"Date_Installed":null,"LED_Powered":0,"LightID":"L000562","Light_Source":"LED","Light_Type":"Cobra","Lighting_Type":"LED-Powered Lamp","Verification_Date":null},"id":"stl-city-public-streetlights:2:107818","sourceLayerId":2,"sourceObjectId":107818,"sourceURL":"https://maps8.stlouis-mo.gov/arcgis/rest/services/STREETS/Streets_Permitting/MapServer/2","title":"Street light L000562"},"type":"Feature"},{"geometry":{"coordinates":[-90.24717299962643,38.559770753683736],"type":"Point"},"id":"stl-city-public-streetlights:2:107819","properties":{"address":null,"attributes":{"Date_Installed":null,"LED_Powered":0,"LightID":"L000563","Light_Source":"LED","Light_Type":"Cobra","Lighting_Type":"LED-Powered Lamp","Verification_Date":null},"id":"stl-city-public-streetlights:2:107819","sourceLayerId":2,"sourceObjectId":107819,"sourceURL":"https://maps8.stlouis-mo.gov/arcgis/rest/services/STREETS/Streets_Permitting/MapServer/2","title":"Street light L000563"},"type":"Feature"},{"geometry":{"coordinates":[-90.24903391915943,38.559675622694535],"type":"Point"},"id":"stl-city-public-streetlights:2:107824","properties":{"address":null,"attributes":{"Date_Installed":"1/11/2018","LED_Powered":1,"LightID":"L000568","Light_Source":"LED","Light_Type":"Cobra","Lighting_Type":"LED-Powered Lamp","Verification_Date":null},"id":"stl-city-public-streetlights:2:107824","sourceLayerId":2,"sourceObjectId":107824,"sourceURL":"https://maps8.stlouis-mo.gov/arcgis/rest/services/STREETS/Streets_Permitting/MapServer/2","title":"Street light L000568"},"type":"Feature"},{"geometry":{"coordinates":[-90.24865916802122,38.55997634866219],"type":"Point"},"id":"stl-city-public-streetlights:2:107825","properties":{"address":null,"attributes":{"Date_Installed":"1/11/2018","LED_Powered":1,"LightID":"L000569","Light_Source":"LED","Light_Type":"Cobra","Lighting_Type":"LED-Powered Lamp","Verification_Date":null},"id":"stl-city-public-streetlights:2:107825","sourceLayerId":2,"sourceObjectId":107825,"sourceURL":"https://maps8.stlouis-mo.gov/arcgis/rest/services/STREETS/Streets_Permitting/MapServer/2","title":"Street light L000569"},"type":"Feature"},{"geometry":{"coordinates":[-90.24642934122704,38.55999558144385],"type":"Point"},"id":"stl-city-public-streetlights:2:107836","properties":{"address":null,"attributes":{"Date_Installed":"1/11/2018","LED_Powered":1,"LightID":"L000580","Light_Source":"LED","Light_Type":"Cobra","Lighting_Type":"LED-Powered Lamp","Verification_Date":null},"id":"stl-city-public-streetlights:2:107836","sourceLayerId":2,"sourceObjectId":107836,"sourceURL":"https://maps8.stlouis-mo.gov/arcgis/rest/services/STREETS/Streets_Permitting/MapServer/2","title":"Street light L000580"},"type":"Feature"},{"geometry":{"coordinates":[-90.2461101408479,38.55979734532326],"type":"Point"},"id":"stl-city-public-streetlights:2:107837","properties":{"address":null,"attributes":{"Date_Installed":"1/11/2018","LED_Powered":1,"LightID":"L000581","Light_Source":"LED","Light_Type":"Cobra","Lighting_Type":"LED-Powered Lamp","Verification_Date":null},"id":"stl-city-public-streetlights:2:107837","sourceLayerId":2,"sourceObjectId":107837,"sourceURL":"https://maps8.stlouis-mo.gov/arcgis/rest/services/STREETS/Streets_Permitting/MapServer/2","title":"Street light L000581"},"type":"Feature"},{"geometry":{"coordinates":[-90.24578430816248,38.55955804164269],"type":"Point"},"id":"stl-city-public-streetlights:2:107838","properties":{"address":null,"attributes":{"Date_Installed":"1/11/2018","LED_Powered":1,"LightID":"L000582","Light_Source":"LED","Light_Type":"Cobra","Lighting_Type":"LED-Powered Lamp","Verification_Date":null},"id":"stl-city-public-streetlights:2:107838","sourceLayerId":2,"sourceObjectId":107838,"sourceURL":"https://maps8.stlouis-mo.gov/arcgis/rest/services/STREETS/Streets_Permitting/MapServer/2","title":"Street light L000582"},"type":"Feature"},{"geometry":{"coordinates":[-90.24287400154938,38.558804483214416],"type":"Point"},"id":"stl-city-public-streetlights:2:108131","properties":{"address":null,"attributes":{"Date_Installed":null,"LED_Powered":0,"LightID":"L000875","Light_Source":"LED","Light_Type":"Cobra","Lighting_Type":"LED-Powered Lamp","Verification_Date":null},"id":"stl-city-public-streetlights:2:108131","sourceLayerId":2,"sourceObjectId":108131,"sourceURL":"https://maps8.stlouis-mo.gov/arcgis/rest/services/STREETS/Streets_Permitting/MapServer/2","title":"Street light L000875"},"type":"Feature"},{"geometry":{"coordinates":[-90.2427336699416,38.559065421962494],"type":"Point"},"id":"stl-city-public-streetlights:2:108132","properties":{"address":null,"attributes":{"Date_Installed":null,"LED_Powered":0,"LightID":"L000876","Light_Source":"LED","Light_Type":"Cobra","Lighting_Type":"LED-Powered Lamp","Verification_Date":null},"id":"stl-city-public-streetlights:2:108132","sourceLayerId":2,"sourceObjectId":108132,"sourceURL":"https://maps8.stlouis-mo.gov/arcgis/rest/services/STREETS/Streets_Permitting/MapServer/2","title":"Street light L000876"},"type":"Feature"},{"geometry":{"coordinates":[-90.24232131297005,38.55943378918708],"type":"Point"},"id":"stl-city-public-streetlights:2:108133","properties":{"address":null,"attributes":{"Date_Installed":null,"LED_Powered":0,"LightID":"L000877","Light_Source":"LED","Light_Type":"Cobra","Lighting_Type":"LED-Powered Lamp","Verification_Date":null},"id":"stl-city-public-streetlights:2:108133","sourceLayerId":2,"sourceObjectId":108133,"sourceURL":"https://maps8.stlouis-mo.gov/arcgis/rest/services/STREETS/Streets_Permitting/MapServer/2","title":"Street light L000877"},"type":"Feature"},{"geometry":{"coordinates":[-90.24205479228,38.55972567450761],"type":"Point"},"id":"stl-city-public-streetlights:2:108134","properties":{"address":null,"attributes":{"Date_Installed":null,"LED_Powered":0,"LightID":"L000878","Light_Source":"LED","Light_Type":"Cobra","Lighting_Type":"LED-Powered Lamp","Verification_Date":null},"id":"stl-city-public-streetlights:2:108134","sourceLayerId":2,"sourceObjectId":108134,"sourceURL":"https://maps8.stlouis-mo.gov/arcgis/rest/services/STREETS/Streets_Permitting/MapServer/2","title":"Street light L000878"},"type":"Feature"},{"geometry":{"coordinates":[-90.24269019018321,38.558891360499345],"type":"Point"},"id":"stl-city-public-streetlights:2:108138","properties":{"address":null,"attributes":{"Date_Installed":null,"LED_Powered":0,"LightID":"L000882","Light_Source":"Mercury Vapor","Light_Type":"Cobra","Lighting_Type":"100-W Mercury Vapor Lamp","Verification_Date":null},"id":"stl-city-public-streetlights:2:108138","sourceLayerId":2,"sourceObjectId":108138,"sourceURL":"https://maps8.stlouis-mo.gov/arcgis/rest/services/STREETS/Streets_Permitting/MapServer/2","title":"Street light L000882"},"type":"Feature"},{"geometry":{"coordinates":[-90.2425714916801,38.558976910422714],"type":"Point"},"id":"stl-city-public-streetlights:2:108139","properties":{"address":null,"attributes":{"Date_Installed":null,"LED_Powered":0,"LightID":"L000883","Light_Source":"Mercury Vapor","Light_Type":"Cobra","Lighting_Type":"100-W Mercury Vapor Lamp","Verification_Date":null},"id":"stl-city-public-streetlights:2:108139","sourceLayerId":2,"sourceObjectId":108139,"sourceURL":"https://maps8.stlouis-mo.gov/arcgis/rest/services/STREETS/Streets_Permitting/MapServer/2","title":"Street light L000883"},"type":"Feature"},{"geometry":{"coordinates":[-90.24248370569015,38.55907683094142],"type":"Point"},"id":"stl-city-public-streetlights:2:108140","properties":{"address":null,"attributes":{"Date_Installed":null,"LED_Powered":0,"LightID":"L000884","Light_Source":"Mercury Vapor","Light_Type":"Cobra","Lighting_Type":"100-W Mercury Vapor Lamp","Verification_Date":null},"id":"stl-city-public-streetlights:2:108140","sourceLayerId":2,"sourceObjectId":108140,"sourceURL":"https://maps8.stlouis-mo.gov/arcgis/rest/services/STREETS/Streets_Permitting/MapServer/2","title":"Street light L000884"},"type":"Feature"},{"geometry":{"coordinates":[-90.2423671185276,38.559157355565],"type":"Point"},"id":"stl-city-public-streetlights:2:108141","properties":{"address":null,"attributes":{"Date_Installed":null,"LED_Powered":0,"LightID":"L000885","Light_Source":"Mercury Vapor","Light_Type":"Cobra","Lighting_Type":"100-W Mercury Vapor Lamp","Verification_Date":null},"id":"stl-city-public-streetlights:2:108141","sourceLayerId":2,"sourceObjectId":108141,"sourceURL":"https://maps8.stlouis-mo.gov/arcgis/rest/services/STREETS/Streets_Permitting/MapServer/2","title":"Street light L000885"},"type":"Feature"},{"geometry":{"coordinates":[-90.24227933276279,38.55925675070159],"type":"Point"},"id":"stl-city-public-streetlights:2:108142","properties":{"address":null,"attributes":{"Date_Installed":null,"LED_Powered":0,"LightID":"L000886","Light_Source":"Mercury Vapor","Light_Type":"Cobra","Lighting_Type":"100-W Mercury Vapor Lamp","Verification_Date":null},"id":"stl-city-public-streetlights:2:108142","sourceLayerId":2,"sourceObjectId":108142,"sourceURL":"https://maps8.stlouis-mo.gov/arcgis/rest/services/STREETS/Streets_Permitting/MapServer/2","title":"Street light L000886"},"type":"Feature"},{"geometry":{"coordinates":[-90.242190399908,38.55935471351344],"type":"Point"},"id":"stl-city-public-streetlights:2:108143","properties":{"address":null,"attributes":{"Date_Installed":null,"LED_Powered":0,"LightID":"L000887","Light_Source":"Mercury Vapor","Light_Type":"Cobra","Lighting_Type":"100-W Mercury Vapor Lamp","Verification_Date":null},"id":"stl-city-public-streetlights:2:108143","sourceLayerId":2,"sourceObjectId":108143,"sourceURL":"https://maps8.stlouis-mo.gov/arcgis/rest/services/STREETS/Streets_Permitting/MapServer/2","title":"Street light L000887"},"type":"Feature"},{"geometry":{"coordinates":[-90.24210352535084,38.55945391952981],"type":"Point"},"id":"stl-city-public-streetlights:2:108144","properties":{"address":null,"attributes":{"Date_Installed":null,"LED_Powered":0,"LightID":"L000888","Light_Source":"Mercury Vapor","Light_Type":"Cobra","Lighting_Type":"100-W Mercury Vapor Lamp","Verification_Date":null},"id":"stl-city-public-streetlights:2:108144","sourceLayerId":2,"sourceObjectId":108144,"sourceURL":"https://maps8.stlouis-mo.gov/arcgis/rest/services/STREETS/Streets_Permitting/MapServer/2","title":"Street light L000888"},"type":"Feature"},{"geometry":{"coordinates":[-90.24202209233479,38.559559931169645],"type":"Point"},"id":"stl-city-public-streetlights:2:108145","properties":{"address":null,"attributes":{"Date_Installed":null,"LED_Powered":0,"LightID":"L000889","Light_Source":"Mercury Vapor","Light_Type":"Cobra","Lighting_Type":"100-W Mercury Vapor Lamp","Verification_Date":null},"id":"stl-city-public-streetlights:2:108145","sourceLayerId":2,"sourceObjectId":108145,"sourceURL":"https://maps8.stlouis-mo.gov/arcgis/rest/services/STREETS/Streets_Permitting/MapServer/2","title":"Street light L000889"},"type":"Feature"},{"geometry":{"coordinates":[-90.24193431651085,38.55965627560888],"type":"Point"},"id":"stl-city-public-streetlights:2:108146","properties":{"address":null,"attributes":{"Date_Installed":null,"LED_Powered":0,"LightID":"L000890","Light_Source":"Mercury Vapor","Light_Type":"Cobra","Lighting_Type":"100-W Mercury Vapor Lamp","Verification_Date":null},"id":"stl-city-public-streetlights:2:108146","sourceLayerId":2,"sourceObjectId":108146,"sourceURL":"https://maps8.stlouis-mo.gov/arcgis/rest/services/STREETS/Streets_Permitting/MapServer/2","title":"Street light L000890"},"type":"Feature"},{"geometry":{"coordinates":[-90.24184606563387,38.55975833875635],"type":"Point"},"id":"stl-city-public-streetlights:2:108147","properties":{"address":null,"attributes":{"Date_Installed":null,"LED_Powered":0,"LightID":"L000891","Light_Source":"Mercury Vapor","Light_Type":"Cobra","Lighting_Type":"100-W Mercury Vapor Lamp","Verification_Date":null},"id":"stl-city-public-streetlights:2:108147","sourceLayerId":2,"sourceObjectId":108147,"sourceURL":"https://maps8.stlouis-mo.gov/arcgis/rest/services/STREETS/Streets_Permitting/MapServer/2","title":"Street light L000891"},"type":"Feature"},{"geometry":{"coordinates":[-90.24176010227448,38.55985754742004],"type":"Point"},"id":"stl-city-public-streetlights:2:108148","properties":{"address":null,"attributes":{"Date_Installed":null,"LED_Powered":0,"LightID":"L000892","Light_Source":"Mercury Vapor","Light_Type":"Cobra","Lighting_Type":"100-W Mercury Vapor Lamp","Verification_Date":null},"id":"stl-city-public-streetlights:2:108148","sourceLayerId":2,"sourceObjectId":108148,"sourceURL":"https://maps8.stlouis-mo.gov/arcgis/rest/services/STREETS/Streets_Permitting/MapServer/2","title":"Street light L000892"},"type":"Feature"},{"geometry":{"coordinates":[-90.24163777544764,38.55993793972344],"type":"Point"},"id":"stl-city-public-streetlights:2:108149","properties":{"address":null,"attributes":{"Date_Installed":null,"LED_Powered":0,"LightID":"L000893","Light_Source":"Mercury Vapor","Light_Type":"Cobra","Lighting_Type":"100-W Mercury Vapor Lamp","Verification_Date":null},"id":"stl-city-public-streetlights:2:108149","sourceLayerId":2,"sourceObjectId":108149,"sourceURL":"https://maps8.stlouis-mo.gov/arcgis/rest/services/STREETS/Streets_Permitting/MapServer/2","title":"Street light L000893"},"type":"Feature"},{"geometry":{"coordinates":[-90.24995876649241,38.554580855781715],"type":"Point"},"id":"stl-city-public-streetlights:2:108628","properties":{"address":null,"attributes":{"Date_Installed":"6/15/2017","LED_Powered":1,"LightID":"L001372","Light_Source":"LED","Light_Type":"Cobra","Lighting_Type":"LED-Powered Lamp","Verification_Date":null},"id":"stl-city-public-streetlights:2:108628","sourceLayerId":2,"sourceObjectId":108628,"sourceURL":"https://maps8.stlouis-mo.gov/arcgis/rest/services/STREETS/Streets_Permitting/MapServer/2","title":"Street light L001372"},"type":"Feature"},{"geometry":{"coordinates":[-90.24956224227293,38.55492725832802],"type":"Point"},"id":"stl-city-public-streetlights:2:108629","properties":{"address":null,"attributes":{"Date_Installed":"6/15/2017","LED_Powered":1,"LightID":"L001373","Light_Source":"LED","Light_Type":"Cobra","Lighting_Type":"LED-Powered Lamp","Verification_Date":null},"id":"stl-city-public-streetlights:2:108629","sourceLayerId":2,"sourceObjectId":108629,"sourceURL":"https://maps8.stlouis-mo.gov/arcgis/rest/services/STREETS/Streets_Permitting/MapServer/2","title":"Street light L001373"},"type":"Feature"},{"geometry":{"coordinates":[-90.24918608231688,38.55526510852877],"type":"Point"},"id":"stl-city-public-streetlights:2:108630","properties":{"address":null,"attributes":{"Date_Installed":"6/15/2017","LED_Powered":1,"LightID":"L001374","Light_Source":"LED","Light_Type":"Cobra","Lighting_Type":"LED-Powered Lamp","Verification_Date":null},"id":"stl-city-public-streetlights:2:108630","sourceLayerId":2,"sourceObjectId":108630,"sourceURL":"https://maps8.stlouis-mo.gov/arcgis/rest/services/STREETS/Streets_Permitting/MapServer/2","title":"Street light L001374"},"type":"Feature"},{"geometry":{"coordinates":[-90.24880074944089,38.55560033600917],"type":"Point"},"id":"stl-city-public-streetlights:2:108631","properties":{"address":null,"attributes":{"Date_Installed":"6/15/2017","LED_Powered":1,"LightID":"L001375","Light_Source":"LED","Light_Type":"Cobra","Lighting_Type":"LED-Powered Lamp","Verification_Date":null},"id":"stl-city-public-streetlights:2:108631","sourceLayerId":2,"sourceObjectId":108631,"sourceURL":"https://maps8.stlouis-mo.gov/arcgis/rest/services/STREETS/Streets_Permitting/MapServer/2","title":"Street light L001375"},"type":"Feature"},{"geometry":{"coordinates":[-90.2483919714126,38.5559581370684],"type":"Point"},"id":"stl-city-public-streetlights:2:108632","properties":{"address":null,"attributes":{"Date_Installed":"6/15/2017","LED_Powered":1,"LightID":"L001376","Light_Source":"LED","Light_Type":"Cobra","Lighting_Type":"LED-Powered Lamp","Verification_Date":null},"id":"stl-city-public-streetlights:2:108632","sourceLayerId":2,"sourceObjectId":108632,"sourceURL":"https://maps8.stlouis-mo.gov/arcgis/rest/services/STREETS/Streets_Permitting/MapServer/2","title":"Street light L001376"},"type":"Feature"},{"geometry":{"coordinates":[-90.24994714751516,38.554873721537696],"type":"Point"},"id":"stl-city-public-streetlights:2:108641","properties":{"address":null,"attributes":{"Date_Installed":null,"LED_Powered":0,"LightID":"L001385","Light_Source":"LED","Light_Type":"Cobra","Lighting_Type":"LED-Powered Lamp","Verification_Date":null},"id":"stl-city-public-streetlights:2:108641","sourceLayerId":2,"sourceObjectId":108641,"sourceURL":"https://maps8.stlouis-mo.gov/arcgis/rest/services/STREETS/Streets_Permitting/MapServer/2","title":"Street light L001385"},"type":"Feature"},{"geometry":{"coordinates":[-90.24860241264037,38.55665495136676],"type":"Point"},"id":"stl-city-public-streetlights:2:108642","properties":{"address":null,"attributes":{"Date_Installed":null,"LED_Powered":0,"LightID":"L001386","Light_Source":"LED","Light_Type":"Cobra","Lighting_Type":"LED-Powered Lamp","Verification_Date":null},"id":"stl-city-public-streetlights:2:108642","sourceLayerId":2,"sourceObjectId":108642,"sourceURL":"https://maps8.stlouis-mo.gov/arcgis/rest/services/STREETS/Streets_Permitting/MapServer/2","title":"Street light L001386"},"type":"Feature"},{"geometry":{"coordinates":[-90.24821240720797,38.55639375971379],"type":"Point"},"id":"stl-city-public-streetlights:2:108643","properties":{"address":null,"attributes":{"Date_Installed":null,"LED_Powered":0,"LightID":"L001387","Light_Source":"LED","Light_Type":"Cobra","Lighting_Type":"LED-Powered Lamp","Verification_Date":null},"id":"stl-city-public-streetlights:2:108643","sourceLayerId":2,"sourceObjectId":108643,"sourceURL":"https://maps8.stlouis-mo.gov/arcgis/rest/services/STREETS/Streets_Permitting/MapServer/2","title":"Street light L001387"},"type":"Feature"},{"geometry":{"coordinates":[-90.24800550344617,38.55629792791734],"type":"Point"},"id":"stl-city-public-streetlights:2:108644","properties":{"address":null,"attributes":{"Date_Installed":null,"LED_Powered":0,"LightID":"L001388","Light_Source":"LED","Light_Type":"Cobra","Lighting_Type":"LED-Powered Lamp","Verification_Date":null},"id":"stl-city-public-streetlights:2:108644","sourceLayerId":2,"sourceObjectId":108644,"sourceURL":"https://maps8.stlouis-mo.gov/arcgis/rest/services/STREETS/Streets_Permitting/MapServer/2","title":"Street light L001388"},"type":"Feature"},{"geometry":{"coordinates":[-90.24765413843616,38.5565814408122],"type":"Point"},"id":"stl-city-public-streetlights:2:108645","properties":{"address":null,"attributes":{"Date_Installed":"6/15/2017","LED_Powered":1,"LightID":"L001389","Light_Source":"LED","Light_Type":"Cobra","Lighting_Type":"LED-Powered Lamp","Verification_Date":null},"id":"stl-city-public-streetlights:2:108645","sourceLayerId":2,"sourceObjectId":108645,"sourceURL":"https://maps8.stlouis-mo.gov/arcgis/rest/services/STREETS/Streets_Permitting/MapServer/2","title":"Street light L001389"},"type":"Feature"},{"geometry":{"coordinates":[-90.2473511170953,38.556832165944996],"type":"Point"},"id":"stl-city-public-streetlights:2:108646","properties":{"address":null,"attributes":{"Date_Installed":"6/15/2017","LED_Powered":1,"LightID":"L001390","Light_Source":"LED","Light_Type":"Cobra","Lighting_Type":"LED-Powered Lamp","Verification_Date":null},"id":"stl-city-public-streetlights:2:108646","sourceLayerId":2,"sourceObjectId":108646,"sourceURL":"https://maps8.stlouis-mo.gov/arcgis/rest/services/STREETS/Streets_Permitting/MapServer/2","title":"Street light L001390"},"type":"Feature"},{"geometry":{"coordinates":[-90.24699766528795,38.557121014682245],"type":"Point"},"id":"stl-city-public-streetlights:2:108647","properties":{"address":null,"attributes":{"Date_Installed":"6/15/2017","LED_Powered":1,"LightID":"L001391","Light_Source":"LED","Light_Type":"Cobra","Lighting_Type":"LED-Powered Lamp","Verification_Date":null},"id":"stl-city-public-streetlights:2:108647","sourceLayerId":2,"sourceObjectId":108647,"sourceURL":"https://maps8.stlouis-mo.gov/arcgis/rest/services/STREETS/Streets_Permitting/MapServer/2","title":"Street light L001391"},"type":"Feature"},{"geometry":{"coordinates":[-90.24674265208698,38.55733320317126],"type":"Point"},"id":"stl-city-public-streetlights:2:108648","properties":{"address":null,"attributes":{"Date_Installed":"6/15/2017","LED_Powered":1,"LightID":"L001392","Light_Source":"LED","Light_Type":"Cobra","Lighting_Type":"LED-Powered Lamp","Verification_Date":null},"id":"stl-city-public-streetlights:2:108648","sourceLayerId":2,"sourceObjectId":108648,"sourceURL":"https://maps8.stlouis-mo.gov/arcgis/rest/services/STREETS/Streets_Permitting/MapServer/2","title":"Street light L001392"},"type":"Feature"},{"geometry":{"coordinates":[-90.24628014596648,38.557710128249674],"type":"Point"},"id":"stl-city-public-streetlights:2:108649","properties":{"address":null,"attributes":{"Date_Installed":"6/15/2017","LED_Powered":1,"LightID":"L001393","Light_Source":"LED","Light_Type":"Cobra","Lighting_Type":"LED-Powered Lamp","Verification_Date":null},"id":"stl-city-public-streetlights:2:108649","sourceLayerId":2,"sourceObjectId":108649,"sourceURL":"https://maps8.stlouis-mo.gov/arcgis/rest/services/STREETS/Streets_Permitting/MapServer/2","title":"Street light L001393"},"type":"Feature"},{"geometry":{"coordinates":[-90.24592978739874,38.55799719302329],"type":"Point"},"id":"stl-city-public-streetlights:2:108650","properties":{"address":null,"attributes":{"Date_Installed":"6/15/2017","LED_Powered":1,"LightID":"L001394","Light_Source":"LED","Light_Type":"Cobra","Lighting_Type":"LED-Powered Lamp","Verification_Date":null},"id":"stl-city-public-streetlights:2:108650","sourceLayerId":2,"sourceObjectId":108650,"sourceURL":"https://maps8.stlouis-mo.gov/arcgis/rest/services/STREETS/Streets_Permitting/MapServer/2","title":"Street light L001394"},"type":"Feature"},{"geometry":{"coordinates":[-90.24544702253694,38.55838336629191],"type":"Point"},"id":"stl-city-public-streetlights:2:108651","properties":{"address":null,"attributes":{"Date_Installed":"6/15/2017","LED_Powered":1,"LightID":"L001395","Light_Source":"LED","Light_Type":"Cobra","Lighting_Type":"LED-Powered Lamp","Verification_Date":null},"id":"stl-city-public-streetlights:2:108651","sourceLayerId":2,"sourceObjectId":108651,"sourceURL":"https://maps8.stlouis-mo.gov/arcgis/rest/services/STREETS/Streets_Permitting/MapServer/2","title":"Street light L001395"},"type":"Feature"},{"geometry":{"coordinates":[-90.2450424205577,38.55870999873143],"type":"Point"},"id":"stl-city-public-streetlights:2:108652","properties":{"address":null,"attributes":{"Date_Installed":"6/15/2017","LED_Powered":1,"LightID":"L001396","Light_Source":"LED","Light_Type":"Cobra","Lighting_Type":"LED-Powered Lamp","Verification_Date":null},"id":"stl-city-public-streetlights:2:108652","sourceLayerId":2,"sourceObjectId":108652,"sourceURL":"https://maps8.stlouis-mo.gov/arcgis/rest/services/STREETS/Streets_Permitting/MapServer/2","title":"Street light L001396"},"type":"Feature"},{"geometry":{"coordinates":[-90.24463833576365,38.55904378043327],"type":"Point"},"id":"stl-city-public-streetlights:2:108653","properties":{"address":null,"attributes":{"Date_Installed":"6/15/2017","LED_Powered":1,"LightID":"L001397","Light_Source":"LED","Light_Type":"Cobra","Lighting_Type":"LED-Powered Lamp","Verification_Date":null},"id":"stl-city-public-streetlights:2:108653","sourceLayerId":2,"sourceObjectId":108653,"sourceURL":"https://maps8.stlouis-mo.gov/arcgis/rest/services/STREETS/Streets_Permitting/MapServer/2","title":"Street light L001397"},"type":"Feature"},{"geometry":{"coordinates":[-90.24426075967872,38.55934937356306],"type":"Point"},"id":"stl-city-public-streetlights:2:108654","properties":{"address":null,"attributes":{"Date_Installed":"6/15/2017","LED_Powered":1,"LightID":"L001398","Light_Source":"LED","Light_Type":"Cobra","Lighting_Type":"LED-Powered Lamp","Verification_Date":null},"id":"stl-city-public-streetlights:2:108654","sourceLayerId":2,"sourceObjectId":108654,"sourceURL":"https://maps8.stlouis-mo.gov/arcgis/rest/services/STREETS/Streets_Permitting/MapServer/2","title":"Street light L001398"},"type":"Feature"},{"geometry":{"coordinates":[-90.24382298356446,38.55971788062481],"type":"Point"},"id":"stl-city-public-streetlights:2:108655","properties":{"address":null,"attributes":{"Date_Installed":"6/15/2017","LED_Powered":1,"LightID":"L001399","Light_Source":"LED","Light_Type":"Cobra","Lighting_Type":"LED-Powered Lamp","Verification_Date":null},"id":"stl-city-public-streetlights:2:108655","sourceLayerId":2,"sourceObjectId":108655,"sourceURL":"https://maps8.stlouis-mo.gov/arcgis/rest/services/STREETS/Streets_Permitting/MapServer/2","title":"Street light L001399"},"type":"Feature"},{"geometry":{"coordinates":[-90.24777363855311,38.55739015067747],"type":"Point"},"id":"stl-city-public-streetlights:2:108657","properties":{"address":null,"attributes":{"Date_Installed":null,"LED_Powered":0,"LightID":"L001401","Light_Source":"LED","Light_Type":"Cobra","Lighting_Type":"LED-Powered Lamp","Verification_Date":null},"id":"stl-city-public-streetlights:2:108657","sourceLayerId":2,"sourceObjectId":108657,"sourceURL":"https://maps8.stlouis-mo.gov/arcgis/rest/services/STREETS/Streets_Permitting/MapServer/2","title":"Street light L001401"},"type":"Feature"},{"geometry":{"coordinates":[-90.24731253931053,38.55707332441912],"type":"Point"},"id":"stl-city-public-streetlights:2:108658","properties":{"address":null,"attributes":{"Date_Installed":null,"LED_Powered":0,"LightID":"L001402","Light_Source":"LED","Light_Type":"Cobra","Lighting_Type":"LED-Powered Lamp","Verification_Date":null},"id":"stl-city-public-streetlights:2:108658","sourceLayerId":2,"sourceObjectId":108658,"sourceURL":"https://maps8.stlouis-mo.gov/arcgis/rest/services/STREETS/Streets_Permitting/MapServer/2","title":"Street light L001402"},"type":"Feature"},{"geometry":{"coordinates":[-90.24709763837743,38.558059902006484],"type":"Point"},"id":"stl-city-public-streetlights:2:108659","properties":{"address":null,"attributes":{"Date_Installed":null,"LED_Powered":0,"LightID":"L001403","Light_Source":"LED","Light_Type":"Cobra","Lighting_Type":"LED-Powered Lamp","Verification_Date":null},"id":"stl-city-public-streetlights:2:108659","sourceLayerId":2,"sourceObjectId":108659,"sourceURL":"https://maps8.stlouis-mo.gov/arcgis/rest/services/STREETS/Streets_Permitting/MapServer/2","title":"Street light L001403"},"type":"Feature"},{"geometry":{"coordinates":[-90.24678826306997,38.55785400150695],"type":"Point"},"id":"stl-city-public-streetlights:2:108660","properties":{"address":null,"attributes":{"Date_Installed":null,"LED_Powered":0,"LightID":"L001404","Light_Source":"LED","Light_Type":"Cobra","Lighting_Type":"LED-Powered Lamp","Verification_Date":null},"id":"stl-city-public-streetlights:2:108660","sourceLayerId":2,"sourceObjectId":108660,"sourceURL":"https://maps8.stlouis-mo.gov/arcgis/rest/services/STREETS/Streets_Permitting/MapServer/2","title":"Street light L001404"},"type":"Feature"},{"geometry":{"coordinates":[-90.24646891115641,38.55763663712528],"type":"Point"},"id":"stl-city-public-streetlights:2:108661","properties":{"address":null,"attributes":{"Date_Installed":null,"LED_Powered":0,"LightID":"L001405","Light_Source":"LED","Light_Type":"Cobra","Lighting_Type":"LED-Powered Lamp","Verification_Date":null},"id":"stl-city-public-streetlights:2:108661","sourceLayerId":2,"sourceObjectId":108661,"sourceURL":"https://maps8.stlouis-mo.gov/arcgis/rest/services/STREETS/Streets_Permitting/MapServer/2","title":"Street light L001405"},"type":"Feature"},{"geometry":{"coordinates":[-90.24540578935435,38.5593049981442],"type":"Point"},"id":"stl-city-public-streetlights:2:108662","properties":{"address":null,"attributes":{"Date_Installed":"1/11/2018","LED_Powered":1,"LightID":"L001406","Light_Source":"LED","Light_Type":"Cobra","Lighting_Type":"LED-Powered Lamp","Verification_Date":null},"id":"stl-city-public-streetlights:2:108662","sourceLayerId":2,"sourceObjectId":108662,"sourceURL":"https://maps8.stlouis-mo.gov/arcgis/rest/services/STREETS/Streets_Permitting/MapServer/2","title":"Street light L001406"},"type":"Feature"},{"geometry":{"coordinates":[-90.24502984690179,38.55906977435549],"type":"Point"},"id":"stl-city-public-streetlights:2:108663","properties":{"address":null,"attributes":{"Date_Installed":"1/11/2018","LED_Powered":1,"LightID":"L001407","Light_Source":"LED","Light_Type":"Cobra","Lighting_Type":"LED-Powered Lamp","Verification_Date":null},"id":"stl-city-public-streetlights:2:108663","sourceLayerId":2,"sourceObjectId":108663,"sourceURL":"https://maps8.stlouis-mo.gov/arcgis/rest/services/STREETS/Streets_Permitting/MapServer/2","title":"Street light L001407"},"type":"Feature"},{"geometry":{"coordinates":[-90.24427113410036,38.55990896869574],"type":"Point"},"id":"stl-city-public-streetlights:2:108665","properties":{"address":null,"attributes":{"Date_Installed":null,"LED_Powered":0,"LightID":"L001409","Light_Source":"LED","Light_Type":"Cobra","Lighting_Type":"LED-Powered Lamp","Verification_Date":null},"id":"stl-city-public-streetlights:2:108665","sourceLayerId":2,"sourceObjectId":108665,"sourceURL":"https://maps8.stlouis-mo.gov/arcgis/rest/services/STREETS/Streets_Permitting/MapServer/2","title":"Street light L001409"},"type":"Feature"},{"geometry":{"coordinates":[-90.24392830380282,38.55967748309453],"type":"Point"},"id":"stl-city-public-streetlights:2:108666","properties":{"address":null,"attributes":{"Date_Installed":null,"LED_Powered":0,"LightID":"L001410","Light_Source":"LED","Light_Type":"Cobra","Lighting_Type":"LED-Powered Lamp","Verification_Date":null},"id":"stl-city-public-streetlights:2:108666","sourceLayerId":2,"sourceObjectId":108666,"sourceURL":"https://maps8.stlouis-mo.gov/arcgis/rest/services/STREETS/Streets_Permitting/MapServer/2","title":"Street light L001410"},"type":"Feature"},{"geometry":{"coordinates":[-90.24962545559615,38.55464435613828],"type":"Point"},"id":"stl-city-public-streetlights:2:108674","properties":{"address":null,"attributes":{"Date_Installed":"6/15/2017","LED_Powered":1,"LightID":"L001418","Light_Source":"LED","Light_Type":"Cobra","Lighting_Type":"LED-Powered Lamp","Verification_Date":null},"id":"stl-city-public-streetlights:2:108674","sourceLayerId":2,"sourceObjectId":108674,"sourceURL":"https://maps8.stlouis-mo.gov/arcgis/rest/services/STREETS/Streets_Permitting/MapServer/2","title":"Street light L001418"},"type":"Feature"},{"geometry":{"coordinates":[-90.24928135848948,38.55495456527683],"type":"Point"},"id":"stl-city-public-streetlights:2:108675","properties":{"address":null,"attributes":{"Date_Installed":"6/15/2017","LED_Powered":1,"LightID":"L001419","Light_Source":"LED","Light_Type":"Cobra","Lighting_Type":"LED-Powered Lamp","Verification_Date":null},"id":"stl-city-public-streetlights:2:108675","sourceLayerId":2,"sourceObjectId":108675,"sourceURL":"https://maps8.stlouis-mo.gov/arcgis/rest/services/STREETS/Streets_Permitting/MapServer/2","title":"Street light L001419"},"type":"Feature"},{"geometry":{"coordinates":[-90.24852318485608,38.55561857166421],"type":"Point"},"id":"stl-city-public-streetlights:2:108676","properties":{"address":null,"attributes":{"Date_Installed":"6/15/2017","LED_Powered":1,"LightID":"L001420","Light_Source":"LED","Light_Type":"Cobra","Lighting_Type":"LED-Powered Lamp","Verification_Date":null},"id":"stl-city-public-streetlights:2:108676","sourceLayerId":2,"sourceObjectId":108676,"sourceURL":"https://maps8.stlouis-mo.gov/arcgis/rest/services/STREETS/Streets_Permitting/MapServer/2","title":"Street light L001420"},"type":"Feature"},{"geometry":{"coordinates":[-90.24805521438755,38.5560189705645],"type":"Point"},"id":"stl-city-public-streetlights:2:108677","properties":{"address":null,"attributes":{"Date_Installed":"6/15/2017","LED_Powered":1,"LightID":"L001421","Light_Source":"LED","Light_Type":"Cobra","Lighting_Type":"LED-Powered Lamp","Verification_Date":null},"id":"stl-city-public-streetlights:2:108677","sourceLayerId":2,"sourceObjectId":108677,"sourceURL":"https://maps8.stlouis-mo.gov/arcgis/rest/services/STREETS/Streets_Permitting/MapServer/2","title":"Street light L001421"},"type":"Feature"},{"geometry":{"coordinates":[-90.2476642874471,38.55634850112167],"type":"Point"},"id":"stl-city-public-streetlights:2:108678","properties":{"address":null,"attributes":{"Date_Installed":"6/15/2017","LED_Powered":1,"LightID":"L001422","Light_Source":"LED","Light_Type":"Cobra","Lighting_Type":"LED-Powered Lamp","Verification_Date":null},"id":"stl-city-public-streetlights:2:108678","sourceLayerId":2,"sourceObjectId":108678,"sourceURL":"https://maps8.stlouis-mo.gov/arcgis/rest/services/STREETS/Streets_Permitting/MapServer/2","title":"Street light L001422"},"type":"Feature"},{"geometry":{"coordinates":[-90.24723502264374,38.5567024989634],"type":"Point"},"id":"stl-city-public-streetlights:2:108679","properties":{"address":null,"attributes":{"Date_Installed":"6/15/2017","LED_Powered":1,"LightID":"L001423","Light_Source":"LED","Light_Type":"Cobra","Lighting_Type":"LED-Powered Lamp","Verification_Date":null},"id":"stl-city-public-streetlights:2:108679","sourceLayerId":2,"sourceObjectId":108679,"sourceURL":"https://maps8.stlouis-mo.gov/arcgis/rest/services/STREETS/Streets_Permitting/MapServer/2","title":"Street light L001423"},"type":"Feature"},{"geometry":{"coordinates":[-90.24681973826024,38.55705493714998],"type":"Point"},"id":"stl-city-public-streetlights:2:108680","properties":{"address":null,"attributes":{"Date_Installed":"6/15/2017","LED_Powered":1,"LightID":"L001424","Light_Source":"LED","Light_Type":"Cobra","Lighting_Type":"LED-Powered Lamp","Verification_Date":null},"id":"stl-city-public-streetlights:2:108680","sourceLayerId":2,"sourceObjectId":108680,"sourceURL":"https://maps8.stlouis-mo.gov/arcgis/rest/services/STREETS/Streets_Permitting/MapServer/2","title":"Street light L001424"},"type":"Feature"},{"geometry":{"coordinates":[-90.2464020102914,38.55738883879302],"type":"Point"},"id":"stl-city-public-streetlights:2:108681","properties":{"address":null,"attributes":{"Date_Installed":"6/15/2017","LED_Powered":1,"LightID":"L001425","Light_Source":"LED","Light_Type":"Cobra","Lighting_Type":"LED-Powered Lamp","Verification_Date":null},"id":"stl-city-public-streetlights:2:108681","sourceLayerId":2,"sourceObjectId":108681,"sourceURL":"https://maps8.stlouis-mo.gov/arcgis/rest/services/STREETS/Streets_Permitting/MapServer/2","title":"Street light L001425"},"type":"Feature"},{"geometry":{"coordinates":[-90.24596724902923,38.557748302889415],"type":"Point"},"id":"stl-city-public-streetlights:2:108682","properties":{"address":null,"attributes":{"Date_Installed":"6/15/2017","LED_Powered":1,"LightID":"L001426","Light_Source":"LED","Light_Type":"Cobra","Lighting_Type":"LED-Powered Lamp","Verification_Date":null},"id":"stl-city-public-streetlights:2:108682","sourceLayerId":2,"sourceObjectId":108682,"sourceURL":"https://maps8.stlouis-mo.gov/arcgis/rest/services/STREETS/Streets_Permitting/MapServer/2","title":"Street light L001426"},"type":"Feature"},{"geometry":{"coordinates":[-90.24553908337613,38.55809562291134],"type":"Point"},"id":"stl-city-public-streetlights:2:108683","properties":{"address":null,"attributes":{"Date_Installed":"6/15/2017","LED_Powered":1,"LightID":"L001427","Light_Source":"LED","Light_Type":"Cobra","Lighting_Type":"LED-Powered Lamp","Verification_Date":null},"id":"stl-city-public-streetlights:2:108683","sourceLayerId":2,"sourceObjectId":108683,"sourceURL":"https://maps8.stlouis-mo.gov/arcgis/rest/services/STREETS/Streets_Permitting/MapServer/2","title":"Street light L001427"},"type":"Feature"},{"geometry":{"coordinates":[-90.2451226287688,38.55842651997703],"type":"Point"},"id":"stl-city-public-streetlights:2:108684","properties":{"address":null,"attributes":{"Date_Installed":"6/15/2017","LED_Powered":1,"LightID":"L001428","Light_Source":"LED","Light_Type":"Cobra","Lighting_Type":"LED-Powered Lamp","Verification_Date":null},"id":"stl-city-public-streetlights:2:108684","sourceLayerId":2,"sourceObjectId":108684,"sourceURL":"https://maps8.stlouis-mo.gov/arcgis/rest/services/STREETS/Streets_Permitting/MapServer/2","title":"Street light L001428"},"type":"Feature"},{"geometry":{"coordinates":[-90.24473461105764,38.55875032619033],"type":"Point"},"id":"stl-city-public-streetlights:2:108685","properties":{"address":null,"attributes":{"Date_Installed":"6/15/2017","LED_Powered":1,"LightID":"L001429","Light_Source":"LED","Light_Type":"Cobra","Lighting_Type":"LED-Powered Lamp","Verification_Date":null},"id":"stl-city-public-streetlights:2:108685","sourceLayerId":2,"sourceObjectId":108685,"sourceURL":"https://maps8.stlouis-mo.gov/arcgis/rest/services/STREETS/Streets_Permitting/MapServer/2","title":"Street light L001429"},"type":"Feature"},{"geometry":{"coordinates":[-90.24433459314288,38.559066954432],"type":"Point"},"id":"stl-city-public-streetlights:2:108686","properties":{"address":null,"attributes":{"Date_Installed":"6/15/2017","LED_Powered":1,"LightID":"L001430","Light_Source":"LED","Light_Type":"Cobra","Lighting_Type":"LED-Powered Lamp","Verification_Date":null},"id":"stl-city-public-streetlights:2:108686","sourceLayerId":2,"sourceObjectId":108686,"sourceURL":"https://maps8.stlouis-mo.gov/arcgis/rest/services/STREETS/Streets_Permitting/MapServer/2","title":"Street light L001430"},"type":"Feature"},{"geometry":{"coordinates":[-90.24392868613624,38.55939929994681],"type":"Point"},"id":"stl-city-public-streetlights:2:108687","properties":{"address":null,"attributes":{"Date_Installed":"6/15/2017","LED_Powered":1,"LightID":"L001431","Light_Source":"LED","Light_Type":"Cobra","Lighting_Type":"LED-Powered Lamp","Verification_Date":null},"id":"stl-city-public-streetlights:2:108687","sourceLayerId":2,"sourceObjectId":108687,"sourceURL":"https://maps8.stlouis-mo.gov/arcgis/rest/services/STREETS/Streets_Permitting/MapServer/2","title":"Street light L001431"},"type":"Feature"},{"geometry":{"coordinates":[-90.2434954012651,38.55976648857405],"type":"Point"},"id":"stl-city-public-streetlights:2:108688","properties":{"address":null,"attributes":{"Date_Installed":"6/15/2017","LED_Powered":1,"LightID":"L001432","Light_Source":"LED","Light_Type":"Cobra","Lighting_Type":"LED-Powered Lamp","Verification_Date":null},"id":"stl-city-public-streetlights:2:108688","sourceLayerId":2,"sourceObjectId":108688,"sourceURL":"https://maps8.stlouis-mo.gov/arcgis/rest/services/STREETS/Streets_Permitting/MapServer/2","title":"Street light L001432"},"type":"Feature"},{"geometry":{"coordinates":[-90.24361997883524,38.559478509917454],"type":"Point"},"id":"stl-city-public-streetlights:2:108692","properties":{"address":null,"attributes":{"Date_Installed":null,"LED_Powered":0,"LightID":"L001436","Light_Source":"LED","Light_Type":"Cobra","Lighting_Type":"LED-Powered Lamp","Verification_Date":null},"id":"stl-city-public-streetlights:2:108692","sourceLayerId":2,"sourceObjectId":108692,"sourceURL":"https://maps8.stlouis-mo.gov/arcgis/rest/services/STREETS/Streets_Permitting/MapServer/2","title":"Street light L001436"},"type":"Feature"},{"geometry":{"coordinates":[-90.24329219035926,38.559268574317926],"type":"Point"},"id":"stl-city-public-streetlights:2:108693","properties":{"address":null,"attributes":{"Date_Installed":null,"LED_Powered":0,"LightID":"L001437","Light_Source":"LED","Light_Type":"Cobra","Lighting_Type":"LED-Powered Lamp","Verification_Date":null},"id":"stl-city-public-streetlights:2:108693","sourceLayerId":2,"sourceObjectId":108693,"sourceURL":"https://maps8.stlouis-mo.gov/arcgis/rest/services/STREETS/Streets_Permitting/MapServer/2","title":"Street light L001437"},"type":"Feature"},{"geometry":{"coordinates":[-90.24446708935854,38.55867897582416],"type":"Point"},"id":"stl-city-public-streetlights:2:108694","properties":{"address":null,"attributes":{"Date_Installed":"1/11/2018","LED_Powered":1,"LightID":"L001438","Light_Source":"LED","Light_Type":"Cobra","Lighting_Type":"LED-Powered Lamp","Verification_Date":null},"id":"stl-city-public-streetlights:2:108694","sourceLayerId":2,"sourceObjectId":108694,"sourceURL":"https://maps8.stlouis-mo.gov/arcgis/rest/services/STREETS/Streets_Permitting/MapServer/2","title":"Street light L001438"},"type":"Feature"},{"geometry":{"coordinates":[-90.24686567909619,38.55676499830368],"type":"Point"},"id":"stl-city-public-streetlights:2:108695","properties":{"address":null,"attributes":{"Date_Installed":null,"LED_Powered":0,"LightID":"L001439","Light_Source":"LED","Light_Type":"Cobra","Lighting_Type":"LED-Powered Lamp","Verification_Date":null},"id":"stl-city-public-streetlights:2:108695","sourceLayerId":2,"sourceObjectId":108695,"sourceURL":"https://maps8.stlouis-mo.gov/arcgis/rest/services/STREETS/Streets_Permitting/MapServer/2","title":"Street light L001439"},"type":"Feature"},{"geometry":{"coordinates":[-90.24946573256499,38.554551295363694],"type":"Point"},"id":"stl-city-public-streetlights:2:108696","properties":{"address":null,"attributes":{"Date_Installed":null,"LED_Powered":0,"LightID":"L001440","Light_Source":"LED","Light_Type":"Cobra","Lighting_Type":"LED-Powered Lamp","Verification_Date":null},"id":"stl-city-public-streetlights:2:108696","sourceLayerId":2,"sourceObjectId":108696,"sourceURL":"https://maps8.stlouis-mo.gov/arcgis/rest/services/STREETS/Streets_Permitting/MapServer/2","title":"Street light L001440"},"type":"Feature"},{"geometry":{"coordinates":[-90.24714939163376,38.5583859033134],"type":"Point"},"id":"stl-city-public-streetlights:2:108700","properties":{"address":null,"attributes":{"Date_Installed":null,"LED_Powered":0,"LightID":"L001444","Light_Source":"LED","Light_Type":"Cobra","Lighting_Type":"LED-Powered Lamp","Verification_Date":null},"id":"stl-city-public-streetlights:2:108700","sourceLayerId":2,"sourceObjectId":108700,"sourceURL":"https://maps8.stlouis-mo.gov/arcgis/rest/services/STREETS/Streets_Permitting/MapServer/2","title":"Street light L001444"},"type":"Feature"},{"geometry":{"coordinates":[-90.24995568843127,38.559080161307065],"type":"Point"},"id":"stl-city-public-streetlights:2:111015","properties":{"address":null,"attributes":{"Date_Installed":null,"LED_Powered":0,"LightID":"L003759","Light_Source":"LED","Light_Type":"Cobra","Lighting_Type":"LED-Powered Lamp","Verification_Date":null},"id":"stl-city-public-streetlights:2:111015","sourceLayerId":2,"sourceObjectId":111015,"sourceURL":"https://maps8.stlouis-mo.gov/arcgis/rest/services/STREETS/Streets_Permitting/MapServer/2","title":"Street light L003759"},"type":"Feature"},{"geometry":{"coordinates":[-90.24985286706367,38.55982494857497],"type":"Point"},"id":"stl-city-public-streetlights:2:111017","properties":{"address":null,"attributes":{"Date_Installed":null,"LED_Powered":0,"LightID":"L003761","Light_Source":"LED","Light_Type":"Cobra","Lighting_Type":"LED-Powered Lamp","Verification_Date":null},"id":"stl-city-public-streetlights:2:111017","sourceLayerId":2,"sourceObjectId":111017,"sourceURL":"https://maps8.stlouis-mo.gov/arcgis/rest/services/STREETS/Streets_Permitting/MapServer/2","title":"Street light L003761"},"type":"Feature"},{"geometry":{"coordinates":[-90.24946136233599,38.55961792650601],"type":"Point"},"id":"stl-city-public-streetlights:2:111018","properties":{"address":null,"attributes":{"Date_Installed":null,"LED_Powered":0,"LightID":"L003762","Light_Source":"LED","Light_Type":"Cobra","Lighting_Type":"LED-Powered Lamp","Verification_Date":null},"id":"stl-city-public-streetlights:2:111018","sourceLayerId":2,"sourceObjectId":111018,"sourceURL":"https://maps8.stlouis-mo.gov/arcgis/rest/services/STREETS/Streets_Permitting/MapServer/2","title":"Street light L003762"},"type":"Feature"},{"geometry":{"coordinates":[-90.24907966048224,38.55938589528538],"type":"Point"},"id":"stl-city-public-streetlights:2:111019","properties":{"address":null,"attributes":{"Date_Installed":null,"LED_Powered":0,"LightID":"L003763","Light_Source":"LED","Light_Type":"Cobra","Lighting_Type":"LED-Powered Lamp","Verification_Date":null},"id":"stl-city-public-streetlights:2:111019","sourceLayerId":2,"sourceObjectId":111019,"sourceURL":"https://maps8.stlouis-mo.gov/arcgis/rest/services/STREETS/Streets_Permitting/MapServer/2","title":"Street light L003763"},"type":"Feature"},{"geometry":{"coordinates":[-90.24875802141324,38.5591676989518],"type":"Point"},"id":"stl-city-public-streetlights:2:111020","properties":{"address":null,"attributes":{"Date_Installed":null,"LED_Powered":0,"LightID":"L003764","Light_Source":"LED","Light_Type":"Cobra","Lighting_Type":"LED-Powered Lamp","Verification_Date":null},"id":"stl-city-public-streetlights:2:111020","sourceLayerId":2,"sourceObjectId":111020,"sourceURL":"https://maps8.stlouis-mo.gov/arcgis/rest/services/STREETS/Streets_Permitting/MapServer/2","title":"Street light L003764"},"type":"Feature"},{"geometry":{"coordinates":[-90.24842663599915,38.55894496546525],"type":"Point"},"id":"stl-city-public-streetlights:2:111021","properties":{"address":null,"attributes":{"Date_Installed":null,"LED_Powered":0,"LightID":"L003765","Light_Source":"LED","Light_Type":"Cobra","Lighting_Type":"LED-Powered Lamp","Verification_Date":null},"id":"stl-city-public-streetlights:2:111021","sourceLayerId":2,"sourceObjectId":111021,"sourceURL":"https://maps8.stlouis-mo.gov/arcgis/rest/services/STREETS/Streets_Permitting/MapServer/2","title":"Street light L003765"},"type":"Feature"},{"geometry":{"coordinates":[-90.24809745176715,38.558729238480375],"type":"Point"},"id":"stl-city-public-streetlights:2:111022","properties":{"address":null,"attributes":{"Date_Installed":null,"LED_Powered":0,"LightID":"L003766","Light_Source":"LED","Light_Type":"Cobra","Lighting_Type":"LED-Powered Lamp","Verification_Date":null},"id":"stl-city-public-streetlights:2:111022","sourceLayerId":2,"sourceObjectId":111022,"sourceURL":"https://maps8.stlouis-mo.gov/arcgis/rest/services/STREETS/Streets_Permitting/MapServer/2","title":"Street light L003766"},"type":"Feature"},{"geometry":{"coordinates":[-90.24777035449273,38.55851114568922],"type":"Point"},"id":"stl-city-public-streetlights:2:111023","properties":{"address":null,"attributes":{"Date_Installed":null,"LED_Powered":0,"LightID":"L003767","Light_Source":"LED","Light_Type":"Cobra","Lighting_Type":"LED-Powered Lamp","Verification_Date":null},"id":"stl-city-public-streetlights:2:111023","sourceLayerId":2,"sourceObjectId":111023,"sourceURL":"https://maps8.stlouis-mo.gov/arcgis/rest/services/STREETS/Streets_Permitting/MapServer/2","title":"Street light L003767"},"type":"Feature"},{"geometry":{"coordinates":[-90.24742109739586,38.55827584289129],"type":"Point"},"id":"stl-city-public-streetlights:2:111024","properties":{"address":null,"attributes":{"Date_Installed":null,"LED_Powered":0,"LightID":"L003768","Light_Source":"LED","Light_Type":"Cobra","Lighting_Type":"LED-Powered Lamp","Verification_Date":null},"id":"stl-city-public-streetlights:2:111024","sourceLayerId":2,"sourceObjectId":111024,"sourceURL":"https://maps8.stlouis-mo.gov/arcgis/rest/services/STREETS/Streets_Permitting/MapServer/2","title":"Street light L003768"},"type":"Feature"},{"geometry":{"coordinates":[-90.24744055035369,38.55815531807225],"type":"Point"},"id":"stl-city-public-streetlights:2:111025","properties":{"address":null,"attributes":{"Date_Installed":null,"LED_Powered":0,"LightID":"L003769","Light_Source":"LED","Light_Type":"Cobra","Lighting_Type":"LED-Powered Lamp","Verification_Date":null},"id":"stl-city-public-streetlights:2:111025","sourceLayerId":2,"sourceObjectId":111025,"sourceURL":"https://maps8.stlouis-mo.gov/arcgis/rest/services/STREETS/Streets_Permitting/MapServer/2","title":"Street light L003769"},"type":"Feature"},{"geometry":{"coordinates":[-90.24773039802642,38.55791293105962],"type":"Point"},"id":"stl-city-public-streetlights:2:111026","properties":{"address":null,"attributes":{"Date_Installed":null,"LED_Powered":0,"LightID":"L003770","Light_Source":"LED","Light_Type":"Cobra","Lighting_Type":"LED-Powered Lamp","Verification_Date":null},"id":"stl-city-public-streetlights:2:111026","sourceLayerId":2,"sourceObjectId":111026,"sourceURL":"https://maps8.stlouis-mo.gov/arcgis/rest/services/STREETS/Streets_Permitting/MapServer/2","title":"Street light L003770"},"type":"Feature"},{"geometry":{"coordinates":[-90.24803233813084,38.55766687474552],"type":"Point"},"id":"stl-city-public-streetlights:2:111027","properties":{"address":null,"attributes":{"Date_Installed":null,"LED_Powered":0,"LightID":"L003771","Light_Source":"LED","Light_Type":"Cobra","Lighting_Type":"LED-Powered Lamp","Verification_Date":null},"id":"stl-city-public-streetlights:2:111027","sourceLayerId":2,"sourceObjectId":111027,"sourceURL":"https://maps8.stlouis-mo.gov/arcgis/rest/services/STREETS/Streets_Permitting/MapServer/2","title":"Street light L003771"},"type":"Feature"},{"geometry":{"coordinates":[-90.24832361138225,38.55742812354569],"type":"Point"},"id":"stl-city-public-streetlights:2:111028","properties":{"address":null,"attributes":{"Date_Installed":null,"LED_Powered":0,"LightID":"L003772","Light_Source":"LED","Light_Type":"Cobra","Lighting_Type":"LED-Powered Lamp","Verification_Date":null},"id":"stl-city-public-streetlights:2:111028","sourceLayerId":2,"sourceObjectId":111028,"sourceURL":"https://maps8.stlouis-mo.gov/arcgis/rest/services/STREETS/Streets_Permitting/MapServer/2","title":"Street light L003772"},"type":"Feature"},{"geometry":{"coordinates":[-90.24861847204816,38.557193521659606],"type":"Point"},"id":"stl-city-public-streetlights:2:111029","properties":{"address":null,"attributes":{"Date_Installed":null,"LED_Powered":0,"LightID":"L003773","Light_Source":"LED","Light_Type":"Cobra","Lighting_Type":"LED-Powered Lamp","Verification_Date":null},"id":"stl-city-public-streetlights:2:111029","sourceLayerId":2,"sourceObjectId":111029,"sourceURL":"https://maps8.stlouis-mo.gov/arcgis/rest/services/STREETS/Streets_Permitting/MapServer/2","title":"Street light L003773"},"type":"Feature"},{"geometry":{"coordinates":[-90.24890466333434,38.5569527914082],"type":"Point"},"id":"stl-city-public-streetlights:2:111030","properties":{"address":null,"attributes":{"Date_Installed":null,"LED_Powered":0,"LightID":"L003774","Light_Source":"LED","Light_Type":"Cobra","Lighting_Type":"LED-Powered Lamp","Verification_Date":null},"id":"stl-city-public-streetlights:2:111030","sourceLayerId":2,"sourceObjectId":111030,"sourceURL":"https://maps8.stlouis-mo.gov/arcgis/rest/services/STREETS/Streets_Permitting/MapServer/2","title":"Street light L003774"},"type":"Feature"},{"geometry":{"coordinates":[-90.24915608913805,38.55671353731138],"type":"Point"},"id":"stl-city-public-streetlights:2:111031","properties":{"address":null,"attributes":{"Date_Installed":null,"LED_Powered":0,"LightID":"L003775","Light_Source":"LED","Light_Type":"Cobra","Lighting_Type":"LED-Powered Lamp","Verification_Date":null},"id":"stl-city-public-streetlights:2:111031","sourceLayerId":2,"sourceObjectId":111031,"sourceURL":"https://maps8.stlouis-mo.gov/arcgis/rest/services/STREETS/Streets_Permitting/MapServer/2","title":"Street light L003775"},"type":"Feature"},{"geometry":{"coordinates":[-90.24942698470993,38.55646168918499],"type":"Point"},"id":"stl-city-public-streetlights:2:111032","properties":{"address":null,"attributes":{"Date_Installed":null,"LED_Powered":0,"LightID":"L003776","Light_Source":"LED","Light_Type":"Cobra","Lighting_Type":"LED-Powered Lamp","Verification_Date":null},"id":"stl-city-public-streetlights:2:111032","sourceLayerId":2,"sourceObjectId":111032,"sourceURL":"https://maps8.stlouis-mo.gov/arcgis/rest/services/STREETS/Streets_Permitting/MapServer/2","title":"Street light L003776"},"type":"Feature"},{"geometry":{"coordinates":[-90.24969974578647,38.556218902978245],"type":"Point"},"id":"stl-city-public-streetlights:2:111033","properties":{"address":null,"attributes":{"Date_Installed":null,"LED_Powered":0,"LightID":"L003777","Light_Source":"LED","Light_Type":"Cobra","Lighting_Type":"LED-Powered Lamp","Verification_Date":null},"id":"stl-city-public-streetlights:2:111033","sourceLayerId":2,"sourceObjectId":111033,"sourceURL":"https://maps8.stlouis-mo.gov/arcgis/rest/services/STREETS/Streets_Permitting/MapServer/2","title":"Street light L003777"},"type":"Feature"},{"geometry":{"coordinates":[-90.24997926769507,38.5559730314591],"type":"Point"},"id":"stl-city-public-streetlights:2:111034","properties":{"address":null,"attributes":{"Date_Installed":null,"LED_Powered":0,"LightID":"L003778","Light_Source":"LED","Light_Type":"Cobra","Lighting_Type":"LED-Powered Lamp","Verification_Date":null},"id":"stl-city-public-streetlights:2:111034","sourceLayerId":2,"sourceObjectId":111034,"sourceURL":"https://maps8.stlouis-mo.gov/arcgis/rest/services/STREETS/Streets_Permitting/MapServer/2","title":"Street light L003778"},"type":"Feature"},{"geometry":{"coordinates":[-90.24902387937661,38.556970019141616],"type":"Point"},"id":"stl-city-public-streetlights:2:111037","properties":{"address":null,"attributes":{"Date_Installed":null,"LED_Powered":0,"LightID":"L003781","Light_Source":"LED","Light_Type":"Cobra","Lighting_Type":"LED-Powered Lamp","Verification_Date":null},"id":"stl-city-public-streetlights:2:111037","sourceLayerId":2,"sourceObjectId":111037,"sourceURL":"https://maps8.stlouis-mo.gov/arcgis/rest/services/STREETS/Streets_Permitting/MapServer/2","title":"Street light L003781"},"type":"Feature"},{"geometry":{"coordinates":[-90.24939639458839,38.55722110035128],"type":"Point"},"id":"stl-city-public-streetlights:2:111038","properties":{"address":null,"attributes":{"Date_Installed":null,"LED_Powered":0,"LightID":"L003782","Light_Source":"LED","Light_Type":"Cobra","Lighting_Type":"LED-Powered Lamp","Verification_Date":null},"id":"stl-city-public-streetlights:2:111038","sourceLayerId":2,"sourceObjectId":111038,"sourceURL":"https://maps8.stlouis-mo.gov/arcgis/rest/services/STREETS/Streets_Permitting/MapServer/2","title":"Street light L003782"},"type":"Feature"},{"geometry":{"coordinates":[-90.24976164242358,38.557467991856036],"type":"Point"},"id":"stl-city-public-streetlights:2:111039","properties":{"address":null,"attributes":{"Date_Installed":null,"LED_Powered":0,"LightID":"L003783","Light_Source":"LED","Light_Type":"Cobra","Lighting_Type":"LED-Powered Lamp","Verification_Date":null},"id":"stl-city-public-streetlights:2:111039","sourceLayerId":2,"sourceObjectId":111039,"sourceURL":"https://maps8.stlouis-mo.gov/arcgis/rest/services/STREETS/Streets_Permitting/MapServer/2","title":"Street light L003783"},"type":"Feature"},{"geometry":{"coordinates":[-90.24813558619255,38.55763186895522],"type":"Point"},"id":"stl-city-public-streetlights:2:111040","properties":{"address":null,"attributes":{"Date_Installed":null,"LED_Powered":0,"LightID":"L003784","Light_Source":"LED","Light_Type":"Cobra","Lighting_Type":"LED-Powered Lamp","Verification_Date":null},"id":"stl-city-public-streetlights:2:111040","sourceLayerId":2,"sourceObjectId":111040,"sourceURL":"https://maps8.stlouis-mo.gov/arcgis/rest/services/STREETS/Streets_Permitting/MapServer/2","title":"Street light L003784"},"type":"Feature"},{"geometry":{"coordinates":[-90.24845453882631,38.557834209904385],"type":"Point"},"id":"stl-city-public-streetlights:2:111041","properties":{"address":null,"attributes":{"Date_Installed":null,"LED_Powered":0,"LightID":"L003785","Light_Source":"LED","Light_Type":"Cobra","Lighting_Type":"LED-Powered Lamp","Verification_Date":null},"id":"stl-city-public-streetlights:2:111041","sourceLayerId":2,"sourceObjectId":111041,"sourceURL":"https://maps8.stlouis-mo.gov/arcgis/rest/services/STREETS/Streets_Permitting/MapServer/2","title":"Street light L003785"},"type":"Feature"},{"geometry":{"coordinates":[-90.24878247467169,38.5580556872956],"type":"Point"},"id":"stl-city-public-streetlights:2:111042","properties":{"address":null,"attributes":{"Date_Installed":null,"LED_Powered":0,"LightID":"L003786","Light_Source":"LED","Light_Type":"Cobra","Lighting_Type":"LED-Powered Lamp","Verification_Date":null},"id":"stl-city-public-streetlights:2:111042","sourceLayerId":2,"sourceObjectId":111042,"sourceURL":"https://maps8.stlouis-mo.gov/arcgis/rest/services/STREETS/Streets_Permitting/MapServer/2","title":"Street light L003786"},"type":"Feature"},{"geometry":{"coordinates":[-90.24841015415785,38.55875732086434],"type":"Point"},"id":"stl-city-public-streetlights:2:111043","properties":{"address":null,"attributes":{"Date_Installed":null,"LED_Powered":0,"LightID":"L003787","Light_Source":"LED","Light_Type":"Cobra","Lighting_Type":"LED-Powered Lamp","Verification_Date":null},"id":"stl-city-public-streetlights:2:111043","sourceLayerId":2,"sourceObjectId":111043,"sourceURL":"https://maps8.stlouis-mo.gov/arcgis/rest/services/STREETS/Streets_Permitting/MapServer/2","title":"Street light L003787"},"type":"Feature"},{"geometry":{"coordinates":[-90.24868535120557,38.55853742527178],"type":"Point"},"id":"stl-city-public-streetlights:2:111044","properties":{"address":null,"attributes":{"Date_Installed":null,"LED_Powered":0,"LightID":"L003788","Light_Source":"LED","Light_Type":"Cobra","Lighting_Type":"LED-Powered Lamp","Verification_Date":null},"id":"stl-city-public-streetlights:2:111044","sourceLayerId":2,"sourceObjectId":111044,"sourceURL":"https://maps8.stlouis-mo.gov/arcgis/rest/services/STREETS/Streets_Permitting/MapServer/2","title":"Street light L003788"},"type":"Feature"},{"geometry":{"coordinates":[-90.24896389449937,38.55830633258257],"type":"Point"},"id":"stl-city-public-streetlights:2:111045","properties":{"address":null,"attributes":{"Date_Installed":null,"LED_Powered":0,"LightID":"L003789","Light_Source":"LED","Light_Type":"Cobra","Lighting_Type":"LED-Powered Lamp","Verification_Date":null},"id":"stl-city-public-streetlights:2:111045","sourceLayerId":2,"sourceObjectId":111045,"sourceURL":"https://maps8.stlouis-mo.gov/arcgis/rest/services/STREETS/Streets_Permitting/MapServer/2","title":"Street light L003789"},"type":"Feature"},{"geometry":{"coordinates":[-90.24924239554178,38.55807929138532],"type":"Point"},"id":"stl-city-public-streetlights:2:111046","properties":{"address":null,"attributes":{"Date_Installed":null,"LED_Powered":0,"LightID":"L003790","Light_Source":"LED","Light_Type":"Cobra","Lighting_Type":"LED-Powered Lamp","Verification_Date":null},"id":"stl-city-public-streetlights:2:111046","sourceLayerId":2,"sourceObjectId":111046,"sourceURL":"https://maps8.stlouis-mo.gov/arcgis/rest/services/STREETS/Streets_Permitting/MapServer/2","title":"Street light L003790"},"type":"Feature"},{"geometry":{"coordinates":[-90.24950390455218,38.55786556272133],"type":"Point"},"id":"stl-city-public-streetlights:2:111047","properties":{"address":null,"attributes":{"Date_Installed":null,"LED_Powered":0,"LightID":"L003791","Light_Source":"LED","Light_Type":"Cobra","Lighting_Type":"LED-Powered Lamp","Verification_Date":null},"id":"stl-city-public-streetlights:2:111047","sourceLayerId":2,"sourceObjectId":111047,"sourceURL":"https://maps8.stlouis-mo.gov/arcgis/rest/services/STREETS/Streets_Permitting/MapServer/2","title":"Street light L003791"},"type":"Feature"},{"geometry":{"coordinates":[-90.24979531058199,38.55762672526393],"type":"Point"},"id":"stl-city-public-streetlights:2:111048","properties":{"address":null,"attributes":{"Date_Installed":null,"LED_Powered":0,"LightID":"L003792","Light_Source":"LED","Light_Type":"Cobra","Lighting_Type":"LED-Powered Lamp","Verification_Date":null},"id":"stl-city-public-streetlights:2:111048","sourceLayerId":2,"sourceObjectId":111048,"sourceURL":"https://maps8.stlouis-mo.gov/arcgis/rest/services/STREETS/Streets_Permitting/MapServer/2","title":"Street light L003792"},"type":"Feature"},{"geometry":{"coordinates":[-90.2491030039362,38.55827719473581],"type":"Point"},"id":"stl-city-public-streetlights:2:111049","properties":{"address":null,"attributes":{"Date_Installed":null,"LED_Powered":0,"LightID":"L003793","Light_Source":"LED","Light_Type":"Cobra","Lighting_Type":"LED-Powered Lamp","Verification_Date":null},"id":"stl-city-public-streetlights:2:111049","sourceLayerId":2,"sourceObjectId":111049,"sourceURL":"https://maps8.stlouis-mo.gov/arcgis/rest/services/STREETS/Streets_Permitting/MapServer/2","title":"Street light L003793"},"type":"Feature"},{"geometry":{"coordinates":[-90.24944182574227,38.55849459359424],"type":"Point"},"id":"stl-city-public-streetlights:2:111050","properties":{"address":null,"attributes":{"Date_Installed":null,"LED_Powered":0,"LightID":"L003794","Light_Source":"LED","Light_Type":"Cobra","Lighting_Type":"LED-Powered Lamp","Verification_Date":null},"id":"stl-city-public-streetlights:2:111050","sourceLayerId":2,"sourceObjectId":111050,"sourceURL":"https://maps8.stlouis-mo.gov/arcgis/rest/services/STREETS/Streets_Permitting/MapServer/2","title":"Street light L003794"},"type":"Feature"},{"geometry":{"coordinates":[-90.249790487862,38.5587458593781],"type":"Point"},"id":"stl-city-public-streetlights:2:111051","properties":{"address":null,"attributes":{"Date_Installed":null,"LED_Powered":0,"LightID":"L003795","Light_Source":"LED","Light_Type":"Cobra","Lighting_Type":"LED-Powered Lamp","Verification_Date":null},"id":"stl-city-public-streetlights:2:111051","sourceLayerId":2,"sourceObjectId":111051,"sourceURL":"https://maps8.stlouis-mo.gov/arcgis/rest/services/STREETS/Streets_Permitting/MapServer/2","title":"Street light L003795"},"type":"Feature"},{"geometry":{"coordinates":[-90.24941903968738,38.559360614989245],"type":"Point"},"id":"stl-city-public-streetlights:2:111052","properties":{"address":null,"attributes":{"Date_Installed":"1/11/2018","LED_Powered":1,"LightID":"L003796","Light_Source":"LED","Light_Type":"Cobra","Lighting_Type":"LED-Powered Lamp","Verification_Date":null},"id":"stl-city-public-streetlights:2:111052","sourceLayerId":2,"sourceObjectId":111052,"sourceURL":"https://maps8.stlouis-mo.gov/arcgis/rest/services/STREETS/Streets_Permitting/MapServer/2","title":"Street light L003796"},"type":"Feature"},{"geometry":{"coordinates":[-90.24977584522763,38.55906819054303],"type":"Point"},"id":"stl-city-public-streetlights:2:111053","properties":{"address":null,"attributes":{"Date_Installed":"1/11/2018","LED_Powered":1,"LightID":"L003797","Light_Source":"LED","Light_Type":"Cobra","Lighting_Type":"LED-Powered Lamp","Verification_Date":null},"id":"stl-city-public-streetlights:2:111053","sourceLayerId":2,"sourceObjectId":111053,"sourceURL":"https://maps8.stlouis-mo.gov/arcgis/rest/services/STREETS/Streets_Permitting/MapServer/2","title":"Street light L003797"},"type":"Feature"}],"layerId":"city-streetlights","retrievedAt":"2026-09-13T21:56:18.173251+00:00","schema":"property-infrastructure-geojson-v1","sourceId":"stl-city-public-streetlights","tileId":"-9025_3855","type":"FeatureCollection"}