{"features":[{"geometry":{"coordinates":[-90.21001698353417,38.73593971894906],"type":"Point"},"id":"stl-city-public-streetlights:2:137645","properties":{"address":null,"attributes":{"Date_Installed":null,"LED_Powered":0,"LightID":"L030361","Light_Source":"High Pressure Sodium","Light_Type":"Cobra","Lighting_Type":"400-W High Pressure Sodium Vapor Lamp","Verification_Date":null},"id":"stl-city-public-streetlights:2:137645","sourceLayerId":2,"sourceObjectId":137645,"sourceURL":"https://maps8.stlouis-mo.gov/arcgis/rest/services/STREETS/Streets_Permitting/MapServer/2","title":"Street light L030361"},"type":"Feature"},{"geometry":{"coordinates":[-90.21039245964724,38.73565259529775],"type":"Point"},"id":"stl-city-public-streetlights:2:137646","properties":{"address":null,"attributes":{"Date_Installed":null,"LED_Powered":0,"LightID":"L030362","Light_Source":"High Pressure Sodium","Light_Type":"Cobra","Lighting_Type":"400-W High Pressure Sodium Vapor Lamp","Verification_Date":null},"id":"stl-city-public-streetlights:2:137646","sourceLayerId":2,"sourceObjectId":137646,"sourceURL":"https://maps8.stlouis-mo.gov/arcgis/rest/services/STREETS/Streets_Permitting/MapServer/2","title":"Street light L030362"},"type":"Feature"},{"geometry":{"coordinates":[-90.21077098235656,38.735363929357256],"type":"Point"},"id":"stl-city-public-streetlights:2:137681","properties":{"address":null,"attributes":{"Date_Installed":null,"LED_Powered":0,"LightID":"L030397","Light_Source":"High Pressure Sodium","Light_Type":"Cobra","Lighting_Type":"400-W High Pressure Sodium Vapor Lamp","Verification_Date":null},"id":"stl-city-public-streetlights:2:137681","sourceLayerId":2,"sourceObjectId":137681,"sourceURL":"https://maps8.stlouis-mo.gov/arcgis/rest/services/STREETS/Streets_Permitting/MapServer/2","title":"Street light L030397"},"type":"Feature"},{"geometry":{"coordinates":[-90.21114127518544,38.73507773275475],"type":"Point"},"id":"stl-city-public-streetlights:2:137682","properties":{"address":null,"attributes":{"Date_Installed":null,"LED_Powered":0,"LightID":"L030398","Light_Source":"High Pressure Sodium","Light_Type":"Cobra","Lighting_Type":"400-W High Pressure Sodium Vapor Lamp","Verification_Date":null},"id":"stl-city-public-streetlights:2:137682","sourceLayerId":2,"sourceObjectId":137682,"sourceURL":"https://maps8.stlouis-mo.gov/arcgis/rest/services/STREETS/Streets_Permitting/MapServer/2","title":"Street light L030398"},"type":"Feature"},{"geometry":{"coordinates":[-90.21155787612008,38.734813739556714],"type":"Point"},"id":"stl-city-public-streetlights:2:137683","properties":{"address":null,"attributes":{"Date_Installed":null,"LED_Powered":0,"LightID":"L030399","Light_Source":"High Pressure Sodium","Light_Type":"Cobra","Lighting_Type":"400-W High Pressure Sodium Vapor Lamp","Verification_Date":null},"id":"stl-city-public-streetlights:2:137683","sourceLayerId":2,"sourceObjectId":137683,"sourceURL":"https://maps8.stlouis-mo.gov/arcgis/rest/services/STREETS/Streets_Permitting/MapServer/2","title":"Street light L030399"},"type":"Feature"},{"geometry":{"coordinates":[-90.21197722141771,38.73456873033285],"type":"Point"},"id":"stl-city-public-streetlights:2:137684","properties":{"address":null,"attributes":{"Date_Installed":null,"LED_Powered":0,"LightID":"L030400","Light_Source":"High Pressure Sodium","Light_Type":"Cobra","Lighting_Type":"400-W High Pressure Sodium Vapor Lamp","Verification_Date":null},"id":"stl-city-public-streetlights:2:137684","sourceLayerId":2,"sourceObjectId":137684,"sourceURL":"https://maps8.stlouis-mo.gov/arcgis/rest/services/STREETS/Streets_Permitting/MapServer/2","title":"Street light L030400"},"type":"Feature"},{"geometry":{"coordinates":[-90.21240485433518,38.73432427509775],"type":"Point"},"id":"stl-city-public-streetlights:2:137685","properties":{"address":null,"attributes":{"Date_Installed":null,"LED_Powered":0,"LightID":"L030401","Light_Source":"High Pressure Sodium","Light_Type":"Cobra","Lighting_Type":"400-W High Pressure Sodium Vapor Lamp","Verification_Date":null},"id":"stl-city-public-streetlights:2:137685","sourceLayerId":2,"sourceObjectId":137685,"sourceURL":"https://maps8.stlouis-mo.gov/arcgis/rest/services/STREETS/Streets_Permitting/MapServer/2","title":"Street light L030401"},"type":"Feature"},{"geometry":{"coordinates":[-90.21285217571402,38.73410179662356],"type":"Point"},"id":"stl-city-public-streetlights:2:137686","properties":{"address":null,"attributes":{"Date_Installed":null,"LED_Powered":0,"LightID":"L030402","Light_Source":"High Pressure Sodium","Light_Type":"Cobra","Lighting_Type":"400-W High Pressure Sodium Vapor Lamp","Verification_Date":null},"id":"stl-city-public-streetlights:2:137686","sourceLayerId":2,"sourceObjectId":137686,"sourceURL":"https://maps8.stlouis-mo.gov/arcgis/rest/services/STREETS/Streets_Permitting/MapServer/2","title":"Street light L030402"},"type":"Feature"},{"geometry":{"coordinates":[-90.2137525850681,38.73534213090263],"type":"Point"},"id":"stl-city-public-streetlights:2:137687","properties":{"address":null,"attributes":{"Date_Installed":null,"LED_Powered":0,"LightID":"L030403","Light_Source":"LED","Light_Type":"Cobra","Lighting_Type":"LED-Powered Lamp","Verification_Date":null},"id":"stl-city-public-streetlights:2:137687","sourceLayerId":2,"sourceObjectId":137687,"sourceURL":"https://maps8.stlouis-mo.gov/arcgis/rest/services/STREETS/Streets_Permitting/MapServer/2","title":"Street light L030403"},"type":"Feature"},{"geometry":{"coordinates":[-90.21350166574369,38.7350394703254],"type":"Point"},"id":"stl-city-public-streetlights:2:137688","properties":{"address":null,"attributes":{"Date_Installed":null,"LED_Powered":0,"LightID":"L030404","Light_Source":"LED","Light_Type":"Cobra","Lighting_Type":"LED-Powered Lamp","Verification_Date":null},"id":"stl-city-public-streetlights:2:137688","sourceLayerId":2,"sourceObjectId":137688,"sourceURL":"https://maps8.stlouis-mo.gov/arcgis/rest/services/STREETS/Streets_Permitting/MapServer/2","title":"Street light L030404"},"type":"Feature"},{"geometry":{"coordinates":[-90.21326113273287,38.734734976168724],"type":"Point"},"id":"stl-city-public-streetlights:2:137689","properties":{"address":null,"attributes":{"Date_Installed":null,"LED_Powered":0,"LightID":"L030405","Light_Source":"LED","Light_Type":"Cobra","Lighting_Type":"LED-Powered Lamp","Verification_Date":null},"id":"stl-city-public-streetlights:2:137689","sourceLayerId":2,"sourceObjectId":137689,"sourceURL":"https://maps8.stlouis-mo.gov/arcgis/rest/services/STREETS/Streets_Permitting/MapServer/2","title":"Street light L030405"},"type":"Feature"},{"geometry":{"coordinates":[-90.21302311048535,38.73444192786742],"type":"Point"},"id":"stl-city-public-streetlights:2:137690","properties":{"address":null,"attributes":{"Date_Installed":null,"LED_Powered":0,"LightID":"L030406","Light_Source":"LED","Light_Type":"Cobra","Lighting_Type":"LED-Powered Lamp","Verification_Date":null},"id":"stl-city-public-streetlights:2:137690","sourceLayerId":2,"sourceObjectId":137690,"sourceURL":"https://maps8.stlouis-mo.gov/arcgis/rest/services/STREETS/Streets_Permitting/MapServer/2","title":"Street light L030406"},"type":"Feature"},{"geometry":{"coordinates":[-90.21378979357722,38.73375287651914],"type":"Point"},"id":"stl-city-public-streetlights:2:137691","properties":{"address":null,"attributes":{"Date_Installed":null,"LED_Powered":0,"LightID":"L030407","Light_Source":"High Pressure Sodium","Light_Type":"Cobra","Lighting_Type":"400-W High Pressure Sodium Vapor Lamp (Twin Lights)","Verification_Date":null},"id":"stl-city-public-streetlights:2:137691","sourceLayerId":2,"sourceObjectId":137691,"sourceURL":"https://maps8.stlouis-mo.gov/arcgis/rest/services/STREETS/Streets_Permitting/MapServer/2","title":"Street light L030407"},"type":"Feature"},{"geometry":{"coordinates":[-90.21421983316831,38.73347433591011],"type":"Point"},"id":"stl-city-public-streetlights:2:137692","properties":{"address":null,"attributes":{"Date_Installed":null,"LED_Powered":0,"LightID":"L030408","Light_Source":"High Pressure Sodium","Light_Type":"Cobra","Lighting_Type":"400-W High Pressure Sodium Vapor Lamp (Twin Lights)","Verification_Date":null},"id":"stl-city-public-streetlights:2:137692","sourceLayerId":2,"sourceObjectId":137692,"sourceURL":"https://maps8.stlouis-mo.gov/arcgis/rest/services/STREETS/Streets_Permitting/MapServer/2","title":"Street light L030408"},"type":"Feature"},{"geometry":{"coordinates":[-90.21461705455727,38.73322121824663],"type":"Point"},"id":"stl-city-public-streetlights:2:137693","properties":{"address":null,"attributes":{"Date_Installed":null,"LED_Powered":0,"LightID":"L030409","Light_Source":"High Pressure Sodium","Light_Type":"Cobra","Lighting_Type":"400-W High Pressure Sodium Vapor Lamp (Twin Lights)","Verification_Date":null},"id":"stl-city-public-streetlights:2:137693","sourceLayerId":2,"sourceObjectId":137693,"sourceURL":"https://maps8.stlouis-mo.gov/arcgis/rest/services/STREETS/Streets_Permitting/MapServer/2","title":"Street light L030409"},"type":"Feature"},{"geometry":{"coordinates":[-90.2150356211952,38.732956471413544],"type":"Point"},"id":"stl-city-public-streetlights:2:137694","properties":{"address":null,"attributes":{"Date_Installed":null,"LED_Powered":0,"LightID":"L030410","Light_Source":"High Pressure Sodium","Light_Type":"Cobra","Lighting_Type":"400-W High Pressure Sodium Vapor Lamp (Twin Lights)","Verification_Date":null},"id":"stl-city-public-streetlights:2:137694","sourceLayerId":2,"sourceObjectId":137694,"sourceURL":"https://maps8.stlouis-mo.gov/arcgis/rest/services/STREETS/Streets_Permitting/MapServer/2","title":"Street light L030410"},"type":"Feature"},{"geometry":{"coordinates":[-90.21543727995271,38.732695495313536],"type":"Point"},"id":"stl-city-public-streetlights:2:137695","properties":{"address":null,"attributes":{"Date_Installed":null,"LED_Powered":0,"LightID":"L030411","Light_Source":"High Pressure Sodium","Light_Type":"Cobra","Lighting_Type":"400-W High Pressure Sodium Vapor Lamp (Twin Lights)","Verification_Date":null},"id":"stl-city-public-streetlights:2:137695","sourceLayerId":2,"sourceObjectId":137695,"sourceURL":"https://maps8.stlouis-mo.gov/arcgis/rest/services/STREETS/Streets_Permitting/MapServer/2","title":"Street light L030411"},"type":"Feature"},{"geometry":{"coordinates":[-90.21585523680245,38.73242955307351],"type":"Point"},"id":"stl-city-public-streetlights:2:137696","properties":{"address":null,"attributes":{"Date_Installed":null,"LED_Powered":0,"LightID":"L030412","Light_Source":"High Pressure Sodium","Light_Type":"Cobra","Lighting_Type":"400-W High Pressure Sodium Vapor Lamp (Twin Lights)","Verification_Date":null},"id":"stl-city-public-streetlights:2:137696","sourceLayerId":2,"sourceObjectId":137696,"sourceURL":"https://maps8.stlouis-mo.gov/arcgis/rest/services/STREETS/Streets_Permitting/MapServer/2","title":"Street light L030412"},"type":"Feature"},{"geometry":{"coordinates":[-90.21626756401224,38.73216276054959],"type":"Point"},"id":"stl-city-public-streetlights:2:137697","properties":{"address":null,"attributes":{"Date_Installed":null,"LED_Powered":0,"LightID":"L030413","Light_Source":"High Pressure Sodium","Light_Type":"Cobra","Lighting_Type":"400-W High Pressure Sodium Vapor Lamp (Twin Lights)","Verification_Date":null},"id":"stl-city-public-streetlights:2:137697","sourceLayerId":2,"sourceObjectId":137697,"sourceURL":"https://maps8.stlouis-mo.gov/arcgis/rest/services/STREETS/Streets_Permitting/MapServer/2","title":"Street light L030413"},"type":"Feature"},{"geometry":{"coordinates":[-90.21668398367137,38.731899193495686],"type":"Point"},"id":"stl-city-public-streetlights:2:137698","properties":{"address":null,"attributes":{"Date_Installed":null,"LED_Powered":0,"LightID":"L030414","Light_Source":"High Pressure Sodium","Light_Type":"Cobra","Lighting_Type":"400-W High Pressure Sodium Vapor Lamp (Twin Lights)","Verification_Date":null},"id":"stl-city-public-streetlights:2:137698","sourceLayerId":2,"sourceObjectId":137698,"sourceURL":"https://maps8.stlouis-mo.gov/arcgis/rest/services/STREETS/Streets_Permitting/MapServer/2","title":"Street light L030414"},"type":"Feature"},{"geometry":{"coordinates":[-90.21709175097575,38.73162988435232],"type":"Point"},"id":"stl-city-public-streetlights:2:137699","properties":{"address":null,"attributes":{"Date_Installed":null,"LED_Powered":0,"LightID":"L030415","Light_Source":"High Pressure Sodium","Light_Type":"Cobra","Lighting_Type":"400-W High Pressure Sodium Vapor Lamp (Twin Lights)","Verification_Date":null},"id":"stl-city-public-streetlights:2:137699","sourceLayerId":2,"sourceObjectId":137699,"sourceURL":"https://maps8.stlouis-mo.gov/arcgis/rest/services/STREETS/Streets_Permitting/MapServer/2","title":"Street light L030415"},"type":"Feature"},{"geometry":{"coordinates":[-90.21750360911913,38.73136392049477],"type":"Point"},"id":"stl-city-public-streetlights:2:137700","properties":{"address":null,"attributes":{"Date_Installed":null,"LED_Powered":0,"LightID":"L030416","Light_Source":"High Pressure Sodium","Light_Type":"Cobra","Lighting_Type":"400-W High Pressure Sodium Vapor Lamp (Twin Lights)","Verification_Date":null},"id":"stl-city-public-streetlights:2:137700","sourceLayerId":2,"sourceObjectId":137700,"sourceURL":"https://maps8.stlouis-mo.gov/arcgis/rest/services/STREETS/Streets_Permitting/MapServer/2","title":"Street light L030416"},"type":"Feature"},{"geometry":{"coordinates":[-90.21793999684986,38.73108871912799],"type":"Point"},"id":"stl-city-public-streetlights:2:137701","properties":{"address":null,"attributes":{"Date_Installed":null,"LED_Powered":0,"LightID":"L030417","Light_Source":"High Pressure Sodium","Light_Type":"Cobra","Lighting_Type":"400-W High Pressure Sodium Vapor Lamp (Twin Lights)","Verification_Date":null},"id":"stl-city-public-streetlights:2:137701","sourceLayerId":2,"sourceObjectId":137701,"sourceURL":"https://maps8.stlouis-mo.gov/arcgis/rest/services/STREETS/Streets_Permitting/MapServer/2","title":"Street light L030417"},"type":"Feature"},{"geometry":{"coordinates":[-90.21840216162238,38.730796654372774],"type":"Point"},"id":"stl-city-public-streetlights:2:137702","properties":{"address":null,"attributes":{"Date_Installed":null,"LED_Powered":0,"LightID":"L030418","Light_Source":"High Pressure Sodium","Light_Type":"Cobra","Lighting_Type":"400-W High Pressure Sodium Vapor Lamp (Twin Lights)","Verification_Date":null},"id":"stl-city-public-streetlights:2:137702","sourceLayerId":2,"sourceObjectId":137702,"sourceURL":"https://maps8.stlouis-mo.gov/arcgis/rest/services/STREETS/Streets_Permitting/MapServer/2","title":"Street light L030418"},"type":"Feature"},{"geometry":{"coordinates":[-90.21887243173074,38.7304929274197],"type":"Point"},"id":"stl-city-public-streetlights:2:137703","properties":{"address":null,"attributes":{"Date_Installed":null,"LED_Powered":0,"LightID":"L030419","Light_Source":"High Pressure Sodium","Light_Type":"Cobra","Lighting_Type":"400-W High Pressure Sodium Vapor Lamp (Twin Lights)","Verification_Date":null},"id":"stl-city-public-streetlights:2:137703","sourceLayerId":2,"sourceObjectId":137703,"sourceURL":"https://maps8.stlouis-mo.gov/arcgis/rest/services/STREETS/Streets_Permitting/MapServer/2","title":"Street light L030419"},"type":"Feature"},{"geometry":{"coordinates":[-90.21933460637888,38.7301960915323],"type":"Point"},"id":"stl-city-public-streetlights:2:137704","properties":{"address":null,"attributes":{"Date_Installed":null,"LED_Powered":0,"LightID":"L030420","Light_Source":"High Pressure Sodium","Light_Type":"Cobra","Lighting_Type":"400-W High Pressure Sodium Vapor Lamp (Twin Lights)","Verification_Date":null},"id":"stl-city-public-streetlights:2:137704","sourceLayerId":2,"sourceObjectId":137704,"sourceURL":"https://maps8.stlouis-mo.gov/arcgis/rest/services/STREETS/Streets_Permitting/MapServer/2","title":"Street light L030420"},"type":"Feature"},{"geometry":{"coordinates":[-90.21188395335108,38.733991398766925],"type":"Point"},"id":"stl-city-public-streetlights:2:151438","properties":{"address":null,"attributes":{"Date_Installed":null,"LED_Powered":0,"LightID":"L051410","Light_Source":"LED","Light_Type":"Cobra","Lighting_Type":"LED-Powered Lamp","Verification_Date":null},"id":"stl-city-public-streetlights:2:151438","sourceLayerId":2,"sourceObjectId":151438,"sourceURL":"https://maps8.stlouis-mo.gov/arcgis/rest/services/STREETS/Streets_Permitting/MapServer/2","title":"Street light L051410"},"type":"Feature"}],"layerId":"city-streetlights","retrievedAt":"2026-09-13T21:56:18.173251+00:00","schema":"property-infrastructure-geojson-v1","sourceId":"stl-city-public-streetlights","tileId":"-9022_3873","type":"FeatureCollection"}