{"features":[{"geometry":{"coordinates":[-90.27045916014714,38.545505772646926],"type":"Point"},"id":"stl-city-public-streetlights:2:107656","properties":{"address":null,"attributes":{"Date_Installed":"1/21/20","LED_Powered":1,"LightID":"L000400","Light_Source":"LED","Light_Type":"Cobra","Lighting_Type":"LED-Powered Lamp","Verification_Date":null},"id":"stl-city-public-streetlights:2:107656","sourceLayerId":2,"sourceObjectId":107656,"sourceURL":"https://maps8.stlouis-mo.gov/arcgis/rest/services/STREETS/Streets_Permitting/MapServer/2","title":"Street light L000400"},"type":"Feature"},{"geometry":{"coordinates":[-90.27087461489316,38.54520462498625],"type":"Point"},"id":"stl-city-public-streetlights:2:107657","properties":{"address":null,"attributes":{"Date_Installed":"1/21/20","LED_Powered":1,"LightID":"L000401","Light_Source":"LED","Light_Type":"Cobra","Lighting_Type":"LED-Powered Lamp","Verification_Date":null},"id":"stl-city-public-streetlights:2:107657","sourceLayerId":2,"sourceObjectId":107657,"sourceURL":"https://maps8.stlouis-mo.gov/arcgis/rest/services/STREETS/Streets_Permitting/MapServer/2","title":"Street light L000401"},"type":"Feature"},{"geometry":{"coordinates":[-90.27138134801152,38.544770123881364],"type":"Point"},"id":"stl-city-public-streetlights:2:107658","properties":{"address":null,"attributes":{"Date_Installed":"1/21/20","LED_Powered":1,"LightID":"L000402","Light_Source":"LED","Light_Type":"Cobra","Lighting_Type":"LED-Powered Lamp","Verification_Date":null},"id":"stl-city-public-streetlights:2:107658","sourceLayerId":2,"sourceObjectId":107658,"sourceURL":"https://maps8.stlouis-mo.gov/arcgis/rest/services/STREETS/Streets_Permitting/MapServer/2","title":"Street light L000402"},"type":"Feature"},{"geometry":{"coordinates":[-90.27006280033757,38.545686802741436],"type":"Point"},"id":"stl-city-public-streetlights:2:107663","properties":{"address":null,"attributes":{"Date_Installed":"1/21/20","LED_Powered":1,"LightID":"L000407","Light_Source":"LED","Light_Type":"Cobra","Lighting_Type":"LED-Powered Lamp","Verification_Date":null},"id":"stl-city-public-streetlights:2:107663","sourceLayerId":2,"sourceObjectId":107663,"sourceURL":"https://maps8.stlouis-mo.gov/arcgis/rest/services/STREETS/Streets_Permitting/MapServer/2","title":"Street light L000407"},"type":"Feature"},{"geometry":{"coordinates":[-90.27113176704485,38.54524621728917],"type":"Point"},"id":"stl-city-public-streetlights:2:108414","properties":{"address":null,"attributes":{"Date_Installed":"1/21/20","LED_Powered":1,"LightID":"L001158","Light_Source":"LED","Light_Type":"Cobra","Lighting_Type":"LED-Powered Lamp","Verification_Date":null},"id":"stl-city-public-streetlights:2:108414","sourceLayerId":2,"sourceObjectId":108414,"sourceURL":"https://maps8.stlouis-mo.gov/arcgis/rest/services/STREETS/Streets_Permitting/MapServer/2","title":"Street light L001158"},"type":"Feature"},{"geometry":{"coordinates":[-90.27073588688492,38.545524291498694],"type":"Point"},"id":"stl-city-public-streetlights:2:108415","properties":{"address":null,"attributes":{"Date_Installed":"1/21/20","LED_Powered":1,"LightID":"L001159","Light_Source":"LED","Light_Type":"Cobra","Lighting_Type":"LED-Powered Lamp","Verification_Date":null},"id":"stl-city-public-streetlights:2:108415","sourceLayerId":2,"sourceObjectId":108415,"sourceURL":"https://maps8.stlouis-mo.gov/arcgis/rest/services/STREETS/Streets_Permitting/MapServer/2","title":"Street light L001159"},"type":"Feature"},{"geometry":{"coordinates":[-90.27061806792399,38.54984072405684],"type":"Point"},"id":"stl-city-public-streetlights:2:108421","properties":{"address":null,"attributes":{"Date_Installed":null,"LED_Powered":0,"LightID":"L001165","Light_Source":"LED","Light_Type":"Cobra","Lighting_Type":"LED-Powered Lamp","Verification_Date":null},"id":"stl-city-public-streetlights:2:108421","sourceLayerId":2,"sourceObjectId":108421,"sourceURL":"https://maps8.stlouis-mo.gov/arcgis/rest/services/STREETS/Streets_Permitting/MapServer/2","title":"Street light L001165"},"type":"Feature"},{"geometry":{"coordinates":[-90.27072795796691,38.54926421693067],"type":"Point"},"id":"stl-city-public-streetlights:2:108422","properties":{"address":null,"attributes":{"Date_Installed":null,"LED_Powered":0,"LightID":"L001166","Light_Source":"LED","Light_Type":"Cobra","Lighting_Type":"LED-Powered Lamp","Verification_Date":null},"id":"stl-city-public-streetlights:2:108422","sourceLayerId":2,"sourceObjectId":108422,"sourceURL":"https://maps8.stlouis-mo.gov/arcgis/rest/services/STREETS/Streets_Permitting/MapServer/2","title":"Street light L001166"},"type":"Feature"},{"geometry":{"coordinates":[-90.27078794350292,38.54824842411961],"type":"Point"},"id":"stl-city-public-streetlights:2:108423","properties":{"address":null,"attributes":{"Date_Installed":null,"LED_Powered":0,"LightID":"L001167","Light_Source":"LED","Light_Type":"Cobra","Lighting_Type":"LED-Powered Lamp","Verification_Date":null},"id":"stl-city-public-streetlights:2:108423","sourceLayerId":2,"sourceObjectId":108423,"sourceURL":"https://maps8.stlouis-mo.gov/arcgis/rest/services/STREETS/Streets_Permitting/MapServer/2","title":"Street light L001167"},"type":"Feature"},{"geometry":{"coordinates":[-90.27080170286335,38.54772227823161],"type":"Point"},"id":"stl-city-public-streetlights:2:108424","properties":{"address":null,"attributes":{"Date_Installed":null,"LED_Powered":0,"LightID":"L001168","Light_Source":"LED","Light_Type":"Cobra","Lighting_Type":"LED-Powered Lamp","Verification_Date":null},"id":"stl-city-public-streetlights:2:108424","sourceLayerId":2,"sourceObjectId":108424,"sourceURL":"https://maps8.stlouis-mo.gov/arcgis/rest/services/STREETS/Streets_Permitting/MapServer/2","title":"Street light L001168"},"type":"Feature"},{"geometry":{"coordinates":[-90.27080309129897,38.54720537026971],"type":"Point"},"id":"stl-city-public-streetlights:2:108425","properties":{"address":null,"attributes":{"Date_Installed":null,"LED_Powered":0,"LightID":"L001169","Light_Source":"LED","Light_Type":"Cobra","Lighting_Type":"LED-Powered Lamp","Verification_Date":null},"id":"stl-city-public-streetlights:2:108425","sourceLayerId":2,"sourceObjectId":108425,"sourceURL":"https://maps8.stlouis-mo.gov/arcgis/rest/services/STREETS/Streets_Permitting/MapServer/2","title":"Street light L001169"},"type":"Feature"},{"geometry":{"coordinates":[-90.27074107570877,38.54671004540385],"type":"Point"},"id":"stl-city-public-streetlights:2:108426","properties":{"address":null,"attributes":{"Date_Installed":null,"LED_Powered":0,"LightID":"L001170","Light_Source":"LED","Light_Type":"Cobra","Lighting_Type":"LED-Powered Lamp","Verification_Date":null},"id":"stl-city-public-streetlights:2:108426","sourceLayerId":2,"sourceObjectId":108426,"sourceURL":"https://maps8.stlouis-mo.gov/arcgis/rest/services/STREETS/Streets_Permitting/MapServer/2","title":"Street light L001170"},"type":"Feature"},{"geometry":{"coordinates":[-90.27058744405765,38.54634314052144],"type":"Point"},"id":"stl-city-public-streetlights:2:108427","properties":{"address":null,"attributes":{"Date_Installed":null,"LED_Powered":0,"LightID":"L001171","Light_Source":"LED","Light_Type":"Cobra","Lighting_Type":"LED-Powered Lamp","Verification_Date":null},"id":"stl-city-public-streetlights:2:108427","sourceLayerId":2,"sourceObjectId":108427,"sourceURL":"https://maps8.stlouis-mo.gov/arcgis/rest/services/STREETS/Streets_Permitting/MapServer/2","title":"Street light L001171"},"type":"Feature"},{"geometry":{"coordinates":[-90.27038488188114,38.54599675665281],"type":"Point"},"id":"stl-city-public-streetlights:2:108428","properties":{"address":null,"attributes":{"Date_Installed":null,"LED_Powered":0,"LightID":"L001172","Light_Source":"LED","Light_Type":"Cobra","Lighting_Type":"LED-Powered Lamp","Verification_Date":null},"id":"stl-city-public-streetlights:2:108428","sourceLayerId":2,"sourceObjectId":108428,"sourceURL":"https://maps8.stlouis-mo.gov/arcgis/rest/services/STREETS/Streets_Permitting/MapServer/2","title":"Street light L001172"},"type":"Feature"},{"geometry":{"coordinates":[-90.27019971585273,38.54600294833695],"type":"Point"},"id":"stl-city-public-streetlights:2:108429","properties":{"address":null,"attributes":{"Date_Installed":"1/21/20","LED_Powered":1,"LightID":"L001173","Light_Source":"LED","Light_Type":"Cobra","Lighting_Type":"LED-Powered Lamp","Verification_Date":null},"id":"stl-city-public-streetlights:2:108429","sourceLayerId":2,"sourceObjectId":108429,"sourceURL":"https://maps8.stlouis-mo.gov/arcgis/rest/services/STREETS/Streets_Permitting/MapServer/2","title":"Street light L001173"},"type":"Feature"},{"geometry":{"coordinates":[-90.27043342323898,38.546529239254774],"type":"Point"},"id":"stl-city-public-streetlights:2:108433","properties":{"address":null,"attributes":{"Date_Installed":null,"LED_Powered":0,"LightID":"L001177","Light_Source":"High Pressure Sodium","Light_Type":"Cobra","Lighting_Type":"150-W High Pressure Sodium Vapor Lamp","Verification_Date":null},"id":"stl-city-public-streetlights:2:108433","sourceLayerId":2,"sourceObjectId":108433,"sourceURL":"https://maps8.stlouis-mo.gov/arcgis/rest/services/STREETS/Streets_Permitting/MapServer/2","title":"Street light L001177"},"type":"Feature"},{"geometry":{"coordinates":[-90.27005125495901,38.546682234841604],"type":"Point"},"id":"stl-city-public-streetlights:2:108434","properties":{"address":null,"attributes":{"Date_Installed":null,"LED_Powered":0,"LightID":"L001178","Light_Source":"High Pressure Sodium","Light_Type":"Cobra","Lighting_Type":"150-W High Pressure Sodium Vapor Lamp","Verification_Date":null},"id":"stl-city-public-streetlights:2:108434","sourceLayerId":2,"sourceObjectId":108434,"sourceURL":"https://maps8.stlouis-mo.gov/arcgis/rest/services/STREETS/Streets_Permitting/MapServer/2","title":"Street light L001178"},"type":"Feature"},{"geometry":{"coordinates":[-90.27154856522358,38.54516920760121],"type":"Point"},"id":"stl-city-public-streetlights:2:108713","properties":{"address":null,"attributes":{"Date_Installed":null,"LED_Powered":0,"LightID":"L001457","Light_Source":"LED","Light_Type":"Cobra","Lighting_Type":"LED-Powered Lamp","Verification_Date":null},"id":"stl-city-public-streetlights:2:108713","sourceLayerId":2,"sourceObjectId":108713,"sourceURL":"https://maps8.stlouis-mo.gov/arcgis/rest/services/STREETS/Streets_Permitting/MapServer/2","title":"Street light L001457"},"type":"Feature"},{"geometry":{"coordinates":[-90.2716629759506,38.54562311710654],"type":"Point"},"id":"stl-city-public-streetlights:2:108714","properties":{"address":null,"attributes":{"Date_Installed":null,"LED_Powered":0,"LightID":"L001458","Light_Source":"LED","Light_Type":"Cobra","Lighting_Type":"LED-Powered Lamp","Verification_Date":null},"id":"stl-city-public-streetlights:2:108714","sourceLayerId":2,"sourceObjectId":108714,"sourceURL":"https://maps8.stlouis-mo.gov/arcgis/rest/services/STREETS/Streets_Permitting/MapServer/2","title":"Street light L001458"},"type":"Feature"},{"geometry":{"coordinates":[-90.27174850670629,38.54593053632158],"type":"Point"},"id":"stl-city-public-streetlights:2:108715","properties":{"address":null,"attributes":{"Date_Installed":null,"LED_Powered":0,"LightID":"L001459","Light_Source":"LED","Light_Type":"Cobra","Lighting_Type":"LED-Powered Lamp","Verification_Date":null},"id":"stl-city-public-streetlights:2:108715","sourceLayerId":2,"sourceObjectId":108715,"sourceURL":"https://maps8.stlouis-mo.gov/arcgis/rest/services/STREETS/Streets_Permitting/MapServer/2","title":"Street light L001459"},"type":"Feature"},{"geometry":{"coordinates":[-90.27189452915529,38.546305947439116],"type":"Point"},"id":"stl-city-public-streetlights:2:108716","properties":{"address":null,"attributes":{"Date_Installed":null,"LED_Powered":0,"LightID":"L001460","Light_Source":"LED","Light_Type":"Cobra","Lighting_Type":"LED-Powered Lamp","Verification_Date":null},"id":"stl-city-public-streetlights:2:108716","sourceLayerId":2,"sourceObjectId":108716,"sourceURL":"https://maps8.stlouis-mo.gov/arcgis/rest/services/STREETS/Streets_Permitting/MapServer/2","title":"Street light L001460"},"type":"Feature"},{"geometry":{"coordinates":[-90.27208717065294,38.5467206591558],"type":"Point"},"id":"stl-city-public-streetlights:2:108717","properties":{"address":null,"attributes":{"Date_Installed":null,"LED_Powered":0,"LightID":"L001461","Light_Source":"LED","Light_Type":"Cobra","Lighting_Type":"LED-Powered Lamp","Verification_Date":null},"id":"stl-city-public-streetlights:2:108717","sourceLayerId":2,"sourceObjectId":108717,"sourceURL":"https://maps8.stlouis-mo.gov/arcgis/rest/services/STREETS/Streets_Permitting/MapServer/2","title":"Street light L001461"},"type":"Feature"},{"geometry":{"coordinates":[-90.27215339800189,38.54708643973505],"type":"Point"},"id":"stl-city-public-streetlights:2:108718","properties":{"address":null,"attributes":{"Date_Installed":null,"LED_Powered":0,"LightID":"L001462","Light_Source":"LED","Light_Type":"Cobra","Lighting_Type":"LED-Powered Lamp","Verification_Date":null},"id":"stl-city-public-streetlights:2:108718","sourceLayerId":2,"sourceObjectId":108718,"sourceURL":"https://maps8.stlouis-mo.gov/arcgis/rest/services/STREETS/Streets_Permitting/MapServer/2","title":"Street light L001462"},"type":"Feature"},{"geometry":{"coordinates":[-90.27214303069492,38.54748639564697],"type":"Point"},"id":"stl-city-public-streetlights:2:108719","properties":{"address":null,"attributes":{"Date_Installed":null,"LED_Powered":0,"LightID":"L001463","Light_Source":"LED","Light_Type":"Cobra","Lighting_Type":"LED-Powered Lamp","Verification_Date":null},"id":"stl-city-public-streetlights:2:108719","sourceLayerId":2,"sourceObjectId":108719,"sourceURL":"https://maps8.stlouis-mo.gov/arcgis/rest/services/STREETS/Streets_Permitting/MapServer/2","title":"Street light L001463"},"type":"Feature"},{"geometry":{"coordinates":[-90.27215713564857,38.54782585392027],"type":"Point"},"id":"stl-city-public-streetlights:2:108720","properties":{"address":null,"attributes":{"Date_Installed":null,"LED_Powered":0,"LightID":"L001464","Light_Source":"LED","Light_Type":"Cobra","Lighting_Type":"LED-Powered Lamp","Verification_Date":null},"id":"stl-city-public-streetlights:2:108720","sourceLayerId":2,"sourceObjectId":108720,"sourceURL":"https://maps8.stlouis-mo.gov/arcgis/rest/services/STREETS/Streets_Permitting/MapServer/2","title":"Street light L001464"},"type":"Feature"},{"geometry":{"coordinates":[-90.2721856251886,38.54832027758395],"type":"Point"},"id":"stl-city-public-streetlights:2:108721","properties":{"address":null,"attributes":{"Date_Installed":null,"LED_Powered":0,"LightID":"L001465","Light_Source":"LED","Light_Type":"Cobra","Lighting_Type":"LED-Powered Lamp","Verification_Date":null},"id":"stl-city-public-streetlights:2:108721","sourceLayerId":2,"sourceObjectId":108721,"sourceURL":"https://maps8.stlouis-mo.gov/arcgis/rest/services/STREETS/Streets_Permitting/MapServer/2","title":"Street light L001465"},"type":"Feature"},{"geometry":{"coordinates":[-90.27219995251856,38.54868571829796],"type":"Point"},"id":"stl-city-public-streetlights:2:108722","properties":{"address":null,"attributes":{"Date_Installed":null,"LED_Powered":0,"LightID":"L001466","Light_Source":"LED","Light_Type":"Cobra","Lighting_Type":"LED-Powered Lamp","Verification_Date":null},"id":"stl-city-public-streetlights:2:108722","sourceLayerId":2,"sourceObjectId":108722,"sourceURL":"https://maps8.stlouis-mo.gov/arcgis/rest/services/STREETS/Streets_Permitting/MapServer/2","title":"Street light L001466"},"type":"Feature"},{"geometry":{"coordinates":[-90.27217306367223,38.549030579629076],"type":"Point"},"id":"stl-city-public-streetlights:2:108723","properties":{"address":null,"attributes":{"Date_Installed":null,"LED_Powered":0,"LightID":"L001467","Light_Source":"LED","Light_Type":"Cobra","Lighting_Type":"LED-Powered Lamp","Verification_Date":null},"id":"stl-city-public-streetlights:2:108723","sourceLayerId":2,"sourceObjectId":108723,"sourceURL":"https://maps8.stlouis-mo.gov/arcgis/rest/services/STREETS/Streets_Permitting/MapServer/2","title":"Street light L001467"},"type":"Feature"},{"geometry":{"coordinates":[-90.27215662510469,38.54943052359434],"type":"Point"},"id":"stl-city-public-streetlights:2:108724","properties":{"address":null,"attributes":{"Date_Installed":null,"LED_Powered":0,"LightID":"L001468","Light_Source":"LED","Light_Type":"Cobra","Lighting_Type":"LED-Powered Lamp","Verification_Date":null},"id":"stl-city-public-streetlights:2:108724","sourceLayerId":2,"sourceObjectId":108724,"sourceURL":"https://maps8.stlouis-mo.gov/arcgis/rest/services/STREETS/Streets_Permitting/MapServer/2","title":"Street light L001468"},"type":"Feature"},{"geometry":{"coordinates":[-90.27213428980896,38.54977515499431],"type":"Point"},"id":"stl-city-public-streetlights:2:108725","properties":{"address":null,"attributes":{"Date_Installed":null,"LED_Powered":0,"LightID":"L001469","Light_Source":"LED","Light_Type":"Cobra","Lighting_Type":"LED-Powered Lamp","Verification_Date":null},"id":"stl-city-public-streetlights:2:108725","sourceLayerId":2,"sourceObjectId":108725,"sourceURL":"https://maps8.stlouis-mo.gov/arcgis/rest/services/STREETS/Streets_Permitting/MapServer/2","title":"Street light L001469"},"type":"Feature"},{"geometry":{"coordinates":[-90.27323136476048,38.54970260380943],"type":"Point"},"id":"stl-city-public-streetlights:2:108750","properties":{"address":null,"attributes":{"Date_Installed":null,"LED_Powered":0,"LightID":"L001494","Light_Source":"LED","Light_Type":"Cobra","Lighting_Type":"LED-Powered Lamp","Verification_Date":null},"id":"stl-city-public-streetlights:2:108750","sourceLayerId":2,"sourceObjectId":108750,"sourceURL":"https://maps8.stlouis-mo.gov/arcgis/rest/services/STREETS/Streets_Permitting/MapServer/2","title":"Street light L001494"},"type":"Feature"},{"geometry":{"coordinates":[-90.27342438033067,38.54927339246879],"type":"Point"},"id":"stl-city-public-streetlights:2:108751","properties":{"address":null,"attributes":{"Date_Installed":null,"LED_Powered":0,"LightID":"L001495","Light_Source":"LED","Light_Type":"Cobra","Lighting_Type":"LED-Powered Lamp","Verification_Date":null},"id":"stl-city-public-streetlights:2:108751","sourceLayerId":2,"sourceObjectId":108751,"sourceURL":"https://maps8.stlouis-mo.gov/arcgis/rest/services/STREETS/Streets_Permitting/MapServer/2","title":"Street light L001495"},"type":"Feature"},{"geometry":{"coordinates":[-90.27260660805933,38.54893672671131],"type":"Point"},"id":"stl-city-public-streetlights:2:108769","properties":{"address":null,"attributes":{"Date_Installed":null,"LED_Powered":0,"LightID":"L001513","Light_Source":"LED","Light_Type":"Cobra","Lighting_Type":"LED-Powered Lamp","Verification_Date":null},"id":"stl-city-public-streetlights:2:108769","sourceLayerId":2,"sourceObjectId":108769,"sourceURL":"https://maps8.stlouis-mo.gov/arcgis/rest/services/STREETS/Streets_Permitting/MapServer/2","title":"Street light L001513"},"type":"Feature"},{"geometry":{"coordinates":[-90.27307188339178,38.54894351958317],"type":"Point"},"id":"stl-city-public-streetlights:2:108770","properties":{"address":null,"attributes":{"Date_Installed":null,"LED_Powered":0,"LightID":"L001514","Light_Source":"LED","Light_Type":"Cobra","Lighting_Type":"LED-Powered Lamp","Verification_Date":null},"id":"stl-city-public-streetlights:2:108770","sourceLayerId":2,"sourceObjectId":108770,"sourceURL":"https://maps8.stlouis-mo.gov/arcgis/rest/services/STREETS/Streets_Permitting/MapServer/2","title":"Street light L001514"},"type":"Feature"},{"geometry":{"coordinates":[-90.27338423849797,38.5490795610454],"type":"Point"},"id":"stl-city-public-streetlights:2:108771","properties":{"address":null,"attributes":{"Date_Installed":null,"LED_Powered":0,"LightID":"L001515","Light_Source":"LED","Light_Type":"Cobra","Lighting_Type":"LED-Powered Lamp","Verification_Date":null},"id":"stl-city-public-streetlights:2:108771","sourceLayerId":2,"sourceObjectId":108771,"sourceURL":"https://maps8.stlouis-mo.gov/arcgis/rest/services/STREETS/Streets_Permitting/MapServer/2","title":"Street light L001515"},"type":"Feature"},{"geometry":{"coordinates":[-90.27379602220788,38.549261884949885],"type":"Point"},"id":"stl-city-public-streetlights:2:108772","properties":{"address":null,"attributes":{"Date_Installed":null,"LED_Powered":0,"LightID":"L001516","Light_Source":"LED","Light_Type":"Cobra","Lighting_Type":"LED-Powered Lamp","Verification_Date":null},"id":"stl-city-public-streetlights:2:108772","sourceLayerId":2,"sourceObjectId":108772,"sourceURL":"https://maps8.stlouis-mo.gov/arcgis/rest/services/STREETS/Streets_Permitting/MapServer/2","title":"Street light L001516"},"type":"Feature"},{"geometry":{"coordinates":[-90.27407704627225,38.549373315298844],"type":"Point"},"id":"stl-city-public-streetlights:2:108773","properties":{"address":null,"attributes":{"Date_Installed":null,"LED_Powered":0,"LightID":"L001517","Light_Source":"LED","Light_Type":"Cobra","Lighting_Type":"LED-Powered Lamp","Verification_Date":null},"id":"stl-city-public-streetlights:2:108773","sourceLayerId":2,"sourceObjectId":108773,"sourceURL":"https://maps8.stlouis-mo.gov/arcgis/rest/services/STREETS/Streets_Permitting/MapServer/2","title":"Street light L001517"},"type":"Feature"},{"geometry":{"coordinates":[-90.27463628107716,38.5495901361041],"type":"Point"},"id":"stl-city-public-streetlights:2:108774","properties":{"address":null,"attributes":{"Date_Installed":null,"LED_Powered":0,"LightID":"L001518","Light_Source":"LED","Light_Type":"Cobra","Lighting_Type":"LED-Powered Lamp","Verification_Date":null},"id":"stl-city-public-streetlights:2:108774","sourceLayerId":2,"sourceObjectId":108774,"sourceURL":"https://maps8.stlouis-mo.gov/arcgis/rest/services/STREETS/Streets_Permitting/MapServer/2","title":"Street light L001518"},"type":"Feature"},{"geometry":{"coordinates":[-90.27509308133105,38.549721532024634],"type":"Point"},"id":"stl-city-public-streetlights:2:108775","properties":{"address":null,"attributes":{"Date_Installed":null,"LED_Powered":0,"LightID":"L001519","Light_Source":"LED","Light_Type":"Cobra","Lighting_Type":"LED-Powered Lamp","Verification_Date":null},"id":"stl-city-public-streetlights:2:108775","sourceLayerId":2,"sourceObjectId":108775,"sourceURL":"https://maps8.stlouis-mo.gov/arcgis/rest/services/STREETS/Streets_Permitting/MapServer/2","title":"Street light L001519"},"type":"Feature"},{"geometry":{"coordinates":[-90.27550912363017,38.54986138047311],"type":"Point"},"id":"stl-city-public-streetlights:2:108776","properties":{"address":null,"attributes":{"Date_Installed":null,"LED_Powered":0,"LightID":"L001520","Light_Source":"LED","Light_Type":"Cobra","Lighting_Type":"LED-Powered Lamp","Verification_Date":null},"id":"stl-city-public-streetlights:2:108776","sourceLayerId":2,"sourceObjectId":108776,"sourceURL":"https://maps8.stlouis-mo.gov/arcgis/rest/services/STREETS/Streets_Permitting/MapServer/2","title":"Street light L001520"},"type":"Feature"},{"geometry":{"coordinates":[-90.2756736119009,38.54999232316607],"type":"Point"},"id":"stl-city-public-streetlights:2:108777","properties":{"address":null,"attributes":{"Date_Installed":null,"LED_Powered":0,"LightID":"L001521","Light_Source":"LED","Light_Type":"Cobra","Lighting_Type":"LED-Powered Lamp","Verification_Date":null},"id":"stl-city-public-streetlights:2:108777","sourceLayerId":2,"sourceObjectId":108777,"sourceURL":"https://maps8.stlouis-mo.gov/arcgis/rest/services/STREETS/Streets_Permitting/MapServer/2","title":"Street light L001521"},"type":"Feature"}],"layerId":"city-streetlights","retrievedAt":"2026-09-13T21:56:18.173251+00:00","schema":"property-infrastructure-geojson-v1","sourceId":"stl-city-public-streetlights","tileId":"-9028_3854","type":"FeatureCollection"}