{"features":[{"geometry":{"coordinates":[-90.27408732652209,38.68058597029282],"type":"Point"},"id":"stl-city-public-streetlights:2:126994","properties":{"address":null,"attributes":{"Date_Installed":"1/2017","LED_Powered":1,"LightID":"L019710","Light_Source":"LED","Light_Type":"Cobra","Lighting_Type":"LED-Powered Lamp","Verification_Date":null},"id":"stl-city-public-streetlights:2:126994","sourceLayerId":2,"sourceObjectId":126994,"sourceURL":"https://maps8.stlouis-mo.gov/arcgis/rest/services/STREETS/Streets_Permitting/MapServer/2","title":"Street light L019710"},"type":"Feature"},{"geometry":{"coordinates":[-90.27377739915495,38.68063280453553],"type":"Point"},"id":"stl-city-public-streetlights:2:126995","properties":{"address":null,"attributes":{"Date_Installed":"1/2017","LED_Powered":1,"LightID":"L019711","Light_Source":"LED","Light_Type":"Cobra","Lighting_Type":"LED-Powered Lamp","Verification_Date":null},"id":"stl-city-public-streetlights:2:126995","sourceLayerId":2,"sourceObjectId":126995,"sourceURL":"https://maps8.stlouis-mo.gov/arcgis/rest/services/STREETS/Streets_Permitting/MapServer/2","title":"Street light L019711"},"type":"Feature"},{"geometry":{"coordinates":[-90.27404617475811,38.6808387894647],"type":"Point"},"id":"stl-city-public-streetlights:2:126996","properties":{"address":null,"attributes":{"Date_Installed":"1/2017","LED_Powered":1,"LightID":"L019712","Light_Source":"LED","Light_Type":"Cobra","Lighting_Type":"LED-Powered Lamp","Verification_Date":null},"id":"stl-city-public-streetlights:2:126996","sourceLayerId":2,"sourceObjectId":126996,"sourceURL":"https://maps8.stlouis-mo.gov/arcgis/rest/services/STREETS/Streets_Permitting/MapServer/2","title":"Street light L019712"},"type":"Feature"},{"geometry":{"coordinates":[-90.27452584615246,38.68026658040494],"type":"Point"},"id":"stl-city-public-streetlights:2:126997","properties":{"address":null,"attributes":{"Date_Installed":"1/2017","LED_Powered":1,"LightID":"L019713","Light_Source":"LED","Light_Type":"Cobra","Lighting_Type":"LED-Powered Lamp","Verification_Date":null},"id":"stl-city-public-streetlights:2:126997","sourceLayerId":2,"sourceObjectId":126997,"sourceURL":"https://maps8.stlouis-mo.gov/arcgis/rest/services/STREETS/Streets_Permitting/MapServer/2","title":"Street light L019713"},"type":"Feature"},{"geometry":{"coordinates":[-90.27436555539296,38.68047221411982],"type":"Point"},"id":"stl-city-public-streetlights:2:126998","properties":{"address":null,"attributes":{"Date_Installed":"1/2017","LED_Powered":1,"LightID":"L019714","Light_Source":"LED","Light_Type":"Cobra","Lighting_Type":"LED-Powered Lamp","Verification_Date":null},"id":"stl-city-public-streetlights:2:126998","sourceLayerId":2,"sourceObjectId":126998,"sourceURL":"https://maps8.stlouis-mo.gov/arcgis/rest/services/STREETS/Streets_Permitting/MapServer/2","title":"Street light L019714"},"type":"Feature"},{"geometry":{"coordinates":[-90.27445409904031,38.68074540120623],"type":"Point"},"id":"stl-city-public-streetlights:2:126999","properties":{"address":null,"attributes":{"Date_Installed":"1/2017","LED_Powered":1,"LightID":"L019715","Light_Source":"LED","Light_Type":"Cobra","Lighting_Type":"LED-Powered Lamp","Verification_Date":null},"id":"stl-city-public-streetlights:2:126999","sourceLayerId":2,"sourceObjectId":126999,"sourceURL":"https://maps8.stlouis-mo.gov/arcgis/rest/services/STREETS/Streets_Permitting/MapServer/2","title":"Street light L019715"},"type":"Feature"},{"geometry":{"coordinates":[-90.27455756286786,38.6809159324957],"type":"Point"},"id":"stl-city-public-streetlights:2:127000","properties":{"address":null,"attributes":{"Date_Installed":"1/2017","LED_Powered":1,"LightID":"L019716","Light_Source":"LED","Light_Type":"Cobra","Lighting_Type":"LED-Powered Lamp","Verification_Date":null},"id":"stl-city-public-streetlights:2:127000","sourceLayerId":2,"sourceObjectId":127000,"sourceURL":"https://maps8.stlouis-mo.gov/arcgis/rest/services/STREETS/Streets_Permitting/MapServer/2","title":"Street light L019716"},"type":"Feature"},{"geometry":{"coordinates":[-90.27465913974709,38.681106338042895],"type":"Point"},"id":"stl-city-public-streetlights:2:127001","properties":{"address":null,"attributes":{"Date_Installed":"1/2017","LED_Powered":1,"LightID":"L019717","Light_Source":"LED","Light_Type":"Cobra","Lighting_Type":"LED-Powered Lamp","Verification_Date":null},"id":"stl-city-public-streetlights:2:127001","sourceLayerId":2,"sourceObjectId":127001,"sourceURL":"https://maps8.stlouis-mo.gov/arcgis/rest/services/STREETS/Streets_Permitting/MapServer/2","title":"Street light L019717"},"type":"Feature"},{"geometry":{"coordinates":[-90.27502593780498,38.681085592351955],"type":"Point"},"id":"stl-city-public-streetlights:2:127002","properties":{"address":null,"attributes":{"Date_Installed":"1/2017","LED_Powered":1,"LightID":"L019718","Light_Source":"LED","Light_Type":"Cobra","Lighting_Type":"LED-Powered Lamp","Verification_Date":null},"id":"stl-city-public-streetlights:2:127002","sourceLayerId":2,"sourceObjectId":127002,"sourceURL":"https://maps8.stlouis-mo.gov/arcgis/rest/services/STREETS/Streets_Permitting/MapServer/2","title":"Street light L019718"},"type":"Feature"},{"geometry":{"coordinates":[-90.27507400308211,38.680827184446024],"type":"Point"},"id":"stl-city-public-streetlights:2:127003","properties":{"address":null,"attributes":{"Date_Installed":"1/2017","LED_Powered":1,"LightID":"L019719","Light_Source":"LED","Light_Type":"Cobra","Lighting_Type":"LED-Powered Lamp","Verification_Date":null},"id":"stl-city-public-streetlights:2:127003","sourceLayerId":2,"sourceObjectId":127003,"sourceURL":"https://maps8.stlouis-mo.gov/arcgis/rest/services/STREETS/Streets_Permitting/MapServer/2","title":"Street light L019719"},"type":"Feature"},{"geometry":{"coordinates":[-90.27520114789965,38.68062148606696],"type":"Point"},"id":"stl-city-public-streetlights:2:127004","properties":{"address":null,"attributes":{"Date_Installed":"1/2017","LED_Powered":1,"LightID":"L019720","Light_Source":"LED","Light_Type":"Cobra","Lighting_Type":"LED-Powered Lamp","Verification_Date":null},"id":"stl-city-public-streetlights:2:127004","sourceLayerId":2,"sourceObjectId":127004,"sourceURL":"https://maps8.stlouis-mo.gov/arcgis/rest/services/STREETS/Streets_Permitting/MapServer/2","title":"Street light L019720"},"type":"Feature"},{"geometry":{"coordinates":[-90.27712886031834,38.681181482561],"type":"Point"},"id":"stl-city-public-streetlights:2:127005","properties":{"address":null,"attributes":{"Date_Installed":"12/23/2018","LED_Powered":1,"LightID":"L019721","Light_Source":"LED","Light_Type":"Cobra","Lighting_Type":"LED-Powered Lamp","Verification_Date":null},"id":"stl-city-public-streetlights:2:127005","sourceLayerId":2,"sourceObjectId":127005,"sourceURL":"https://maps8.stlouis-mo.gov/arcgis/rest/services/STREETS/Streets_Permitting/MapServer/2","title":"Street light L019721"},"type":"Feature"},{"geometry":{"coordinates":[-90.27745746287384,38.68072910541026],"type":"Point"},"id":"stl-city-public-streetlights:2:127006","properties":{"address":null,"attributes":{"Date_Installed":"12/23/2018","LED_Powered":1,"LightID":"L019722","Light_Source":"LED","Light_Type":"Cobra","Lighting_Type":"LED-Powered Lamp","Verification_Date":null},"id":"stl-city-public-streetlights:2:127006","sourceLayerId":2,"sourceObjectId":127006,"sourceURL":"https://maps8.stlouis-mo.gov/arcgis/rest/services/STREETS/Streets_Permitting/MapServer/2","title":"Street light L019722"},"type":"Feature"},{"geometry":{"coordinates":[-90.27775905499222,38.68030718799568],"type":"Point"},"id":"stl-city-public-streetlights:2:127007","properties":{"address":null,"attributes":{"Date_Installed":"12/23/2018","LED_Powered":1,"LightID":"L019723","Light_Source":"LED","Light_Type":"Cobra","Lighting_Type":"LED-Powered Lamp","Verification_Date":null},"id":"stl-city-public-streetlights:2:127007","sourceLayerId":2,"sourceObjectId":127007,"sourceURL":"https://maps8.stlouis-mo.gov/arcgis/rest/services/STREETS/Streets_Permitting/MapServer/2","title":"Street light L019723"},"type":"Feature"},{"geometry":{"coordinates":[-90.27714633528751,38.68009909547969],"type":"Point"},"id":"stl-city-public-streetlights:2:128265","properties":{"address":null,"attributes":{"Date_Installed":"12/23/2018","LED_Powered":1,"LightID":"L020981","Light_Source":"LED","Light_Type":"Cobra","Lighting_Type":"LED-Powered Lamp","Verification_Date":null},"id":"stl-city-public-streetlights:2:128265","sourceLayerId":2,"sourceObjectId":128265,"sourceURL":"https://maps8.stlouis-mo.gov/arcgis/rest/services/STREETS/Streets_Permitting/MapServer/2","title":"Street light L020981"},"type":"Feature"},{"geometry":{"coordinates":[-90.27754718418795,38.68027529122261],"type":"Point"},"id":"stl-city-public-streetlights:2:128266","properties":{"address":null,"attributes":{"Date_Installed":"12/23/2018","LED_Powered":1,"LightID":"L020982","Light_Source":"LED","Light_Type":"Cobra","Lighting_Type":"LED-Powered Lamp","Verification_Date":null},"id":"stl-city-public-streetlights:2:128266","sourceLayerId":2,"sourceObjectId":128266,"sourceURL":"https://maps8.stlouis-mo.gov/arcgis/rest/services/STREETS/Streets_Permitting/MapServer/2","title":"Street light L020982"},"type":"Feature"},{"geometry":{"coordinates":[-90.27012600859022,38.689355484111694],"type":"Point"},"id":"stl-city-public-streetlights:2:131527","properties":{"address":null,"attributes":{"Date_Installed":null,"LED_Powered":1,"LightID":"L024243","Light_Source":"LED","Light_Type":"Cobra","Lighting_Type":"LED-Powered Lamp","Verification_Date":null},"id":"stl-city-public-streetlights:2:131527","sourceLayerId":2,"sourceObjectId":131527,"sourceURL":"https://maps8.stlouis-mo.gov/arcgis/rest/services/STREETS/Streets_Permitting/MapServer/2","title":"Street light L024243"},"type":"Feature"},{"geometry":{"coordinates":[-90.2702966692205,38.68896050072094],"type":"Point"},"id":"stl-city-public-streetlights:2:131528","properties":{"address":null,"attributes":{"Date_Installed":null,"LED_Powered":1,"LightID":"L024244","Light_Source":"LED","Light_Type":"Cobra","Lighting_Type":"LED-Powered Lamp","Verification_Date":null},"id":"stl-city-public-streetlights:2:131528","sourceLayerId":2,"sourceObjectId":131528,"sourceURL":"https://maps8.stlouis-mo.gov/arcgis/rest/services/STREETS/Streets_Permitting/MapServer/2","title":"Street light L024244"},"type":"Feature"},{"geometry":{"coordinates":[-90.270460604007,38.68857587390489],"type":"Point"},"id":"stl-city-public-streetlights:2:131529","properties":{"address":null,"attributes":{"Date_Installed":null,"LED_Powered":1,"LightID":"L024245","Light_Source":"LED","Light_Type":"Cobra","Lighting_Type":"LED-Powered Lamp","Verification_Date":null},"id":"stl-city-public-streetlights:2:131529","sourceLayerId":2,"sourceObjectId":131529,"sourceURL":"https://maps8.stlouis-mo.gov/arcgis/rest/services/STREETS/Streets_Permitting/MapServer/2","title":"Street light L024245"},"type":"Feature"},{"geometry":{"coordinates":[-90.2706184893041,38.68818062707961],"type":"Point"},"id":"stl-city-public-streetlights:2:131530","properties":{"address":null,"attributes":{"Date_Installed":null,"LED_Powered":1,"LightID":"L024246","Light_Source":"LED","Light_Type":"Cobra","Lighting_Type":"LED-Powered Lamp","Verification_Date":null},"id":"stl-city-public-streetlights:2:131530","sourceLayerId":2,"sourceObjectId":131530,"sourceURL":"https://maps8.stlouis-mo.gov/arcgis/rest/services/STREETS/Streets_Permitting/MapServer/2","title":"Street light L024246"},"type":"Feature"},{"geometry":{"coordinates":[-90.27077179218928,38.68779121054917],"type":"Point"},"id":"stl-city-public-streetlights:2:131531","properties":{"address":null,"attributes":{"Date_Installed":null,"LED_Powered":1,"LightID":"L024247","Light_Source":"LED","Light_Type":"Cobra","Lighting_Type":"LED-Powered Lamp","Verification_Date":null},"id":"stl-city-public-streetlights:2:131531","sourceLayerId":2,"sourceObjectId":131531,"sourceURL":"https://maps8.stlouis-mo.gov/arcgis/rest/services/STREETS/Streets_Permitting/MapServer/2","title":"Street light L024247"},"type":"Feature"},{"geometry":{"coordinates":[-90.27093120076869,38.68739370231345],"type":"Point"},"id":"stl-city-public-streetlights:2:131532","properties":{"address":null,"attributes":{"Date_Installed":null,"LED_Powered":1,"LightID":"L024248","Light_Source":"LED","Light_Type":"Cobra","Lighting_Type":"LED-Powered Lamp","Verification_Date":null},"id":"stl-city-public-streetlights:2:131532","sourceLayerId":2,"sourceObjectId":131532,"sourceURL":"https://maps8.stlouis-mo.gov/arcgis/rest/services/STREETS/Streets_Permitting/MapServer/2","title":"Street light L024248"},"type":"Feature"},{"geometry":{"coordinates":[-90.27108342679881,38.68700714351036],"type":"Point"},"id":"stl-city-public-streetlights:2:131533","properties":{"address":null,"attributes":{"Date_Installed":null,"LED_Powered":1,"LightID":"L024249","Light_Source":"LED","Light_Type":"Cobra","Lighting_Type":"LED-Powered Lamp","Verification_Date":null},"id":"stl-city-public-streetlights:2:131533","sourceLayerId":2,"sourceObjectId":131533,"sourceURL":"https://maps8.stlouis-mo.gov/arcgis/rest/services/STREETS/Streets_Permitting/MapServer/2","title":"Street light L024249"},"type":"Feature"},{"geometry":{"coordinates":[-90.2712413161864,38.686608439953766],"type":"Point"},"id":"stl-city-public-streetlights:2:131534","properties":{"address":null,"attributes":{"Date_Installed":null,"LED_Powered":1,"LightID":"L024250","Light_Source":"LED","Light_Type":"Cobra","Lighting_Type":"LED-Powered Lamp","Verification_Date":null},"id":"stl-city-public-streetlights:2:131534","sourceLayerId":2,"sourceObjectId":131534,"sourceURL":"https://maps8.stlouis-mo.gov/arcgis/rest/services/STREETS/Streets_Permitting/MapServer/2","title":"Street light L024250"},"type":"Feature"},{"geometry":{"coordinates":[-90.27145587220508,38.68636811663228],"type":"Point"},"id":"stl-city-public-streetlights:2:131535","properties":{"address":null,"attributes":{"Date_Installed":null,"LED_Powered":1,"LightID":"L024251","Light_Source":"LED","Light_Type":"Cobra","Lighting_Type":"LED-Powered Lamp","Verification_Date":null},"id":"stl-city-public-streetlights:2:131535","sourceLayerId":2,"sourceObjectId":131535,"sourceURL":"https://maps8.stlouis-mo.gov/arcgis/rest/services/STREETS/Streets_Permitting/MapServer/2","title":"Street light L024251"},"type":"Feature"},{"geometry":{"coordinates":[-90.27003454613723,38.68866561247347],"type":"Point"},"id":"stl-city-public-streetlights:2:131548","properties":{"address":null,"attributes":{"Date_Installed":null,"LED_Powered":1,"LightID":"L024264","Light_Source":"LED","Light_Type":"Cobra","Lighting_Type":"LED-Powered Lamp","Verification_Date":null},"id":"stl-city-public-streetlights:2:131548","sourceLayerId":2,"sourceObjectId":131548,"sourceURL":"https://maps8.stlouis-mo.gov/arcgis/rest/services/STREETS/Streets_Permitting/MapServer/2","title":"Street light L024264"},"type":"Feature"},{"geometry":{"coordinates":[-90.27053670832274,38.68867694366311],"type":"Point"},"id":"stl-city-public-streetlights:2:131559","properties":{"address":null,"attributes":{"Date_Installed":null,"LED_Powered":0,"LightID":"L024275","Light_Source":"LED","Light_Type":"Cobra","Lighting_Type":"LED-Powered Lamp","Verification_Date":null},"id":"stl-city-public-streetlights:2:131559","sourceLayerId":2,"sourceObjectId":131559,"sourceURL":"https://maps8.stlouis-mo.gov/arcgis/rest/services/STREETS/Streets_Permitting/MapServer/2","title":"Street light L024275"},"type":"Feature"},{"geometry":{"coordinates":[-90.2708942864347,38.688870619951196],"type":"Point"},"id":"stl-city-public-streetlights:2:131560","properties":{"address":null,"attributes":{"Date_Installed":null,"LED_Powered":0,"LightID":"L024276","Light_Source":"LED","Light_Type":"Cobra","Lighting_Type":"LED-Powered Lamp","Verification_Date":null},"id":"stl-city-public-streetlights:2:131560","sourceLayerId":2,"sourceObjectId":131560,"sourceURL":"https://maps8.stlouis-mo.gov/arcgis/rest/services/STREETS/Streets_Permitting/MapServer/2","title":"Street light L024276"},"type":"Feature"},{"geometry":{"coordinates":[-90.27119082636875,38.689093541786946],"type":"Point"},"id":"stl-city-public-streetlights:2:131561","properties":{"address":null,"attributes":{"Date_Installed":null,"LED_Powered":0,"LightID":"L024277","Light_Source":"LED","Light_Type":"Cobra","Lighting_Type":"LED-Powered Lamp","Verification_Date":null},"id":"stl-city-public-streetlights:2:131561","sourceLayerId":2,"sourceObjectId":131561,"sourceURL":"https://maps8.stlouis-mo.gov/arcgis/rest/services/STREETS/Streets_Permitting/MapServer/2","title":"Street light L024277"},"type":"Feature"},{"geometry":{"coordinates":[-90.2714790453363,38.68940885727377],"type":"Point"},"id":"stl-city-public-streetlights:2:131562","properties":{"address":null,"attributes":{"Date_Installed":null,"LED_Powered":0,"LightID":"L024278","Light_Source":"LED","Light_Type":"Cobra","Lighting_Type":"LED-Powered Lamp","Verification_Date":null},"id":"stl-city-public-streetlights:2:131562","sourceLayerId":2,"sourceObjectId":131562,"sourceURL":"https://maps8.stlouis-mo.gov/arcgis/rest/services/STREETS/Streets_Permitting/MapServer/2","title":"Street light L024278"},"type":"Feature"},{"geometry":{"coordinates":[-90.2716807096763,38.6897443603143],"type":"Point"},"id":"stl-city-public-streetlights:2:131563","properties":{"address":null,"attributes":{"Date_Installed":null,"LED_Powered":0,"LightID":"L024279","Light_Source":"LED","Light_Type":"Cobra","Lighting_Type":"LED-Powered Lamp","Verification_Date":null},"id":"stl-city-public-streetlights:2:131563","sourceLayerId":2,"sourceObjectId":131563,"sourceURL":"https://maps8.stlouis-mo.gov/arcgis/rest/services/STREETS/Streets_Permitting/MapServer/2","title":"Street light L024279"},"type":"Feature"},{"geometry":{"coordinates":[-90.2726915422525,38.68996163747877],"type":"Point"},"id":"stl-city-public-streetlights:2:131581","properties":{"address":null,"attributes":{"Date_Installed":null,"LED_Powered":0,"LightID":"L024297","Light_Source":"LED","Light_Type":"Cobra","Lighting_Type":"LED-Powered Lamp","Verification_Date":null},"id":"stl-city-public-streetlights:2:131581","sourceLayerId":2,"sourceObjectId":131581,"sourceURL":"https://maps8.stlouis-mo.gov/arcgis/rest/services/STREETS/Streets_Permitting/MapServer/2","title":"Street light L024297"},"type":"Feature"},{"geometry":{"coordinates":[-90.27257945507645,38.689606562183855],"type":"Point"},"id":"stl-city-public-streetlights:2:131582","properties":{"address":null,"attributes":{"Date_Installed":null,"LED_Powered":0,"LightID":"L024298","Light_Source":"LED","Light_Type":"Cobra","Lighting_Type":"LED-Powered Lamp","Verification_Date":null},"id":"stl-city-public-streetlights:2:131582","sourceLayerId":2,"sourceObjectId":131582,"sourceURL":"https://maps8.stlouis-mo.gov/arcgis/rest/services/STREETS/Streets_Permitting/MapServer/2","title":"Street light L024298"},"type":"Feature"},{"geometry":{"coordinates":[-90.27241755617183,38.68927882619836],"type":"Point"},"id":"stl-city-public-streetlights:2:131583","properties":{"address":null,"attributes":{"Date_Installed":null,"LED_Powered":0,"LightID":"L024299","Light_Source":"LED","Light_Type":"Cobra","Lighting_Type":"LED-Powered Lamp","Verification_Date":null},"id":"stl-city-public-streetlights:2:131583","sourceLayerId":2,"sourceObjectId":131583,"sourceURL":"https://maps8.stlouis-mo.gov/arcgis/rest/services/STREETS/Streets_Permitting/MapServer/2","title":"Street light L024299"},"type":"Feature"},{"geometry":{"coordinates":[-90.2721947381212,38.68895803784154],"type":"Point"},"id":"stl-city-public-streetlights:2:131584","properties":{"address":null,"attributes":{"Date_Installed":null,"LED_Powered":0,"LightID":"L024300","Light_Source":"LED","Light_Type":"Cobra","Lighting_Type":"LED-Powered Lamp","Verification_Date":null},"id":"stl-city-public-streetlights:2:131584","sourceLayerId":2,"sourceObjectId":131584,"sourceURL":"https://maps8.stlouis-mo.gov/arcgis/rest/services/STREETS/Streets_Permitting/MapServer/2","title":"Street light L024300"},"type":"Feature"},{"geometry":{"coordinates":[-90.27191740519191,38.688661574660095],"type":"Point"},"id":"stl-city-public-streetlights:2:131585","properties":{"address":null,"attributes":{"Date_Installed":null,"LED_Powered":0,"LightID":"L024301","Light_Source":"LED","Light_Type":"Cobra","Lighting_Type":"LED-Powered Lamp","Verification_Date":null},"id":"stl-city-public-streetlights:2:131585","sourceLayerId":2,"sourceObjectId":131585,"sourceURL":"https://maps8.stlouis-mo.gov/arcgis/rest/services/STREETS/Streets_Permitting/MapServer/2","title":"Street light L024301"},"type":"Feature"},{"geometry":{"coordinates":[-90.27157539731057,38.688391442509996],"type":"Point"},"id":"stl-city-public-streetlights:2:131586","properties":{"address":null,"attributes":{"Date_Installed":null,"LED_Powered":0,"LightID":"L024302","Light_Source":"LED","Light_Type":"Cobra","Lighting_Type":"LED-Powered Lamp","Verification_Date":null},"id":"stl-city-public-streetlights:2:131586","sourceLayerId":2,"sourceObjectId":131586,"sourceURL":"https://maps8.stlouis-mo.gov/arcgis/rest/services/STREETS/Streets_Permitting/MapServer/2","title":"Street light L024302"},"type":"Feature"},{"geometry":{"coordinates":[-90.27119172509659,38.68815996126972],"type":"Point"},"id":"stl-city-public-streetlights:2:131587","properties":{"address":null,"attributes":{"Date_Installed":null,"LED_Powered":0,"LightID":"L024303","Light_Source":"LED","Light_Type":"Cobra","Lighting_Type":"LED-Powered Lamp","Verification_Date":null},"id":"stl-city-public-streetlights:2:131587","sourceLayerId":2,"sourceObjectId":131587,"sourceURL":"https://maps8.stlouis-mo.gov/arcgis/rest/services/STREETS/Streets_Permitting/MapServer/2","title":"Street light L024303"},"type":"Feature"},{"geometry":{"coordinates":[-90.27080787285635,38.687985684428384],"type":"Point"},"id":"stl-city-public-streetlights:2:131588","properties":{"address":null,"attributes":{"Date_Installed":null,"LED_Powered":0,"LightID":"L024304","Light_Source":"LED","Light_Type":"Cobra","Lighting_Type":"LED-Powered Lamp","Verification_Date":null},"id":"stl-city-public-streetlights:2:131588","sourceLayerId":2,"sourceObjectId":131588,"sourceURL":"https://maps8.stlouis-mo.gov/arcgis/rest/services/STREETS/Streets_Permitting/MapServer/2","title":"Street light L024304"},"type":"Feature"},{"geometry":{"coordinates":[-90.27347782820145,38.68992510536453],"type":"Point"},"id":"stl-city-public-streetlights:2:131592","properties":{"address":null,"attributes":{"Date_Installed":null,"LED_Powered":0,"LightID":"L024308","Light_Source":"LED","Light_Type":"Cobra","Lighting_Type":"LED-Powered Lamp","Verification_Date":null},"id":"stl-city-public-streetlights:2:131592","sourceLayerId":2,"sourceObjectId":131592,"sourceURL":"https://maps8.stlouis-mo.gov/arcgis/rest/services/STREETS/Streets_Permitting/MapServer/2","title":"Street light L024308"},"type":"Feature"},{"geometry":{"coordinates":[-90.27369671930929,38.68961280239766],"type":"Point"},"id":"stl-city-public-streetlights:2:131697","properties":{"address":null,"attributes":{"Date_Installed":null,"LED_Powered":0,"LightID":"L024413","Light_Source":"LED","Light_Type":"Cobra","Lighting_Type":"LED-Powered Lamp","Verification_Date":null},"id":"stl-city-public-streetlights:2:131697","sourceLayerId":2,"sourceObjectId":131697,"sourceURL":"https://maps8.stlouis-mo.gov/arcgis/rest/services/STREETS/Streets_Permitting/MapServer/2","title":"Street light L024413"},"type":"Feature"},{"geometry":{"coordinates":[-90.2739174266961,38.68930276642996],"type":"Point"},"id":"stl-city-public-streetlights:2:131698","properties":{"address":null,"attributes":{"Date_Installed":null,"LED_Powered":0,"LightID":"L024414","Light_Source":"LED","Light_Type":"Cobra","Lighting_Type":"LED-Powered Lamp","Verification_Date":null},"id":"stl-city-public-streetlights:2:131698","sourceLayerId":2,"sourceObjectId":131698,"sourceURL":"https://maps8.stlouis-mo.gov/arcgis/rest/services/STREETS/Streets_Permitting/MapServer/2","title":"Street light L024414"},"type":"Feature"},{"geometry":{"coordinates":[-90.27415087291831,38.68897361538986],"type":"Point"},"id":"stl-city-public-streetlights:2:131699","properties":{"address":null,"attributes":{"Date_Installed":null,"LED_Powered":0,"LightID":"L024415","Light_Source":"LED","Light_Type":"Cobra","Lighting_Type":"LED-Powered Lamp","Verification_Date":null},"id":"stl-city-public-streetlights:2:131699","sourceLayerId":2,"sourceObjectId":131699,"sourceURL":"https://maps8.stlouis-mo.gov/arcgis/rest/services/STREETS/Streets_Permitting/MapServer/2","title":"Street light L024415"},"type":"Feature"},{"geometry":{"coordinates":[-90.27434967711665,38.688693641044146],"type":"Point"},"id":"stl-city-public-streetlights:2:131700","properties":{"address":null,"attributes":{"Date_Installed":null,"LED_Powered":0,"LightID":"L024416","Light_Source":"LED","Light_Type":"Cobra","Lighting_Type":"LED-Powered Lamp","Verification_Date":null},"id":"stl-city-public-streetlights:2:131700","sourceLayerId":2,"sourceObjectId":131700,"sourceURL":"https://maps8.stlouis-mo.gov/arcgis/rest/services/STREETS/Streets_Permitting/MapServer/2","title":"Street light L024416"},"type":"Feature"},{"geometry":{"coordinates":[-90.27352030895668,38.68957939222398],"type":"Point"},"id":"stl-city-public-streetlights:2:131711","properties":{"address":null,"attributes":{"Date_Installed":null,"LED_Powered":0,"LightID":"L024427","Light_Source":"LED","Light_Type":"Cobra","Lighting_Type":"LED-Powered Lamp","Verification_Date":null},"id":"stl-city-public-streetlights:2:131711","sourceLayerId":2,"sourceObjectId":131711,"sourceURL":"https://maps8.stlouis-mo.gov/arcgis/rest/services/STREETS/Streets_Permitting/MapServer/2","title":"Street light L024427"},"type":"Feature"},{"geometry":{"coordinates":[-90.27340965638851,38.68927455545762],"type":"Point"},"id":"stl-city-public-streetlights:2:131712","properties":{"address":null,"attributes":{"Date_Installed":null,"LED_Powered":0,"LightID":"L024428","Light_Source":"LED","Light_Type":"Cobra","Lighting_Type":"LED-Powered Lamp","Verification_Date":null},"id":"stl-city-public-streetlights:2:131712","sourceLayerId":2,"sourceObjectId":131712,"sourceURL":"https://maps8.stlouis-mo.gov/arcgis/rest/services/STREETS/Streets_Permitting/MapServer/2","title":"Street light L024428"},"type":"Feature"},{"geometry":{"coordinates":[-90.2732413122099,38.68896016728228],"type":"Point"},"id":"stl-city-public-streetlights:2:131713","properties":{"address":null,"attributes":{"Date_Installed":null,"LED_Powered":0,"LightID":"L024429","Light_Source":"LED","Light_Type":"Cobra","Lighting_Type":"LED-Powered Lamp","Verification_Date":null},"id":"stl-city-public-streetlights:2:131713","sourceLayerId":2,"sourceObjectId":131713,"sourceURL":"https://maps8.stlouis-mo.gov/arcgis/rest/services/STREETS/Streets_Permitting/MapServer/2","title":"Street light L024429"},"type":"Feature"},{"geometry":{"coordinates":[-90.27301365489203,38.68862983704697],"type":"Point"},"id":"stl-city-public-streetlights:2:131714","properties":{"address":null,"attributes":{"Date_Installed":null,"LED_Powered":0,"LightID":"L024430","Light_Source":"LED","Light_Type":"Cobra","Lighting_Type":"LED-Powered Lamp","Verification_Date":null},"id":"stl-city-public-streetlights:2:131714","sourceLayerId":2,"sourceObjectId":131714,"sourceURL":"https://maps8.stlouis-mo.gov/arcgis/rest/services/STREETS/Streets_Permitting/MapServer/2","title":"Street light L024430"},"type":"Feature"},{"geometry":{"coordinates":[-90.27277367004795,38.68835172996087],"type":"Point"},"id":"stl-city-public-streetlights:2:131715","properties":{"address":null,"attributes":{"Date_Installed":null,"LED_Powered":0,"LightID":"L024431","Light_Source":"LED","Light_Type":"Cobra","Lighting_Type":"LED-Powered Lamp","Verification_Date":null},"id":"stl-city-public-streetlights:2:131715","sourceLayerId":2,"sourceObjectId":131715,"sourceURL":"https://maps8.stlouis-mo.gov/arcgis/rest/services/STREETS/Streets_Permitting/MapServer/2","title":"Street light L024431"},"type":"Feature"},{"geometry":{"coordinates":[-90.27246073029649,38.68806318426906],"type":"Point"},"id":"stl-city-public-streetlights:2:131716","properties":{"address":null,"attributes":{"Date_Installed":null,"LED_Powered":0,"LightID":"L024432","Light_Source":"LED","Light_Type":"Cobra","Lighting_Type":"LED-Powered Lamp","Verification_Date":null},"id":"stl-city-public-streetlights:2:131716","sourceLayerId":2,"sourceObjectId":131716,"sourceURL":"https://maps8.stlouis-mo.gov/arcgis/rest/services/STREETS/Streets_Permitting/MapServer/2","title":"Street light L024432"},"type":"Feature"},{"geometry":{"coordinates":[-90.27214763581586,38.687824215677],"type":"Point"},"id":"stl-city-public-streetlights:2:131717","properties":{"address":null,"attributes":{"Date_Installed":null,"LED_Powered":0,"LightID":"L024433","Light_Source":"LED","Light_Type":"Cobra","Lighting_Type":"LED-Powered Lamp","Verification_Date":null},"id":"stl-city-public-streetlights:2:131717","sourceLayerId":2,"sourceObjectId":131717,"sourceURL":"https://maps8.stlouis-mo.gov/arcgis/rest/services/STREETS/Streets_Permitting/MapServer/2","title":"Street light L024433"},"type":"Feature"},{"geometry":{"coordinates":[-90.27178582474436,38.68760422015869],"type":"Point"},"id":"stl-city-public-streetlights:2:131718","properties":{"address":null,"attributes":{"Date_Installed":null,"LED_Powered":0,"LightID":"L024434","Light_Source":"LED","Light_Type":"Cobra","Lighting_Type":"LED-Powered Lamp","Verification_Date":null},"id":"stl-city-public-streetlights:2:131718","sourceLayerId":2,"sourceObjectId":131718,"sourceURL":"https://maps8.stlouis-mo.gov/arcgis/rest/services/STREETS/Streets_Permitting/MapServer/2","title":"Street light L024434"},"type":"Feature"},{"geometry":{"coordinates":[-90.27141214009002,38.687427581391816],"type":"Point"},"id":"stl-city-public-streetlights:2:131719","properties":{"address":null,"attributes":{"Date_Installed":null,"LED_Powered":0,"LightID":"L024435","Light_Source":"LED","Light_Type":"Cobra","Lighting_Type":"LED-Powered Lamp","Verification_Date":null},"id":"stl-city-public-streetlights:2:131719","sourceLayerId":2,"sourceObjectId":131719,"sourceURL":"https://maps8.stlouis-mo.gov/arcgis/rest/services/STREETS/Streets_Permitting/MapServer/2","title":"Street light L024435"},"type":"Feature"},{"geometry":{"coordinates":[-90.27103552310307,38.68727429556391],"type":"Point"},"id":"stl-city-public-streetlights:2:131720","properties":{"address":null,"attributes":{"Date_Installed":null,"LED_Powered":0,"LightID":"L024436","Light_Source":"LED","Light_Type":"Cobra","Lighting_Type":"LED-Powered Lamp","Verification_Date":null},"id":"stl-city-public-streetlights:2:131720","sourceLayerId":2,"sourceObjectId":131720,"sourceURL":"https://maps8.stlouis-mo.gov/arcgis/rest/services/STREETS/Streets_Permitting/MapServer/2","title":"Street light L024436"},"type":"Feature"},{"geometry":{"coordinates":[-90.2743631840729,38.689895474321844],"type":"Point"},"id":"stl-city-public-streetlights:2:131723","properties":{"address":null,"attributes":{"Date_Installed":null,"LED_Powered":0,"LightID":"L024439","Light_Source":"LED","Light_Type":"Cobra","Lighting_Type":"LED-Powered Lamp","Verification_Date":null},"id":"stl-city-public-streetlights:2:131723","sourceLayerId":2,"sourceObjectId":131723,"sourceURL":"https://maps8.stlouis-mo.gov/arcgis/rest/services/STREETS/Streets_Permitting/MapServer/2","title":"Street light L024439"},"type":"Feature"},{"geometry":{"coordinates":[-90.27403860927889,38.689608340164895],"type":"Point"},"id":"stl-city-public-streetlights:2:131724","properties":{"address":null,"attributes":{"Date_Installed":null,"LED_Powered":0,"LightID":"L024440","Light_Source":"LED","Light_Type":"Cobra","Lighting_Type":"LED-Powered Lamp","Verification_Date":null},"id":"stl-city-public-streetlights:2:131724","sourceLayerId":2,"sourceObjectId":131724,"sourceURL":"https://maps8.stlouis-mo.gov/arcgis/rest/services/STREETS/Streets_Permitting/MapServer/2","title":"Street light L024440"},"type":"Feature"},{"geometry":{"coordinates":[-90.2723655052823,38.689977256124116],"type":"Point"},"id":"stl-city-public-streetlights:2:131732","properties":{"address":null,"attributes":{"Date_Installed":null,"LED_Powered":0,"LightID":"L024448","Light_Source":"LED","Light_Type":"Cobra","Lighting_Type":"LED-Powered Lamp","Verification_Date":null},"id":"stl-city-public-streetlights:2:131732","sourceLayerId":2,"sourceObjectId":131732,"sourceURL":"https://maps8.stlouis-mo.gov/arcgis/rest/services/STREETS/Streets_Permitting/MapServer/2","title":"Street light L024448"},"type":"Feature"},{"geometry":{"coordinates":[-90.27289142222612,38.689903971179504],"type":"Point"},"id":"stl-city-public-streetlights:2:131733","properties":{"address":null,"attributes":{"Date_Installed":null,"LED_Powered":0,"LightID":"L024449","Light_Source":"LED","Light_Type":"Cobra","Lighting_Type":"LED-Powered Lamp","Verification_Date":null},"id":"stl-city-public-streetlights:2:131733","sourceLayerId":2,"sourceObjectId":131733,"sourceURL":"https://maps8.stlouis-mo.gov/arcgis/rest/services/STREETS/Streets_Permitting/MapServer/2","title":"Street light L024449"},"type":"Feature"},{"geometry":{"coordinates":[-90.27340079745493,38.68981974574116],"type":"Point"},"id":"stl-city-public-streetlights:2:131734","properties":{"address":null,"attributes":{"Date_Installed":null,"LED_Powered":0,"LightID":"L024450","Light_Source":"LED","Light_Type":"Cobra","Lighting_Type":"LED-Powered Lamp","Verification_Date":null},"id":"stl-city-public-streetlights:2:131734","sourceLayerId":2,"sourceObjectId":131734,"sourceURL":"https://maps8.stlouis-mo.gov/arcgis/rest/services/STREETS/Streets_Permitting/MapServer/2","title":"Street light L024450"},"type":"Feature"},{"geometry":{"coordinates":[-90.27203215453513,38.688545344073546],"type":"Point"},"id":"stl-city-public-streetlights:2:131735","properties":{"address":null,"attributes":{"Date_Installed":null,"LED_Powered":0,"LightID":"L024451","Light_Source":"LED","Light_Type":"Cobra","Lighting_Type":"LED-Powered Lamp","Verification_Date":null},"id":"stl-city-public-streetlights:2:131735","sourceLayerId":2,"sourceObjectId":131735,"sourceURL":"https://maps8.stlouis-mo.gov/arcgis/rest/services/STREETS/Streets_Permitting/MapServer/2","title":"Street light L024451"},"type":"Feature"},{"geometry":{"coordinates":[-90.27242352868075,38.68826722655271],"type":"Point"},"id":"stl-city-public-streetlights:2:131736","properties":{"address":null,"attributes":{"Date_Installed":null,"LED_Powered":0,"LightID":"L024452","Light_Source":"LED","Light_Type":"Cobra","Lighting_Type":"LED-Powered Lamp","Verification_Date":null},"id":"stl-city-public-streetlights:2:131736","sourceLayerId":2,"sourceObjectId":131736,"sourceURL":"https://maps8.stlouis-mo.gov/arcgis/rest/services/STREETS/Streets_Permitting/MapServer/2","title":"Street light L024452"},"type":"Feature"},{"geometry":{"coordinates":[-90.27281525059408,38.68799339928292],"type":"Point"},"id":"stl-city-public-streetlights:2:131737","properties":{"address":null,"attributes":{"Date_Installed":null,"LED_Powered":0,"LightID":"L024453","Light_Source":"LED","Light_Type":"Cobra","Lighting_Type":"LED-Powered Lamp","Verification_Date":null},"id":"stl-city-public-streetlights:2:131737","sourceLayerId":2,"sourceObjectId":131737,"sourceURL":"https://maps8.stlouis-mo.gov/arcgis/rest/services/STREETS/Streets_Permitting/MapServer/2","title":"Street light L024453"},"type":"Feature"},{"geometry":{"coordinates":[-90.27320975160536,38.687708859179246],"type":"Point"},"id":"stl-city-public-streetlights:2:131738","properties":{"address":null,"attributes":{"Date_Installed":null,"LED_Powered":0,"LightID":"L024454","Light_Source":"LED","Light_Type":"Cobra","Lighting_Type":"LED-Powered Lamp","Verification_Date":null},"id":"stl-city-public-streetlights:2:131738","sourceLayerId":2,"sourceObjectId":131738,"sourceURL":"https://maps8.stlouis-mo.gov/arcgis/rest/services/STREETS/Streets_Permitting/MapServer/2","title":"Street light L024454"},"type":"Feature"},{"geometry":{"coordinates":[-90.27488248664196,38.68907944451599],"type":"Point"},"id":"stl-city-public-streetlights:2:131739","properties":{"address":null,"attributes":{"Date_Installed":null,"LED_Powered":1,"LightID":"L024455","Light_Source":"LED","Light_Type":"Cobra","Lighting_Type":"LED-Powered Lamp","Verification_Date":null},"id":"stl-city-public-streetlights:2:131739","sourceLayerId":2,"sourceObjectId":131739,"sourceURL":"https://maps8.stlouis-mo.gov/arcgis/rest/services/STREETS/Streets_Permitting/MapServer/2","title":"Street light L024455"},"type":"Feature"},{"geometry":{"coordinates":[-90.27449881157085,38.68874726722653],"type":"Point"},"id":"stl-city-public-streetlights:2:131740","properties":{"address":null,"attributes":{"Date_Installed":null,"LED_Powered":1,"LightID":"L024456","Light_Source":"LED","Light_Type":"Cobra","Lighting_Type":"LED-Powered Lamp","Verification_Date":null},"id":"stl-city-public-streetlights:2:131740","sourceLayerId":2,"sourceObjectId":131740,"sourceURL":"https://maps8.stlouis-mo.gov/arcgis/rest/services/STREETS/Streets_Permitting/MapServer/2","title":"Street light L024456"},"type":"Feature"},{"geometry":{"coordinates":[-90.27410266697171,38.68839224163008],"type":"Point"},"id":"stl-city-public-streetlights:2:131741","properties":{"address":null,"attributes":{"Date_Installed":null,"LED_Powered":1,"LightID":"L024457","Light_Source":"LED","Light_Type":"Cobra","Lighting_Type":"LED-Powered Lamp","Verification_Date":null},"id":"stl-city-public-streetlights:2:131741","sourceLayerId":2,"sourceObjectId":131741,"sourceURL":"https://maps8.stlouis-mo.gov/arcgis/rest/services/STREETS/Streets_Permitting/MapServer/2","title":"Street light L024457"},"type":"Feature"},{"geometry":{"coordinates":[-90.27371216495229,38.68805778462478],"type":"Point"},"id":"stl-city-public-streetlights:2:131742","properties":{"address":null,"attributes":{"Date_Installed":null,"LED_Powered":1,"LightID":"L024458","Light_Source":"LED","Light_Type":"Cobra","Lighting_Type":"LED-Powered Lamp","Verification_Date":null},"id":"stl-city-public-streetlights:2:131742","sourceLayerId":2,"sourceObjectId":131742,"sourceURL":"https://maps8.stlouis-mo.gov/arcgis/rest/services/STREETS/Streets_Permitting/MapServer/2","title":"Street light L024458"},"type":"Feature"},{"geometry":{"coordinates":[-90.27332837064395,38.68771875020736],"type":"Point"},"id":"stl-city-public-streetlights:2:131743","properties":{"address":null,"attributes":{"Date_Installed":null,"LED_Powered":1,"LightID":"L024459","Light_Source":"LED","Light_Type":"Cobra","Lighting_Type":"LED-Powered Lamp","Verification_Date":null},"id":"stl-city-public-streetlights:2:131743","sourceLayerId":2,"sourceObjectId":131743,"sourceURL":"https://maps8.stlouis-mo.gov/arcgis/rest/services/STREETS/Streets_Permitting/MapServer/2","title":"Street light L024459"},"type":"Feature"},{"geometry":{"coordinates":[-90.2729431970133,38.68738377661763],"type":"Point"},"id":"stl-city-public-streetlights:2:131744","properties":{"address":null,"attributes":{"Date_Installed":null,"LED_Powered":1,"LightID":"L024460","Light_Source":"LED","Light_Type":"Cobra","Lighting_Type":"LED-Powered Lamp","Verification_Date":null},"id":"stl-city-public-streetlights:2:131744","sourceLayerId":2,"sourceObjectId":131744,"sourceURL":"https://maps8.stlouis-mo.gov/arcgis/rest/services/STREETS/Streets_Permitting/MapServer/2","title":"Street light L024460"},"type":"Feature"},{"geometry":{"coordinates":[-90.27257029565833,38.687055379529056],"type":"Point"},"id":"stl-city-public-streetlights:2:131745","properties":{"address":null,"attributes":{"Date_Installed":null,"LED_Powered":1,"LightID":"L024461","Light_Source":"LED","Light_Type":"Cobra","Lighting_Type":"LED-Powered Lamp","Verification_Date":null},"id":"stl-city-public-streetlights:2:131745","sourceLayerId":2,"sourceObjectId":131745,"sourceURL":"https://maps8.stlouis-mo.gov/arcgis/rest/services/STREETS/Streets_Permitting/MapServer/2","title":"Street light L024461"},"type":"Feature"},{"geometry":{"coordinates":[-90.27218752832411,38.686731515078385],"type":"Point"},"id":"stl-city-public-streetlights:2:131746","properties":{"address":null,"attributes":{"Date_Installed":null,"LED_Powered":1,"LightID":"L024462","Light_Source":"LED","Light_Type":"Cobra","Lighting_Type":"LED-Powered Lamp","Verification_Date":null},"id":"stl-city-public-streetlights:2:131746","sourceLayerId":2,"sourceObjectId":131746,"sourceURL":"https://maps8.stlouis-mo.gov/arcgis/rest/services/STREETS/Streets_Permitting/MapServer/2","title":"Street light L024462"},"type":"Feature"},{"geometry":{"coordinates":[-90.27177505479095,38.68645502555537],"type":"Point"},"id":"stl-city-public-streetlights:2:131747","properties":{"address":null,"attributes":{"Date_Installed":null,"LED_Powered":1,"LightID":"L024463","Light_Source":"LED","Light_Type":"Cobra","Lighting_Type":"LED-Powered Lamp","Verification_Date":null},"id":"stl-city-public-streetlights:2:131747","sourceLayerId":2,"sourceObjectId":131747,"sourceURL":"https://maps8.stlouis-mo.gov/arcgis/rest/services/STREETS/Streets_Permitting/MapServer/2","title":"Street light L024463"},"type":"Feature"},{"geometry":{"coordinates":[-90.2701908778244,38.6882810899826],"type":"Point"},"id":"stl-city-public-streetlights:2:131748","properties":{"address":null,"attributes":{"Date_Installed":null,"LED_Powered":1,"LightID":"L024464","Light_Source":"LED","Light_Type":"Cobra","Lighting_Type":"LED-Powered Lamp","Verification_Date":null},"id":"stl-city-public-streetlights:2:131748","sourceLayerId":2,"sourceObjectId":131748,"sourceURL":"https://maps8.stlouis-mo.gov/arcgis/rest/services/STREETS/Streets_Permitting/MapServer/2","title":"Street light L024464"},"type":"Feature"},{"geometry":{"coordinates":[-90.27035027739039,38.68788811039285],"type":"Point"},"id":"stl-city-public-streetlights:2:131749","properties":{"address":null,"attributes":{"Date_Installed":null,"LED_Powered":1,"LightID":"L024465","Light_Source":"LED","Light_Type":"Cobra","Lighting_Type":"LED-Powered Lamp","Verification_Date":null},"id":"stl-city-public-streetlights:2:131749","sourceLayerId":2,"sourceObjectId":131749,"sourceURL":"https://maps8.stlouis-mo.gov/arcgis/rest/services/STREETS/Streets_Permitting/MapServer/2","title":"Street light L024465"},"type":"Feature"},{"geometry":{"coordinates":[-90.27050508958237,38.68750251149251],"type":"Point"},"id":"stl-city-public-streetlights:2:131750","properties":{"address":null,"attributes":{"Date_Installed":null,"LED_Powered":1,"LightID":"L024466","Light_Source":"LED","Light_Type":"Cobra","Lighting_Type":"LED-Powered Lamp","Verification_Date":null},"id":"stl-city-public-streetlights:2:131750","sourceLayerId":2,"sourceObjectId":131750,"sourceURL":"https://maps8.stlouis-mo.gov/arcgis/rest/services/STREETS/Streets_Permitting/MapServer/2","title":"Street light L024466"},"type":"Feature"},{"geometry":{"coordinates":[-90.27066760422588,38.68708498758361],"type":"Point"},"id":"stl-city-public-streetlights:2:131751","properties":{"address":null,"attributes":{"Date_Installed":null,"LED_Powered":1,"LightID":"L024467","Light_Source":"LED","Light_Type":"Cobra","Lighting_Type":"LED-Powered Lamp","Verification_Date":null},"id":"stl-city-public-streetlights:2:131751","sourceLayerId":2,"sourceObjectId":131751,"sourceURL":"https://maps8.stlouis-mo.gov/arcgis/rest/services/STREETS/Streets_Permitting/MapServer/2","title":"Street light L024467"},"type":"Feature"},{"geometry":{"coordinates":[-90.27081525574941,38.68670294887519],"type":"Point"},"id":"stl-city-public-streetlights:2:131752","properties":{"address":null,"attributes":{"Date_Installed":null,"LED_Powered":1,"LightID":"L024468","Light_Source":"LED","Light_Type":"Cobra","Lighting_Type":"LED-Powered Lamp","Verification_Date":null},"id":"stl-city-public-streetlights:2:131752","sourceLayerId":2,"sourceObjectId":131752,"sourceURL":"https://maps8.stlouis-mo.gov/arcgis/rest/services/STREETS/Streets_Permitting/MapServer/2","title":"Street light L024468"},"type":"Feature"},{"geometry":{"coordinates":[-90.27096520925262,38.68631328759131],"type":"Point"},"id":"stl-city-public-streetlights:2:131753","properties":{"address":null,"attributes":{"Date_Installed":null,"LED_Powered":1,"LightID":"L024469","Light_Source":"LED","Light_Type":"Cobra","Lighting_Type":"LED-Powered Lamp","Verification_Date":null},"id":"stl-city-public-streetlights:2:131753","sourceLayerId":2,"sourceObjectId":131753,"sourceURL":"https://maps8.stlouis-mo.gov/arcgis/rest/services/STREETS/Streets_Permitting/MapServer/2","title":"Street light L024469"},"type":"Feature"},{"geometry":{"coordinates":[-90.27099455859152,38.68607403285408],"type":"Point"},"id":"stl-city-public-streetlights:2:131754","properties":{"address":null,"attributes":{"Date_Installed":null,"LED_Powered":0,"LightID":"L024470","Light_Source":"LED","Light_Type":"Cobra","Lighting_Type":"LED-Powered Lamp","Verification_Date":null},"id":"stl-city-public-streetlights:2:131754","sourceLayerId":2,"sourceObjectId":131754,"sourceURL":"https://maps8.stlouis-mo.gov/arcgis/rest/services/STREETS/Streets_Permitting/MapServer/2","title":"Street light L024470"},"type":"Feature"},{"geometry":{"coordinates":[-90.27079629371701,38.68584591578528],"type":"Point"},"id":"stl-city-public-streetlights:2:131755","properties":{"address":null,"attributes":{"Date_Installed":null,"LED_Powered":1,"LightID":"L024471","Light_Source":"LED","Light_Type":"Cobra","Lighting_Type":"LED-Powered Lamp","Verification_Date":null},"id":"stl-city-public-streetlights:2:131755","sourceLayerId":2,"sourceObjectId":131755,"sourceURL":"https://maps8.stlouis-mo.gov/arcgis/rest/services/STREETS/Streets_Permitting/MapServer/2","title":"Street light L024471"},"type":"Feature"},{"geometry":{"coordinates":[-90.27035998188177,38.68558060041702],"type":"Point"},"id":"stl-city-public-streetlights:2:131756","properties":{"address":null,"attributes":{"Date_Installed":null,"LED_Powered":1,"LightID":"L024472","Light_Source":"LED","Light_Type":"Cobra","Lighting_Type":"LED-Powered Lamp","Verification_Date":null},"id":"stl-city-public-streetlights:2:131756","sourceLayerId":2,"sourceObjectId":131756,"sourceURL":"https://maps8.stlouis-mo.gov/arcgis/rest/services/STREETS/Streets_Permitting/MapServer/2","title":"Street light L024472"},"type":"Feature"},{"geometry":{"coordinates":[-90.27022414053499,38.685265699479686],"type":"Point"},"id":"stl-city-public-streetlights:2:131776","properties":{"address":null,"attributes":{"Date_Installed":null,"LED_Powered":1,"LightID":"L024492","Light_Source":"LED","Light_Type":"Cobra","Lighting_Type":"LED-Powered Lamp","Verification_Date":null},"id":"stl-city-public-streetlights:2:131776","sourceLayerId":2,"sourceObjectId":131776,"sourceURL":"https://maps8.stlouis-mo.gov/arcgis/rest/services/STREETS/Streets_Permitting/MapServer/2","title":"Street light L024492"},"type":"Feature"},{"geometry":{"coordinates":[-90.27072494186343,38.685571782423466],"type":"Point"},"id":"stl-city-public-streetlights:2:131777","properties":{"address":null,"attributes":{"Date_Installed":null,"LED_Powered":1,"LightID":"L024493","Light_Source":"LED","Light_Type":"Cobra","Lighting_Type":"LED-Powered Lamp","Verification_Date":null},"id":"stl-city-public-streetlights:2:131777","sourceLayerId":2,"sourceObjectId":131777,"sourceURL":"https://maps8.stlouis-mo.gov/arcgis/rest/services/STREETS/Streets_Permitting/MapServer/2","title":"Street light L024493"},"type":"Feature"},{"geometry":{"coordinates":[-90.27110295774206,38.68580790186307],"type":"Point"},"id":"stl-city-public-streetlights:2:131778","properties":{"address":null,"attributes":{"Date_Installed":null,"LED_Powered":1,"LightID":"L024494","Light_Source":"LED","Light_Type":"Cobra","Lighting_Type":"LED-Powered Lamp","Verification_Date":null},"id":"stl-city-public-streetlights:2:131778","sourceLayerId":2,"sourceObjectId":131778,"sourceURL":"https://maps8.stlouis-mo.gov/arcgis/rest/services/STREETS/Streets_Permitting/MapServer/2","title":"Street light L024494"},"type":"Feature"},{"geometry":{"coordinates":[-90.27121977746366,38.68578872363315],"type":"Point"},"id":"stl-city-public-streetlights:2:131779","properties":{"address":null,"attributes":{"Date_Installed":null,"LED_Powered":1,"LightID":"L024495","Light_Source":"LED","Light_Type":"Cobra","Lighting_Type":"LED-Powered Lamp","Verification_Date":null},"id":"stl-city-public-streetlights:2:131779","sourceLayerId":2,"sourceObjectId":131779,"sourceURL":"https://maps8.stlouis-mo.gov/arcgis/rest/services/STREETS/Streets_Permitting/MapServer/2","title":"Street light L024495"},"type":"Feature"},{"geometry":{"coordinates":[-90.27137544010806,38.68533089683595],"type":"Point"},"id":"stl-city-public-streetlights:2:131780","properties":{"address":null,"attributes":{"Date_Installed":null,"LED_Powered":1,"LightID":"L024496","Light_Source":"LED","Light_Type":"Cobra","Lighting_Type":"LED-Powered Lamp","Verification_Date":null},"id":"stl-city-public-streetlights:2:131780","sourceLayerId":2,"sourceObjectId":131780,"sourceURL":"https://maps8.stlouis-mo.gov/arcgis/rest/services/STREETS/Streets_Permitting/MapServer/2","title":"Street light L024496"},"type":"Feature"},{"geometry":{"coordinates":[-90.27154836416248,38.68488145649661],"type":"Point"},"id":"stl-city-public-streetlights:2:131781","properties":{"address":null,"attributes":{"Date_Installed":null,"LED_Powered":1,"LightID":"L024497","Light_Source":"LED","Light_Type":"Cobra","Lighting_Type":"LED-Powered Lamp","Verification_Date":null},"id":"stl-city-public-streetlights:2:131781","sourceLayerId":2,"sourceObjectId":131781,"sourceURL":"https://maps8.stlouis-mo.gov/arcgis/rest/services/STREETS/Streets_Permitting/MapServer/2","title":"Street light L024497"},"type":"Feature"},{"geometry":{"coordinates":[-90.27171160882126,38.684422099873615],"type":"Point"},"id":"stl-city-public-streetlights:2:131782","properties":{"address":null,"attributes":{"Date_Installed":null,"LED_Powered":1,"LightID":"L024498","Light_Source":"LED","Light_Type":"Cobra","Lighting_Type":"LED-Powered Lamp","Verification_Date":null},"id":"stl-city-public-streetlights:2:131782","sourceLayerId":2,"sourceObjectId":131782,"sourceURL":"https://maps8.stlouis-mo.gov/arcgis/rest/services/STREETS/Streets_Permitting/MapServer/2","title":"Street light L024498"},"type":"Feature"},{"geometry":{"coordinates":[-90.27187876995762,38.68397347653408],"type":"Point"},"id":"stl-city-public-streetlights:2:131783","properties":{"address":null,"attributes":{"Date_Installed":null,"LED_Powered":1,"LightID":"L024499","Light_Source":"LED","Light_Type":"Cobra","Lighting_Type":"LED-Powered Lamp","Verification_Date":null},"id":"stl-city-public-streetlights:2:131783","sourceLayerId":2,"sourceObjectId":131783,"sourceURL":"https://maps8.stlouis-mo.gov/arcgis/rest/services/STREETS/Streets_Permitting/MapServer/2","title":"Street light L024499"},"type":"Feature"},{"geometry":{"coordinates":[-90.2720413558876,38.683528419605274],"type":"Point"},"id":"stl-city-public-streetlights:2:131784","properties":{"address":null,"attributes":{"Date_Installed":null,"LED_Powered":1,"LightID":"L024500","Light_Source":"LED","Light_Type":"Cobra","Lighting_Type":"LED-Powered Lamp","Verification_Date":null},"id":"stl-city-public-streetlights:2:131784","sourceLayerId":2,"sourceObjectId":131784,"sourceURL":"https://maps8.stlouis-mo.gov/arcgis/rest/services/STREETS/Streets_Permitting/MapServer/2","title":"Street light L024500"},"type":"Feature"},{"geometry":{"coordinates":[-90.2722063993923,38.68307502502513],"type":"Point"},"id":"stl-city-public-streetlights:2:131785","properties":{"address":null,"attributes":{"Date_Installed":null,"LED_Powered":1,"LightID":"L024501","Light_Source":"LED","Light_Type":"Cobra","Lighting_Type":"LED-Powered Lamp","Verification_Date":null},"id":"stl-city-public-streetlights:2:131785","sourceLayerId":2,"sourceObjectId":131785,"sourceURL":"https://maps8.stlouis-mo.gov/arcgis/rest/services/STREETS/Streets_Permitting/MapServer/2","title":"Street light L024501"},"type":"Feature"},{"geometry":{"coordinates":[-90.27152861794634,38.685640114207644],"type":"Point"},"id":"stl-city-public-streetlights:2:131786","properties":{"address":null,"attributes":{"Date_Installed":null,"LED_Powered":1,"LightID":"L024502","Light_Source":"LED","Light_Type":"Cobra","Lighting_Type":"LED-Powered Lamp","Verification_Date":null},"id":"stl-city-public-streetlights:2:131786","sourceLayerId":2,"sourceObjectId":131786,"sourceURL":"https://maps8.stlouis-mo.gov/arcgis/rest/services/STREETS/Streets_Permitting/MapServer/2","title":"Street light L024502"},"type":"Feature"},{"geometry":{"coordinates":[-90.27151066853644,38.68596736975284],"type":"Point"},"id":"stl-city-public-streetlights:2:131787","properties":{"address":null,"attributes":{"Date_Installed":null,"LED_Powered":1,"LightID":"L024503","Light_Source":"LED","Light_Type":"Cobra","Lighting_Type":"LED-Powered Lamp","Verification_Date":null},"id":"stl-city-public-streetlights:2:131787","sourceLayerId":2,"sourceObjectId":131787,"sourceURL":"https://maps8.stlouis-mo.gov/arcgis/rest/services/STREETS/Streets_Permitting/MapServer/2","title":"Street light L024503"},"type":"Feature"},{"geometry":{"coordinates":[-90.27168806238755,38.68617287686009],"type":"Point"},"id":"stl-city-public-streetlights:2:131788","properties":{"address":null,"attributes":{"Date_Installed":null,"LED_Powered":1,"LightID":"L024504","Light_Source":"LED","Light_Type":"Cobra","Lighting_Type":"LED-Powered Lamp","Verification_Date":null},"id":"stl-city-public-streetlights:2:131788","sourceLayerId":2,"sourceObjectId":131788,"sourceURL":"https://maps8.stlouis-mo.gov/arcgis/rest/services/STREETS/Streets_Permitting/MapServer/2","title":"Street light L024504"},"type":"Feature"},{"geometry":{"coordinates":[-90.27216914113491,38.68642093338908],"type":"Point"},"id":"stl-city-public-streetlights:2:131789","properties":{"address":null,"attributes":{"Date_Installed":null,"LED_Powered":1,"LightID":"L024505","Light_Source":"LED","Light_Type":"Cobra","Lighting_Type":"LED-Powered Lamp","Verification_Date":null},"id":"stl-city-public-streetlights:2:131789","sourceLayerId":2,"sourceObjectId":131789,"sourceURL":"https://maps8.stlouis-mo.gov/arcgis/rest/services/STREETS/Streets_Permitting/MapServer/2","title":"Street light L024505"},"type":"Feature"},{"geometry":{"coordinates":[-90.27254633491367,38.68676606051176],"type":"Point"},"id":"stl-city-public-streetlights:2:131790","properties":{"address":null,"attributes":{"Date_Installed":null,"LED_Powered":1,"LightID":"L024506","Light_Source":"LED","Light_Type":"Cobra","Lighting_Type":"LED-Powered Lamp","Verification_Date":null},"id":"stl-city-public-streetlights:2:131790","sourceLayerId":2,"sourceObjectId":131790,"sourceURL":"https://maps8.stlouis-mo.gov/arcgis/rest/services/STREETS/Streets_Permitting/MapServer/2","title":"Street light L024506"},"type":"Feature"},{"geometry":{"coordinates":[-90.2729242077622,38.687101859984494],"type":"Point"},"id":"stl-city-public-streetlights:2:131791","properties":{"address":null,"attributes":{"Date_Installed":null,"LED_Powered":1,"LightID":"L024507","Light_Source":"LED","Light_Type":"Cobra","Lighting_Type":"LED-Powered Lamp","Verification_Date":null},"id":"stl-city-public-streetlights:2:131791","sourceLayerId":2,"sourceObjectId":131791,"sourceURL":"https://maps8.stlouis-mo.gov/arcgis/rest/services/STREETS/Streets_Permitting/MapServer/2","title":"Street light L024507"},"type":"Feature"},{"geometry":{"coordinates":[-90.27329014062352,38.6874205129071],"type":"Point"},"id":"stl-city-public-streetlights:2:131792","properties":{"address":null,"attributes":{"Date_Installed":null,"LED_Powered":1,"LightID":"L024508","Light_Source":"LED","Light_Type":"Cobra","Lighting_Type":"LED-Powered Lamp","Verification_Date":null},"id":"stl-city-public-streetlights:2:131792","sourceLayerId":2,"sourceObjectId":131792,"sourceURL":"https://maps8.stlouis-mo.gov/arcgis/rest/services/STREETS/Streets_Permitting/MapServer/2","title":"Street light L024508"},"type":"Feature"},{"geometry":{"coordinates":[-90.27369163651298,38.68776795992554],"type":"Point"},"id":"stl-city-public-streetlights:2:131793","properties":{"address":null,"attributes":{"Date_Installed":null,"LED_Powered":1,"LightID":"L024509","Light_Source":"LED","Light_Type":"Cobra","Lighting_Type":"LED-Powered Lamp","Verification_Date":null},"id":"stl-city-public-streetlights:2:131793","sourceLayerId":2,"sourceObjectId":131793,"sourceURL":"https://maps8.stlouis-mo.gov/arcgis/rest/services/STREETS/Streets_Permitting/MapServer/2","title":"Street light L024509"},"type":"Feature"},{"geometry":{"coordinates":[-90.2740742982227,38.6881055612621],"type":"Point"},"id":"stl-city-public-streetlights:2:131794","properties":{"address":null,"attributes":{"Date_Installed":null,"LED_Powered":1,"LightID":"L024510","Light_Source":"LED","Light_Type":"Cobra","Lighting_Type":"LED-Powered Lamp","Verification_Date":null},"id":"stl-city-public-streetlights:2:131794","sourceLayerId":2,"sourceObjectId":131794,"sourceURL":"https://maps8.stlouis-mo.gov/arcgis/rest/services/STREETS/Streets_Permitting/MapServer/2","title":"Street light L024510"},"type":"Feature"},{"geometry":{"coordinates":[-90.27447122498747,38.68845254270028],"type":"Point"},"id":"stl-city-public-streetlights:2:131795","properties":{"address":null,"attributes":{"Date_Installed":null,"LED_Powered":1,"LightID":"L024511","Light_Source":"LED","Light_Type":"Cobra","Lighting_Type":"LED-Powered Lamp","Verification_Date":null},"id":"stl-city-public-streetlights:2:131795","sourceLayerId":2,"sourceObjectId":131795,"sourceURL":"https://maps8.stlouis-mo.gov/arcgis/rest/services/STREETS/Streets_Permitting/MapServer/2","title":"Street light L024511"},"type":"Feature"},{"geometry":{"coordinates":[-90.27480826425756,38.68874518247971],"type":"Point"},"id":"stl-city-public-streetlights:2:131796","properties":{"address":null,"attributes":{"Date_Installed":null,"LED_Powered":1,"LightID":"L024512","Light_Source":"LED","Light_Type":"Cobra","Lighting_Type":"LED-Powered Lamp","Verification_Date":null},"id":"stl-city-public-streetlights:2:131796","sourceLayerId":2,"sourceObjectId":131796,"sourceURL":"https://maps8.stlouis-mo.gov/arcgis/rest/services/STREETS/Streets_Permitting/MapServer/2","title":"Street light L024512"},"type":"Feature"},{"geometry":{"coordinates":[-90.27344591342649,38.687419325613405],"type":"Point"},"id":"stl-city-public-streetlights:2:131797","properties":{"address":null,"attributes":{"Date_Installed":"1/2020","LED_Powered":1,"LightID":"L024513","Light_Source":"LED","Light_Type":"Cobra","Lighting_Type":"LED-Powered Lamp","Verification_Date":null},"id":"stl-city-public-streetlights:2:131797","sourceLayerId":2,"sourceObjectId":131797,"sourceURL":"https://maps8.stlouis-mo.gov/arcgis/rest/services/STREETS/Streets_Permitting/MapServer/2","title":"Street light L024513"},"type":"Feature"},{"geometry":{"coordinates":[-90.27378999958349,38.68718496949219],"type":"Point"},"id":"stl-city-public-streetlights:2:131798","properties":{"address":null,"attributes":{"Date_Installed":"1/2020","LED_Powered":1,"LightID":"L024514","Light_Source":"LED","Light_Type":"Cobra","Lighting_Type":"LED-Powered Lamp","Verification_Date":null},"id":"stl-city-public-streetlights:2:131798","sourceLayerId":2,"sourceObjectId":131798,"sourceURL":"https://maps8.stlouis-mo.gov/arcgis/rest/services/STREETS/Streets_Permitting/MapServer/2","title":"Street light L024514"},"type":"Feature"},{"geometry":{"coordinates":[-90.2740298680876,38.68692013957627],"type":"Point"},"id":"stl-city-public-streetlights:2:131799","properties":{"address":null,"attributes":{"Date_Installed":"1/2020","LED_Powered":1,"LightID":"L024515","Light_Source":"LED","Light_Type":"Cobra","Lighting_Type":"LED-Powered Lamp","Verification_Date":null},"id":"stl-city-public-streetlights:2:131799","sourceLayerId":2,"sourceObjectId":131799,"sourceURL":"https://maps8.stlouis-mo.gov/arcgis/rest/services/STREETS/Streets_Permitting/MapServer/2","title":"Street light L024515"},"type":"Feature"},{"geometry":{"coordinates":[-90.27426435799616,38.68662455075546],"type":"Point"},"id":"stl-city-public-streetlights:2:131800","properties":{"address":null,"attributes":{"Date_Installed":"1/2020","LED_Powered":1,"LightID":"L024516","Light_Source":"LED","Light_Type":"Cobra","Lighting_Type":"LED-Powered Lamp","Verification_Date":null},"id":"stl-city-public-streetlights:2:131800","sourceLayerId":2,"sourceObjectId":131800,"sourceURL":"https://maps8.stlouis-mo.gov/arcgis/rest/services/STREETS/Streets_Permitting/MapServer/2","title":"Street light L024516"},"type":"Feature"},{"geometry":{"coordinates":[-90.27449811316198,38.68632953209104],"type":"Point"},"id":"stl-city-public-streetlights:2:131905","properties":{"address":null,"attributes":{"Date_Installed":"1/2020","LED_Powered":1,"LightID":"L024621","Light_Source":"LED","Light_Type":"Cobra","Lighting_Type":"LED-Powered Lamp","Verification_Date":null},"id":"stl-city-public-streetlights:2:131905","sourceLayerId":2,"sourceObjectId":131905,"sourceURL":"https://maps8.stlouis-mo.gov/arcgis/rest/services/STREETS/Streets_Permitting/MapServer/2","title":"Street light L024621"},"type":"Feature"},{"geometry":{"coordinates":[-90.27271503523063,38.686835233920135],"type":"Point"},"id":"stl-city-public-streetlights:2:131906","properties":{"address":null,"attributes":{"Date_Installed":null,"LED_Powered":0,"LightID":"L024622","Light_Source":"LED","Light_Type":"Cobra","Lighting_Type":"LED-Powered Lamp","Verification_Date":null},"id":"stl-city-public-streetlights:2:131906","sourceLayerId":2,"sourceObjectId":131906,"sourceURL":"https://maps8.stlouis-mo.gov/arcgis/rest/services/STREETS/Streets_Permitting/MapServer/2","title":"Street light L024622"},"type":"Feature"},{"geometry":{"coordinates":[-90.2731151551049,38.686480189322445],"type":"Point"},"id":"stl-city-public-streetlights:2:131907","properties":{"address":null,"attributes":{"Date_Installed":"1/2020","LED_Powered":1,"LightID":"L024623","Light_Source":"LED","Light_Type":"Cobra","Lighting_Type":"LED-Powered Lamp","Verification_Date":null},"id":"stl-city-public-streetlights:2:131907","sourceLayerId":2,"sourceObjectId":131907,"sourceURL":"https://maps8.stlouis-mo.gov/arcgis/rest/services/STREETS/Streets_Permitting/MapServer/2","title":"Street light L024623"},"type":"Feature"},{"geometry":{"coordinates":[-90.27352559851838,38.686080970531684],"type":"Point"},"id":"stl-city-public-streetlights:2:131908","properties":{"address":null,"attributes":{"Date_Installed":"1/2020","LED_Powered":1,"LightID":"L024624","Light_Source":"LED","Light_Type":"Cobra","Lighting_Type":"LED-Powered Lamp","Verification_Date":null},"id":"stl-city-public-streetlights:2:131908","sourceLayerId":2,"sourceObjectId":131908,"sourceURL":"https://maps8.stlouis-mo.gov/arcgis/rest/services/STREETS/Streets_Permitting/MapServer/2","title":"Street light L024624"},"type":"Feature"},{"geometry":{"coordinates":[-90.27379245142801,38.68579259648527],"type":"Point"},"id":"stl-city-public-streetlights:2:131909","properties":{"address":null,"attributes":{"Date_Installed":"1/2020","LED_Powered":1,"LightID":"L024625","Light_Source":"LED","Light_Type":"Cobra","Lighting_Type":"LED-Powered Lamp","Verification_Date":null},"id":"stl-city-public-streetlights:2:131909","sourceLayerId":2,"sourceObjectId":131909,"sourceURL":"https://maps8.stlouis-mo.gov/arcgis/rest/services/STREETS/Streets_Permitting/MapServer/2","title":"Street light L024625"},"type":"Feature"},{"geometry":{"coordinates":[-90.2741600682316,38.68542253882217],"type":"Point"},"id":"stl-city-public-streetlights:2:131910","properties":{"address":null,"attributes":{"Date_Installed":"1/2020","LED_Powered":1,"LightID":"L024626","Light_Source":"LED","Light_Type":"Cobra","Lighting_Type":"LED-Powered Lamp","Verification_Date":null},"id":"stl-city-public-streetlights:2:131910","sourceLayerId":2,"sourceObjectId":131910,"sourceURL":"https://maps8.stlouis-mo.gov/arcgis/rest/services/STREETS/Streets_Permitting/MapServer/2","title":"Street light L024626"},"type":"Feature"},{"geometry":{"coordinates":[-90.27450414037175,38.685067631571314],"type":"Point"},"id":"stl-city-public-streetlights:2:131911","properties":{"address":null,"attributes":{"Date_Installed":"1/2020","LED_Powered":1,"LightID":"L024627","Light_Source":"LED","Light_Type":"Cobra","Lighting_Type":"LED-Powered Lamp","Verification_Date":null},"id":"stl-city-public-streetlights:2:131911","sourceLayerId":2,"sourceObjectId":131911,"sourceURL":"https://maps8.stlouis-mo.gov/arcgis/rest/services/STREETS/Streets_Permitting/MapServer/2","title":"Street light L024627"},"type":"Feature"},{"geometry":{"coordinates":[-90.2747747553369,38.6846927849457],"type":"Point"},"id":"stl-city-public-streetlights:2:131912","properties":{"address":null,"attributes":{"Date_Installed":"1/2020","LED_Powered":1,"LightID":"L024628","Light_Source":"LED","Light_Type":"Cobra","Lighting_Type":"LED-Powered Lamp","Verification_Date":null},"id":"stl-city-public-streetlights:2:131912","sourceLayerId":2,"sourceObjectId":131912,"sourceURL":"https://maps8.stlouis-mo.gov/arcgis/rest/services/STREETS/Streets_Permitting/MapServer/2","title":"Street light L024628"},"type":"Feature"},{"geometry":{"coordinates":[-90.27507528819665,38.68427963201664],"type":"Point"},"id":"stl-city-public-streetlights:2:131913","properties":{"address":null,"attributes":{"Date_Installed":"1/2020","LED_Powered":1,"LightID":"L024629","Light_Source":"LED","Light_Type":"Cobra","Lighting_Type":"LED-Powered Lamp","Verification_Date":null},"id":"stl-city-public-streetlights:2:131913","sourceLayerId":2,"sourceObjectId":131913,"sourceURL":"https://maps8.stlouis-mo.gov/arcgis/rest/services/STREETS/Streets_Permitting/MapServer/2","title":"Street light L024629"},"type":"Feature"},{"geometry":{"coordinates":[-90.27533004090087,38.68391829200906],"type":"Point"},"id":"stl-city-public-streetlights:2:131914","properties":{"address":null,"attributes":{"Date_Installed":"1/2020","LED_Powered":1,"LightID":"L024630","Light_Source":"LED","Light_Type":"Cobra","Lighting_Type":"LED-Powered Lamp","Verification_Date":null},"id":"stl-city-public-streetlights:2:131914","sourceLayerId":2,"sourceObjectId":131914,"sourceURL":"https://maps8.stlouis-mo.gov/arcgis/rest/services/STREETS/Streets_Permitting/MapServer/2","title":"Street light L024630"},"type":"Feature"},{"geometry":{"coordinates":[-90.27562287040419,38.68352270174075],"type":"Point"},"id":"stl-city-public-streetlights:2:131915","properties":{"address":null,"attributes":{"Date_Installed":"1/2020","LED_Powered":1,"LightID":"L024631","Light_Source":"LED","Light_Type":"Cobra","Lighting_Type":"LED-Powered Lamp","Verification_Date":null},"id":"stl-city-public-streetlights:2:131915","sourceLayerId":2,"sourceObjectId":131915,"sourceURL":"https://maps8.stlouis-mo.gov/arcgis/rest/services/STREETS/Streets_Permitting/MapServer/2","title":"Street light L024631"},"type":"Feature"},{"geometry":{"coordinates":[-90.27558725674488,38.683241465145535],"type":"Point"},"id":"stl-city-public-streetlights:2:131916","properties":{"address":null,"attributes":{"Date_Installed":"1/2020","LED_Powered":1,"LightID":"L024632","Light_Source":"LED","Light_Type":"Cobra","Lighting_Type":"LED-Powered Lamp","Verification_Date":null},"id":"stl-city-public-streetlights:2:131916","sourceLayerId":2,"sourceObjectId":131916,"sourceURL":"https://maps8.stlouis-mo.gov/arcgis/rest/services/STREETS/Streets_Permitting/MapServer/2","title":"Street light L024632"},"type":"Feature"},{"geometry":{"coordinates":[-90.27513167193922,38.68306096212158],"type":"Point"},"id":"stl-city-public-streetlights:2:131917","properties":{"address":null,"attributes":{"Date_Installed":"1/2020","LED_Powered":1,"LightID":"L024633","Light_Source":"LED","Light_Type":"Cobra","Lighting_Type":"LED-Powered Lamp","Verification_Date":null},"id":"stl-city-public-streetlights:2:131917","sourceLayerId":2,"sourceObjectId":131917,"sourceURL":"https://maps8.stlouis-mo.gov/arcgis/rest/services/STREETS/Streets_Permitting/MapServer/2","title":"Street light L024633"},"type":"Feature"},{"geometry":{"coordinates":[-90.27467982109157,38.68285415062223],"type":"Point"},"id":"stl-city-public-streetlights:2:131918","properties":{"address":null,"attributes":{"Date_Installed":"1/2020","LED_Powered":1,"LightID":"L024634","Light_Source":"LED","Light_Type":"Cobra","Lighting_Type":"LED-Powered Lamp","Verification_Date":null},"id":"stl-city-public-streetlights:2:131918","sourceLayerId":2,"sourceObjectId":131918,"sourceURL":"https://maps8.stlouis-mo.gov/arcgis/rest/services/STREETS/Streets_Permitting/MapServer/2","title":"Street light L024634"},"type":"Feature"},{"geometry":{"coordinates":[-90.27389518425913,38.68335383085056],"type":"Point"},"id":"stl-city-public-streetlights:2:131919","properties":{"address":null,"attributes":{"Date_Installed":"1/2020","LED_Powered":1,"LightID":"L024635","Light_Source":"LED","Light_Type":"Cobra","Lighting_Type":"LED-Powered Lamp","Verification_Date":null},"id":"stl-city-public-streetlights:2:131919","sourceLayerId":2,"sourceObjectId":131919,"sourceURL":"https://maps8.stlouis-mo.gov/arcgis/rest/services/STREETS/Streets_Permitting/MapServer/2","title":"Street light L024635"},"type":"Feature"},{"geometry":{"coordinates":[-90.27391632140127,38.68352497279773],"type":"Point"},"id":"stl-city-public-streetlights:2:131920","properties":{"address":null,"attributes":{"Date_Installed":"1/2020","LED_Powered":1,"LightID":"L024636","Light_Source":"LED","Light_Type":"Cobra","Lighting_Type":"LED-Powered Lamp","Verification_Date":null},"id":"stl-city-public-streetlights:2:131920","sourceLayerId":2,"sourceObjectId":131920,"sourceURL":"https://maps8.stlouis-mo.gov/arcgis/rest/services/STREETS/Streets_Permitting/MapServer/2","title":"Street light L024636"},"type":"Feature"},{"geometry":{"coordinates":[-90.27438247316763,38.683729669812394],"type":"Point"},"id":"stl-city-public-streetlights:2:131921","properties":{"address":null,"attributes":{"Date_Installed":"1/2020","LED_Powered":1,"LightID":"L024637","Light_Source":"LED","Light_Type":"Cobra","Lighting_Type":"LED-Powered Lamp","Verification_Date":null},"id":"stl-city-public-streetlights:2:131921","sourceLayerId":2,"sourceObjectId":131921,"sourceURL":"https://maps8.stlouis-mo.gov/arcgis/rest/services/STREETS/Streets_Permitting/MapServer/2","title":"Street light L024637"},"type":"Feature"},{"geometry":{"coordinates":[-90.27480168685217,38.683920688378954],"type":"Point"},"id":"stl-city-public-streetlights:2:131922","properties":{"address":null,"attributes":{"Date_Installed":"1/2020","LED_Powered":1,"LightID":"L024638","Light_Source":"LED","Light_Type":"Cobra","Lighting_Type":"LED-Powered Lamp","Verification_Date":null},"id":"stl-city-public-streetlights:2:131922","sourceLayerId":2,"sourceObjectId":131922,"sourceURL":"https://maps8.stlouis-mo.gov/arcgis/rest/services/STREETS/Streets_Permitting/MapServer/2","title":"Street light L024638"},"type":"Feature"},{"geometry":{"coordinates":[-90.27018285636994,38.68253488502012],"type":"Point"},"id":"stl-city-public-streetlights:2:132843","properties":{"address":null,"attributes":{"Date_Installed":"1/2020","LED_Powered":1,"LightID":"L025559","Light_Source":"LED","Light_Type":"Cobra","Lighting_Type":"LED-Powered Lamp","Verification_Date":null},"id":"stl-city-public-streetlights:2:132843","sourceLayerId":2,"sourceObjectId":132843,"sourceURL":"https://maps8.stlouis-mo.gov/arcgis/rest/services/STREETS/Streets_Permitting/MapServer/2","title":"Street light L025559"},"type":"Feature"},{"geometry":{"coordinates":[-90.27036860368031,38.682266857902285],"type":"Point"},"id":"stl-city-public-streetlights:2:132844","properties":{"address":null,"attributes":{"Date_Installed":"1/2020","LED_Powered":1,"LightID":"L025560","Light_Source":"LED","Light_Type":"Cobra","Lighting_Type":"LED-Powered Lamp","Verification_Date":null},"id":"stl-city-public-streetlights:2:132844","sourceLayerId":2,"sourceObjectId":132844,"sourceURL":"https://maps8.stlouis-mo.gov/arcgis/rest/services/STREETS/Streets_Permitting/MapServer/2","title":"Street light L025560"},"type":"Feature"},{"geometry":{"coordinates":[-90.27057020576625,38.681985512293515],"type":"Point"},"id":"stl-city-public-streetlights:2:132845","properties":{"address":null,"attributes":{"Date_Installed":"1/2020","LED_Powered":1,"LightID":"L025561","Light_Source":"LED","Light_Type":"Cobra","Lighting_Type":"LED-Powered Lamp","Verification_Date":null},"id":"stl-city-public-streetlights:2:132845","sourceLayerId":2,"sourceObjectId":132845,"sourceURL":"https://maps8.stlouis-mo.gov/arcgis/rest/services/STREETS/Streets_Permitting/MapServer/2","title":"Street light L025561"},"type":"Feature"},{"geometry":{"coordinates":[-90.27068433655931,38.681669672102366],"type":"Point"},"id":"stl-city-public-streetlights:2:132846","properties":{"address":null,"attributes":{"Date_Installed":"1/2020","LED_Powered":1,"LightID":"L025562","Light_Source":"LED","Light_Type":"Cobra","Lighting_Type":"LED-Powered Lamp","Verification_Date":null},"id":"stl-city-public-streetlights:2:132846","sourceLayerId":2,"sourceObjectId":132846,"sourceURL":"https://maps8.stlouis-mo.gov/arcgis/rest/services/STREETS/Streets_Permitting/MapServer/2","title":"Street light L025562"},"type":"Feature"},{"geometry":{"coordinates":[-90.27038691556717,38.68143722467007],"type":"Point"},"id":"stl-city-public-streetlights:2:132847","properties":{"address":null,"attributes":{"Date_Installed":"1/2020","LED_Powered":1,"LightID":"L025563","Light_Source":"LED","Light_Type":"Cobra","Lighting_Type":"LED-Powered Lamp","Verification_Date":null},"id":"stl-city-public-streetlights:2:132847","sourceLayerId":2,"sourceObjectId":132847,"sourceURL":"https://maps8.stlouis-mo.gov/arcgis/rest/services/STREETS/Streets_Permitting/MapServer/2","title":"Street light L025563"},"type":"Feature"},{"geometry":{"coordinates":[-90.27001983681077,38.68023178829855],"type":"Point"},"id":"stl-city-public-streetlights:2:132870","properties":{"address":null,"attributes":{"Date_Installed":"1/2020","LED_Powered":1,"LightID":"L025586","Light_Source":"LED","Light_Type":"Cobra","Lighting_Type":"LED-Powered Lamp","Verification_Date":null},"id":"stl-city-public-streetlights:2:132870","sourceLayerId":2,"sourceObjectId":132870,"sourceURL":"https://maps8.stlouis-mo.gov/arcgis/rest/services/STREETS/Streets_Permitting/MapServer/2","title":"Street light L025586"},"type":"Feature"},{"geometry":{"coordinates":[-90.2704087373407,38.680335524241535],"type":"Point"},"id":"stl-city-public-streetlights:2:132871","properties":{"address":null,"attributes":{"Date_Installed":"1/2020","LED_Powered":1,"LightID":"L025587","Light_Source":"LED","Light_Type":"Cobra","Lighting_Type":"LED-Powered Lamp","Verification_Date":null},"id":"stl-city-public-streetlights:2:132871","sourceLayerId":2,"sourceObjectId":132871,"sourceURL":"https://maps8.stlouis-mo.gov/arcgis/rest/services/STREETS/Streets_Permitting/MapServer/2","title":"Street light L025587"},"type":"Feature"},{"geometry":{"coordinates":[-90.27082932391478,38.6804202510843],"type":"Point"},"id":"stl-city-public-streetlights:2:132872","properties":{"address":null,"attributes":{"Date_Installed":"1/2020","LED_Powered":1,"LightID":"L025588","Light_Source":"LED","Light_Type":"Cobra","Lighting_Type":"LED-Powered Lamp","Verification_Date":null},"id":"stl-city-public-streetlights:2:132872","sourceLayerId":2,"sourceObjectId":132872,"sourceURL":"https://maps8.stlouis-mo.gov/arcgis/rest/services/STREETS/Streets_Permitting/MapServer/2","title":"Street light L025588"},"type":"Feature"},{"geometry":{"coordinates":[-90.2712373417312,38.68050527074376],"type":"Point"},"id":"stl-city-public-streetlights:2:132873","properties":{"address":null,"attributes":{"Date_Installed":"1/2020","LED_Powered":1,"LightID":"L025589","Light_Source":"LED","Light_Type":"Cobra","Lighting_Type":"LED-Powered Lamp","Verification_Date":null},"id":"stl-city-public-streetlights:2:132873","sourceLayerId":2,"sourceObjectId":132873,"sourceURL":"https://maps8.stlouis-mo.gov/arcgis/rest/services/STREETS/Streets_Permitting/MapServer/2","title":"Street light L025589"},"type":"Feature"},{"geometry":{"coordinates":[-90.27162996006393,38.68058803282877],"type":"Point"},"id":"stl-city-public-streetlights:2:132874","properties":{"address":null,"attributes":{"Date_Installed":"1/2020","LED_Powered":1,"LightID":"L025590","Light_Source":"LED","Light_Type":"Cobra","Lighting_Type":"LED-Powered Lamp","Verification_Date":null},"id":"stl-city-public-streetlights:2:132874","sourceLayerId":2,"sourceObjectId":132874,"sourceURL":"https://maps8.stlouis-mo.gov/arcgis/rest/services/STREETS/Streets_Permitting/MapServer/2","title":"Street light L025590"},"type":"Feature"},{"geometry":{"coordinates":[-90.2720338200049,38.68068079549296],"type":"Point"},"id":"stl-city-public-streetlights:2:132875","properties":{"address":null,"attributes":{"Date_Installed":"1/2020","LED_Powered":1,"LightID":"L025591","Light_Source":"LED","Light_Type":"Cobra","Lighting_Type":"LED-Powered Lamp","Verification_Date":null},"id":"stl-city-public-streetlights:2:132875","sourceLayerId":2,"sourceObjectId":132875,"sourceURL":"https://maps8.stlouis-mo.gov/arcgis/rest/services/STREETS/Streets_Permitting/MapServer/2","title":"Street light L025591"},"type":"Feature"},{"geometry":{"coordinates":[-90.27241387254833,38.680795114519654],"type":"Point"},"id":"stl-city-public-streetlights:2:132876","properties":{"address":null,"attributes":{"Date_Installed":"1/2020","LED_Powered":1,"LightID":"L025592","Light_Source":"LED","Light_Type":"Cobra","Lighting_Type":"LED-Powered Lamp","Verification_Date":null},"id":"stl-city-public-streetlights:2:132876","sourceLayerId":2,"sourceObjectId":132876,"sourceURL":"https://maps8.stlouis-mo.gov/arcgis/rest/services/STREETS/Streets_Permitting/MapServer/2","title":"Street light L025592"},"type":"Feature"},{"geometry":{"coordinates":[-90.27277588113888,38.68093299409116],"type":"Point"},"id":"stl-city-public-streetlights:2:132877","properties":{"address":null,"attributes":{"Date_Installed":"1/2020","LED_Powered":1,"LightID":"L025593","Light_Source":"LED","Light_Type":"Cobra","Lighting_Type":"LED-Powered Lamp","Verification_Date":null},"id":"stl-city-public-streetlights:2:132877","sourceLayerId":2,"sourceObjectId":132877,"sourceURL":"https://maps8.stlouis-mo.gov/arcgis/rest/services/STREETS/Streets_Permitting/MapServer/2","title":"Street light L025593"},"type":"Feature"},{"geometry":{"coordinates":[-90.27312267089343,38.68108538237382],"type":"Point"},"id":"stl-city-public-streetlights:2:132878","properties":{"address":null,"attributes":{"Date_Installed":"1/2020","LED_Powered":1,"LightID":"L025594","Light_Source":"LED","Light_Type":"Cobra","Lighting_Type":"LED-Powered Lamp","Verification_Date":null},"id":"stl-city-public-streetlights:2:132878","sourceLayerId":2,"sourceObjectId":132878,"sourceURL":"https://maps8.stlouis-mo.gov/arcgis/rest/services/STREETS/Streets_Permitting/MapServer/2","title":"Street light L025594"},"type":"Feature"},{"geometry":{"coordinates":[-90.2735545350302,38.6804403850988],"type":"Point"},"id":"stl-city-public-streetlights:2:132879","properties":{"address":null,"attributes":{"Date_Installed":"1/2020","LED_Powered":1,"LightID":"L025595","Light_Source":"LED","Light_Type":"Cobra","Lighting_Type":"LED-Powered Lamp","Verification_Date":null},"id":"stl-city-public-streetlights:2:132879","sourceLayerId":2,"sourceObjectId":132879,"sourceURL":"https://maps8.stlouis-mo.gov/arcgis/rest/services/STREETS/Streets_Permitting/MapServer/2","title":"Street light L025595"},"type":"Feature"},{"geometry":{"coordinates":[-90.27320712406029,38.68029288326905],"type":"Point"},"id":"stl-city-public-streetlights:2:132880","properties":{"address":null,"attributes":{"Date_Installed":"1/2020","LED_Powered":1,"LightID":"L025596","Light_Source":"LED","Light_Type":"Cobra","Lighting_Type":"LED-Powered Lamp","Verification_Date":null},"id":"stl-city-public-streetlights:2:132880","sourceLayerId":2,"sourceObjectId":132880,"sourceURL":"https://maps8.stlouis-mo.gov/arcgis/rest/services/STREETS/Streets_Permitting/MapServer/2","title":"Street light L025596"},"type":"Feature"},{"geometry":{"coordinates":[-90.27286211141549,38.68015682538108],"type":"Point"},"id":"stl-city-public-streetlights:2:132881","properties":{"address":null,"attributes":{"Date_Installed":"1/2020","LED_Powered":1,"LightID":"L025597","Light_Source":"LED","Light_Type":"Cobra","Lighting_Type":"LED-Powered Lamp","Verification_Date":null},"id":"stl-city-public-streetlights:2:132881","sourceLayerId":2,"sourceObjectId":132881,"sourceURL":"https://maps8.stlouis-mo.gov/arcgis/rest/services/STREETS/Streets_Permitting/MapServer/2","title":"Street light L025597"},"type":"Feature"},{"geometry":{"coordinates":[-90.27247234167923,38.680019345203405],"type":"Point"},"id":"stl-city-public-streetlights:2:132882","properties":{"address":null,"attributes":{"Date_Installed":"1/2020","LED_Powered":1,"LightID":"L025598","Light_Source":"LED","Light_Type":"Cobra","Lighting_Type":"LED-Powered Lamp","Verification_Date":null},"id":"stl-city-public-streetlights:2:132882","sourceLayerId":2,"sourceObjectId":132882,"sourceURL":"https://maps8.stlouis-mo.gov/arcgis/rest/services/STREETS/Streets_Permitting/MapServer/2","title":"Street light L025598"},"type":"Feature"},{"geometry":{"coordinates":[-90.27470569764661,38.680018239927534],"type":"Point"},"id":"stl-city-public-streetlights:2:153204","properties":{"address":null,"attributes":{"Date_Installed":null,"LED_Powered":1,"LightID":"L046058","Light_Source":"LED","Light_Type":"Cobra","Lighting_Type":"LED-Powered Lamp","Verification_Date":null},"id":"stl-city-public-streetlights:2:153204","sourceLayerId":2,"sourceObjectId":153204,"sourceURL":"https://maps8.stlouis-mo.gov/arcgis/rest/services/STREETS/Streets_Permitting/MapServer/2","title":"Street light L046058"},"type":"Feature"},{"geometry":{"coordinates":[-90.2750771471538,38.680180704878396],"type":"Point"},"id":"stl-city-public-streetlights:2:153205","properties":{"address":null,"attributes":{"Date_Installed":null,"LED_Powered":1,"LightID":"L046059","Light_Source":"LED","Light_Type":"Cobra","Lighting_Type":"LED-Powered Lamp","Verification_Date":null},"id":"stl-city-public-streetlights:2:153205","sourceLayerId":2,"sourceObjectId":153205,"sourceURL":"https://maps8.stlouis-mo.gov/arcgis/rest/services/STREETS/Streets_Permitting/MapServer/2","title":"Street light L046059"},"type":"Feature"},{"geometry":{"coordinates":[-90.2754779943783,38.68035595456787],"type":"Point"},"id":"stl-city-public-streetlights:2:153206","properties":{"address":null,"attributes":{"Date_Installed":null,"LED_Powered":1,"LightID":"L046060","Light_Source":"LED","Light_Type":"Cobra","Lighting_Type":"LED-Powered Lamp","Verification_Date":null},"id":"stl-city-public-streetlights:2:153206","sourceLayerId":2,"sourceObjectId":153206,"sourceURL":"https://maps8.stlouis-mo.gov/arcgis/rest/services/STREETS/Streets_Permitting/MapServer/2","title":"Street light L046060"},"type":"Feature"},{"geometry":{"coordinates":[-90.27587701847627,38.680531198485816],"type":"Point"},"id":"stl-city-public-streetlights:2:153207","properties":{"address":null,"attributes":{"Date_Installed":null,"LED_Powered":1,"LightID":"L046061","Light_Source":"LED","Light_Type":"Cobra","Lighting_Type":"LED-Powered Lamp","Verification_Date":null},"id":"stl-city-public-streetlights:2:153207","sourceLayerId":2,"sourceObjectId":153207,"sourceURL":"https://maps8.stlouis-mo.gov/arcgis/rest/services/STREETS/Streets_Permitting/MapServer/2","title":"Street light L046061"},"type":"Feature"},{"geometry":{"coordinates":[-90.27626948775467,38.680717501257675],"type":"Point"},"id":"stl-city-public-streetlights:2:153208","properties":{"address":null,"attributes":{"Date_Installed":null,"LED_Powered":1,"LightID":"L046062","Light_Source":"LED","Light_Type":"Cobra","Lighting_Type":"LED-Powered Lamp","Verification_Date":null},"id":"stl-city-public-streetlights:2:153208","sourceLayerId":2,"sourceObjectId":153208,"sourceURL":"https://maps8.stlouis-mo.gov/arcgis/rest/services/STREETS/Streets_Permitting/MapServer/2","title":"Street light L046062"},"type":"Feature"},{"geometry":{"coordinates":[-90.27660056261021,38.68096263025003],"type":"Point"},"id":"stl-city-public-streetlights:2:153209","properties":{"address":null,"attributes":{"Date_Installed":null,"LED_Powered":1,"LightID":"L046063","Light_Source":"LED","Light_Type":"Cobra","Lighting_Type":"LED-Powered Lamp","Verification_Date":null},"id":"stl-city-public-streetlights:2:153209","sourceLayerId":2,"sourceObjectId":153209,"sourceURL":"https://maps8.stlouis-mo.gov/arcgis/rest/services/STREETS/Streets_Permitting/MapServer/2","title":"Street light L046063"},"type":"Feature"},{"geometry":{"coordinates":[-90.27693141807892,38.68120585160986],"type":"Point"},"id":"stl-city-public-streetlights:2:153210","properties":{"address":null,"attributes":{"Date_Installed":null,"LED_Powered":1,"LightID":"L046064","Light_Source":"LED","Light_Type":"Cobra","Lighting_Type":"LED-Powered Lamp","Verification_Date":null},"id":"stl-city-public-streetlights:2:153210","sourceLayerId":2,"sourceObjectId":153210,"sourceURL":"https://maps8.stlouis-mo.gov/arcgis/rest/services/STREETS/Streets_Permitting/MapServer/2","title":"Street light L046064"},"type":"Feature"},{"geometry":{"coordinates":[-90.27249350361056,38.682679907065044],"type":"Point"},"id":"stl-city-public-streetlights:2:153211","properties":{"address":null,"attributes":{"Date_Installed":null,"LED_Powered":1,"LightID":"L046065","Light_Source":"LED","Light_Type":"Cobra","Lighting_Type":"LED-Powered Lamp","Verification_Date":null},"id":"stl-city-public-streetlights:2:153211","sourceLayerId":2,"sourceObjectId":153211,"sourceURL":"https://maps8.stlouis-mo.gov/arcgis/rest/services/STREETS/Streets_Permitting/MapServer/2","title":"Street light L046065"},"type":"Feature"},{"geometry":{"coordinates":[-90.27258705903974,38.6824252832653],"type":"Point"},"id":"stl-city-public-streetlights:2:153212","properties":{"address":null,"attributes":{"Date_Installed":null,"LED_Powered":1,"LightID":"L046066","Light_Source":"LED","Light_Type":"Cobra","Lighting_Type":"LED-Powered Lamp","Verification_Date":null},"id":"stl-city-public-streetlights:2:153212","sourceLayerId":2,"sourceObjectId":153212,"sourceURL":"https://maps8.stlouis-mo.gov/arcgis/rest/services/STREETS/Streets_Permitting/MapServer/2","title":"Street light L046066"},"type":"Feature"},{"geometry":{"coordinates":[-90.2727557053286,38.68198500447408],"type":"Point"},"id":"stl-city-public-streetlights:2:153213","properties":{"address":null,"attributes":{"Date_Installed":null,"LED_Powered":1,"LightID":"L046067","Light_Source":"LED","Light_Type":"Cobra","Lighting_Type":"LED-Powered Lamp","Verification_Date":null},"id":"stl-city-public-streetlights:2:153213","sourceLayerId":2,"sourceObjectId":153213,"sourceURL":"https://maps8.stlouis-mo.gov/arcgis/rest/services/STREETS/Streets_Permitting/MapServer/2","title":"Street light L046067"},"type":"Feature"},{"geometry":{"coordinates":[-90.27296407895791,38.68167435043045],"type":"Point"},"id":"stl-city-public-streetlights:2:153214","properties":{"address":null,"attributes":{"Date_Installed":null,"LED_Powered":1,"LightID":"L046068","Light_Source":"LED","Light_Type":"Cobra","Lighting_Type":"LED-Powered Lamp","Verification_Date":null},"id":"stl-city-public-streetlights:2:153214","sourceLayerId":2,"sourceObjectId":153214,"sourceURL":"https://maps8.stlouis-mo.gov/arcgis/rest/services/STREETS/Streets_Permitting/MapServer/2","title":"Street light L046068"},"type":"Feature"},{"geometry":{"coordinates":[-90.27320698410058,38.68130953700135],"type":"Point"},"id":"stl-city-public-streetlights:2:153215","properties":{"address":null,"attributes":{"Date_Installed":null,"LED_Powered":1,"LightID":"L046069","Light_Source":"LED","Light_Type":"Cobra","Lighting_Type":"LED-Powered Lamp","Verification_Date":null},"id":"stl-city-public-streetlights:2:153215","sourceLayerId":2,"sourceObjectId":153215,"sourceURL":"https://maps8.stlouis-mo.gov/arcgis/rest/services/STREETS/Streets_Permitting/MapServer/2","title":"Street light L046069"},"type":"Feature"},{"geometry":{"coordinates":[-90.27346712036378,38.68092806935774],"type":"Point"},"id":"stl-city-public-streetlights:2:153216","properties":{"address":null,"attributes":{"Date_Installed":null,"LED_Powered":1,"LightID":"L046070","Light_Source":"LED","Light_Type":"Cobra","Lighting_Type":"LED-Powered Lamp","Verification_Date":null},"id":"stl-city-public-streetlights:2:153216","sourceLayerId":2,"sourceObjectId":153216,"sourceURL":"https://maps8.stlouis-mo.gov/arcgis/rest/services/STREETS/Streets_Permitting/MapServer/2","title":"Street light L046070"},"type":"Feature"},{"geometry":{"coordinates":[-90.27372635144027,38.68054338320279],"type":"Point"},"id":"stl-city-public-streetlights:2:153217","properties":{"address":null,"attributes":{"Date_Installed":null,"LED_Powered":1,"LightID":"L046071","Light_Source":"LED","Light_Type":"Cobra","Lighting_Type":"LED-Powered Lamp","Verification_Date":null},"id":"stl-city-public-streetlights:2:153217","sourceLayerId":2,"sourceObjectId":153217,"sourceURL":"https://maps8.stlouis-mo.gov/arcgis/rest/services/STREETS/Streets_Permitting/MapServer/2","title":"Street light L046071"},"type":"Feature"},{"geometry":{"coordinates":[-90.273990741002,38.68015694698805],"type":"Point"},"id":"stl-city-public-streetlights:2:154398","properties":{"address":null,"attributes":{"Date_Installed":null,"LED_Powered":1,"LightID":"L052380","Light_Source":"LED","Light_Type":"Cobra","Lighting_Type":"LED-Powered Lamp","Verification_Date":null},"id":"stl-city-public-streetlights:2:154398","sourceLayerId":2,"sourceObjectId":154398,"sourceURL":"https://maps8.stlouis-mo.gov/arcgis/rest/services/STREETS/Streets_Permitting/MapServer/2","title":"Street light L052380"},"type":"Feature"}],"layerId":"city-streetlights","retrievedAt":"2026-09-13T21:56:18.173251+00:00","schema":"property-infrastructure-geojson-v1","sourceId":"stl-city-public-streetlights","tileId":"-9028_3868","type":"FeatureCollection"}