{"features":[{"geometry":{"coordinates":[-90.30005684570511,38.56681515960555],"type":"Point"},"id":"stl-city-public-streetlights:2:109047","properties":{"address":null,"attributes":{"Date_Installed":null,"LED_Powered":0,"LightID":"L001791","Light_Source":"LED","Light_Type":"Cobra","Lighting_Type":"LED-Powered Lamp","Verification_Date":null},"id":"stl-city-public-streetlights:2:109047","sourceLayerId":2,"sourceObjectId":109047,"sourceURL":"https://maps8.stlouis-mo.gov/arcgis/rest/services/STREETS/Streets_Permitting/MapServer/2","title":"Street light L001791"},"type":"Feature"},{"geometry":{"coordinates":[-90.30043671675581,38.56712383315177],"type":"Point"},"id":"stl-city-public-streetlights:2:109048","properties":{"address":null,"attributes":{"Date_Installed":null,"LED_Powered":0,"LightID":"L001792","Light_Source":"LED","Light_Type":"Cobra","Lighting_Type":"LED-Powered Lamp","Verification_Date":null},"id":"stl-city-public-streetlights:2:109048","sourceLayerId":2,"sourceObjectId":109048,"sourceURL":"https://maps8.stlouis-mo.gov/arcgis/rest/services/STREETS/Streets_Permitting/MapServer/2","title":"Street light L001792"},"type":"Feature"},{"geometry":{"coordinates":[-90.30082748298075,38.56744628975976],"type":"Point"},"id":"stl-city-public-streetlights:2:109049","properties":{"address":null,"attributes":{"Date_Installed":null,"LED_Powered":0,"LightID":"L001793","Light_Source":"LED","Light_Type":"Cobra","Lighting_Type":"LED-Powered Lamp","Verification_Date":null},"id":"stl-city-public-streetlights:2:109049","sourceLayerId":2,"sourceObjectId":109049,"sourceURL":"https://maps8.stlouis-mo.gov/arcgis/rest/services/STREETS/Streets_Permitting/MapServer/2","title":"Street light L001793"},"type":"Feature"},{"geometry":{"coordinates":[-90.30121627966125,38.56776849846107],"type":"Point"},"id":"stl-city-public-streetlights:2:109050","properties":{"address":null,"attributes":{"Date_Installed":null,"LED_Powered":0,"LightID":"L001794","Light_Source":"LED","Light_Type":"Cobra","Lighting_Type":"LED-Powered Lamp","Verification_Date":null},"id":"stl-city-public-streetlights:2:109050","sourceLayerId":2,"sourceObjectId":109050,"sourceURL":"https://maps8.stlouis-mo.gov/arcgis/rest/services/STREETS/Streets_Permitting/MapServer/2","title":"Street light L001794"},"type":"Feature"},{"geometry":{"coordinates":[-90.3016016067737,38.568084269344695],"type":"Point"},"id":"stl-city-public-streetlights:2:109051","properties":{"address":null,"attributes":{"Date_Installed":null,"LED_Powered":0,"LightID":"L001795","Light_Source":"LED","Light_Type":"Cobra","Lighting_Type":"LED-Powered Lamp","Verification_Date":null},"id":"stl-city-public-streetlights:2:109051","sourceLayerId":2,"sourceObjectId":109051,"sourceURL":"https://maps8.stlouis-mo.gov/arcgis/rest/services/STREETS/Streets_Permitting/MapServer/2","title":"Street light L001795"},"type":"Feature"},{"geometry":{"coordinates":[-90.30194626320815,38.56841851518863],"type":"Point"},"id":"stl-city-public-streetlights:2:109052","properties":{"address":null,"attributes":{"Date_Installed":null,"LED_Powered":0,"LightID":"L001796","Light_Source":"LED","Light_Type":"Cobra","Lighting_Type":"LED-Powered Lamp","Verification_Date":null},"id":"stl-city-public-streetlights:2:109052","sourceLayerId":2,"sourceObjectId":109052,"sourceURL":"https://maps8.stlouis-mo.gov/arcgis/rest/services/STREETS/Streets_Permitting/MapServer/2","title":"Street light L001796"},"type":"Feature"},{"geometry":{"coordinates":[-90.30229328758489,38.56875328742468],"type":"Point"},"id":"stl-city-public-streetlights:2:109053","properties":{"address":null,"attributes":{"Date_Installed":null,"LED_Powered":0,"LightID":"L001797","Light_Source":"LED","Light_Type":"Cobra","Lighting_Type":"LED-Powered Lamp","Verification_Date":null},"id":"stl-city-public-streetlights:2:109053","sourceLayerId":2,"sourceObjectId":109053,"sourceURL":"https://maps8.stlouis-mo.gov/arcgis/rest/services/STREETS/Streets_Permitting/MapServer/2","title":"Street light L001797"},"type":"Feature"},{"geometry":{"coordinates":[-90.30265649725885,38.5690554786959],"type":"Point"},"id":"stl-city-public-streetlights:2:109054","properties":{"address":null,"attributes":{"Date_Installed":null,"LED_Powered":0,"LightID":"L001798","Light_Source":"LED","Light_Type":"Cobra","Lighting_Type":"LED-Powered Lamp","Verification_Date":null},"id":"stl-city-public-streetlights:2:109054","sourceLayerId":2,"sourceObjectId":109054,"sourceURL":"https://maps8.stlouis-mo.gov/arcgis/rest/services/STREETS/Streets_Permitting/MapServer/2","title":"Street light L001798"},"type":"Feature"},{"geometry":{"coordinates":[-90.30305539366465,38.56938795319738],"type":"Point"},"id":"stl-city-public-streetlights:2:109055","properties":{"address":null,"attributes":{"Date_Installed":null,"LED_Powered":0,"LightID":"L001799","Light_Source":"LED","Light_Type":"Cobra","Lighting_Type":"LED-Powered Lamp","Verification_Date":null},"id":"stl-city-public-streetlights:2:109055","sourceLayerId":2,"sourceObjectId":109055,"sourceURL":"https://maps8.stlouis-mo.gov/arcgis/rest/services/STREETS/Streets_Permitting/MapServer/2","title":"Street light L001799"},"type":"Feature"},{"geometry":{"coordinates":[-90.30342372743398,38.569706263293504],"type":"Point"},"id":"stl-city-public-streetlights:2:109056","properties":{"address":null,"attributes":{"Date_Installed":null,"LED_Powered":0,"LightID":"L001800","Light_Source":"LED","Light_Type":"Cobra","Lighting_Type":"LED-Powered Lamp","Verification_Date":null},"id":"stl-city-public-streetlights:2:109056","sourceLayerId":2,"sourceObjectId":109056,"sourceURL":"https://maps8.stlouis-mo.gov/arcgis/rest/services/STREETS/Streets_Permitting/MapServer/2","title":"Street light L001800"},"type":"Feature"},{"geometry":{"coordinates":[-90.30020483855425,38.56867105950194],"type":"Point"},"id":"stl-city-public-streetlights:2:109094","properties":{"address":null,"attributes":{"Date_Installed":"8/1/2016","LED_Powered":1,"LightID":"L001838","Light_Source":"LED","Light_Type":"Cobra","Lighting_Type":"LED-Powered Lamp","Verification_Date":null},"id":"stl-city-public-streetlights:2:109094","sourceLayerId":2,"sourceObjectId":109094,"sourceURL":"https://maps8.stlouis-mo.gov/arcgis/rest/services/STREETS/Streets_Permitting/MapServer/2","title":"Street light L001838"},"type":"Feature"},{"geometry":{"coordinates":[-90.3008232112251,38.569023652952914],"type":"Point"},"id":"stl-city-public-streetlights:2:109095","properties":{"address":null,"attributes":{"Date_Installed":"8/1/2016","LED_Powered":1,"LightID":"L001839","Light_Source":"LED","Light_Type":"Cobra","Lighting_Type":"LED-Powered Lamp","Verification_Date":null},"id":"stl-city-public-streetlights:2:109095","sourceLayerId":2,"sourceObjectId":109095,"sourceURL":"https://maps8.stlouis-mo.gov/arcgis/rest/services/STREETS/Streets_Permitting/MapServer/2","title":"Street light L001839"},"type":"Feature"},{"geometry":{"coordinates":[-90.30015527220726,38.568363319016065],"type":"Point"},"id":"stl-city-public-streetlights:2:109097","properties":{"address":null,"attributes":{"Date_Installed":"8/1/2016","LED_Powered":1,"LightID":"L001841","Light_Source":"LED","Light_Type":"Cobra","Lighting_Type":"LED-Powered Lamp","Verification_Date":null},"id":"stl-city-public-streetlights:2:109097","sourceLayerId":2,"sourceObjectId":109097,"sourceURL":"https://maps8.stlouis-mo.gov/arcgis/rest/services/STREETS/Streets_Permitting/MapServer/2","title":"Street light L001841"},"type":"Feature"},{"geometry":{"coordinates":[-90.30060055689981,38.5686874666785],"type":"Point"},"id":"stl-city-public-streetlights:2:109098","properties":{"address":null,"attributes":{"Date_Installed":"8/1/2016","LED_Powered":1,"LightID":"L001842","Light_Source":"LED","Light_Type":"Cobra","Lighting_Type":"LED-Powered Lamp","Verification_Date":null},"id":"stl-city-public-streetlights:2:109098","sourceLayerId":2,"sourceObjectId":109098,"sourceURL":"https://maps8.stlouis-mo.gov/arcgis/rest/services/STREETS/Streets_Permitting/MapServer/2","title":"Street light L001842"},"type":"Feature"},{"geometry":{"coordinates":[-90.30117411693196,38.56927167111517],"type":"Point"},"id":"stl-city-public-streetlights:2:109099","properties":{"address":null,"attributes":{"Date_Installed":"8/1/2016","LED_Powered":1,"LightID":"L001843","Light_Source":"LED","Light_Type":"Cobra","Lighting_Type":"LED-Powered Lamp","Verification_Date":null},"id":"stl-city-public-streetlights:2:109099","sourceLayerId":2,"sourceObjectId":109099,"sourceURL":"https://maps8.stlouis-mo.gov/arcgis/rest/services/STREETS/Streets_Permitting/MapServer/2","title":"Street light L001843"},"type":"Feature"},{"geometry":{"coordinates":[-90.30151498785436,38.569526249580356],"type":"Point"},"id":"stl-city-public-streetlights:2:109100","properties":{"address":null,"attributes":{"Date_Installed":"8/1/2016","LED_Powered":1,"LightID":"L001844","Light_Source":"LED","Light_Type":"Cobra","Lighting_Type":"LED-Powered Lamp","Verification_Date":null},"id":"stl-city-public-streetlights:2:109100","sourceLayerId":2,"sourceObjectId":109100,"sourceURL":"https://maps8.stlouis-mo.gov/arcgis/rest/services/STREETS/Streets_Permitting/MapServer/2","title":"Street light L001844"},"type":"Feature"},{"geometry":{"coordinates":[-90.30185039111608,38.56978282049135],"type":"Point"},"id":"stl-city-public-streetlights:2:109101","properties":{"address":null,"attributes":{"Date_Installed":"8/1/2016","LED_Powered":1,"LightID":"L001845","Light_Source":"LED","Light_Type":"Cobra","Lighting_Type":"LED-Powered Lamp","Verification_Date":null},"id":"stl-city-public-streetlights:2:109101","sourceLayerId":2,"sourceObjectId":109101,"sourceURL":"https://maps8.stlouis-mo.gov/arcgis/rest/services/STREETS/Streets_Permitting/MapServer/2","title":"Street light L001845"},"type":"Feature"}],"layerId":"city-streetlights","retrievedAt":"2026-09-13T21:56:18.173251+00:00","schema":"property-infrastructure-geojson-v1","sourceId":"stl-city-public-streetlights","tileId":"-9031_3856","type":"FeatureCollection"}