{"features":[{"geometry":{"coordinates":[-90.29049206599782,38.55814070365993],"type":"Point"},"id":"stl-city-public-streetlights:2:108875","properties":{"address":null,"attributes":{"Date_Installed":"8/22/2018","LED_Powered":1,"LightID":"L001619","Light_Source":"LED","Light_Type":"Cobra","Lighting_Type":"LED-Powered Lamp","Verification_Date":null},"id":"stl-city-public-streetlights:2:108875","sourceLayerId":2,"sourceObjectId":108875,"sourceURL":"https://maps8.stlouis-mo.gov/arcgis/rest/services/STREETS/Streets_Permitting/MapServer/2","title":"Street light L001619"},"type":"Feature"},{"geometry":{"coordinates":[-90.29019296281162,38.55792522348139],"type":"Point"},"id":"stl-city-public-streetlights:2:108878","properties":{"address":null,"attributes":{"Date_Installed":"8/22/2018","LED_Powered":1,"LightID":"L001622","Light_Source":"LED","Light_Type":"Cobra","Lighting_Type":"LED-Powered Lamp","Verification_Date":null},"id":"stl-city-public-streetlights:2:108878","sourceLayerId":2,"sourceObjectId":108878,"sourceURL":"https://maps8.stlouis-mo.gov/arcgis/rest/services/STREETS/Streets_Permitting/MapServer/2","title":"Street light L001622"},"type":"Feature"},{"geometry":{"coordinates":[-90.2908216681632,38.55837703490021],"type":"Point"},"id":"stl-city-public-streetlights:2:108879","properties":{"address":null,"attributes":{"Date_Installed":"8/22/2018","LED_Powered":1,"LightID":"L001623","Light_Source":"LED","Light_Type":"Cobra","Lighting_Type":"LED-Powered Lamp","Verification_Date":null},"id":"stl-city-public-streetlights:2:108879","sourceLayerId":2,"sourceObjectId":108879,"sourceURL":"https://maps8.stlouis-mo.gov/arcgis/rest/services/STREETS/Streets_Permitting/MapServer/2","title":"Street light L001623"},"type":"Feature"},{"geometry":{"coordinates":[-90.29117486557817,38.55852656931653],"type":"Point"},"id":"stl-city-public-streetlights:2:108880","properties":{"address":null,"attributes":{"Date_Installed":"8/22/2018","LED_Powered":1,"LightID":"L001624","Light_Source":"LED","Light_Type":"Cobra","Lighting_Type":"LED-Powered Lamp","Verification_Date":null},"id":"stl-city-public-streetlights:2:108880","sourceLayerId":2,"sourceObjectId":108880,"sourceURL":"https://maps8.stlouis-mo.gov/arcgis/rest/services/STREETS/Streets_Permitting/MapServer/2","title":"Street light L001624"},"type":"Feature"},{"geometry":{"coordinates":[-90.29200802033634,38.5590445578716],"type":"Point"},"id":"stl-city-public-streetlights:2:108980","properties":{"address":null,"attributes":{"Date_Installed":"8/22/2018","LED_Powered":1,"LightID":"L001724","Light_Source":"LED","Light_Type":"Cobra","Lighting_Type":"LED-Powered Lamp","Verification_Date":null},"id":"stl-city-public-streetlights:2:108980","sourceLayerId":2,"sourceObjectId":108980,"sourceURL":"https://maps8.stlouis-mo.gov/arcgis/rest/services/STREETS/Streets_Permitting/MapServer/2","title":"Street light L001724"},"type":"Feature"},{"geometry":{"coordinates":[-90.29230472367554,38.55932277876988],"type":"Point"},"id":"stl-city-public-streetlights:2:108981","properties":{"address":null,"attributes":{"Date_Installed":"8/22/2018","LED_Powered":1,"LightID":"L001725","Light_Source":"LED","Light_Type":"Cobra","Lighting_Type":"LED-Powered Lamp","Verification_Date":null},"id":"stl-city-public-streetlights:2:108981","sourceLayerId":2,"sourceObjectId":108981,"sourceURL":"https://maps8.stlouis-mo.gov/arcgis/rest/services/STREETS/Streets_Permitting/MapServer/2","title":"Street light L001725"},"type":"Feature"},{"geometry":{"coordinates":[-90.29260516570868,38.55956846854348],"type":"Point"},"id":"stl-city-public-streetlights:2:108982","properties":{"address":null,"attributes":{"Date_Installed":"8/22/2018","LED_Powered":1,"LightID":"L001726","Light_Source":"LED","Light_Type":"Cobra","Lighting_Type":"LED-Powered Lamp","Verification_Date":null},"id":"stl-city-public-streetlights:2:108982","sourceLayerId":2,"sourceObjectId":108982,"sourceURL":"https://maps8.stlouis-mo.gov/arcgis/rest/services/STREETS/Streets_Permitting/MapServer/2","title":"Street light L001726"},"type":"Feature"},{"geometry":{"coordinates":[-90.29292531371627,38.55982418069944],"type":"Point"},"id":"stl-city-public-streetlights:2:108983","properties":{"address":null,"attributes":{"Date_Installed":"8/22/2018","LED_Powered":1,"LightID":"L001727","Light_Source":"LED","Light_Type":"Cobra","Lighting_Type":"LED-Powered Lamp","Verification_Date":null},"id":"stl-city-public-streetlights:2:108983","sourceLayerId":2,"sourceObjectId":108983,"sourceURL":"https://maps8.stlouis-mo.gov/arcgis/rest/services/STREETS/Streets_Permitting/MapServer/2","title":"Street light L001727"},"type":"Feature"}],"layerId":"city-streetlights","retrievedAt":"2026-09-13T21:56:18.173251+00:00","schema":"property-infrastructure-geojson-v1","sourceId":"stl-city-public-streetlights","tileId":"-9030_3855","type":"FeatureCollection"}