{"features":[{"geometry":{"coordinates":[-90.31023475301095,38.578435301847605],"type":"Point"},"id":"stl-city-public-streetlights:2:109558","properties":{"address":null,"attributes":{"Date_Installed":null,"LED_Powered":0,"LightID":"L002302","Light_Source":"LED","Light_Type":"Cobra","Lighting_Type":"LED-Powered Lamp","Verification_Date":null},"id":"stl-city-public-streetlights:2:109558","sourceLayerId":2,"sourceObjectId":109558,"sourceURL":"https://maps8.stlouis-mo.gov/arcgis/rest/services/STREETS/Streets_Permitting/MapServer/2","title":"Street light L002302"},"type":"Feature"},{"geometry":{"coordinates":[-90.3103575576607,38.578848822768194],"type":"Point"},"id":"stl-city-public-streetlights:2:109559","properties":{"address":null,"attributes":{"Date_Installed":null,"LED_Powered":0,"LightID":"L002303","Light_Source":"LED","Light_Type":"Cobra","Lighting_Type":"LED-Powered Lamp","Verification_Date":null},"id":"stl-city-public-streetlights:2:109559","sourceLayerId":2,"sourceObjectId":109559,"sourceURL":"https://maps8.stlouis-mo.gov/arcgis/rest/services/STREETS/Streets_Permitting/MapServer/2","title":"Street light L002303"},"type":"Feature"},{"geometry":{"coordinates":[-90.31049941822617,38.57929140767065],"type":"Point"},"id":"stl-city-public-streetlights:2:109560","properties":{"address":null,"attributes":{"Date_Installed":null,"LED_Powered":0,"LightID":"L002304","Light_Source":"LED","Light_Type":"Cobra","Lighting_Type":"LED-Powered Lamp","Verification_Date":null},"id":"stl-city-public-streetlights:2:109560","sourceLayerId":2,"sourceObjectId":109560,"sourceURL":"https://maps8.stlouis-mo.gov/arcgis/rest/services/STREETS/Streets_Permitting/MapServer/2","title":"Street light L002304"},"type":"Feature"},{"geometry":{"coordinates":[-90.310655862517,38.57972026193118],"type":"Point"},"id":"stl-city-public-streetlights:2:109561","properties":{"address":null,"attributes":{"Date_Installed":null,"LED_Powered":0,"LightID":"L002305","Light_Source":"LED","Light_Type":"Cobra","Lighting_Type":"LED-Powered Lamp","Verification_Date":null},"id":"stl-city-public-streetlights:2:109561","sourceLayerId":2,"sourceObjectId":109561,"sourceURL":"https://maps8.stlouis-mo.gov/arcgis/rest/services/STREETS/Streets_Permitting/MapServer/2","title":"Street light L002305"},"type":"Feature"},{"geometry":{"coordinates":[-90.31096267637149,38.57936934943065],"type":"Point"},"id":"stl-city-public-streetlights:2:109580","properties":{"address":null,"attributes":{"Date_Installed":null,"LED_Powered":1,"LightID":"L002324","Light_Source":"LED","Light_Type":"Cobra","Lighting_Type":"LED-Powered Lamp (Twin Lights)","Verification_Date":null},"id":"stl-city-public-streetlights:2:109580","sourceLayerId":2,"sourceObjectId":109580,"sourceURL":"https://maps8.stlouis-mo.gov/arcgis/rest/services/STREETS/Streets_Permitting/MapServer/2","title":"Street light L002324"},"type":"Feature"},{"geometry":{"coordinates":[-90.31115187024739,38.579480255550024],"type":"Point"},"id":"stl-city-public-streetlights:2:109581","properties":{"address":null,"attributes":{"Date_Installed":null,"LED_Powered":1,"LightID":"L002325","Light_Source":"LED","Light_Type":"Cobra","Lighting_Type":"LED-Powered Lamp","Verification_Date":null},"id":"stl-city-public-streetlights:2:109581","sourceLayerId":2,"sourceObjectId":109581,"sourceURL":"https://maps8.stlouis-mo.gov/arcgis/rest/services/STREETS/Streets_Permitting/MapServer/2","title":"Street light L002325"},"type":"Feature"},{"geometry":{"coordinates":[-90.31124635262029,38.57957956634423],"type":"Point"},"id":"stl-city-public-streetlights:2:109582","properties":{"address":null,"attributes":{"Date_Installed":null,"LED_Powered":1,"LightID":"L002326","Light_Source":"LED","Light_Type":"Cobra","Lighting_Type":"LED-Powered Lamp","Verification_Date":null},"id":"stl-city-public-streetlights:2:109582","sourceLayerId":2,"sourceObjectId":109582,"sourceURL":"https://maps8.stlouis-mo.gov/arcgis/rest/services/STREETS/Streets_Permitting/MapServer/2","title":"Street light L002326"},"type":"Feature"},{"geometry":{"coordinates":[-90.31017783589202,38.57558386448887],"type":"Point"},"id":"stl-city-public-streetlights:2:109586","properties":{"address":null,"attributes":{"Date_Installed":null,"LED_Powered":0,"LightID":"L002330","Light_Source":"LED","Light_Type":"Cobra","Lighting_Type":"LED-Powered Lamp","Verification_Date":null},"id":"stl-city-public-streetlights:2:109586","sourceLayerId":2,"sourceObjectId":109586,"sourceURL":"https://maps8.stlouis-mo.gov/arcgis/rest/services/STREETS/Streets_Permitting/MapServer/2","title":"Street light L002330"},"type":"Feature"},{"geometry":{"coordinates":[-90.31015496831016,38.5768199656605],"type":"Point"},"id":"stl-city-public-streetlights:2:109592","properties":{"address":null,"attributes":{"Date_Installed":null,"LED_Powered":0,"LightID":"L002336","Light_Source":"LED","Light_Type":"Cobra","Lighting_Type":"LED-Powered Lamp","Verification_Date":null},"id":"stl-city-public-streetlights:2:109592","sourceLayerId":2,"sourceObjectId":109592,"sourceURL":"https://maps8.stlouis-mo.gov/arcgis/rest/services/STREETS/Streets_Permitting/MapServer/2","title":"Street light L002336"},"type":"Feature"},{"geometry":{"coordinates":[-90.31040679913556,38.57712643201172],"type":"Point"},"id":"stl-city-public-streetlights:2:109593","properties":{"address":null,"attributes":{"Date_Installed":null,"LED_Powered":0,"LightID":"L002337","Light_Source":"LED","Light_Type":"Cobra","Lighting_Type":"LED-Powered Lamp","Verification_Date":null},"id":"stl-city-public-streetlights:2:109593","sourceLayerId":2,"sourceObjectId":109593,"sourceURL":"https://maps8.stlouis-mo.gov/arcgis/rest/services/STREETS/Streets_Permitting/MapServer/2","title":"Street light L002337"},"type":"Feature"},{"geometry":{"coordinates":[-90.31063925762227,38.57741046109275],"type":"Point"},"id":"stl-city-public-streetlights:2:109594","properties":{"address":null,"attributes":{"Date_Installed":null,"LED_Powered":0,"LightID":"L002338","Light_Source":"LED","Light_Type":"Cobra","Lighting_Type":"LED-Powered Lamp","Verification_Date":null},"id":"stl-city-public-streetlights:2:109594","sourceLayerId":2,"sourceObjectId":109594,"sourceURL":"https://maps8.stlouis-mo.gov/arcgis/rest/services/STREETS/Streets_Permitting/MapServer/2","title":"Street light L002338"},"type":"Feature"},{"geometry":{"coordinates":[-90.3105353764863,38.57762208640099],"type":"Point"},"id":"stl-city-public-streetlights:2:109595","properties":{"address":null,"attributes":{"Date_Installed":null,"LED_Powered":0,"LightID":"L002339","Light_Source":"LED","Light_Type":"Cobra","Lighting_Type":"LED-Powered Lamp","Verification_Date":null},"id":"stl-city-public-streetlights:2:109595","sourceLayerId":2,"sourceObjectId":109595,"sourceURL":"https://maps8.stlouis-mo.gov/arcgis/rest/services/STREETS/Streets_Permitting/MapServer/2","title":"Street light L002339"},"type":"Feature"},{"geometry":{"coordinates":[-90.31015865504905,38.577812636107],"type":"Point"},"id":"stl-city-public-streetlights:2:109596","properties":{"address":null,"attributes":{"Date_Installed":null,"LED_Powered":0,"LightID":"L002340","Light_Source":"LED","Light_Type":"Cobra","Lighting_Type":"LED-Powered Lamp","Verification_Date":null},"id":"stl-city-public-streetlights:2:109596","sourceLayerId":2,"sourceObjectId":109596,"sourceURL":"https://maps8.stlouis-mo.gov/arcgis/rest/services/STREETS/Streets_Permitting/MapServer/2","title":"Street light L002340"},"type":"Feature"},{"geometry":{"coordinates":[-90.31010572719738,38.57596203091713],"type":"Point"},"id":"stl-city-public-streetlights:2:109597","properties":{"address":null,"attributes":{"Date_Installed":null,"LED_Powered":0,"LightID":"L002341","Light_Source":"LED","Light_Type":"Cobra","Lighting_Type":"LED-Powered Lamp","Verification_Date":null},"id":"stl-city-public-streetlights:2:109597","sourceLayerId":2,"sourceObjectId":109597,"sourceURL":"https://maps8.stlouis-mo.gov/arcgis/rest/services/STREETS/Streets_Permitting/MapServer/2","title":"Street light L002341"},"type":"Feature"},{"geometry":{"coordinates":[-90.31049775394659,38.57607040667442],"type":"Point"},"id":"stl-city-public-streetlights:2:109598","properties":{"address":null,"attributes":{"Date_Installed":null,"LED_Powered":0,"LightID":"L002342","Light_Source":"LED","Light_Type":"Cobra","Lighting_Type":"LED-Powered Lamp","Verification_Date":null},"id":"stl-city-public-streetlights:2:109598","sourceLayerId":2,"sourceObjectId":109598,"sourceURL":"https://maps8.stlouis-mo.gov/arcgis/rest/services/STREETS/Streets_Permitting/MapServer/2","title":"Street light L002342"},"type":"Feature"},{"geometry":{"coordinates":[-90.31077415632451,38.57636270576132],"type":"Point"},"id":"stl-city-public-streetlights:2:109599","properties":{"address":null,"attributes":{"Date_Installed":null,"LED_Powered":0,"LightID":"L002343","Light_Source":"LED","Light_Type":"Cobra","Lighting_Type":"LED-Powered Lamp","Verification_Date":null},"id":"stl-city-public-streetlights:2:109599","sourceLayerId":2,"sourceObjectId":109599,"sourceURL":"https://maps8.stlouis-mo.gov/arcgis/rest/services/STREETS/Streets_Permitting/MapServer/2","title":"Street light L002343"},"type":"Feature"},{"geometry":{"coordinates":[-90.31105573766966,38.57667265216178],"type":"Point"},"id":"stl-city-public-streetlights:2:109600","properties":{"address":null,"attributes":{"Date_Installed":null,"LED_Powered":0,"LightID":"L002344","Light_Source":"LED","Light_Type":"Cobra","Lighting_Type":"LED-Powered Lamp","Verification_Date":null},"id":"stl-city-public-streetlights:2:109600","sourceLayerId":2,"sourceObjectId":109600,"sourceURL":"https://maps8.stlouis-mo.gov/arcgis/rest/services/STREETS/Streets_Permitting/MapServer/2","title":"Street light L002344"},"type":"Feature"},{"geometry":{"coordinates":[-90.31132828135964,38.57695626802054],"type":"Point"},"id":"stl-city-public-streetlights:2:109601","properties":{"address":null,"attributes":{"Date_Installed":null,"LED_Powered":0,"LightID":"L002345","Light_Source":"LED","Light_Type":"Cobra","Lighting_Type":"LED-Powered Lamp","Verification_Date":null},"id":"stl-city-public-streetlights:2:109601","sourceLayerId":2,"sourceObjectId":109601,"sourceURL":"https://maps8.stlouis-mo.gov/arcgis/rest/services/STREETS/Streets_Permitting/MapServer/2","title":"Street light L002345"},"type":"Feature"},{"geometry":{"coordinates":[-90.3116029988808,38.57724503447297],"type":"Point"},"id":"stl-city-public-streetlights:2:109602","properties":{"address":null,"attributes":{"Date_Installed":null,"LED_Powered":0,"LightID":"L002346","Light_Source":"LED","Light_Type":"Cobra","Lighting_Type":"LED-Powered Lamp","Verification_Date":null},"id":"stl-city-public-streetlights:2:109602","sourceLayerId":2,"sourceObjectId":109602,"sourceURL":"https://maps8.stlouis-mo.gov/arcgis/rest/services/STREETS/Streets_Permitting/MapServer/2","title":"Street light L002346"},"type":"Feature"},{"geometry":{"coordinates":[-90.31189010724253,38.57753439315446],"type":"Point"},"id":"stl-city-public-streetlights:2:109603","properties":{"address":null,"attributes":{"Date_Installed":null,"LED_Powered":0,"LightID":"L002347","Light_Source":"LED","Light_Type":"Cobra","Lighting_Type":"LED-Powered Lamp","Verification_Date":null},"id":"stl-city-public-streetlights:2:109603","sourceLayerId":2,"sourceObjectId":109603,"sourceURL":"https://maps8.stlouis-mo.gov/arcgis/rest/services/STREETS/Streets_Permitting/MapServer/2","title":"Street light L002347"},"type":"Feature"},{"geometry":{"coordinates":[-90.31216890504402,38.57779742160354],"type":"Point"},"id":"stl-city-public-streetlights:2:109604","properties":{"address":null,"attributes":{"Date_Installed":null,"LED_Powered":0,"LightID":"L002348","Light_Source":"LED","Light_Type":"Cobra","Lighting_Type":"LED-Powered Lamp","Verification_Date":null},"id":"stl-city-public-streetlights:2:109604","sourceLayerId":2,"sourceObjectId":109604,"sourceURL":"https://maps8.stlouis-mo.gov/arcgis/rest/services/STREETS/Streets_Permitting/MapServer/2","title":"Street light L002348"},"type":"Feature"},{"geometry":{"coordinates":[-90.31243611894854,38.578031828154245],"type":"Point"},"id":"stl-city-public-streetlights:2:109605","properties":{"address":null,"attributes":{"Date_Installed":null,"LED_Powered":0,"LightID":"L002349","Light_Source":"LED","Light_Type":"Cobra","Lighting_Type":"LED-Powered Lamp","Verification_Date":null},"id":"stl-city-public-streetlights:2:109605","sourceLayerId":2,"sourceObjectId":109605,"sourceURL":"https://maps8.stlouis-mo.gov/arcgis/rest/services/STREETS/Streets_Permitting/MapServer/2","title":"Street light L002349"},"type":"Feature"},{"geometry":{"coordinates":[-90.31271634436312,38.578284465691354],"type":"Point"},"id":"stl-city-public-streetlights:2:109606","properties":{"address":null,"attributes":{"Date_Installed":null,"LED_Powered":0,"LightID":"L002350","Light_Source":"LED","Light_Type":"Cobra","Lighting_Type":"LED-Powered Lamp","Verification_Date":null},"id":"stl-city-public-streetlights:2:109606","sourceLayerId":2,"sourceObjectId":109606,"sourceURL":"https://maps8.stlouis-mo.gov/arcgis/rest/services/STREETS/Streets_Permitting/MapServer/2","title":"Street light L002350"},"type":"Feature"},{"geometry":{"coordinates":[-90.31293443567732,38.57855150324209],"type":"Point"},"id":"stl-city-public-streetlights:2:109607","properties":{"address":null,"attributes":{"Date_Installed":null,"LED_Powered":0,"LightID":"L002351","Light_Source":"LED","Light_Type":"Cobra","Lighting_Type":"LED-Powered Lamp","Verification_Date":null},"id":"stl-city-public-streetlights:2:109607","sourceLayerId":2,"sourceObjectId":109607,"sourceURL":"https://maps8.stlouis-mo.gov/arcgis/rest/services/STREETS/Streets_Permitting/MapServer/2","title":"Street light L002351"},"type":"Feature"},{"geometry":{"coordinates":[-90.31315301358215,38.57896004994375],"type":"Point"},"id":"stl-city-public-streetlights:2:109608","properties":{"address":null,"attributes":{"Date_Installed":null,"LED_Powered":0,"LightID":"L002352","Light_Source":"LED","Light_Type":"Cobra","Lighting_Type":"LED-Powered Lamp","Verification_Date":null},"id":"stl-city-public-streetlights:2:109608","sourceLayerId":2,"sourceObjectId":109608,"sourceURL":"https://maps8.stlouis-mo.gov/arcgis/rest/services/STREETS/Streets_Permitting/MapServer/2","title":"Street light L002352"},"type":"Feature"},{"geometry":{"coordinates":[-90.31327526968776,38.579240274328384],"type":"Point"},"id":"stl-city-public-streetlights:2:109609","properties":{"address":null,"attributes":{"Date_Installed":null,"LED_Powered":0,"LightID":"L002353","Light_Source":"LED","Light_Type":"Cobra","Lighting_Type":"LED-Powered Lamp","Verification_Date":null},"id":"stl-city-public-streetlights:2:109609","sourceLayerId":2,"sourceObjectId":109609,"sourceURL":"https://maps8.stlouis-mo.gov/arcgis/rest/services/STREETS/Streets_Permitting/MapServer/2","title":"Street light L002353"},"type":"Feature"},{"geometry":{"coordinates":[-90.31334153061367,38.579400330206894],"type":"Point"},"id":"stl-city-public-streetlights:2:109610","properties":{"address":null,"attributes":{"Date_Installed":null,"LED_Powered":0,"LightID":"L002354","Light_Source":"LED","Light_Type":"Cobra","Lighting_Type":"LED-Powered Lamp","Verification_Date":null},"id":"stl-city-public-streetlights:2:109610","sourceLayerId":2,"sourceObjectId":109610,"sourceURL":"https://maps8.stlouis-mo.gov/arcgis/rest/services/STREETS/Streets_Permitting/MapServer/2","title":"Street light L002354"},"type":"Feature"},{"geometry":{"coordinates":[-90.31278146288572,38.57884003570562],"type":"Point"},"id":"stl-city-public-streetlights:2:109611","properties":{"address":null,"attributes":{"Date_Installed":null,"LED_Powered":0,"LightID":"L002355","Light_Source":"LED","Light_Type":"Cobra","Lighting_Type":"LED-Powered Lamp","Verification_Date":null},"id":"stl-city-public-streetlights:2:109611","sourceLayerId":2,"sourceObjectId":109611,"sourceURL":"https://maps8.stlouis-mo.gov/arcgis/rest/services/STREETS/Streets_Permitting/MapServer/2","title":"Street light L002355"},"type":"Feature"},{"geometry":{"coordinates":[-90.31243463756284,38.57885831105021],"type":"Point"},"id":"stl-city-public-streetlights:2:109612","properties":{"address":null,"attributes":{"Date_Installed":null,"LED_Powered":0,"LightID":"L002356","Light_Source":"LED","Light_Type":"Cobra","Lighting_Type":"LED-Powered Lamp","Verification_Date":null},"id":"stl-city-public-streetlights:2:109612","sourceLayerId":2,"sourceObjectId":109612,"sourceURL":"https://maps8.stlouis-mo.gov/arcgis/rest/services/STREETS/Streets_Permitting/MapServer/2","title":"Street light L002356"},"type":"Feature"},{"geometry":{"coordinates":[-90.31207905472445,38.57862438340444],"type":"Point"},"id":"stl-city-public-streetlights:2:109613","properties":{"address":null,"attributes":{"Date_Installed":null,"LED_Powered":0,"LightID":"L002357","Light_Source":"LED","Light_Type":"Cobra","Lighting_Type":"LED-Powered Lamp","Verification_Date":null},"id":"stl-city-public-streetlights:2:109613","sourceLayerId":2,"sourceObjectId":109613,"sourceURL":"https://maps8.stlouis-mo.gov/arcgis/rest/services/STREETS/Streets_Permitting/MapServer/2","title":"Street light L002357"},"type":"Feature"},{"geometry":{"coordinates":[-90.31175926900836,38.578404575288516],"type":"Point"},"id":"stl-city-public-streetlights:2:109614","properties":{"address":null,"attributes":{"Date_Installed":null,"LED_Powered":0,"LightID":"L002358","Light_Source":"LED","Light_Type":"Cobra","Lighting_Type":"LED-Powered Lamp","Verification_Date":null},"id":"stl-city-public-streetlights:2:109614","sourceLayerId":2,"sourceObjectId":109614,"sourceURL":"https://maps8.stlouis-mo.gov/arcgis/rest/services/STREETS/Streets_Permitting/MapServer/2","title":"Street light L002358"},"type":"Feature"},{"geometry":{"coordinates":[-90.31142372239447,38.57817449046578],"type":"Point"},"id":"stl-city-public-streetlights:2:109615","properties":{"address":null,"attributes":{"Date_Installed":null,"LED_Powered":0,"LightID":"L002359","Light_Source":"LED","Light_Type":"Cobra","Lighting_Type":"LED-Powered Lamp","Verification_Date":null},"id":"stl-city-public-streetlights:2:109615","sourceLayerId":2,"sourceObjectId":109615,"sourceURL":"https://maps8.stlouis-mo.gov/arcgis/rest/services/STREETS/Streets_Permitting/MapServer/2","title":"Street light L002359"},"type":"Feature"},{"geometry":{"coordinates":[-90.3111312470625,38.57796306784832],"type":"Point"},"id":"stl-city-public-streetlights:2:109616","properties":{"address":null,"attributes":{"Date_Installed":null,"LED_Powered":0,"LightID":"L002360","Light_Source":"LED","Light_Type":"Cobra","Lighting_Type":"LED-Powered Lamp","Verification_Date":null},"id":"stl-city-public-streetlights:2:109616","sourceLayerId":2,"sourceObjectId":109616,"sourceURL":"https://maps8.stlouis-mo.gov/arcgis/rest/services/STREETS/Streets_Permitting/MapServer/2","title":"Street light L002360"},"type":"Feature"},{"geometry":{"coordinates":[-90.31086930511019,38.57768852635301],"type":"Point"},"id":"stl-city-public-streetlights:2:109617","properties":{"address":null,"attributes":{"Date_Installed":null,"LED_Powered":0,"LightID":"L002361","Light_Source":"LED","Light_Type":"Cobra","Lighting_Type":"LED-Powered Lamp","Verification_Date":null},"id":"stl-city-public-streetlights:2:109617","sourceLayerId":2,"sourceObjectId":109617,"sourceURL":"https://maps8.stlouis-mo.gov/arcgis/rest/services/STREETS/Streets_Permitting/MapServer/2","title":"Street light L002361"},"type":"Feature"}],"layerId":"city-streetlights","retrievedAt":"2026-09-13T21:56:18.173251+00:00","schema":"property-infrastructure-geojson-v1","sourceId":"stl-city-public-streetlights","tileId":"-9032_3857","type":"FeatureCollection"}