{"features":[{"geometry":{"coordinates":[-90.29497410517803,38.64003682973037],"type":"Point"},"id":"stl-city-public-streetlights:2:137059","properties":{"address":null,"attributes":{"Date_Installed":null,"LED_Powered":0,"LightID":"L029775","Light_Source":"LED","Light_Type":"Cobra","Lighting_Type":"LED-Powered Lamp","Verification_Date":null},"id":"stl-city-public-streetlights:2:137059","sourceLayerId":2,"sourceObjectId":137059,"sourceURL":"https://maps8.stlouis-mo.gov/arcgis/rest/services/STREETS/Streets_Permitting/MapServer/2","title":"Street light L029775"},"type":"Feature"},{"geometry":{"coordinates":[-90.29537589347353,38.64026850510185],"type":"Point"},"id":"stl-city-public-streetlights:2:137060","properties":{"address":null,"attributes":{"Date_Installed":null,"LED_Powered":0,"LightID":"L029776","Light_Source":"LED","Light_Type":"Cobra","Lighting_Type":"LED-Powered Lamp","Verification_Date":null},"id":"stl-city-public-streetlights:2:137060","sourceLayerId":2,"sourceObjectId":137060,"sourceURL":"https://maps8.stlouis-mo.gov/arcgis/rest/services/STREETS/Streets_Permitting/MapServer/2","title":"Street light L029776"},"type":"Feature"},{"geometry":{"coordinates":[-90.29572178231594,38.640472192649625],"type":"Point"},"id":"stl-city-public-streetlights:2:137061","properties":{"address":null,"attributes":{"Date_Installed":null,"LED_Powered":0,"LightID":"L029777","Light_Source":"LED","Light_Type":"Cobra","Lighting_Type":"LED-Powered Lamp","Verification_Date":null},"id":"stl-city-public-streetlights:2:137061","sourceLayerId":2,"sourceObjectId":137061,"sourceURL":"https://maps8.stlouis-mo.gov/arcgis/rest/services/STREETS/Streets_Permitting/MapServer/2","title":"Street light L029777"},"type":"Feature"},{"geometry":{"coordinates":[-90.29602903103095,38.640745055998686],"type":"Point"},"id":"stl-city-public-streetlights:2:137062","properties":{"address":null,"attributes":{"Date_Installed":null,"LED_Powered":0,"LightID":"L029778","Light_Source":"LED","Light_Type":"Cobra","Lighting_Type":"LED-Powered Lamp","Verification_Date":null},"id":"stl-city-public-streetlights:2:137062","sourceLayerId":2,"sourceObjectId":137062,"sourceURL":"https://maps8.stlouis-mo.gov/arcgis/rest/services/STREETS/Streets_Permitting/MapServer/2","title":"Street light L029778"},"type":"Feature"},{"geometry":{"coordinates":[-90.29622116124241,38.64104810958675],"type":"Point"},"id":"stl-city-public-streetlights:2:137063","properties":{"address":null,"attributes":{"Date_Installed":null,"LED_Powered":0,"LightID":"L029779","Light_Source":"LED","Light_Type":"Cobra","Lighting_Type":"LED-Powered Lamp","Verification_Date":null},"id":"stl-city-public-streetlights:2:137063","sourceLayerId":2,"sourceObjectId":137063,"sourceURL":"https://maps8.stlouis-mo.gov/arcgis/rest/services/STREETS/Streets_Permitting/MapServer/2","title":"Street light L029779"},"type":"Feature"},{"geometry":{"coordinates":[-90.29630987560054,38.64138137344981],"type":"Point"},"id":"stl-city-public-streetlights:2:137064","properties":{"address":null,"attributes":{"Date_Installed":null,"LED_Powered":0,"LightID":"L029780","Light_Source":"LED","Light_Type":"Cobra","Lighting_Type":"LED-Powered Lamp","Verification_Date":null},"id":"stl-city-public-streetlights:2:137064","sourceLayerId":2,"sourceObjectId":137064,"sourceURL":"https://maps8.stlouis-mo.gov/arcgis/rest/services/STREETS/Streets_Permitting/MapServer/2","title":"Street light L029780"},"type":"Feature"},{"geometry":{"coordinates":[-90.29628914394726,38.641726364575085],"type":"Point"},"id":"stl-city-public-streetlights:2:137065","properties":{"address":null,"attributes":{"Date_Installed":null,"LED_Powered":0,"LightID":"L029781","Light_Source":"LED","Light_Type":"Cobra","Lighting_Type":"LED-Powered Lamp","Verification_Date":null},"id":"stl-city-public-streetlights:2:137065","sourceLayerId":2,"sourceObjectId":137065,"sourceURL":"https://maps8.stlouis-mo.gov/arcgis/rest/services/STREETS/Streets_Permitting/MapServer/2","title":"Street light L029781"},"type":"Feature"},{"geometry":{"coordinates":[-90.29624995949686,38.64206688756028],"type":"Point"},"id":"stl-city-public-streetlights:2:137066","properties":{"address":null,"attributes":{"Date_Installed":null,"LED_Powered":0,"LightID":"L029782","Light_Source":"LED","Light_Type":"Cobra","Lighting_Type":"LED-Powered Lamp","Verification_Date":null},"id":"stl-city-public-streetlights:2:137066","sourceLayerId":2,"sourceObjectId":137066,"sourceURL":"https://maps8.stlouis-mo.gov/arcgis/rest/services/STREETS/Streets_Permitting/MapServer/2","title":"Street light L029782"},"type":"Feature"},{"geometry":{"coordinates":[-90.29623213231082,38.64243300504753],"type":"Point"},"id":"stl-city-public-streetlights:2:137067","properties":{"address":null,"attributes":{"Date_Installed":null,"LED_Powered":0,"LightID":"L029783","Light_Source":"LED","Light_Type":"Cobra","Lighting_Type":"LED-Powered Lamp","Verification_Date":null},"id":"stl-city-public-streetlights:2:137067","sourceLayerId":2,"sourceObjectId":137067,"sourceURL":"https://maps8.stlouis-mo.gov/arcgis/rest/services/STREETS/Streets_Permitting/MapServer/2","title":"Street light L029783"},"type":"Feature"},{"geometry":{"coordinates":[-90.29639328648842,38.642729448541544],"type":"Point"},"id":"stl-city-public-streetlights:2:137068","properties":{"address":null,"attributes":{"Date_Installed":null,"LED_Powered":0,"LightID":"L029784","Light_Source":"LED","Light_Type":"Cobra","Lighting_Type":"LED-Powered Lamp","Verification_Date":null},"id":"stl-city-public-streetlights:2:137068","sourceLayerId":2,"sourceObjectId":137068,"sourceURL":"https://maps8.stlouis-mo.gov/arcgis/rest/services/STREETS/Streets_Permitting/MapServer/2","title":"Street light L029784"},"type":"Feature"},{"geometry":{"coordinates":[-90.29596212829631,38.64236698483673],"type":"Point"},"id":"stl-city-public-streetlights:2:137069","properties":{"address":null,"attributes":{"Date_Installed":null,"LED_Powered":0,"LightID":"L029785","Light_Source":"LED","Light_Type":"Cobra","Lighting_Type":"LED-Powered Lamp","Verification_Date":null},"id":"stl-city-public-streetlights:2:137069","sourceLayerId":2,"sourceObjectId":137069,"sourceURL":"https://maps8.stlouis-mo.gov/arcgis/rest/services/STREETS/Streets_Permitting/MapServer/2","title":"Street light L029785"},"type":"Feature"},{"geometry":{"coordinates":[-90.29570371724755,38.64266031393381],"type":"Point"},"id":"stl-city-public-streetlights:2:137070","properties":{"address":null,"attributes":{"Date_Installed":null,"LED_Powered":0,"LightID":"L029786","Light_Source":"LED","Light_Type":"Cobra","Lighting_Type":"LED-Powered Lamp","Verification_Date":null},"id":"stl-city-public-streetlights:2:137070","sourceLayerId":2,"sourceObjectId":137070,"sourceURL":"https://maps8.stlouis-mo.gov/arcgis/rest/services/STREETS/Streets_Permitting/MapServer/2","title":"Street light L029786"},"type":"Feature"},{"geometry":{"coordinates":[-90.29994912885435,38.6456116441092],"type":"Point"},"id":"stl-city-public-streetlights:2:137074","properties":{"address":null,"attributes":{"Date_Installed":null,"LED_Powered":0,"LightID":"L029790","Light_Source":"LED","Light_Type":"Cobra","Lighting_Type":"LED-Powered Lamp","Verification_Date":null},"id":"stl-city-public-streetlights:2:137074","sourceLayerId":2,"sourceObjectId":137074,"sourceURL":"https://maps8.stlouis-mo.gov/arcgis/rest/services/STREETS/Streets_Permitting/MapServer/2","title":"Street light L029790"},"type":"Feature"},{"geometry":{"coordinates":[-90.29972492516785,38.64535573772853],"type":"Point"},"id":"stl-city-public-streetlights:2:137075","properties":{"address":null,"attributes":{"Date_Installed":null,"LED_Powered":0,"LightID":"L029791","Light_Source":"LED","Light_Type":"Cobra","Lighting_Type":"LED-Powered Lamp","Verification_Date":null},"id":"stl-city-public-streetlights:2:137075","sourceLayerId":2,"sourceObjectId":137075,"sourceURL":"https://maps8.stlouis-mo.gov/arcgis/rest/services/STREETS/Streets_Permitting/MapServer/2","title":"Street light L029791"},"type":"Feature"},{"geometry":{"coordinates":[-90.29940758606922,38.6449290050093],"type":"Point"},"id":"stl-city-public-streetlights:2:137076","properties":{"address":null,"attributes":{"Date_Installed":null,"LED_Powered":0,"LightID":"L029792","Light_Source":"LED","Light_Type":"Cobra","Lighting_Type":"LED-Powered Lamp","Verification_Date":null},"id":"stl-city-public-streetlights:2:137076","sourceLayerId":2,"sourceObjectId":137076,"sourceURL":"https://maps8.stlouis-mo.gov/arcgis/rest/services/STREETS/Streets_Permitting/MapServer/2","title":"Street light L029792"},"type":"Feature"},{"geometry":{"coordinates":[-90.29906828494867,38.644531790958105],"type":"Point"},"id":"stl-city-public-streetlights:2:137077","properties":{"address":null,"attributes":{"Date_Installed":null,"LED_Powered":0,"LightID":"L029793","Light_Source":"LED","Light_Type":"Cobra","Lighting_Type":"LED-Powered Lamp","Verification_Date":null},"id":"stl-city-public-streetlights:2:137077","sourceLayerId":2,"sourceObjectId":137077,"sourceURL":"https://maps8.stlouis-mo.gov/arcgis/rest/services/STREETS/Streets_Permitting/MapServer/2","title":"Street light L029793"},"type":"Feature"},{"geometry":{"coordinates":[-90.29849678358995,38.64405229886402],"type":"Point"},"id":"stl-city-public-streetlights:2:137078","properties":{"address":null,"attributes":{"Date_Installed":null,"LED_Powered":0,"LightID":"L029794","Light_Source":"LED","Light_Type":"Cobra","Lighting_Type":"LED-Powered Lamp","Verification_Date":null},"id":"stl-city-public-streetlights:2:137078","sourceLayerId":2,"sourceObjectId":137078,"sourceURL":"https://maps8.stlouis-mo.gov/arcgis/rest/services/STREETS/Streets_Permitting/MapServer/2","title":"Street light L029794"},"type":"Feature"},{"geometry":{"coordinates":[-90.29803822090288,38.643782517902544],"type":"Point"},"id":"stl-city-public-streetlights:2:137079","properties":{"address":null,"attributes":{"Date_Installed":null,"LED_Powered":0,"LightID":"L029795","Light_Source":"LED","Light_Type":"Cobra","Lighting_Type":"LED-Powered Lamp","Verification_Date":null},"id":"stl-city-public-streetlights:2:137079","sourceLayerId":2,"sourceObjectId":137079,"sourceURL":"https://maps8.stlouis-mo.gov/arcgis/rest/services/STREETS/Streets_Permitting/MapServer/2","title":"Street light L029795"},"type":"Feature"},{"geometry":{"coordinates":[-90.29759818966458,38.64352730755122],"type":"Point"},"id":"stl-city-public-streetlights:2:137080","properties":{"address":null,"attributes":{"Date_Installed":null,"LED_Powered":0,"LightID":"L029796","Light_Source":"LED","Light_Type":"Cobra","Lighting_Type":"LED-Powered Lamp","Verification_Date":null},"id":"stl-city-public-streetlights:2:137080","sourceLayerId":2,"sourceObjectId":137080,"sourceURL":"https://maps8.stlouis-mo.gov/arcgis/rest/services/STREETS/Streets_Permitting/MapServer/2","title":"Street light L029796"},"type":"Feature"},{"geometry":{"coordinates":[-90.2971344142077,38.64327658223578],"type":"Point"},"id":"stl-city-public-streetlights:2:137081","properties":{"address":null,"attributes":{"Date_Installed":null,"LED_Powered":0,"LightID":"L029797","Light_Source":"LED","Light_Type":"Cobra","Lighting_Type":"LED-Powered Lamp","Verification_Date":null},"id":"stl-city-public-streetlights:2:137081","sourceLayerId":2,"sourceObjectId":137081,"sourceURL":"https://maps8.stlouis-mo.gov/arcgis/rest/services/STREETS/Streets_Permitting/MapServer/2","title":"Street light L029797"},"type":"Feature"},{"geometry":{"coordinates":[-90.29663442047935,38.643096324555785],"type":"Point"},"id":"stl-city-public-streetlights:2:137082","properties":{"address":null,"attributes":{"Date_Installed":null,"LED_Powered":0,"LightID":"L029798","Light_Source":"LED","Light_Type":"Cobra","Lighting_Type":"LED-Powered Lamp","Verification_Date":null},"id":"stl-city-public-streetlights:2:137082","sourceLayerId":2,"sourceObjectId":137082,"sourceURL":"https://maps8.stlouis-mo.gov/arcgis/rest/services/STREETS/Streets_Permitting/MapServer/2","title":"Street light L029798"},"type":"Feature"},{"geometry":{"coordinates":[-90.29607240307114,38.64300667530258],"type":"Point"},"id":"stl-city-public-streetlights:2:137083","properties":{"address":null,"attributes":{"Date_Installed":null,"LED_Powered":0,"LightID":"L029799","Light_Source":"LED","Light_Type":"Cobra","Lighting_Type":"LED-Powered Lamp","Verification_Date":null},"id":"stl-city-public-streetlights:2:137083","sourceLayerId":2,"sourceObjectId":137083,"sourceURL":"https://maps8.stlouis-mo.gov/arcgis/rest/services/STREETS/Streets_Permitting/MapServer/2","title":"Street light L029799"},"type":"Feature"},{"geometry":{"coordinates":[-90.29550823737844,38.643032387493584],"type":"Point"},"id":"stl-city-public-streetlights:2:137084","properties":{"address":null,"attributes":{"Date_Installed":null,"LED_Powered":0,"LightID":"L029800","Light_Source":"LED","Light_Type":"Cobra","Lighting_Type":"LED-Powered Lamp","Verification_Date":null},"id":"stl-city-public-streetlights:2:137084","sourceLayerId":2,"sourceObjectId":137084,"sourceURL":"https://maps8.stlouis-mo.gov/arcgis/rest/services/STREETS/Streets_Permitting/MapServer/2","title":"Street light L029800"},"type":"Feature"},{"geometry":{"coordinates":[-90.29491469226346,38.64318211144703],"type":"Point"},"id":"stl-city-public-streetlights:2:137085","properties":{"address":null,"attributes":{"Date_Installed":null,"LED_Powered":0,"LightID":"L029801","Light_Source":"LED","Light_Type":"Cobra","Lighting_Type":"LED-Powered Lamp","Verification_Date":null},"id":"stl-city-public-streetlights:2:137085","sourceLayerId":2,"sourceObjectId":137085,"sourceURL":"https://maps8.stlouis-mo.gov/arcgis/rest/services/STREETS/Streets_Permitting/MapServer/2","title":"Street light L029801"},"type":"Feature"},{"geometry":{"coordinates":[-90.29448876574264,38.643330339586626],"type":"Point"},"id":"stl-city-public-streetlights:2:137086","properties":{"address":null,"attributes":{"Date_Installed":null,"LED_Powered":0,"LightID":"L029802","Light_Source":"LED","Light_Type":"Cobra","Lighting_Type":"LED-Powered Lamp","Verification_Date":null},"id":"stl-city-public-streetlights:2:137086","sourceLayerId":2,"sourceObjectId":137086,"sourceURL":"https://maps8.stlouis-mo.gov/arcgis/rest/services/STREETS/Streets_Permitting/MapServer/2","title":"Street light L029802"},"type":"Feature"},{"geometry":{"coordinates":[-90.29387998052579,38.643493737635744],"type":"Point"},"id":"stl-city-public-streetlights:2:137087","properties":{"address":null,"attributes":{"Date_Installed":null,"LED_Powered":0,"LightID":"L029803","Light_Source":"LED","Light_Type":"Cobra","Lighting_Type":"LED-Powered Lamp","Verification_Date":null},"id":"stl-city-public-streetlights:2:137087","sourceLayerId":2,"sourceObjectId":137087,"sourceURL":"https://maps8.stlouis-mo.gov/arcgis/rest/services/STREETS/Streets_Permitting/MapServer/2","title":"Street light L029803"},"type":"Feature"},{"geometry":{"coordinates":[-90.29327721006321,38.64362496427329],"type":"Point"},"id":"stl-city-public-streetlights:2:137088","properties":{"address":null,"attributes":{"Date_Installed":null,"LED_Powered":0,"LightID":"L029804","Light_Source":"LED","Light_Type":"Cobra","Lighting_Type":"LED-Powered Lamp","Verification_Date":null},"id":"stl-city-public-streetlights:2:137088","sourceLayerId":2,"sourceObjectId":137088,"sourceURL":"https://maps8.stlouis-mo.gov/arcgis/rest/services/STREETS/Streets_Permitting/MapServer/2","title":"Street light L029804"},"type":"Feature"},{"geometry":{"coordinates":[-90.29273707152616,38.643695516679514],"type":"Point"},"id":"stl-city-public-streetlights:2:137089","properties":{"address":null,"attributes":{"Date_Installed":null,"LED_Powered":0,"LightID":"L029805","Light_Source":"LED","Light_Type":"Cobra","Lighting_Type":"LED-Powered Lamp","Verification_Date":null},"id":"stl-city-public-streetlights:2:137089","sourceLayerId":2,"sourceObjectId":137089,"sourceURL":"https://maps8.stlouis-mo.gov/arcgis/rest/services/STREETS/Streets_Permitting/MapServer/2","title":"Street light L029805"},"type":"Feature"},{"geometry":{"coordinates":[-90.29218831730778,38.64364448799118],"type":"Point"},"id":"stl-city-public-streetlights:2:137090","properties":{"address":null,"attributes":{"Date_Installed":null,"LED_Powered":0,"LightID":"L029806","Light_Source":"LED","Light_Type":"Cobra","Lighting_Type":"LED-Powered Lamp","Verification_Date":null},"id":"stl-city-public-streetlights:2:137090","sourceLayerId":2,"sourceObjectId":137090,"sourceURL":"https://maps8.stlouis-mo.gov/arcgis/rest/services/STREETS/Streets_Permitting/MapServer/2","title":"Street light L029806"},"type":"Feature"},{"geometry":{"coordinates":[-90.29165389223377,38.643473109025926],"type":"Point"},"id":"stl-city-public-streetlights:2:137091","properties":{"address":null,"attributes":{"Date_Installed":null,"LED_Powered":0,"LightID":"L029807","Light_Source":"LED","Light_Type":"Cobra","Lighting_Type":"LED-Powered Lamp","Verification_Date":null},"id":"stl-city-public-streetlights:2:137091","sourceLayerId":2,"sourceObjectId":137091,"sourceURL":"https://maps8.stlouis-mo.gov/arcgis/rest/services/STREETS/Streets_Permitting/MapServer/2","title":"Street light L029807"},"type":"Feature"},{"geometry":{"coordinates":[-90.29119821242459,38.643188647118976],"type":"Point"},"id":"stl-city-public-streetlights:2:137092","properties":{"address":null,"attributes":{"Date_Installed":null,"LED_Powered":0,"LightID":"L029808","Light_Source":"LED","Light_Type":"Cobra","Lighting_Type":"LED-Powered Lamp","Verification_Date":null},"id":"stl-city-public-streetlights:2:137092","sourceLayerId":2,"sourceObjectId":137092,"sourceURL":"https://maps8.stlouis-mo.gov/arcgis/rest/services/STREETS/Streets_Permitting/MapServer/2","title":"Street light L029808"},"type":"Feature"},{"geometry":{"coordinates":[-90.29072620373549,38.64290266504863],"type":"Point"},"id":"stl-city-public-streetlights:2:137093","properties":{"address":null,"attributes":{"Date_Installed":null,"LED_Powered":0,"LightID":"L029809","Light_Source":"LED","Light_Type":"Cobra","Lighting_Type":"LED-Powered Lamp","Verification_Date":null},"id":"stl-city-public-streetlights:2:137093","sourceLayerId":2,"sourceObjectId":137093,"sourceURL":"https://maps8.stlouis-mo.gov/arcgis/rest/services/STREETS/Streets_Permitting/MapServer/2","title":"Street light L029809"},"type":"Feature"},{"geometry":{"coordinates":[-90.29022554006077,38.642647734694904],"type":"Point"},"id":"stl-city-public-streetlights:2:137094","properties":{"address":null,"attributes":{"Date_Installed":null,"LED_Powered":0,"LightID":"L029810","Light_Source":"LED","Light_Type":"Cobra","Lighting_Type":"LED-Powered Lamp","Verification_Date":null},"id":"stl-city-public-streetlights:2:137094","sourceLayerId":2,"sourceObjectId":137094,"sourceURL":"https://maps8.stlouis-mo.gov/arcgis/rest/services/STREETS/Streets_Permitting/MapServer/2","title":"Street light L029810"},"type":"Feature"},{"geometry":{"coordinates":[-90.29986671112196,38.64741744490977],"type":"Point"},"id":"stl-city-public-streetlights:2:138914","properties":{"address":null,"attributes":{"Date_Installed":"4/6/20","LED_Powered":1,"LightID":"L031729","Light_Source":"LED","Light_Type":"Cobra","Lighting_Type":"LED-Powered Lamp","Verification_Date":null},"id":"stl-city-public-streetlights:2:138914","sourceLayerId":2,"sourceObjectId":138914,"sourceURL":"https://maps8.stlouis-mo.gov/arcgis/rest/services/STREETS/Streets_Permitting/MapServer/2","title":"Street light L031729"},"type":"Feature"},{"geometry":{"coordinates":[-90.29908195706057,38.6473452115313],"type":"Point"},"id":"stl-city-public-streetlights:2:138915","properties":{"address":null,"attributes":{"Date_Installed":"4/6/20","LED_Powered":1,"LightID":"L031730","Light_Source":"LED","Light_Type":"Cobra","Lighting_Type":"LED-Powered Lamp","Verification_Date":null},"id":"stl-city-public-streetlights:2:138915","sourceLayerId":2,"sourceObjectId":138915,"sourceURL":"https://maps8.stlouis-mo.gov/arcgis/rest/services/STREETS/Streets_Permitting/MapServer/2","title":"Street light L031730"},"type":"Feature"},{"geometry":{"coordinates":[-90.29839509143116,38.64727680103338],"type":"Point"},"id":"stl-city-public-streetlights:2:138916","properties":{"address":null,"attributes":{"Date_Installed":"4/6/20","LED_Powered":1,"LightID":"L031731","Light_Source":"LED","Light_Type":"Cobra","Lighting_Type":"LED-Powered Lamp","Verification_Date":null},"id":"stl-city-public-streetlights:2:138916","sourceLayerId":2,"sourceObjectId":138916,"sourceURL":"https://maps8.stlouis-mo.gov/arcgis/rest/services/STREETS/Streets_Permitting/MapServer/2","title":"Street light L031731"},"type":"Feature"},{"geometry":{"coordinates":[-90.29769042519176,38.64720693501948],"type":"Point"},"id":"stl-city-public-streetlights:2:138917","properties":{"address":null,"attributes":{"Date_Installed":"4/6/20","LED_Powered":1,"LightID":"L031732","Light_Source":"LED","Light_Type":"Cobra","Lighting_Type":"LED-Powered Lamp","Verification_Date":null},"id":"stl-city-public-streetlights:2:138917","sourceLayerId":2,"sourceObjectId":138917,"sourceURL":"https://maps8.stlouis-mo.gov/arcgis/rest/services/STREETS/Streets_Permitting/MapServer/2","title":"Street light L031732"},"type":"Feature"},{"geometry":{"coordinates":[-90.29694605825944,38.64713356077067],"type":"Point"},"id":"stl-city-public-streetlights:2:138918","properties":{"address":null,"attributes":{"Date_Installed":"4/6/20","LED_Powered":1,"LightID":"L031733","Light_Source":"LED","Light_Type":"Cobra","Lighting_Type":"LED-Powered Lamp","Verification_Date":null},"id":"stl-city-public-streetlights:2:138918","sourceLayerId":2,"sourceObjectId":138918,"sourceURL":"https://maps8.stlouis-mo.gov/arcgis/rest/services/STREETS/Streets_Permitting/MapServer/2","title":"Street light L031733"},"type":"Feature"},{"geometry":{"coordinates":[-90.2961582407591,38.64705767008105],"type":"Point"},"id":"stl-city-public-streetlights:2:138919","properties":{"address":null,"attributes":{"Date_Installed":"4/6/20","LED_Powered":1,"LightID":"L031734","Light_Source":"LED","Light_Type":"Cobra","Lighting_Type":"LED-Powered Lamp","Verification_Date":null},"id":"stl-city-public-streetlights:2:138919","sourceLayerId":2,"sourceObjectId":138919,"sourceURL":"https://maps8.stlouis-mo.gov/arcgis/rest/services/STREETS/Streets_Permitting/MapServer/2","title":"Street light L031734"},"type":"Feature"},{"geometry":{"coordinates":[-90.29542263970409,38.646986341926855],"type":"Point"},"id":"stl-city-public-streetlights:2:138920","properties":{"address":null,"attributes":{"Date_Installed":"4/6/20","LED_Powered":1,"LightID":"L031735","Light_Source":"LED","Light_Type":"Cobra","Lighting_Type":"LED-Powered Lamp","Verification_Date":null},"id":"stl-city-public-streetlights:2:138920","sourceLayerId":2,"sourceObjectId":138920,"sourceURL":"https://maps8.stlouis-mo.gov/arcgis/rest/services/STREETS/Streets_Permitting/MapServer/2","title":"Street light L031735"},"type":"Feature"},{"geometry":{"coordinates":[-90.2947066032674,38.646914351599655],"type":"Point"},"id":"stl-city-public-streetlights:2:138921","properties":{"address":null,"attributes":{"Date_Installed":"4/6/20","LED_Powered":1,"LightID":"L031736","Light_Source":"LED","Light_Type":"Cobra","Lighting_Type":"LED-Powered Lamp","Verification_Date":null},"id":"stl-city-public-streetlights:2:138921","sourceLayerId":2,"sourceObjectId":138921,"sourceURL":"https://maps8.stlouis-mo.gov/arcgis/rest/services/STREETS/Streets_Permitting/MapServer/2","title":"Street light L031736"},"type":"Feature"},{"geometry":{"coordinates":[-90.29403031610941,38.646847430417026],"type":"Point"},"id":"stl-city-public-streetlights:2:138922","properties":{"address":null,"attributes":{"Date_Installed":"4/6/20","LED_Powered":1,"LightID":"L031737","Light_Source":"LED","Light_Type":"Cobra","Lighting_Type":"LED-Powered Lamp","Verification_Date":null},"id":"stl-city-public-streetlights:2:138922","sourceLayerId":2,"sourceObjectId":138922,"sourceURL":"https://maps8.stlouis-mo.gov/arcgis/rest/services/STREETS/Streets_Permitting/MapServer/2","title":"Street light L031737"},"type":"Feature"},{"geometry":{"coordinates":[-90.29328890951942,38.6467766741137],"type":"Point"},"id":"stl-city-public-streetlights:2:138923","properties":{"address":null,"attributes":{"Date_Installed":"4/6/20","LED_Powered":1,"LightID":"L031738","Light_Source":"LED","Light_Type":"Cobra","Lighting_Type":"LED-Powered Lamp","Verification_Date":null},"id":"stl-city-public-streetlights:2:138923","sourceLayerId":2,"sourceObjectId":138923,"sourceURL":"https://maps8.stlouis-mo.gov/arcgis/rest/services/STREETS/Streets_Permitting/MapServer/2","title":"Street light L031738"},"type":"Feature"},{"geometry":{"coordinates":[-90.29257403602489,38.64670283227435],"type":"Point"},"id":"stl-city-public-streetlights:2:138924","properties":{"address":null,"attributes":{"Date_Installed":"4/6/20","LED_Powered":1,"LightID":"L031739","Light_Source":"LED","Light_Type":"Cobra","Lighting_Type":"LED-Powered Lamp","Verification_Date":null},"id":"stl-city-public-streetlights:2:138924","sourceLayerId":2,"sourceObjectId":138924,"sourceURL":"https://maps8.stlouis-mo.gov/arcgis/rest/services/STREETS/Streets_Permitting/MapServer/2","title":"Street light L031739"},"type":"Feature"},{"geometry":{"coordinates":[-90.29179470010806,38.646626126350974],"type":"Point"},"id":"stl-city-public-streetlights:2:138925","properties":{"address":null,"attributes":{"Date_Installed":"4/6/20","LED_Powered":1,"LightID":"L031740","Light_Source":"LED","Light_Type":"Cobra","Lighting_Type":"LED-Powered Lamp","Verification_Date":null},"id":"stl-city-public-streetlights:2:138925","sourceLayerId":2,"sourceObjectId":138925,"sourceURL":"https://maps8.stlouis-mo.gov/arcgis/rest/services/STREETS/Streets_Permitting/MapServer/2","title":"Street light L031740"},"type":"Feature"},{"geometry":{"coordinates":[-90.29105005924121,38.64655472038312],"type":"Point"},"id":"stl-city-public-streetlights:2:138926","properties":{"address":null,"attributes":{"Date_Installed":"4/6/20","LED_Powered":1,"LightID":"L031741","Light_Source":"LED","Light_Type":"Cobra","Lighting_Type":"LED-Powered Lamp","Verification_Date":null},"id":"stl-city-public-streetlights:2:138926","sourceLayerId":2,"sourceObjectId":138926,"sourceURL":"https://maps8.stlouis-mo.gov/arcgis/rest/services/STREETS/Streets_Permitting/MapServer/2","title":"Street light L031741"},"type":"Feature"},{"geometry":{"coordinates":[-90.29029062588519,38.64647983545879],"type":"Point"},"id":"stl-city-public-streetlights:2:138927","properties":{"address":null,"attributes":{"Date_Installed":"4/6/20","LED_Powered":1,"LightID":"L031742","Light_Source":"LED","Light_Type":"Cobra","Lighting_Type":"LED-Powered Lamp","Verification_Date":null},"id":"stl-city-public-streetlights:2:138927","sourceLayerId":2,"sourceObjectId":138927,"sourceURL":"https://maps8.stlouis-mo.gov/arcgis/rest/services/STREETS/Streets_Permitting/MapServer/2","title":"Street light L031742"},"type":"Feature"},{"geometry":{"coordinates":[-90.29063559268766,38.64666733911106],"type":"Point"},"id":"stl-city-public-streetlights:2:138969","properties":{"address":null,"attributes":{"Date_Installed":"4/6/20","LED_Powered":1,"LightID":"L031784","Light_Source":"LED","Light_Type":"Cobra","Lighting_Type":"LED-Powered Lamp","Verification_Date":null},"id":"stl-city-public-streetlights:2:138969","sourceLayerId":2,"sourceObjectId":138969,"sourceURL":"https://maps8.stlouis-mo.gov/arcgis/rest/services/STREETS/Streets_Permitting/MapServer/2","title":"Street light L031784"},"type":"Feature"},{"geometry":{"coordinates":[-90.29137524948386,38.6467396469243],"type":"Point"},"id":"stl-city-public-streetlights:2:138970","properties":{"address":null,"attributes":{"Date_Installed":"4/6/20","LED_Powered":1,"LightID":"L031785","Light_Source":"LED","Light_Type":"Cobra","Lighting_Type":"LED-Powered Lamp","Verification_Date":null},"id":"stl-city-public-streetlights:2:138970","sourceLayerId":2,"sourceObjectId":138970,"sourceURL":"https://maps8.stlouis-mo.gov/arcgis/rest/services/STREETS/Streets_Permitting/MapServer/2","title":"Street light L031785"},"type":"Feature"},{"geometry":{"coordinates":[-90.2921439164447,38.64681236556797],"type":"Point"},"id":"stl-city-public-streetlights:2:138971","properties":{"address":null,"attributes":{"Date_Installed":"4/6/20","LED_Powered":1,"LightID":"L031786","Light_Source":"LED","Light_Type":"Cobra","Lighting_Type":"LED-Powered Lamp","Verification_Date":null},"id":"stl-city-public-streetlights:2:138971","sourceLayerId":2,"sourceObjectId":138971,"sourceURL":"https://maps8.stlouis-mo.gov/arcgis/rest/services/STREETS/Streets_Permitting/MapServer/2","title":"Street light L031786"},"type":"Feature"},{"geometry":{"coordinates":[-90.29287574352504,38.64688881118896],"type":"Point"},"id":"stl-city-public-streetlights:2:138972","properties":{"address":null,"attributes":{"Date_Installed":"4/6/20","LED_Powered":1,"LightID":"L031787","Light_Source":"LED","Light_Type":"Cobra","Lighting_Type":"LED-Powered Lamp","Verification_Date":null},"id":"stl-city-public-streetlights:2:138972","sourceLayerId":2,"sourceObjectId":138972,"sourceURL":"https://maps8.stlouis-mo.gov/arcgis/rest/services/STREETS/Streets_Permitting/MapServer/2","title":"Street light L031787"},"type":"Feature"},{"geometry":{"coordinates":[-90.29365788481523,38.6469640851489],"type":"Point"},"id":"stl-city-public-streetlights:2:138973","properties":{"address":null,"attributes":{"Date_Installed":"4/6/20","LED_Powered":1,"LightID":"L031788","Light_Source":"LED","Light_Type":"Cobra","Lighting_Type":"LED-Powered Lamp","Verification_Date":null},"id":"stl-city-public-streetlights:2:138973","sourceLayerId":2,"sourceObjectId":138973,"sourceURL":"https://maps8.stlouis-mo.gov/arcgis/rest/services/STREETS/Streets_Permitting/MapServer/2","title":"Street light L031788"},"type":"Feature"},{"geometry":{"coordinates":[-90.29437406040697,38.64703220651491],"type":"Point"},"id":"stl-city-public-streetlights:2:138974","properties":{"address":null,"attributes":{"Date_Installed":"4/6/20","LED_Powered":1,"LightID":"L031789","Light_Source":"LED","Light_Type":"Cobra","Lighting_Type":"LED-Powered Lamp","Verification_Date":null},"id":"stl-city-public-streetlights:2:138974","sourceLayerId":2,"sourceObjectId":138974,"sourceURL":"https://maps8.stlouis-mo.gov/arcgis/rest/services/STREETS/Streets_Permitting/MapServer/2","title":"Street light L031789"},"type":"Feature"},{"geometry":{"coordinates":[-90.29506765435184,38.647100879429146],"type":"Point"},"id":"stl-city-public-streetlights:2:138975","properties":{"address":null,"attributes":{"Date_Installed":"4/6/20","LED_Powered":1,"LightID":"L031790","Light_Source":"LED","Light_Type":"Cobra","Lighting_Type":"LED-Powered Lamp","Verification_Date":null},"id":"stl-city-public-streetlights:2:138975","sourceLayerId":2,"sourceObjectId":138975,"sourceURL":"https://maps8.stlouis-mo.gov/arcgis/rest/services/STREETS/Streets_Permitting/MapServer/2","title":"Street light L031790"},"type":"Feature"},{"geometry":{"coordinates":[-90.29587405000169,38.64717808824094],"type":"Point"},"id":"stl-city-public-streetlights:2:138976","properties":{"address":null,"attributes":{"Date_Installed":"4/6/20","LED_Powered":1,"LightID":"L031791","Light_Source":"LED","Light_Type":"Cobra","Lighting_Type":"LED-Powered Lamp","Verification_Date":null},"id":"stl-city-public-streetlights:2:138976","sourceLayerId":2,"sourceObjectId":138976,"sourceURL":"https://maps8.stlouis-mo.gov/arcgis/rest/services/STREETS/Streets_Permitting/MapServer/2","title":"Street light L031791"},"type":"Feature"},{"geometry":{"coordinates":[-90.29657870408755,38.64724867867697],"type":"Point"},"id":"stl-city-public-streetlights:2:138977","properties":{"address":null,"attributes":{"Date_Installed":"4/6/20","LED_Powered":1,"LightID":"L031792","Light_Source":"LED","Light_Type":"Cobra","Lighting_Type":"LED-Powered Lamp","Verification_Date":null},"id":"stl-city-public-streetlights:2:138977","sourceLayerId":2,"sourceObjectId":138977,"sourceURL":"https://maps8.stlouis-mo.gov/arcgis/rest/services/STREETS/Streets_Permitting/MapServer/2","title":"Street light L031792"},"type":"Feature"},{"geometry":{"coordinates":[-90.29726312197069,38.64731708478539],"type":"Point"},"id":"stl-city-public-streetlights:2:138978","properties":{"address":null,"attributes":{"Date_Installed":"4/6/20","LED_Powered":1,"LightID":"L031793","Light_Source":"LED","Light_Type":"Cobra","Lighting_Type":"LED-Powered Lamp","Verification_Date":null},"id":"stl-city-public-streetlights:2:138978","sourceLayerId":2,"sourceObjectId":138978,"sourceURL":"https://maps8.stlouis-mo.gov/arcgis/rest/services/STREETS/Streets_Permitting/MapServer/2","title":"Street light L031793"},"type":"Feature"},{"geometry":{"coordinates":[-90.29802868081512,38.64739110801152],"type":"Point"},"id":"stl-city-public-streetlights:2:138979","properties":{"address":null,"attributes":{"Date_Installed":"4/6/20","LED_Powered":1,"LightID":"L031794","Light_Source":"LED","Light_Type":"Cobra","Lighting_Type":"LED-Powered Lamp","Verification_Date":null},"id":"stl-city-public-streetlights:2:138979","sourceLayerId":2,"sourceObjectId":138979,"sourceURL":"https://maps8.stlouis-mo.gov/arcgis/rest/services/STREETS/Streets_Permitting/MapServer/2","title":"Street light L031794"},"type":"Feature"},{"geometry":{"coordinates":[-90.29876348918673,38.64746239319224],"type":"Point"},"id":"stl-city-public-streetlights:2:138980","properties":{"address":null,"attributes":{"Date_Installed":"4/6/20","LED_Powered":1,"LightID":"L031795","Light_Source":"LED","Light_Type":"Cobra","Lighting_Type":"LED-Powered Lamp","Verification_Date":null},"id":"stl-city-public-streetlights:2:138980","sourceLayerId":2,"sourceObjectId":138980,"sourceURL":"https://maps8.stlouis-mo.gov/arcgis/rest/services/STREETS/Streets_Permitting/MapServer/2","title":"Street light L031795"},"type":"Feature"},{"geometry":{"coordinates":[-90.29953804389673,38.64753761479303],"type":"Point"},"id":"stl-city-public-streetlights:2:138981","properties":{"address":null,"attributes":{"Date_Installed":"4/6/20","LED_Powered":1,"LightID":"L031796","Light_Source":"LED","Light_Type":"Cobra","Lighting_Type":"LED-Powered Lamp","Verification_Date":null},"id":"stl-city-public-streetlights:2:138981","sourceLayerId":2,"sourceObjectId":138981,"sourceURL":"https://maps8.stlouis-mo.gov/arcgis/rest/services/STREETS/Streets_Permitting/MapServer/2","title":"Street light L031796"},"type":"Feature"},{"geometry":{"coordinates":[-90.29036943415865,38.649982132271916],"type":"Point"},"id":"stl-city-public-streetlights:2:142492","properties":{"address":null,"attributes":{"Date_Installed":null,"LED_Powered":1,"LightID":"L035346","Light_Source":"LED","Light_Type":"Cobra","Lighting_Type":"LED-Powered Lamp","Verification_Date":null},"id":"stl-city-public-streetlights:2:142492","sourceLayerId":2,"sourceObjectId":142492,"sourceURL":"https://maps8.stlouis-mo.gov/arcgis/rest/services/STREETS/Streets_Permitting/MapServer/2","title":"Street light L035346"},"type":"Feature"},{"geometry":{"coordinates":[-90.29990645162398,38.64994291803074],"type":"Point"},"id":"stl-city-public-streetlights:2:142496","properties":{"address":null,"attributes":{"Date_Installed":"4/2020","LED_Powered":1,"LightID":"L035350","Light_Source":"LED","Light_Type":"Cobra","Lighting_Type":"LED-Powered Lamp","Verification_Date":null},"id":"stl-city-public-streetlights:2:142496","sourceLayerId":2,"sourceObjectId":142496,"sourceURL":"https://maps8.stlouis-mo.gov/arcgis/rest/services/STREETS/Streets_Permitting/MapServer/2","title":"Street light L035350"},"type":"Feature"},{"geometry":{"coordinates":[-90.29943985659993,38.64989468454331],"type":"Point"},"id":"stl-city-public-streetlights:2:142497","properties":{"address":null,"attributes":{"Date_Installed":"4/2020","LED_Powered":1,"LightID":"L035351","Light_Source":"LED","Light_Type":"Cobra","Lighting_Type":"LED-Powered Lamp","Verification_Date":null},"id":"stl-city-public-streetlights:2:142497","sourceLayerId":2,"sourceObjectId":142497,"sourceURL":"https://maps8.stlouis-mo.gov/arcgis/rest/services/STREETS/Streets_Permitting/MapServer/2","title":"Street light L035351"},"type":"Feature"},{"geometry":{"coordinates":[-90.29902274666242,38.64985785748656],"type":"Point"},"id":"stl-city-public-streetlights:2:142498","properties":{"address":null,"attributes":{"Date_Installed":"4/2020","LED_Powered":1,"LightID":"L035352","Light_Source":"LED","Light_Type":"Cobra","Lighting_Type":"LED-Powered Lamp","Verification_Date":null},"id":"stl-city-public-streetlights:2:142498","sourceLayerId":2,"sourceObjectId":142498,"sourceURL":"https://maps8.stlouis-mo.gov/arcgis/rest/services/STREETS/Streets_Permitting/MapServer/2","title":"Street light L035352"},"type":"Feature"},{"geometry":{"coordinates":[-90.29855092655855,38.64980889707273],"type":"Point"},"id":"stl-city-public-streetlights:2:142499","properties":{"address":null,"attributes":{"Date_Installed":"4/2020","LED_Powered":1,"LightID":"L035353","Light_Source":"LED","Light_Type":"Cobra","Lighting_Type":"LED-Powered Lamp","Verification_Date":null},"id":"stl-city-public-streetlights:2:142499","sourceLayerId":2,"sourceObjectId":142499,"sourceURL":"https://maps8.stlouis-mo.gov/arcgis/rest/services/STREETS/Streets_Permitting/MapServer/2","title":"Street light L035353"},"type":"Feature"},{"geometry":{"coordinates":[-90.29811926525528,38.649769300332906],"type":"Point"},"id":"stl-city-public-streetlights:2:142500","properties":{"address":null,"attributes":{"Date_Installed":"4/2020","LED_Powered":1,"LightID":"L035354","Light_Source":"LED","Light_Type":"Cobra","Lighting_Type":"LED-Powered Lamp","Verification_Date":null},"id":"stl-city-public-streetlights:2:142500","sourceLayerId":2,"sourceObjectId":142500,"sourceURL":"https://maps8.stlouis-mo.gov/arcgis/rest/services/STREETS/Streets_Permitting/MapServer/2","title":"Street light L035354"},"type":"Feature"},{"geometry":{"coordinates":[-90.29766710009892,38.64972489903791],"type":"Point"},"id":"stl-city-public-streetlights:2:142501","properties":{"address":null,"attributes":{"Date_Installed":"4/2020","LED_Powered":1,"LightID":"L035355","Light_Source":"LED","Light_Type":"Cobra","Lighting_Type":"LED-Powered Lamp","Verification_Date":null},"id":"stl-city-public-streetlights:2:142501","sourceLayerId":2,"sourceObjectId":142501,"sourceURL":"https://maps8.stlouis-mo.gov/arcgis/rest/services/STREETS/Streets_Permitting/MapServer/2","title":"Street light L035355"},"type":"Feature"},{"geometry":{"coordinates":[-90.29721220691343,38.6496781075158],"type":"Point"},"id":"stl-city-public-streetlights:2:142502","properties":{"address":null,"attributes":{"Date_Installed":"4/2020","LED_Powered":1,"LightID":"L035356","Light_Source":"LED","Light_Type":"Cobra","Lighting_Type":"LED-Powered Lamp","Verification_Date":null},"id":"stl-city-public-streetlights:2:142502","sourceLayerId":2,"sourceObjectId":142502,"sourceURL":"https://maps8.stlouis-mo.gov/arcgis/rest/services/STREETS/Streets_Permitting/MapServer/2","title":"Street light L035356"},"type":"Feature"},{"geometry":{"coordinates":[-90.29676536146353,38.649634268706215],"type":"Point"},"id":"stl-city-public-streetlights:2:142503","properties":{"address":null,"attributes":{"Date_Installed":"4/2020","LED_Powered":1,"LightID":"L035357","Light_Source":"LED","Light_Type":"Cobra","Lighting_Type":"LED-Powered Lamp","Verification_Date":null},"id":"stl-city-public-streetlights:2:142503","sourceLayerId":2,"sourceObjectId":142503,"sourceURL":"https://maps8.stlouis-mo.gov/arcgis/rest/services/STREETS/Streets_Permitting/MapServer/2","title":"Street light L035357"},"type":"Feature"},{"geometry":{"coordinates":[-90.2963804948694,38.6496002287434],"type":"Point"},"id":"stl-city-public-streetlights:2:142504","properties":{"address":null,"attributes":{"Date_Installed":"4/2020","LED_Powered":1,"LightID":"L035358","Light_Source":"LED","Light_Type":"Cobra","Lighting_Type":"LED-Powered Lamp","Verification_Date":null},"id":"stl-city-public-streetlights:2:142504","sourceLayerId":2,"sourceObjectId":142504,"sourceURL":"https://maps8.stlouis-mo.gov/arcgis/rest/services/STREETS/Streets_Permitting/MapServer/2","title":"Street light L035358"},"type":"Feature"},{"geometry":{"coordinates":[-90.29593335229956,38.649554161945495],"type":"Point"},"id":"stl-city-public-streetlights:2:142505","properties":{"address":null,"attributes":{"Date_Installed":"4/2020","LED_Powered":1,"LightID":"L035359","Light_Source":"LED","Light_Type":"Cobra","Lighting_Type":"LED-Powered Lamp","Verification_Date":null},"id":"stl-city-public-streetlights:2:142505","sourceLayerId":2,"sourceObjectId":142505,"sourceURL":"https://maps8.stlouis-mo.gov/arcgis/rest/services/STREETS/Streets_Permitting/MapServer/2","title":"Street light L035359"},"type":"Feature"},{"geometry":{"coordinates":[-90.2954820966144,38.649511660072385],"type":"Point"},"id":"stl-city-public-streetlights:2:142506","properties":{"address":null,"attributes":{"Date_Installed":"4/2020","LED_Powered":1,"LightID":"L035360","Light_Source":"LED","Light_Type":"Cobra","Lighting_Type":"LED-Powered Lamp","Verification_Date":null},"id":"stl-city-public-streetlights:2:142506","sourceLayerId":2,"sourceObjectId":142506,"sourceURL":"https://maps8.stlouis-mo.gov/arcgis/rest/services/STREETS/Streets_Permitting/MapServer/2","title":"Street light L035360"},"type":"Feature"},{"geometry":{"coordinates":[-90.29504923311255,38.64946823644332],"type":"Point"},"id":"stl-city-public-streetlights:2:142507","properties":{"address":null,"attributes":{"Date_Installed":"4/2020","LED_Powered":1,"LightID":"L035361","Light_Source":"LED","Light_Type":"Cobra","Lighting_Type":"LED-Powered Lamp","Verification_Date":null},"id":"stl-city-public-streetlights:2:142507","sourceLayerId":2,"sourceObjectId":142507,"sourceURL":"https://maps8.stlouis-mo.gov/arcgis/rest/services/STREETS/Streets_Permitting/MapServer/2","title":"Street light L035361"},"type":"Feature"},{"geometry":{"coordinates":[-90.29464750327328,38.64943273152513],"type":"Point"},"id":"stl-city-public-streetlights:2:142508","properties":{"address":null,"attributes":{"Date_Installed":"4/2020","LED_Powered":1,"LightID":"L035362","Light_Source":"LED","Light_Type":"Cobra","Lighting_Type":"LED-Powered Lamp","Verification_Date":null},"id":"stl-city-public-streetlights:2:142508","sourceLayerId":2,"sourceObjectId":142508,"sourceURL":"https://maps8.stlouis-mo.gov/arcgis/rest/services/STREETS/Streets_Permitting/MapServer/2","title":"Street light L035362"},"type":"Feature"},{"geometry":{"coordinates":[-90.2942018878695,38.649384871626296],"type":"Point"},"id":"stl-city-public-streetlights:2:142509","properties":{"address":null,"attributes":{"Date_Installed":null,"LED_Powered":0,"LightID":"L035363","Light_Source":"LED","Light_Type":"Cobra","Lighting_Type":"LED-Powered Lamp","Verification_Date":null},"id":"stl-city-public-streetlights:2:142509","sourceLayerId":2,"sourceObjectId":142509,"sourceURL":"https://maps8.stlouis-mo.gov/arcgis/rest/services/STREETS/Streets_Permitting/MapServer/2","title":"Street light L035363"},"type":"Feature"},{"geometry":{"coordinates":[-90.2937536814222,38.64933939011381],"type":"Point"},"id":"stl-city-public-streetlights:2:142510","properties":{"address":null,"attributes":{"Date_Installed":null,"LED_Powered":0,"LightID":"L035364","Light_Source":"LED","Light_Type":"Cobra","Lighting_Type":"LED-Powered Lamp","Verification_Date":null},"id":"stl-city-public-streetlights:2:142510","sourceLayerId":2,"sourceObjectId":142510,"sourceURL":"https://maps8.stlouis-mo.gov/arcgis/rest/services/STREETS/Streets_Permitting/MapServer/2","title":"Street light L035364"},"type":"Feature"},{"geometry":{"coordinates":[-90.29333661454277,38.64930051676328],"type":"Point"},"id":"stl-city-public-streetlights:2:142511","properties":{"address":null,"attributes":{"Date_Installed":null,"LED_Powered":1,"LightID":"L035365","Light_Source":"LED","Light_Type":"Cobra","Lighting_Type":"LED-Powered Lamp","Verification_Date":null},"id":"stl-city-public-streetlights:2:142511","sourceLayerId":2,"sourceObjectId":142511,"sourceURL":"https://maps8.stlouis-mo.gov/arcgis/rest/services/STREETS/Streets_Permitting/MapServer/2","title":"Street light L035365"},"type":"Feature"},{"geometry":{"coordinates":[-90.29291832524825,38.64926342622389],"type":"Point"},"id":"stl-city-public-streetlights:2:142512","properties":{"address":null,"attributes":{"Date_Installed":null,"LED_Powered":0,"LightID":"L035366","Light_Source":"LED","Light_Type":"Cobra","Lighting_Type":"LED-Powered Lamp","Verification_Date":null},"id":"stl-city-public-streetlights:2:142512","sourceLayerId":2,"sourceObjectId":142512,"sourceURL":"https://maps8.stlouis-mo.gov/arcgis/rest/services/STREETS/Streets_Permitting/MapServer/2","title":"Street light L035366"},"type":"Feature"},{"geometry":{"coordinates":[-90.29246798249619,38.64922151163058],"type":"Point"},"id":"stl-city-public-streetlights:2:142513","properties":{"address":null,"attributes":{"Date_Installed":null,"LED_Powered":0,"LightID":"L035367","Light_Source":"LED","Light_Type":"Cobra","Lighting_Type":"LED-Powered Lamp","Verification_Date":null},"id":"stl-city-public-streetlights:2:142513","sourceLayerId":2,"sourceObjectId":142513,"sourceURL":"https://maps8.stlouis-mo.gov/arcgis/rest/services/STREETS/Streets_Permitting/MapServer/2","title":"Street light L035367"},"type":"Feature"},{"geometry":{"coordinates":[-90.29203345868527,38.649175451412326],"type":"Point"},"id":"stl-city-public-streetlights:2:142514","properties":{"address":null,"attributes":{"Date_Installed":null,"LED_Powered":0,"LightID":"L035368","Light_Source":"LED","Light_Type":"Cobra","Lighting_Type":"LED-Powered Lamp","Verification_Date":null},"id":"stl-city-public-streetlights:2:142514","sourceLayerId":2,"sourceObjectId":142514,"sourceURL":"https://maps8.stlouis-mo.gov/arcgis/rest/services/STREETS/Streets_Permitting/MapServer/2","title":"Street light L035368"},"type":"Feature"},{"geometry":{"coordinates":[-90.29158039150464,38.64913054842034],"type":"Point"},"id":"stl-city-public-streetlights:2:142515","properties":{"address":null,"attributes":{"Date_Installed":null,"LED_Powered":0,"LightID":"L035369","Light_Source":"LED","Light_Type":"Cobra","Lighting_Type":"LED-Powered Lamp","Verification_Date":null},"id":"stl-city-public-streetlights:2:142515","sourceLayerId":2,"sourceObjectId":142515,"sourceURL":"https://maps8.stlouis-mo.gov/arcgis/rest/services/STREETS/Streets_Permitting/MapServer/2","title":"Street light L035369"},"type":"Feature"},{"geometry":{"coordinates":[-90.29110787459439,38.64908441707001],"type":"Point"},"id":"stl-city-public-streetlights:2:142516","properties":{"address":null,"attributes":{"Date_Installed":null,"LED_Powered":1,"LightID":"L035370","Light_Source":"LED","Light_Type":"Cobra","Lighting_Type":"LED-Powered Lamp","Verification_Date":null},"id":"stl-city-public-streetlights:2:142516","sourceLayerId":2,"sourceObjectId":142516,"sourceURL":"https://maps8.stlouis-mo.gov/arcgis/rest/services/STREETS/Streets_Permitting/MapServer/2","title":"Street light L035370"},"type":"Feature"},{"geometry":{"coordinates":[-90.29068975266702,38.6490431477486],"type":"Point"},"id":"stl-city-public-streetlights:2:142517","properties":{"address":null,"attributes":{"Date_Installed":null,"LED_Powered":0,"LightID":"L035371","Light_Source":"LED","Light_Type":"Cobra","Lighting_Type":"LED-Powered Lamp","Verification_Date":null},"id":"stl-city-public-streetlights:2:142517","sourceLayerId":2,"sourceObjectId":142517,"sourceURL":"https://maps8.stlouis-mo.gov/arcgis/rest/services/STREETS/Streets_Permitting/MapServer/2","title":"Street light L035371"},"type":"Feature"},{"geometry":{"coordinates":[-90.29022832738134,38.648998224566185],"type":"Point"},"id":"stl-city-public-streetlights:2:142518","properties":{"address":null,"attributes":{"Date_Installed":null,"LED_Powered":0,"LightID":"L035372","Light_Source":"LED","Light_Type":"Cobra","Lighting_Type":"LED-Powered Lamp","Verification_Date":null},"id":"stl-city-public-streetlights:2:142518","sourceLayerId":2,"sourceObjectId":142518,"sourceURL":"https://maps8.stlouis-mo.gov/arcgis/rest/services/STREETS/Streets_Permitting/MapServer/2","title":"Street light L035372"},"type":"Feature"},{"geometry":{"coordinates":[-90.29946782257322,38.64938806922269],"type":"Point"},"id":"stl-city-public-streetlights:2:142526","properties":{"address":null,"attributes":{"Date_Installed":null,"LED_Powered":0,"LightID":"L035380","Light_Source":"High Pressure Sodium","Light_Type":"Cobra","Lighting_Type":"400-W High Pressure Sodium Vapor Lamp","Verification_Date":null},"id":"stl-city-public-streetlights:2:142526","sourceLayerId":2,"sourceObjectId":142526,"sourceURL":"https://maps8.stlouis-mo.gov/arcgis/rest/services/STREETS/Streets_Permitting/MapServer/2","title":"Street light L035380"},"type":"Feature"},{"geometry":{"coordinates":[-90.29879655873738,38.64932494271211],"type":"Point"},"id":"stl-city-public-streetlights:2:142527","properties":{"address":null,"attributes":{"Date_Installed":null,"LED_Powered":0,"LightID":"L035381","Light_Source":"High Pressure Sodium","Light_Type":"Cobra","Lighting_Type":"400-W High Pressure Sodium Vapor Lamp","Verification_Date":null},"id":"stl-city-public-streetlights:2:142527","sourceLayerId":2,"sourceObjectId":142527,"sourceURL":"https://maps8.stlouis-mo.gov/arcgis/rest/services/STREETS/Streets_Permitting/MapServer/2","title":"Street light L035381"},"type":"Feature"},{"geometry":{"coordinates":[-90.29812880527739,38.64925705180686],"type":"Point"},"id":"stl-city-public-streetlights:2:142528","properties":{"address":null,"attributes":{"Date_Installed":null,"LED_Powered":0,"LightID":"L035382","Light_Source":"High Pressure Sodium","Light_Type":"Cobra","Lighting_Type":"400-W High Pressure Sodium Vapor Lamp","Verification_Date":null},"id":"stl-city-public-streetlights:2:142528","sourceLayerId":2,"sourceObjectId":142528,"sourceURL":"https://maps8.stlouis-mo.gov/arcgis/rest/services/STREETS/Streets_Permitting/MapServer/2","title":"Street light L035382"},"type":"Feature"},{"geometry":{"coordinates":[-90.29746271789156,38.64919154282504],"type":"Point"},"id":"stl-city-public-streetlights:2:142529","properties":{"address":null,"attributes":{"Date_Installed":null,"LED_Powered":0,"LightID":"L035383","Light_Source":"High Pressure Sodium","Light_Type":"Cobra","Lighting_Type":"400-W High Pressure Sodium Vapor Lamp","Verification_Date":null},"id":"stl-city-public-streetlights:2:142529","sourceLayerId":2,"sourceObjectId":142529,"sourceURL":"https://maps8.stlouis-mo.gov/arcgis/rest/services/STREETS/Streets_Permitting/MapServer/2","title":"Street light L035383"},"type":"Feature"},{"geometry":{"coordinates":[-90.29679482340181,38.64912078284016],"type":"Point"},"id":"stl-city-public-streetlights:2:142530","properties":{"address":null,"attributes":{"Date_Installed":null,"LED_Powered":0,"LightID":"L035384","Light_Source":"High Pressure Sodium","Light_Type":"Cobra","Lighting_Type":"400-W High Pressure Sodium Vapor Lamp","Verification_Date":null},"id":"stl-city-public-streetlights:2:142530","sourceLayerId":2,"sourceObjectId":142530,"sourceURL":"https://maps8.stlouis-mo.gov/arcgis/rest/services/STREETS/Streets_Permitting/MapServer/2","title":"Street light L035384"},"type":"Feature"},{"geometry":{"coordinates":[-90.29613313991135,38.64905718202024],"type":"Point"},"id":"stl-city-public-streetlights:2:142531","properties":{"address":null,"attributes":{"Date_Installed":null,"LED_Powered":0,"LightID":"L035385","Light_Source":"High Pressure Sodium","Light_Type":"Cobra","Lighting_Type":"400-W High Pressure Sodium Vapor Lamp","Verification_Date":null},"id":"stl-city-public-streetlights:2:142531","sourceLayerId":2,"sourceObjectId":142531,"sourceURL":"https://maps8.stlouis-mo.gov/arcgis/rest/services/STREETS/Streets_Permitting/MapServer/2","title":"Street light L035385"},"type":"Feature"},{"geometry":{"coordinates":[-90.29545930848613,38.6489909328316],"type":"Point"},"id":"stl-city-public-streetlights:2:142532","properties":{"address":null,"attributes":{"Date_Installed":null,"LED_Powered":0,"LightID":"L035386","Light_Source":"High Pressure Sodium","Light_Type":"Cobra","Lighting_Type":"400-W High Pressure Sodium Vapor Lamp","Verification_Date":null},"id":"stl-city-public-streetlights:2:142532","sourceLayerId":2,"sourceObjectId":142532,"sourceURL":"https://maps8.stlouis-mo.gov/arcgis/rest/services/STREETS/Streets_Permitting/MapServer/2","title":"Street light L035386"},"type":"Feature"},{"geometry":{"coordinates":[-90.29479261290831,38.648927314765956],"type":"Point"},"id":"stl-city-public-streetlights:2:142533","properties":{"address":null,"attributes":{"Date_Installed":null,"LED_Powered":0,"LightID":"L035387","Light_Source":"High Pressure Sodium","Light_Type":"Cobra","Lighting_Type":"400-W High Pressure Sodium Vapor Lamp","Verification_Date":null},"id":"stl-city-public-streetlights:2:142533","sourceLayerId":2,"sourceObjectId":142533,"sourceURL":"https://maps8.stlouis-mo.gov/arcgis/rest/services/STREETS/Streets_Permitting/MapServer/2","title":"Street light L035387"},"type":"Feature"},{"geometry":{"coordinates":[-90.29405147675104,38.64885426560627],"type":"Point"},"id":"stl-city-public-streetlights:2:142534","properties":{"address":null,"attributes":{"Date_Installed":null,"LED_Powered":0,"LightID":"L035388","Light_Source":"High Pressure Sodium","Light_Type":"Cobra","Lighting_Type":"400-W High Pressure Sodium Vapor Lamp","Verification_Date":null},"id":"stl-city-public-streetlights:2:142534","sourceLayerId":2,"sourceObjectId":142534,"sourceURL":"https://maps8.stlouis-mo.gov/arcgis/rest/services/STREETS/Streets_Permitting/MapServer/2","title":"Street light L035388"},"type":"Feature"},{"geometry":{"coordinates":[-90.29334208048405,38.64878984968947],"type":"Point"},"id":"stl-city-public-streetlights:2:142535","properties":{"address":null,"attributes":{"Date_Installed":null,"LED_Powered":0,"LightID":"L035389","Light_Source":"High Pressure Sodium","Light_Type":"Cobra","Lighting_Type":"400-W High Pressure Sodium Vapor Lamp","Verification_Date":null},"id":"stl-city-public-streetlights:2:142535","sourceLayerId":2,"sourceObjectId":142535,"sourceURL":"https://maps8.stlouis-mo.gov/arcgis/rest/services/STREETS/Streets_Permitting/MapServer/2","title":"Street light L035389"},"type":"Feature"},{"geometry":{"coordinates":[-90.2926357526999,38.64871589900581],"type":"Point"},"id":"stl-city-public-streetlights:2:142536","properties":{"address":null,"attributes":{"Date_Installed":null,"LED_Powered":0,"LightID":"L035390","Light_Source":"High Pressure Sodium","Light_Type":"Cobra","Lighting_Type":"400-W High Pressure Sodium Vapor Lamp","Verification_Date":null},"id":"stl-city-public-streetlights:2:142536","sourceLayerId":2,"sourceObjectId":142536,"sourceURL":"https://maps8.stlouis-mo.gov/arcgis/rest/services/STREETS/Streets_Permitting/MapServer/2","title":"Street light L035390"},"type":"Feature"},{"geometry":{"coordinates":[-90.29192576058486,38.648647897818854],"type":"Point"},"id":"stl-city-public-streetlights:2:142537","properties":{"address":null,"attributes":{"Date_Installed":"2020-01-14","LED_Powered":1,"LightID":"L035391","Light_Source":"LED","Light_Type":"Cobra","Lighting_Type":"5G Pole - 5G Pole -5G Pole - 1A","Verification_Date":null},"id":"stl-city-public-streetlights:2:142537","sourceLayerId":2,"sourceObjectId":142537,"sourceURL":"https://maps8.stlouis-mo.gov/arcgis/rest/services/STREETS/Streets_Permitting/MapServer/2","title":"Street light L035391"},"type":"Feature"},{"geometry":{"coordinates":[-90.29122018408086,38.64857811194021],"type":"Point"},"id":"stl-city-public-streetlights:2:142538","properties":{"address":null,"attributes":{"Date_Installed":null,"LED_Powered":0,"LightID":"L035392","Light_Source":"High Pressure Sodium","Light_Type":"Cobra","Lighting_Type":"400-W High Pressure Sodium Vapor Lamp","Verification_Date":null},"id":"stl-city-public-streetlights:2:142538","sourceLayerId":2,"sourceObjectId":142538,"sourceURL":"https://maps8.stlouis-mo.gov/arcgis/rest/services/STREETS/Streets_Permitting/MapServer/2","title":"Street light L035392"},"type":"Feature"},{"geometry":{"coordinates":[-90.29051019585104,38.64851010217006],"type":"Point"},"id":"stl-city-public-streetlights:2:142539","properties":{"address":null,"attributes":{"Date_Installed":null,"LED_Powered":0,"LightID":"L035393","Light_Source":"High Pressure Sodium","Light_Type":"Cobra","Lighting_Type":"400-W High Pressure Sodium Vapor Lamp","Verification_Date":null},"id":"stl-city-public-streetlights:2:142539","sourceLayerId":2,"sourceObjectId":142539,"sourceURL":"https://maps8.stlouis-mo.gov/arcgis/rest/services/STREETS/Streets_Permitting/MapServer/2","title":"Street light L035393"},"type":"Feature"},{"geometry":{"coordinates":[-90.29014385611457,38.648275851492585],"type":"Point"},"id":"stl-city-public-streetlights:2:155385","properties":{"address":null,"attributes":{"Date_Installed":null,"LED_Powered":0,"LightID":"L048117","Light_Source":"High Pressure Sodium","Light_Type":"Cobra","Lighting_Type":"400-W High Pressure Sodium Vapor Lamp","Verification_Date":null},"id":"stl-city-public-streetlights:2:155385","sourceLayerId":2,"sourceObjectId":155385,"sourceURL":"https://maps8.stlouis-mo.gov/arcgis/rest/services/STREETS/Streets_Permitting/MapServer/2","title":"Street light L048117"},"type":"Feature"},{"geometry":{"coordinates":[-90.29086372702537,38.64834149830372],"type":"Point"},"id":"stl-city-public-streetlights:2:155386","properties":{"address":null,"attributes":{"Date_Installed":null,"LED_Powered":0,"LightID":"L048118","Light_Source":"High Pressure Sodium","Light_Type":"Cobra","Lighting_Type":"400-W High Pressure Sodium Vapor Lamp","Verification_Date":null},"id":"stl-city-public-streetlights:2:155386","sourceLayerId":2,"sourceObjectId":155386,"sourceURL":"https://maps8.stlouis-mo.gov/arcgis/rest/services/STREETS/Streets_Permitting/MapServer/2","title":"Street light L048118"},"type":"Feature"},{"geometry":{"coordinates":[-90.29157842684201,38.648408918835834],"type":"Point"},"id":"stl-city-public-streetlights:2:155387","properties":{"address":null,"attributes":{"Date_Installed":null,"LED_Powered":1,"LightID":"L048119","Light_Source":"LED","Light_Type":"Cobra","Lighting_Type":"400-W High Pressure Sodium Vapor Lamp","Verification_Date":null},"id":"stl-city-public-streetlights:2:155387","sourceLayerId":2,"sourceObjectId":155387,"sourceURL":"https://maps8.stlouis-mo.gov/arcgis/rest/services/STREETS/Streets_Permitting/MapServer/2","title":"Street light L048119"},"type":"Feature"},{"geometry":{"coordinates":[-90.29229144448665,38.648480503129335],"type":"Point"},"id":"stl-city-public-streetlights:2:155388","properties":{"address":null,"attributes":{"Date_Installed":null,"LED_Powered":0,"LightID":"L048120","Light_Source":"High Pressure Sodium","Light_Type":"Cobra","Lighting_Type":"400-W High Pressure Sodium Vapor Lamp","Verification_Date":null},"id":"stl-city-public-streetlights:2:155388","sourceLayerId":2,"sourceObjectId":155388,"sourceURL":"https://maps8.stlouis-mo.gov/arcgis/rest/services/STREETS/Streets_Permitting/MapServer/2","title":"Street light L048120"},"type":"Feature"},{"geometry":{"coordinates":[-90.29300781340633,38.64854970615715],"type":"Point"},"id":"stl-city-public-streetlights:2:155389","properties":{"address":null,"attributes":{"Date_Installed":null,"LED_Powered":0,"LightID":"L048121","Light_Source":"High Pressure Sodium","Light_Type":"Cobra","Lighting_Type":"400-W High Pressure Sodium Vapor Lamp","Verification_Date":null},"id":"stl-city-public-streetlights:2:155389","sourceLayerId":2,"sourceObjectId":155389,"sourceURL":"https://maps8.stlouis-mo.gov/arcgis/rest/services/STREETS/Streets_Permitting/MapServer/2","title":"Street light L048121"},"type":"Feature"},{"geometry":{"coordinates":[-90.29372402981717,38.64862009550444],"type":"Point"},"id":"stl-city-public-streetlights:2:155390","properties":{"address":null,"attributes":{"Date_Installed":null,"LED_Powered":0,"LightID":"L048122","Light_Source":"High Pressure Sodium","Light_Type":"Cobra","Lighting_Type":"400-W High Pressure Sodium Vapor Lamp","Verification_Date":null},"id":"stl-city-public-streetlights:2:155390","sourceLayerId":2,"sourceObjectId":155390,"sourceURL":"https://maps8.stlouis-mo.gov/arcgis/rest/services/STREETS/Streets_Permitting/MapServer/2","title":"Street light L048122"},"type":"Feature"},{"geometry":{"coordinates":[-90.29436138058934,38.64868676713691],"type":"Point"},"id":"stl-city-public-streetlights:2:155391","properties":{"address":null,"attributes":{"Date_Installed":null,"LED_Powered":0,"LightID":"L048123","Light_Source":"High Pressure Sodium","Light_Type":"Cobra","Lighting_Type":"400-W High Pressure Sodium Vapor Lamp","Verification_Date":null},"id":"stl-city-public-streetlights:2:155391","sourceLayerId":2,"sourceObjectId":155391,"sourceURL":"https://maps8.stlouis-mo.gov/arcgis/rest/services/STREETS/Streets_Permitting/MapServer/2","title":"Street light L048123"},"type":"Feature"},{"geometry":{"coordinates":[-90.29532282468078,38.64878022133874],"type":"Point"},"id":"stl-city-public-streetlights:2:155392","properties":{"address":null,"attributes":{"Date_Installed":null,"LED_Powered":0,"LightID":"L048124","Light_Source":"High Pressure Sodium","Light_Type":"Cobra","Lighting_Type":"400-W High Pressure Sodium Vapor Lamp","Verification_Date":null},"id":"stl-city-public-streetlights:2:155392","sourceLayerId":2,"sourceObjectId":155392,"sourceURL":"https://maps8.stlouis-mo.gov/arcgis/rest/services/STREETS/Streets_Permitting/MapServer/2","title":"Street light L048124"},"type":"Feature"},{"geometry":{"coordinates":[-90.29648057969999,38.648889503709306],"type":"Point"},"id":"stl-city-public-streetlights:2:155393","properties":{"address":null,"attributes":{"Date_Installed":null,"LED_Powered":0,"LightID":"L048125","Light_Source":"High Pressure Sodium","Light_Type":"Cobra","Lighting_Type":"400-W High Pressure Sodium Vapor Lamp","Verification_Date":null},"id":"stl-city-public-streetlights:2:155393","sourceLayerId":2,"sourceObjectId":155393,"sourceURL":"https://maps8.stlouis-mo.gov/arcgis/rest/services/STREETS/Streets_Permitting/MapServer/2","title":"Street light L048125"},"type":"Feature"},{"geometry":{"coordinates":[-90.2971451401517,38.64895620751083],"type":"Point"},"id":"stl-city-public-streetlights:2:155394","properties":{"address":null,"attributes":{"Date_Installed":null,"LED_Powered":0,"LightID":"L048126","Light_Source":"High Pressure Sodium","Light_Type":"Cobra","Lighting_Type":"400-W High Pressure Sodium Vapor Lamp","Verification_Date":null},"id":"stl-city-public-streetlights:2:155394","sourceLayerId":2,"sourceObjectId":155394,"sourceURL":"https://maps8.stlouis-mo.gov/arcgis/rest/services/STREETS/Streets_Permitting/MapServer/2","title":"Street light L048126"},"type":"Feature"},{"geometry":{"coordinates":[-90.29779906397995,38.649022888252446],"type":"Point"},"id":"stl-city-public-streetlights:2:155395","properties":{"address":null,"attributes":{"Date_Installed":null,"LED_Powered":0,"LightID":"L048127","Light_Source":"High Pressure Sodium","Light_Type":"Cobra","Lighting_Type":"400-W High Pressure Sodium Vapor Lamp","Verification_Date":null},"id":"stl-city-public-streetlights:2:155395","sourceLayerId":2,"sourceObjectId":155395,"sourceURL":"https://maps8.stlouis-mo.gov/arcgis/rest/services/STREETS/Streets_Permitting/MapServer/2","title":"Street light L048127"},"type":"Feature"},{"geometry":{"coordinates":[-90.29845754747085,38.649089574095534],"type":"Point"},"id":"stl-city-public-streetlights:2:155396","properties":{"address":null,"attributes":{"Date_Installed":null,"LED_Powered":0,"LightID":"L048128","Light_Source":"High Pressure Sodium","Light_Type":"Cobra","Lighting_Type":"400-W High Pressure Sodium Vapor Lamp","Verification_Date":null},"id":"stl-city-public-streetlights:2:155396","sourceLayerId":2,"sourceObjectId":155396,"sourceURL":"https://maps8.stlouis-mo.gov/arcgis/rest/services/STREETS/Streets_Permitting/MapServer/2","title":"Street light L048128"},"type":"Feature"},{"geometry":{"coordinates":[-90.2991900362727,38.6491314656142],"type":"Point"},"id":"stl-city-public-streetlights:2:155397","properties":{"address":null,"attributes":{"Date_Installed":null,"LED_Powered":0,"LightID":"L048129","Light_Source":"High Pressure Sodium","Light_Type":"Cobra","Lighting_Type":"400-W High Pressure Sodium Vapor Lamp","Verification_Date":null},"id":"stl-city-public-streetlights:2:155397","sourceLayerId":2,"sourceObjectId":155397,"sourceURL":"https://maps8.stlouis-mo.gov/arcgis/rest/services/STREETS/Streets_Permitting/MapServer/2","title":"Street light L048129"},"type":"Feature"},{"geometry":{"coordinates":[-90.29985296557231,38.649158949071214],"type":"Point"},"id":"stl-city-public-streetlights:2:155398","properties":{"address":null,"attributes":{"Date_Installed":null,"LED_Powered":0,"LightID":"L048130","Light_Source":"High Pressure Sodium","Light_Type":"Cobra","Lighting_Type":"400-W High Pressure Sodium Vapor Lamp","Verification_Date":null},"id":"stl-city-public-streetlights:2:155398","sourceLayerId":2,"sourceObjectId":155398,"sourceURL":"https://maps8.stlouis-mo.gov/arcgis/rest/services/STREETS/Streets_Permitting/MapServer/2","title":"Street light L048130"},"type":"Feature"},{"geometry":{"coordinates":[-90.29683167351108,38.649905517962175],"type":"Point"},"id":"stl-city-public-streetlights:2:155443","properties":{"address":null,"attributes":{"Date_Installed":null,"LED_Powered":0,"LightID":"L048175","Light_Source":"LED","Light_Type":"Cobra","Lighting_Type":"LED-Powered Lamp","Verification_Date":null},"id":"stl-city-public-streetlights:2:155443","sourceLayerId":2,"sourceObjectId":155443,"sourceURL":"https://maps8.stlouis-mo.gov/arcgis/rest/services/STREETS/Streets_Permitting/MapServer/2","title":"Street light L048175"},"type":"Feature"},{"geometry":{"coordinates":[-90.29692143058128,38.64933539613003],"type":"Point"},"id":"stl-city-public-streetlights:2:155444","properties":{"address":null,"attributes":{"Date_Installed":null,"LED_Powered":0,"LightID":"L048176","Light_Source":"LED","Light_Type":"Cobra","Lighting_Type":"LED-Powered Lamp","Verification_Date":null},"id":"stl-city-public-streetlights:2:155444","sourceLayerId":2,"sourceObjectId":155444,"sourceURL":"https://maps8.stlouis-mo.gov/arcgis/rest/services/STREETS/Streets_Permitting/MapServer/2","title":"Street light L048176"},"type":"Feature"},{"geometry":{"coordinates":[-90.29477741645347,38.647203680061644],"type":"Point"},"id":"stl-city-public-streetlights:2:155445","properties":{"address":null,"attributes":{"Date_Installed":null,"LED_Powered":0,"LightID":"L048177","Light_Source":"High Pressure Sodium","Light_Type":"Cobra","Lighting_Type":"400-W High Pressure Sodium Vapor Lamp","Verification_Date":null},"id":"stl-city-public-streetlights:2:155445","sourceLayerId":2,"sourceObjectId":155445,"sourceURL":"https://maps8.stlouis-mo.gov/arcgis/rest/services/STREETS/Streets_Permitting/MapServer/2","title":"Street light L048177"},"type":"Feature"},{"geometry":{"coordinates":[-90.29470686705265,38.64764118640061],"type":"Point"},"id":"stl-city-public-streetlights:2:155446","properties":{"address":null,"attributes":{"Date_Installed":null,"LED_Powered":0,"LightID":"L048178","Light_Source":"High Pressure Sodium","Light_Type":"Cobra","Lighting_Type":"400-W High Pressure Sodium Vapor Lamp","Verification_Date":null},"id":"stl-city-public-streetlights:2:155446","sourceLayerId":2,"sourceObjectId":155446,"sourceURL":"https://maps8.stlouis-mo.gov/arcgis/rest/services/STREETS/Streets_Permitting/MapServer/2","title":"Street light L048178"},"type":"Feature"},{"geometry":{"coordinates":[-90.29462526553912,38.64811728805024],"type":"Point"},"id":"stl-city-public-streetlights:2:155447","properties":{"address":null,"attributes":{"Date_Installed":null,"LED_Powered":0,"LightID":"L048179","Light_Source":"High Pressure Sodium","Light_Type":"Cobra","Lighting_Type":"400-W High Pressure Sodium Vapor Lamp","Verification_Date":null},"id":"stl-city-public-streetlights:2:155447","sourceLayerId":2,"sourceObjectId":155447,"sourceURL":"https://maps8.stlouis-mo.gov/arcgis/rest/services/STREETS/Streets_Permitting/MapServer/2","title":"Street light L048179"},"type":"Feature"},{"geometry":{"coordinates":[-90.29455843228142,38.64853048757313],"type":"Point"},"id":"stl-city-public-streetlights:2:155448","properties":{"address":null,"attributes":{"Date_Installed":null,"LED_Powered":0,"LightID":"L048180","Light_Source":"High Pressure Sodium","Light_Type":"Cobra","Lighting_Type":"400-W High Pressure Sodium Vapor Lamp","Verification_Date":null},"id":"stl-city-public-streetlights:2:155448","sourceLayerId":2,"sourceObjectId":155448,"sourceURL":"https://maps8.stlouis-mo.gov/arcgis/rest/services/STREETS/Streets_Permitting/MapServer/2","title":"Street light L048180"},"type":"Feature"},{"geometry":{"coordinates":[-90.29445813748562,38.64926641927936],"type":"Point"},"id":"stl-city-public-streetlights:2:155449","properties":{"address":null,"attributes":{"Date_Installed":null,"LED_Powered":0,"LightID":"L048181","Light_Source":"High Pressure Sodium","Light_Type":"Cobra","Lighting_Type":"400-W High Pressure Sodium Vapor Lamp","Verification_Date":null},"id":"stl-city-public-streetlights:2:155449","sourceLayerId":2,"sourceObjectId":155449,"sourceURL":"https://maps8.stlouis-mo.gov/arcgis/rest/services/STREETS/Streets_Permitting/MapServer/2","title":"Street light L048181"},"type":"Feature"},{"geometry":{"coordinates":[-90.29439911074573,38.649499908714226],"type":"Point"},"id":"stl-city-public-streetlights:2:155450","properties":{"address":null,"attributes":{"Date_Installed":null,"LED_Powered":0,"LightID":"L048182","Light_Source":"High Pressure Sodium","Light_Type":"Cobra","Lighting_Type":"400-W High Pressure Sodium Vapor Lamp","Verification_Date":null},"id":"stl-city-public-streetlights:2:155450","sourceLayerId":2,"sourceObjectId":155450,"sourceURL":"https://maps8.stlouis-mo.gov/arcgis/rest/services/STREETS/Streets_Permitting/MapServer/2","title":"Street light L048182"},"type":"Feature"},{"geometry":{"coordinates":[-90.29432734401179,38.649936459368455],"type":"Point"},"id":"stl-city-public-streetlights:2:155451","properties":{"address":null,"attributes":{"Date_Installed":null,"LED_Powered":0,"LightID":"L048183","Light_Source":"High Pressure Sodium","Light_Type":"Cobra","Lighting_Type":"400-W High Pressure Sodium Vapor Lamp","Verification_Date":null},"id":"stl-city-public-streetlights:2:155451","sourceLayerId":2,"sourceObjectId":155451,"sourceURL":"https://maps8.stlouis-mo.gov/arcgis/rest/services/STREETS/Streets_Permitting/MapServer/2","title":"Street light L048183"},"type":"Feature"},{"geometry":{"coordinates":[-90.29001847435572,38.649075339798436],"type":"Point"},"id":"stl-city-public-streetlights:2:155472","properties":{"address":null,"attributes":{"Date_Installed":null,"LED_Powered":0,"LightID":"L048204","Light_Source":"High Pressure Sodium","Light_Type":"Cobra","Lighting_Type":"400-W High Pressure Sodium Vapor Lamp","Verification_Date":null},"id":"stl-city-public-streetlights:2:155472","sourceLayerId":2,"sourceObjectId":155472,"sourceURL":"https://maps8.stlouis-mo.gov/arcgis/rest/services/STREETS/Streets_Permitting/MapServer/2","title":"Street light L048204"},"type":"Feature"},{"geometry":{"coordinates":[-90.29008259701122,38.64868799086733],"type":"Point"},"id":"stl-city-public-streetlights:2:155473","properties":{"address":null,"attributes":{"Date_Installed":null,"LED_Powered":1,"LightID":"L048205","Light_Source":"LED","Light_Type":"Cobra","Lighting_Type":"400-W High Pressure Sodium Vapor Lamp","Verification_Date":null},"id":"stl-city-public-streetlights:2:155473","sourceLayerId":2,"sourceObjectId":155473,"sourceURL":"https://maps8.stlouis-mo.gov/arcgis/rest/services/STREETS/Streets_Permitting/MapServer/2","title":"Street light L048205"},"type":"Feature"}],"layerId":"city-streetlights","retrievedAt":"2026-09-13T21:56:18.173251+00:00","schema":"property-infrastructure-geojson-v1","sourceId":"stl-city-public-streetlights","tileId":"-9030_3864","type":"FeatureCollection"}