{"features":[{"geometry":{"coordinates":[-90.30184180214032,38.64448456558664],"type":"Point"},"id":"stl-city-public-streetlights:2:124023","properties":{"address":null,"attributes":{"Date_Installed":"2/27/20","LED_Powered":1,"LightID":"L016751","Light_Source":"LED","Light_Type":"Cobra","Lighting_Type":"LED-Powered Lamp","Verification_Date":null},"id":"stl-city-public-streetlights:2:124023","sourceLayerId":2,"sourceObjectId":124023,"sourceURL":"https://maps8.stlouis-mo.gov/arcgis/rest/services/STREETS/Streets_Permitting/MapServer/2","title":"Street light L016751"},"type":"Feature"},{"geometry":{"coordinates":[-90.30182087165298,38.64457987394511],"type":"Point"},"id":"stl-city-public-streetlights:2:124024","properties":{"address":null,"attributes":{"Date_Installed":"2020-01-24","LED_Powered":1,"LightID":"L016752","Light_Source":"LED","Light_Type":"Cobra","Lighting_Type":"5G Pole - 5G Pole -5G Pole - 2A","Verification_Date":null},"id":"stl-city-public-streetlights:2:124024","sourceLayerId":2,"sourceObjectId":124024,"sourceURL":"https://maps8.stlouis-mo.gov/arcgis/rest/services/STREETS/Streets_Permitting/MapServer/2","title":"Street light L016752"},"type":"Feature"},{"geometry":{"coordinates":[-90.30227256785142,38.64451866427195],"type":"Point"},"id":"stl-city-public-streetlights:2:124025","properties":{"address":null,"attributes":{"Date_Installed":"2/27/20","LED_Powered":1,"LightID":"L016753","Light_Source":"LED","Light_Type":"Cobra","Lighting_Type":"LED-Powered Lamp","Verification_Date":null},"id":"stl-city-public-streetlights:2:124025","sourceLayerId":2,"sourceObjectId":124025,"sourceURL":"https://maps8.stlouis-mo.gov/arcgis/rest/services/STREETS/Streets_Permitting/MapServer/2","title":"Street light L016753"},"type":"Feature"},{"geometry":{"coordinates":[-90.30222973892037,38.64461965723775],"type":"Point"},"id":"stl-city-public-streetlights:2:124026","properties":{"address":null,"attributes":{"Date_Installed":"2/27/20","LED_Powered":1,"LightID":"L016754","Light_Source":"LED","Light_Type":"Cobra","Lighting_Type":"LED-Powered Lamp","Verification_Date":null},"id":"stl-city-public-streetlights:2:124026","sourceLayerId":2,"sourceObjectId":124026,"sourceURL":"https://maps8.stlouis-mo.gov/arcgis/rest/services/STREETS/Streets_Permitting/MapServer/2","title":"Street light L016754"},"type":"Feature"},{"geometry":{"coordinates":[-90.30266826464243,38.64456772004795],"type":"Point"},"id":"stl-city-public-streetlights:2:124027","properties":{"address":null,"attributes":{"Date_Installed":"2/27/20","LED_Powered":1,"LightID":"L016755","Light_Source":"LED","Light_Type":"Cobra","Lighting_Type":"LED-Powered Lamp","Verification_Date":null},"id":"stl-city-public-streetlights:2:124027","sourceLayerId":2,"sourceObjectId":124027,"sourceURL":"https://maps8.stlouis-mo.gov/arcgis/rest/services/STREETS/Streets_Permitting/MapServer/2","title":"Street light L016755"},"type":"Feature"},{"geometry":{"coordinates":[-90.30263611139218,38.64465490612254],"type":"Point"},"id":"stl-city-public-streetlights:2:124028","properties":{"address":null,"attributes":{"Date_Installed":"2/27/20","LED_Powered":1,"LightID":"L016756","Light_Source":"LED","Light_Type":"Cobra","Lighting_Type":"LED-Powered Lamp","Verification_Date":null},"id":"stl-city-public-streetlights:2:124028","sourceLayerId":2,"sourceObjectId":124028,"sourceURL":"https://maps8.stlouis-mo.gov/arcgis/rest/services/STREETS/Streets_Permitting/MapServer/2","title":"Street light L016756"},"type":"Feature"},{"geometry":{"coordinates":[-90.30313708526789,38.64460688597514],"type":"Point"},"id":"stl-city-public-streetlights:2:124029","properties":{"address":null,"attributes":{"Date_Installed":"2/27/20","LED_Powered":1,"LightID":"L016757","Light_Source":"LED","Light_Type":"Cobra","Lighting_Type":"LED-Powered Lamp","Verification_Date":null},"id":"stl-city-public-streetlights:2:124029","sourceLayerId":2,"sourceObjectId":124029,"sourceURL":"https://maps8.stlouis-mo.gov/arcgis/rest/services/STREETS/Streets_Permitting/MapServer/2","title":"Street light L016757"},"type":"Feature"},{"geometry":{"coordinates":[-90.30304686715404,38.644699217614985],"type":"Point"},"id":"stl-city-public-streetlights:2:124030","properties":{"address":null,"attributes":{"Date_Installed":"2/27/20","LED_Powered":1,"LightID":"L016758","Light_Source":"LED","Light_Type":"Cobra","Lighting_Type":"LED-Powered Lamp","Verification_Date":null},"id":"stl-city-public-streetlights:2:124030","sourceLayerId":2,"sourceObjectId":124030,"sourceURL":"https://maps8.stlouis-mo.gov/arcgis/rest/services/STREETS/Streets_Permitting/MapServer/2","title":"Street light L016758"},"type":"Feature"},{"geometry":{"coordinates":[-90.30357487461241,38.64465147983735],"type":"Point"},"id":"stl-city-public-streetlights:2:124031","properties":{"address":null,"attributes":{"Date_Installed":"2/27/20","LED_Powered":1,"LightID":"L016759","Light_Source":"LED","Light_Type":"Cobra","Lighting_Type":"LED-Powered Lamp","Verification_Date":null},"id":"stl-city-public-streetlights:2:124031","sourceLayerId":2,"sourceObjectId":124031,"sourceURL":"https://maps8.stlouis-mo.gov/arcgis/rest/services/STREETS/Streets_Permitting/MapServer/2","title":"Street light L016759"},"type":"Feature"},{"geometry":{"coordinates":[-90.30343969844714,38.64473515621717],"type":"Point"},"id":"stl-city-public-streetlights:2:124032","properties":{"address":null,"attributes":{"Date_Installed":"2/27/20","LED_Powered":1,"LightID":"L016760","Light_Source":"LED","Light_Type":"Cobra","Lighting_Type":"LED-Powered Lamp","Verification_Date":null},"id":"stl-city-public-streetlights:2:124032","sourceLayerId":2,"sourceObjectId":124032,"sourceURL":"https://maps8.stlouis-mo.gov/arcgis/rest/services/STREETS/Streets_Permitting/MapServer/2","title":"Street light L016760"},"type":"Feature"},{"geometry":{"coordinates":[-90.30149547581806,38.646090052983695],"type":"Point"},"id":"stl-city-public-streetlights:2:124033","properties":{"address":null,"attributes":{"Date_Installed":"2/27/20","LED_Powered":1,"LightID":"L016761","Light_Source":"LED","Light_Type":"Cobra","Lighting_Type":"LED-Powered Lamp","Verification_Date":null},"id":"stl-city-public-streetlights:2:124033","sourceLayerId":2,"sourceObjectId":124033,"sourceURL":"https://maps8.stlouis-mo.gov/arcgis/rest/services/STREETS/Streets_Permitting/MapServer/2","title":"Street light L016761"},"type":"Feature"},{"geometry":{"coordinates":[-90.30196312527991,38.64613279725552],"type":"Point"},"id":"stl-city-public-streetlights:2:124034","properties":{"address":null,"attributes":{"Date_Installed":"2/27/20","LED_Powered":1,"LightID":"L016762","Light_Source":"LED","Light_Type":"Cobra","Lighting_Type":"LED-Powered Lamp","Verification_Date":null},"id":"stl-city-public-streetlights:2:124034","sourceLayerId":2,"sourceObjectId":124034,"sourceURL":"https://maps8.stlouis-mo.gov/arcgis/rest/services/STREETS/Streets_Permitting/MapServer/2","title":"Street light L016762"},"type":"Feature"},{"geometry":{"coordinates":[-90.30242790903263,38.646179348281635],"type":"Point"},"id":"stl-city-public-streetlights:2:124035","properties":{"address":null,"attributes":{"Date_Installed":"2/27/20","LED_Powered":1,"LightID":"L016763","Light_Source":"LED","Light_Type":"Cobra","Lighting_Type":"LED-Powered Lamp","Verification_Date":null},"id":"stl-city-public-streetlights:2:124035","sourceLayerId":2,"sourceObjectId":124035,"sourceURL":"https://maps8.stlouis-mo.gov/arcgis/rest/services/STREETS/Streets_Permitting/MapServer/2","title":"Street light L016763"},"type":"Feature"},{"geometry":{"coordinates":[-90.30291834507742,38.64622594067905],"type":"Point"},"id":"stl-city-public-streetlights:2:124036","properties":{"address":null,"attributes":{"Date_Installed":"2/27/20","LED_Powered":1,"LightID":"L016764","Light_Source":"LED","Light_Type":"Cobra","Lighting_Type":"LED-Powered Lamp","Verification_Date":null},"id":"stl-city-public-streetlights:2:124036","sourceLayerId":2,"sourceObjectId":124036,"sourceURL":"https://maps8.stlouis-mo.gov/arcgis/rest/services/STREETS/Streets_Permitting/MapServer/2","title":"Street light L016764"},"type":"Feature"},{"geometry":{"coordinates":[-90.30337365506352,38.64626913509504],"type":"Point"},"id":"stl-city-public-streetlights:2:124037","properties":{"address":null,"attributes":{"Date_Installed":"2/27/20","LED_Powered":1,"LightID":"L016765","Light_Source":"LED","Light_Type":"Cobra","Lighting_Type":"LED-Powered Lamp","Verification_Date":null},"id":"stl-city-public-streetlights:2:124037","sourceLayerId":2,"sourceObjectId":124037,"sourceURL":"https://maps8.stlouis-mo.gov/arcgis/rest/services/STREETS/Streets_Permitting/MapServer/2","title":"Street light L016765"},"type":"Feature"},{"geometry":{"coordinates":[-90.30317710434136,38.640074799291234],"type":"Point"},"id":"stl-city-public-streetlights:2:136815","properties":{"address":null,"attributes":{"Date_Installed":"6/15/2017","LED_Powered":1,"LightID":"L029531","Light_Source":"LED","Light_Type":"Cobra","Lighting_Type":"LED-Powered Lamp","Verification_Date":null},"id":"stl-city-public-streetlights:2:136815","sourceLayerId":2,"sourceObjectId":136815,"sourceURL":"https://maps8.stlouis-mo.gov/arcgis/rest/services/STREETS/Streets_Permitting/MapServer/2","title":"Street light L029531"},"type":"Feature"},{"geometry":{"coordinates":[-90.30310013403859,38.64043697797669],"type":"Point"},"id":"stl-city-public-streetlights:2:136816","properties":{"address":null,"attributes":{"Date_Installed":"6/15/2017","LED_Powered":1,"LightID":"L029532","Light_Source":"LED","Light_Type":"Cobra","Lighting_Type":"LED-Powered Lamp","Verification_Date":null},"id":"stl-city-public-streetlights:2:136816","sourceLayerId":2,"sourceObjectId":136816,"sourceURL":"https://maps8.stlouis-mo.gov/arcgis/rest/services/STREETS/Streets_Permitting/MapServer/2","title":"Street light L029532"},"type":"Feature"},{"geometry":{"coordinates":[-90.30302671340999,38.64083444141109],"type":"Point"},"id":"stl-city-public-streetlights:2:136817","properties":{"address":null,"attributes":{"Date_Installed":"6/15/2017","LED_Powered":1,"LightID":"L029533","Light_Source":"LED","Light_Type":"Cobra","Lighting_Type":"LED-Powered Lamp","Verification_Date":null},"id":"stl-city-public-streetlights:2:136817","sourceLayerId":2,"sourceObjectId":136817,"sourceURL":"https://maps8.stlouis-mo.gov/arcgis/rest/services/STREETS/Streets_Permitting/MapServer/2","title":"Street light L029533"},"type":"Feature"},{"geometry":{"coordinates":[-90.30292587836449,38.641254263723745],"type":"Point"},"id":"stl-city-public-streetlights:2:136818","properties":{"address":null,"attributes":{"Date_Installed":"6/15/2017","LED_Powered":1,"LightID":"L029534","Light_Source":"LED","Light_Type":"Cobra","Lighting_Type":"LED-Powered Lamp","Verification_Date":null},"id":"stl-city-public-streetlights:2:136818","sourceLayerId":2,"sourceObjectId":136818,"sourceURL":"https://maps8.stlouis-mo.gov/arcgis/rest/services/STREETS/Streets_Permitting/MapServer/2","title":"Street light L029534"},"type":"Feature"},{"geometry":{"coordinates":[-90.30278649080162,38.641678787543704],"type":"Point"},"id":"stl-city-public-streetlights:2:136819","properties":{"address":null,"attributes":{"Date_Installed":"6/15/2017","LED_Powered":1,"LightID":"L029535","Light_Source":"LED","Light_Type":"Cobra","Lighting_Type":"LED-Powered Lamp","Verification_Date":null},"id":"stl-city-public-streetlights:2:136819","sourceLayerId":2,"sourceObjectId":136819,"sourceURL":"https://maps8.stlouis-mo.gov/arcgis/rest/services/STREETS/Streets_Permitting/MapServer/2","title":"Street light L029535"},"type":"Feature"},{"geometry":{"coordinates":[-90.30267129881007,38.64201325220267],"type":"Point"},"id":"stl-city-public-streetlights:2:136820","properties":{"address":null,"attributes":{"Date_Installed":"6/15/2017","LED_Powered":1,"LightID":"L029536","Light_Source":"LED","Light_Type":"Cobra","Lighting_Type":"LED-Powered Lamp","Verification_Date":null},"id":"stl-city-public-streetlights:2:136820","sourceLayerId":2,"sourceObjectId":136820,"sourceURL":"https://maps8.stlouis-mo.gov/arcgis/rest/services/STREETS/Streets_Permitting/MapServer/2","title":"Street light L029536"},"type":"Feature"},{"geometry":{"coordinates":[-90.30252041500593,38.64239485138947],"type":"Point"},"id":"stl-city-public-streetlights:2:136821","properties":{"address":null,"attributes":{"Date_Installed":"6/15/2017","LED_Powered":1,"LightID":"L029537","Light_Source":"LED","Light_Type":"Cobra","Lighting_Type":"LED-Powered Lamp","Verification_Date":null},"id":"stl-city-public-streetlights:2:136821","sourceLayerId":2,"sourceObjectId":136821,"sourceURL":"https://maps8.stlouis-mo.gov/arcgis/rest/services/STREETS/Streets_Permitting/MapServer/2","title":"Street light L029537"},"type":"Feature"},{"geometry":{"coordinates":[-90.30237544100758,38.64278265845844],"type":"Point"},"id":"stl-city-public-streetlights:2:136822","properties":{"address":null,"attributes":{"Date_Installed":"6/15/2017","LED_Powered":1,"LightID":"L029538","Light_Source":"LED","Light_Type":"Cobra","Lighting_Type":"LED-Powered Lamp","Verification_Date":null},"id":"stl-city-public-streetlights:2:136822","sourceLayerId":2,"sourceObjectId":136822,"sourceURL":"https://maps8.stlouis-mo.gov/arcgis/rest/services/STREETS/Streets_Permitting/MapServer/2","title":"Street light L029538"},"type":"Feature"},{"geometry":{"coordinates":[-90.30224119252665,38.64313770819123],"type":"Point"},"id":"stl-city-public-streetlights:2:136823","properties":{"address":null,"attributes":{"Date_Installed":"6/15/2017","LED_Powered":1,"LightID":"L029539","Light_Source":"LED","Light_Type":"Cobra","Lighting_Type":"LED-Powered Lamp","Verification_Date":null},"id":"stl-city-public-streetlights:2:136823","sourceLayerId":2,"sourceObjectId":136823,"sourceURL":"https://maps8.stlouis-mo.gov/arcgis/rest/services/STREETS/Streets_Permitting/MapServer/2","title":"Street light L029539"},"type":"Feature"},{"geometry":{"coordinates":[-90.30208938468586,38.64354492917983],"type":"Point"},"id":"stl-city-public-streetlights:2:136824","properties":{"address":null,"attributes":{"Date_Installed":"6/15/2017","LED_Powered":1,"LightID":"L029540","Light_Source":"LED","Light_Type":"Cobra","Lighting_Type":"LED-Powered Lamp","Verification_Date":null},"id":"stl-city-public-streetlights:2:136824","sourceLayerId":2,"sourceObjectId":136824,"sourceURL":"https://maps8.stlouis-mo.gov/arcgis/rest/services/STREETS/Streets_Permitting/MapServer/2","title":"Street light L029540"},"type":"Feature"},{"geometry":{"coordinates":[-90.3019356037235,38.64392801267612],"type":"Point"},"id":"stl-city-public-streetlights:2:136825","properties":{"address":null,"attributes":{"Date_Installed":"6/15/2017","LED_Powered":1,"LightID":"L029541","Light_Source":"LED","Light_Type":"Cobra","Lighting_Type":"LED-Powered Lamp","Verification_Date":null},"id":"stl-city-public-streetlights:2:136825","sourceLayerId":2,"sourceObjectId":136825,"sourceURL":"https://maps8.stlouis-mo.gov/arcgis/rest/services/STREETS/Streets_Permitting/MapServer/2","title":"Street light L029541"},"type":"Feature"},{"geometry":{"coordinates":[-90.30181556076869,38.64431055761412],"type":"Point"},"id":"stl-city-public-streetlights:2:136826","properties":{"address":null,"attributes":{"Date_Installed":null,"LED_Powered":0,"LightID":"L029542","Light_Source":"High Pressure Sodium","Light_Type":"Cobra","Lighting_Type":"400-W High Pressure Sodium Vapor Lamp","Verification_Date":null},"id":"stl-city-public-streetlights:2:136826","sourceLayerId":2,"sourceObjectId":136826,"sourceURL":"https://maps8.stlouis-mo.gov/arcgis/rest/services/STREETS/Streets_Permitting/MapServer/2","title":"Street light L029542"},"type":"Feature"},{"geometry":{"coordinates":[-90.30166367120393,38.64472314081896],"type":"Point"},"id":"stl-city-public-streetlights:2:136827","properties":{"address":null,"attributes":{"Date_Installed":"6/15/2017","LED_Powered":1,"LightID":"L029543","Light_Source":"LED","Light_Type":"Cobra","Lighting_Type":"LED-Powered Lamp","Verification_Date":null},"id":"stl-city-public-streetlights:2:136827","sourceLayerId":2,"sourceObjectId":136827,"sourceURL":"https://maps8.stlouis-mo.gov/arcgis/rest/services/STREETS/Streets_Permitting/MapServer/2","title":"Street light L029543"},"type":"Feature"},{"geometry":{"coordinates":[-90.3015666423008,38.64508004011122],"type":"Point"},"id":"stl-city-public-streetlights:2:136828","properties":{"address":null,"attributes":{"Date_Installed":"6/15/2017","LED_Powered":1,"LightID":"L029544","Light_Source":"LED","Light_Type":"Cobra","Lighting_Type":"LED-Powered Lamp","Verification_Date":null},"id":"stl-city-public-streetlights:2:136828","sourceLayerId":2,"sourceObjectId":136828,"sourceURL":"https://maps8.stlouis-mo.gov/arcgis/rest/services/STREETS/Streets_Permitting/MapServer/2","title":"Street light L029544"},"type":"Feature"},{"geometry":{"coordinates":[-90.30146458915313,38.64549556874519],"type":"Point"},"id":"stl-city-public-streetlights:2:136829","properties":{"address":null,"attributes":{"Date_Installed":"6/15/2017","LED_Powered":1,"LightID":"L029545","Light_Source":"LED","Light_Type":"Cobra","Lighting_Type":"LED-Powered Lamp","Verification_Date":null},"id":"stl-city-public-streetlights:2:136829","sourceLayerId":2,"sourceObjectId":136829,"sourceURL":"https://maps8.stlouis-mo.gov/arcgis/rest/services/STREETS/Streets_Permitting/MapServer/2","title":"Street light L029545"},"type":"Feature"},{"geometry":{"coordinates":[-90.30138856501665,38.64590589647607],"type":"Point"},"id":"stl-city-public-streetlights:2:136830","properties":{"address":null,"attributes":{"Date_Installed":"6/15/2017","LED_Powered":1,"LightID":"L029546","Light_Source":"LED","Light_Type":"Cobra","Lighting_Type":"LED-Powered Lamp","Verification_Date":null},"id":"stl-city-public-streetlights:2:136830","sourceLayerId":2,"sourceObjectId":136830,"sourceURL":"https://maps8.stlouis-mo.gov/arcgis/rest/services/STREETS/Streets_Permitting/MapServer/2","title":"Street light L029546"},"type":"Feature"},{"geometry":{"coordinates":[-90.30130893926362,38.646343868095364],"type":"Point"},"id":"stl-city-public-streetlights:2:136831","properties":{"address":null,"attributes":{"Date_Installed":"6/15/2017","LED_Powered":1,"LightID":"L029547","Light_Source":"LED","Light_Type":"Cobra","Lighting_Type":"LED-Powered Lamp","Verification_Date":null},"id":"stl-city-public-streetlights:2:136831","sourceLayerId":2,"sourceObjectId":136831,"sourceURL":"https://maps8.stlouis-mo.gov/arcgis/rest/services/STREETS/Streets_Permitting/MapServer/2","title":"Street light L029547"},"type":"Feature"},{"geometry":{"coordinates":[-90.30125141918774,38.64670083501946],"type":"Point"},"id":"stl-city-public-streetlights:2:136832","properties":{"address":null,"attributes":{"Date_Installed":"6/15/2017","LED_Powered":1,"LightID":"L029548","Light_Source":"LED","Light_Type":"Cobra","Lighting_Type":"LED-Powered Lamp","Verification_Date":null},"id":"stl-city-public-streetlights:2:136832","sourceLayerId":2,"sourceObjectId":136832,"sourceURL":"https://maps8.stlouis-mo.gov/arcgis/rest/services/STREETS/Streets_Permitting/MapServer/2","title":"Street light L029548"},"type":"Feature"},{"geometry":{"coordinates":[-90.30118962374044,38.64706494498215],"type":"Point"},"id":"stl-city-public-streetlights:2:136833","properties":{"address":null,"attributes":{"Date_Installed":"6/15/2017","LED_Powered":1,"LightID":"L029549","Light_Source":"LED","Light_Type":"Cobra","Lighting_Type":"LED-Powered Lamp","Verification_Date":null},"id":"stl-city-public-streetlights:2:136833","sourceLayerId":2,"sourceObjectId":136833,"sourceURL":"https://maps8.stlouis-mo.gov/arcgis/rest/services/STREETS/Streets_Permitting/MapServer/2","title":"Street light L029549"},"type":"Feature"},{"geometry":{"coordinates":[-90.3008961637766,38.6472293914402],"type":"Point"},"id":"stl-city-public-streetlights:2:136834","properties":{"address":null,"attributes":{"Date_Installed":"6/15/2017","LED_Powered":1,"LightID":"L029550","Light_Source":"LED","Light_Type":"Cobra","Lighting_Type":"LED-Powered Lamp","Verification_Date":null},"id":"stl-city-public-streetlights:2:136834","sourceLayerId":2,"sourceObjectId":136834,"sourceURL":"https://maps8.stlouis-mo.gov/arcgis/rest/services/STREETS/Streets_Permitting/MapServer/2","title":"Street light L029550"},"type":"Feature"},{"geometry":{"coordinates":[-90.30095151731489,38.646869050813656],"type":"Point"},"id":"stl-city-public-streetlights:2:136835","properties":{"address":null,"attributes":{"Date_Installed":"6/15/2017","LED_Powered":1,"LightID":"L029551","Light_Source":"LED","Light_Type":"Cobra","Lighting_Type":"LED-Powered Lamp","Verification_Date":null},"id":"stl-city-public-streetlights:2:136835","sourceLayerId":2,"sourceObjectId":136835,"sourceURL":"https://maps8.stlouis-mo.gov/arcgis/rest/services/STREETS/Streets_Permitting/MapServer/2","title":"Street light L029551"},"type":"Feature"},{"geometry":{"coordinates":[-90.30101854718451,38.646499262556866],"type":"Point"},"id":"stl-city-public-streetlights:2:136836","properties":{"address":null,"attributes":{"Date_Installed":"6/15/2017","LED_Powered":1,"LightID":"L029552","Light_Source":"LED","Light_Type":"Cobra","Lighting_Type":"LED-Powered Lamp","Verification_Date":null},"id":"stl-city-public-streetlights:2:136836","sourceLayerId":2,"sourceObjectId":136836,"sourceURL":"https://maps8.stlouis-mo.gov/arcgis/rest/services/STREETS/Streets_Permitting/MapServer/2","title":"Street light L029552"},"type":"Feature"},{"geometry":{"coordinates":[-90.3010814286614,38.64612681136322],"type":"Point"},"id":"stl-city-public-streetlights:2:136837","properties":{"address":null,"attributes":{"Date_Installed":"6/15/2017","LED_Powered":1,"LightID":"L029553","Light_Source":"LED","Light_Type":"Cobra","Lighting_Type":"LED-Powered Lamp","Verification_Date":null},"id":"stl-city-public-streetlights:2:136837","sourceLayerId":2,"sourceObjectId":136837,"sourceURL":"https://maps8.stlouis-mo.gov/arcgis/rest/services/STREETS/Streets_Permitting/MapServer/2","title":"Street light L029553"},"type":"Feature"},{"geometry":{"coordinates":[-90.30115328305753,38.64569716980841],"type":"Point"},"id":"stl-city-public-streetlights:2:136838","properties":{"address":null,"attributes":{"Date_Installed":"6/15/2017","LED_Powered":1,"LightID":"L029554","Light_Source":"LED","Light_Type":"Cobra","Lighting_Type":"LED-Powered Lamp","Verification_Date":null},"id":"stl-city-public-streetlights:2:136838","sourceLayerId":2,"sourceObjectId":136838,"sourceURL":"https://maps8.stlouis-mo.gov/arcgis/rest/services/STREETS/Streets_Permitting/MapServer/2","title":"Street light L029554"},"type":"Feature"},{"geometry":{"coordinates":[-90.30123630656884,38.64527931817142],"type":"Point"},"id":"stl-city-public-streetlights:2:136839","properties":{"address":null,"attributes":{"Date_Installed":"6/15/2017","LED_Powered":1,"LightID":"L029555","Light_Source":"LED","Light_Type":"Cobra","Lighting_Type":"LED-Powered Lamp","Verification_Date":null},"id":"stl-city-public-streetlights:2:136839","sourceLayerId":2,"sourceObjectId":136839,"sourceURL":"https://maps8.stlouis-mo.gov/arcgis/rest/services/STREETS/Streets_Permitting/MapServer/2","title":"Street light L029555"},"type":"Feature"},{"geometry":{"coordinates":[-90.30135448189606,38.6448418137807],"type":"Point"},"id":"stl-city-public-streetlights:2:136840","properties":{"address":null,"attributes":{"Date_Installed":"6/15/2017","LED_Powered":1,"LightID":"L029556","Light_Source":"LED","Light_Type":"Cobra","Lighting_Type":"LED-Powered Lamp","Verification_Date":null},"id":"stl-city-public-streetlights:2:136840","sourceLayerId":2,"sourceObjectId":136840,"sourceURL":"https://maps8.stlouis-mo.gov/arcgis/rest/services/STREETS/Streets_Permitting/MapServer/2","title":"Street light L029556"},"type":"Feature"},{"geometry":{"coordinates":[-90.30146615733422,38.644486352101445],"type":"Point"},"id":"stl-city-public-streetlights:2:136841","properties":{"address":null,"attributes":{"Date_Installed":"6/15/2017","LED_Powered":1,"LightID":"L029557","Light_Source":"LED","Light_Type":"Cobra","Lighting_Type":"LED-Powered Lamp","Verification_Date":null},"id":"stl-city-public-streetlights:2:136841","sourceLayerId":2,"sourceObjectId":136841,"sourceURL":"https://maps8.stlouis-mo.gov/arcgis/rest/services/STREETS/Streets_Permitting/MapServer/2","title":"Street light L029557"},"type":"Feature"},{"geometry":{"coordinates":[-90.30159222438598,38.64409744125764],"type":"Point"},"id":"stl-city-public-streetlights:2:136842","properties":{"address":null,"attributes":{"Date_Installed":"6/15/2017","LED_Powered":1,"LightID":"L029558","Light_Source":"LED","Light_Type":"Cobra","Lighting_Type":"LED-Powered Lamp","Verification_Date":null},"id":"stl-city-public-streetlights:2:136842","sourceLayerId":2,"sourceObjectId":136842,"sourceURL":"https://maps8.stlouis-mo.gov/arcgis/rest/services/STREETS/Streets_Permitting/MapServer/2","title":"Street light L029558"},"type":"Feature"},{"geometry":{"coordinates":[-90.30174108547327,38.643707616641265],"type":"Point"},"id":"stl-city-public-streetlights:2:136843","properties":{"address":null,"attributes":{"Date_Installed":"6/15/2017","LED_Powered":1,"LightID":"L029559","Light_Source":"LED","Light_Type":"Cobra","Lighting_Type":"LED-Powered Lamp","Verification_Date":null},"id":"stl-city-public-streetlights:2:136843","sourceLayerId":2,"sourceObjectId":136843,"sourceURL":"https://maps8.stlouis-mo.gov/arcgis/rest/services/STREETS/Streets_Permitting/MapServer/2","title":"Street light L029559"},"type":"Feature"},{"geometry":{"coordinates":[-90.30189673904744,38.643306718766276],"type":"Point"},"id":"stl-city-public-streetlights:2:136844","properties":{"address":null,"attributes":{"Date_Installed":"6/15/2017","LED_Powered":1,"LightID":"L029560","Light_Source":"LED","Light_Type":"Cobra","Lighting_Type":"LED-Powered Lamp","Verification_Date":null},"id":"stl-city-public-streetlights:2:136844","sourceLayerId":2,"sourceObjectId":136844,"sourceURL":"https://maps8.stlouis-mo.gov/arcgis/rest/services/STREETS/Streets_Permitting/MapServer/2","title":"Street light L029560"},"type":"Feature"},{"geometry":{"coordinates":[-90.30204214577711,38.64290699609464],"type":"Point"},"id":"stl-city-public-streetlights:2:136845","properties":{"address":null,"attributes":{"Date_Installed":"6/15/2017","LED_Powered":1,"LightID":"L029561","Light_Source":"LED","Light_Type":"Cobra","Lighting_Type":"LED-Powered Lamp","Verification_Date":null},"id":"stl-city-public-streetlights:2:136845","sourceLayerId":2,"sourceObjectId":136845,"sourceURL":"https://maps8.stlouis-mo.gov/arcgis/rest/services/STREETS/Streets_Permitting/MapServer/2","title":"Street light L029561"},"type":"Feature"},{"geometry":{"coordinates":[-90.30219272633995,38.642525872718565],"type":"Point"},"id":"stl-city-public-streetlights:2:136846","properties":{"address":null,"attributes":{"Date_Installed":"6/15/2017","LED_Powered":1,"LightID":"L029562","Light_Source":"LED","Light_Type":"Cobra","Lighting_Type":"LED-Powered Lamp","Verification_Date":null},"id":"stl-city-public-streetlights:2:136846","sourceLayerId":2,"sourceObjectId":136846,"sourceURL":"https://maps8.stlouis-mo.gov/arcgis/rest/services/STREETS/Streets_Permitting/MapServer/2","title":"Street light L029562"},"type":"Feature"},{"geometry":{"coordinates":[-90.30234701261924,38.642122826828455],"type":"Point"},"id":"stl-city-public-streetlights:2:136847","properties":{"address":null,"attributes":{"Date_Installed":"6/15/2017","LED_Powered":1,"LightID":"L029563","Light_Source":"LED","Light_Type":"Cobra","Lighting_Type":"LED-Powered Lamp","Verification_Date":null},"id":"stl-city-public-streetlights:2:136847","sourceLayerId":2,"sourceObjectId":136847,"sourceURL":"https://maps8.stlouis-mo.gov/arcgis/rest/services/STREETS/Streets_Permitting/MapServer/2","title":"Street light L029563"},"type":"Feature"},{"geometry":{"coordinates":[-90.30246400815398,38.641796470846465],"type":"Point"},"id":"stl-city-public-streetlights:2:136848","properties":{"address":null,"attributes":{"Date_Installed":"6/15/2017","LED_Powered":1,"LightID":"L029564","Light_Source":"LED","Light_Type":"Cobra","Lighting_Type":"LED-Powered Lamp","Verification_Date":null},"id":"stl-city-public-streetlights:2:136848","sourceLayerId":2,"sourceObjectId":136848,"sourceURL":"https://maps8.stlouis-mo.gov/arcgis/rest/services/STREETS/Streets_Permitting/MapServer/2","title":"Street light L029564"},"type":"Feature"},{"geometry":{"coordinates":[-90.30258746357649,38.64141959202047],"type":"Point"},"id":"stl-city-public-streetlights:2:136849","properties":{"address":null,"attributes":{"Date_Installed":"6/15/2017","LED_Powered":1,"LightID":"L029565","Light_Source":"LED","Light_Type":"Cobra","Lighting_Type":"LED-Powered Lamp","Verification_Date":null},"id":"stl-city-public-streetlights:2:136849","sourceLayerId":2,"sourceObjectId":136849,"sourceURL":"https://maps8.stlouis-mo.gov/arcgis/rest/services/STREETS/Streets_Permitting/MapServer/2","title":"Street light L029565"},"type":"Feature"},{"geometry":{"coordinates":[-90.30270776172885,38.640995989370566],"type":"Point"},"id":"stl-city-public-streetlights:2:136850","properties":{"address":null,"attributes":{"Date_Installed":"6/15/2017","LED_Powered":1,"LightID":"L029566","Light_Source":"LED","Light_Type":"Cobra","Lighting_Type":"LED-Powered Lamp","Verification_Date":null},"id":"stl-city-public-streetlights:2:136850","sourceLayerId":2,"sourceObjectId":136850,"sourceURL":"https://maps8.stlouis-mo.gov/arcgis/rest/services/STREETS/Streets_Permitting/MapServer/2","title":"Street light L029566"},"type":"Feature"},{"geometry":{"coordinates":[-90.30279450216761,38.64061857178049],"type":"Point"},"id":"stl-city-public-streetlights:2:136851","properties":{"address":null,"attributes":{"Date_Installed":"6/15/2017","LED_Powered":1,"LightID":"L029567","Light_Source":"LED","Light_Type":"Cobra","Lighting_Type":"LED-Powered Lamp","Verification_Date":null},"id":"stl-city-public-streetlights:2:136851","sourceLayerId":2,"sourceObjectId":136851,"sourceURL":"https://maps8.stlouis-mo.gov/arcgis/rest/services/STREETS/Streets_Permitting/MapServer/2","title":"Street light L029567"},"type":"Feature"},{"geometry":{"coordinates":[-90.3028783420117,38.640234188938045],"type":"Point"},"id":"stl-city-public-streetlights:2:136852","properties":{"address":null,"attributes":{"Date_Installed":"6/15/2017","LED_Powered":1,"LightID":"L029568","Light_Source":"LED","Light_Type":"Cobra","Lighting_Type":"LED-Powered Lamp","Verification_Date":null},"id":"stl-city-public-streetlights:2:136852","sourceLayerId":2,"sourceObjectId":136852,"sourceURL":"https://maps8.stlouis-mo.gov/arcgis/rest/services/STREETS/Streets_Permitting/MapServer/2","title":"Street light L029568"},"type":"Feature"},{"geometry":{"coordinates":[-90.30094586174475,38.646032859489495],"type":"Point"},"id":"stl-city-public-streetlights:2:137071","properties":{"address":null,"attributes":{"Date_Installed":null,"LED_Powered":0,"LightID":"L029787","Light_Source":"LED","Light_Type":"Cobra","Lighting_Type":"LED-Powered Lamp","Verification_Date":null},"id":"stl-city-public-streetlights:2:137071","sourceLayerId":2,"sourceObjectId":137071,"sourceURL":"https://maps8.stlouis-mo.gov/arcgis/rest/services/STREETS/Streets_Permitting/MapServer/2","title":"Street light L029787"},"type":"Feature"},{"geometry":{"coordinates":[-90.30059712955314,38.6459626647191],"type":"Point"},"id":"stl-city-public-streetlights:2:137072","properties":{"address":null,"attributes":{"Date_Installed":null,"LED_Powered":0,"LightID":"L029788","Light_Source":"LED","Light_Type":"Cobra","Lighting_Type":"LED-Powered Lamp","Verification_Date":null},"id":"stl-city-public-streetlights:2:137072","sourceLayerId":2,"sourceObjectId":137072,"sourceURL":"https://maps8.stlouis-mo.gov/arcgis/rest/services/STREETS/Streets_Permitting/MapServer/2","title":"Street light L029788"},"type":"Feature"},{"geometry":{"coordinates":[-90.3003277415427,38.64586590741332],"type":"Point"},"id":"stl-city-public-streetlights:2:137073","properties":{"address":null,"attributes":{"Date_Installed":null,"LED_Powered":0,"LightID":"L029789","Light_Source":"LED","Light_Type":"Cobra","Lighting_Type":"LED-Powered Lamp","Verification_Date":null},"id":"stl-city-public-streetlights:2:137073","sourceLayerId":2,"sourceObjectId":137073,"sourceURL":"https://maps8.stlouis-mo.gov/arcgis/rest/services/STREETS/Streets_Permitting/MapServer/2","title":"Street light L029789"},"type":"Feature"},{"geometry":{"coordinates":[-90.30026940483795,38.6476252708742],"type":"Point"},"id":"stl-city-public-streetlights:2:138982","properties":{"address":null,"attributes":{"Date_Installed":"4/6/20","LED_Powered":1,"LightID":"L031797","Light_Source":"LED","Light_Type":"Cobra","Lighting_Type":"LED-Powered Lamp","Verification_Date":null},"id":"stl-city-public-streetlights:2:138982","sourceLayerId":2,"sourceObjectId":138982,"sourceURL":"https://maps8.stlouis-mo.gov/arcgis/rest/services/STREETS/Streets_Permitting/MapServer/2","title":"Street light L031797"},"type":"Feature"},{"geometry":{"coordinates":[-90.30026729123551,38.64998298366886],"type":"Point"},"id":"stl-city-public-streetlights:2:142495","properties":{"address":null,"attributes":{"Date_Installed":"4/2020","LED_Powered":1,"LightID":"L035349","Light_Source":"LED","Light_Type":"Cobra","Lighting_Type":"LED-Powered Lamp","Verification_Date":null},"id":"stl-city-public-streetlights:2:142495","sourceLayerId":2,"sourceObjectId":142495,"sourceURL":"https://maps8.stlouis-mo.gov/arcgis/rest/services/STREETS/Streets_Permitting/MapServer/2","title":"Street light L035349"},"type":"Feature"},{"geometry":{"coordinates":[-90.30142998571814,38.64947039895717],"type":"Point"},"id":"stl-city-public-streetlights:2:142523","properties":{"address":null,"attributes":{"Date_Installed":null,"LED_Powered":0,"LightID":"L035377","Light_Source":"High Pressure Sodium","Light_Type":"Cobra","Lighting_Type":"400-W High Pressure Sodium Vapor Lamp","Verification_Date":null},"id":"stl-city-public-streetlights:2:142523","sourceLayerId":2,"sourceObjectId":142523,"sourceURL":"https://maps8.stlouis-mo.gov/arcgis/rest/services/STREETS/Streets_Permitting/MapServer/2","title":"Street light L035377"},"type":"Feature"},{"geometry":{"coordinates":[-90.30093699885116,38.6494358489722],"type":"Point"},"id":"stl-city-public-streetlights:2:142524","properties":{"address":null,"attributes":{"Date_Installed":null,"LED_Powered":0,"LightID":"L035378","Light_Source":"High Pressure Sodium","Light_Type":"Cobra","Lighting_Type":"400-W High Pressure Sodium Vapor Lamp","Verification_Date":null},"id":"stl-city-public-streetlights:2:142524","sourceLayerId":2,"sourceObjectId":142524,"sourceURL":"https://maps8.stlouis-mo.gov/arcgis/rest/services/STREETS/Streets_Permitting/MapServer/2","title":"Street light L035378"},"type":"Feature"},{"geometry":{"coordinates":[-90.30013988404842,38.6493832599468],"type":"Point"},"id":"stl-city-public-streetlights:2:142525","properties":{"address":null,"attributes":{"Date_Installed":null,"LED_Powered":0,"LightID":"L035379","Light_Source":"High Pressure Sodium","Light_Type":"Cobra","Lighting_Type":"400-W High Pressure Sodium Vapor Lamp","Verification_Date":null},"id":"stl-city-public-streetlights:2:142525","sourceLayerId":2,"sourceObjectId":142525,"sourceURL":"https://maps8.stlouis-mo.gov/arcgis/rest/services/STREETS/Streets_Permitting/MapServer/2","title":"Street light L035379"},"type":"Feature"},{"geometry":{"coordinates":[-90.30055868695531,38.6495151629751],"type":"Point"},"id":"stl-city-public-streetlights:2:148924","properties":{"address":null,"attributes":{"Date_Installed":null,"LED_Powered":0,"LightID":"L041780","Light_Source":"High Pressure Sodium","Light_Type":"Decorative","Lighting_Type":"Sterner/ELA (singlearm) (Historic Light Fixture)","Verification_Date":null},"id":"stl-city-public-streetlights:2:148924","sourceLayerId":2,"sourceObjectId":148924,"sourceURL":"https://maps8.stlouis-mo.gov/arcgis/rest/services/STREETS/Streets_Permitting/MapServer/2","title":"Street light L041780"},"type":"Feature"},{"geometry":{"coordinates":[-90.30054020909238,38.649601895138936],"type":"Point"},"id":"stl-city-public-streetlights:2:148925","properties":{"address":null,"attributes":{"Date_Installed":null,"LED_Powered":0,"LightID":"L041781","Light_Source":"High Pressure Sodium","Light_Type":"Decorative","Lighting_Type":"Sterner/ELA (singlearm) (Historic Light Fixture)","Verification_Date":null},"id":"stl-city-public-streetlights:2:148925","sourceLayerId":2,"sourceObjectId":148925,"sourceURL":"https://maps8.stlouis-mo.gov/arcgis/rest/services/STREETS/Streets_Permitting/MapServer/2","title":"Street light L041781"},"type":"Feature"},{"geometry":{"coordinates":[-90.30049568964535,38.64987221548383],"type":"Point"},"id":"stl-city-public-streetlights:2:148926","properties":{"address":null,"attributes":{"Date_Installed":null,"LED_Powered":0,"LightID":"L041782","Light_Source":"High Pressure Sodium","Light_Type":"Decorative","Lighting_Type":"Sterner/ELA (singlearm) (Historic Light Fixture)","Verification_Date":null},"id":"stl-city-public-streetlights:2:148926","sourceLayerId":2,"sourceObjectId":148926,"sourceURL":"https://maps8.stlouis-mo.gov/arcgis/rest/services/STREETS/Streets_Permitting/MapServer/2","title":"Street light L041782"},"type":"Feature"},{"geometry":{"coordinates":[-90.30071233572588,38.64998884440017],"type":"Point"},"id":"stl-city-public-streetlights:2:149311","properties":{"address":null,"attributes":{"Date_Installed":null,"LED_Powered":0,"LightID":"L042167","Light_Source":"High Pressure Sodium","Light_Type":"Decorative","Lighting_Type":"Sterner/ELA (singlearm) (Historic Light Fixture)","Verification_Date":null},"id":"stl-city-public-streetlights:2:149311","sourceLayerId":2,"sourceObjectId":149311,"sourceURL":"https://maps8.stlouis-mo.gov/arcgis/rest/services/STREETS/Streets_Permitting/MapServer/2","title":"Street light L042167"},"type":"Feature"},{"geometry":{"coordinates":[-90.30073082949998,38.64989591503046],"type":"Point"},"id":"stl-city-public-streetlights:2:149312","properties":{"address":null,"attributes":{"Date_Installed":null,"LED_Powered":0,"LightID":"L042168","Light_Source":"High Pressure Sodium","Light_Type":"Decorative","Lighting_Type":"Sterner/ELA (singlearm) (Historic Light Fixture)","Verification_Date":null},"id":"stl-city-public-streetlights:2:149312","sourceLayerId":2,"sourceObjectId":149312,"sourceURL":"https://maps8.stlouis-mo.gov/arcgis/rest/services/STREETS/Streets_Permitting/MapServer/2","title":"Street light L042168"},"type":"Feature"},{"geometry":{"coordinates":[-90.30074778253815,38.64981132615981],"type":"Point"},"id":"stl-city-public-streetlights:2:149313","properties":{"address":null,"attributes":{"Date_Installed":null,"LED_Powered":0,"LightID":"L042169","Light_Source":"High Pressure Sodium","Light_Type":"Decorative","Lighting_Type":"Sterner/ELA (singlearm) (Historic Light Fixture)","Verification_Date":null},"id":"stl-city-public-streetlights:2:149313","sourceLayerId":2,"sourceObjectId":149313,"sourceURL":"https://maps8.stlouis-mo.gov/arcgis/rest/services/STREETS/Streets_Permitting/MapServer/2","title":"Street light L042169"},"type":"Feature"},{"geometry":{"coordinates":[-90.30076173424425,38.64971243056982],"type":"Point"},"id":"stl-city-public-streetlights:2:149314","properties":{"address":null,"attributes":{"Date_Installed":null,"LED_Powered":0,"LightID":"L042170","Light_Source":"High Pressure Sodium","Light_Type":"Decorative","Lighting_Type":"Sterner/ELA (singlearm) (Historic Light Fixture)","Verification_Date":null},"id":"stl-city-public-streetlights:2:149314","sourceLayerId":2,"sourceObjectId":149314,"sourceURL":"https://maps8.stlouis-mo.gov/arcgis/rest/services/STREETS/Streets_Permitting/MapServer/2","title":"Street light L042170"},"type":"Feature"},{"geometry":{"coordinates":[-90.30077872895853,38.649612348283206],"type":"Point"},"id":"stl-city-public-streetlights:2:149315","properties":{"address":null,"attributes":{"Date_Installed":null,"LED_Powered":0,"LightID":"L042171","Light_Source":"High Pressure Sodium","Light_Type":"Decorative","Lighting_Type":"Sterner/ELA (singlearm) (Historic Light Fixture)","Verification_Date":null},"id":"stl-city-public-streetlights:2:149315","sourceLayerId":2,"sourceObjectId":149315,"sourceURL":"https://maps8.stlouis-mo.gov/arcgis/rest/services/STREETS/Streets_Permitting/MapServer/2","title":"Street light L042171"},"type":"Feature"},{"geometry":{"coordinates":[-90.3007896198788,38.649521432048516],"type":"Point"},"id":"stl-city-public-streetlights:2:149316","properties":{"address":null,"attributes":{"Date_Installed":null,"LED_Powered":0,"LightID":"L042172","Light_Source":"High Pressure Sodium","Light_Type":"Decorative","Lighting_Type":"Sterner/ELA (singlearm) (Historic Light Fixture)","Verification_Date":null},"id":"stl-city-public-streetlights:2:149316","sourceLayerId":2,"sourceObjectId":149316,"sourceURL":"https://maps8.stlouis-mo.gov/arcgis/rest/services/STREETS/Streets_Permitting/MapServer/2","title":"Street light L042172"},"type":"Feature"},{"geometry":{"coordinates":[-90.30040938063844,38.64920494953946],"type":"Point"},"id":"stl-city-public-streetlights:2:155399","properties":{"address":null,"attributes":{"Date_Installed":null,"LED_Powered":0,"LightID":"L048131","Light_Source":"High Pressure Sodium","Light_Type":"Cobra","Lighting_Type":"400-W High Pressure Sodium Vapor Lamp","Verification_Date":null},"id":"stl-city-public-streetlights:2:155399","sourceLayerId":2,"sourceObjectId":155399,"sourceURL":"https://maps8.stlouis-mo.gov/arcgis/rest/services/STREETS/Streets_Permitting/MapServer/2","title":"Street light L048131"},"type":"Feature"},{"geometry":{"coordinates":[-90.30140537074014,38.64925336376171],"type":"Point"},"id":"stl-city-public-streetlights:2:155400","properties":{"address":null,"attributes":{"Date_Installed":"2/27/20","LED_Powered":1,"LightID":"L048132","Light_Source":"LED","Light_Type":"Cobra","Lighting_Type":"LED-Powered Lamp","Verification_Date":null},"id":"stl-city-public-streetlights:2:155400","sourceLayerId":2,"sourceObjectId":155400,"sourceURL":"https://maps8.stlouis-mo.gov/arcgis/rest/services/STREETS/Streets_Permitting/MapServer/2","title":"Street light L048132"},"type":"Feature"},{"geometry":{"coordinates":[-90.30260531102405,38.64939233239967],"type":"Point"},"id":"stl-city-public-streetlights:2:155401","properties":{"address":null,"attributes":{"Date_Installed":"2/27/20","LED_Powered":1,"LightID":"L048133","Light_Source":"LED","Light_Type":"Cobra","Lighting_Type":"LED-Powered Lamp","Verification_Date":null},"id":"stl-city-public-streetlights:2:155401","sourceLayerId":2,"sourceObjectId":155401,"sourceURL":"https://maps8.stlouis-mo.gov/arcgis/rest/services/STREETS/Streets_Permitting/MapServer/2","title":"Street light L048133"},"type":"Feature"},{"geometry":{"coordinates":[-90.30067008835893,38.64749843166731],"type":"Point"},"id":"stl-city-public-streetlights:2:155402","properties":{"address":null,"attributes":{"Date_Installed":null,"LED_Powered":0,"LightID":"L048134","Light_Source":"LED","Light_Type":"Cobra","Lighting_Type":"LED-Powered Lamp","Verification_Date":null},"id":"stl-city-public-streetlights:2:155402","sourceLayerId":2,"sourceObjectId":155402,"sourceURL":"https://maps8.stlouis-mo.gov/arcgis/rest/services/STREETS/Streets_Permitting/MapServer/2","title":"Street light L048134"},"type":"Feature"},{"geometry":{"coordinates":[-90.3007244581249,38.64770942595866],"type":"Point"},"id":"stl-city-public-streetlights:2:155403","properties":{"address":null,"attributes":{"Date_Installed":null,"LED_Powered":0,"LightID":"L048135","Light_Source":"LED","Light_Type":"Cobra","Lighting_Type":"LED-Powered Lamp","Verification_Date":null},"id":"stl-city-public-streetlights:2:155403","sourceLayerId":2,"sourceObjectId":155403,"sourceURL":"https://maps8.stlouis-mo.gov/arcgis/rest/services/STREETS/Streets_Permitting/MapServer/2","title":"Street light L048135"},"type":"Feature"},{"geometry":{"coordinates":[-90.30082326401543,38.64778321755541],"type":"Point"},"id":"stl-city-public-streetlights:2:155404","properties":{"address":null,"attributes":{"Date_Installed":null,"LED_Powered":0,"LightID":"L048136","Light_Source":"LED","Light_Type":"Cobra","Lighting_Type":"LED-Powered Lamp","Verification_Date":null},"id":"stl-city-public-streetlights:2:155404","sourceLayerId":2,"sourceObjectId":155404,"sourceURL":"https://maps8.stlouis-mo.gov/arcgis/rest/services/STREETS/Streets_Permitting/MapServer/2","title":"Street light L048136"},"type":"Feature"},{"geometry":{"coordinates":[-90.30076493575312,38.64826603692128],"type":"Point"},"id":"stl-city-public-streetlights:2:155405","properties":{"address":null,"attributes":{"Date_Installed":"6/15/2017","LED_Powered":1,"LightID":"L048137","Light_Source":"LED","Light_Type":"Cobra","Lighting_Type":"LED-Powered Lamp","Verification_Date":null},"id":"stl-city-public-streetlights:2:155405","sourceLayerId":2,"sourceObjectId":155405,"sourceURL":"https://maps8.stlouis-mo.gov/arcgis/rest/services/STREETS/Streets_Permitting/MapServer/2","title":"Street light L048137"},"type":"Feature"},{"geometry":{"coordinates":[-90.30067086612907,38.6488136295727],"type":"Point"},"id":"stl-city-public-streetlights:2:155406","properties":{"address":null,"attributes":{"Date_Installed":"6/15/2017","LED_Powered":1,"LightID":"L048138","Light_Source":"LED","Light_Type":"Cobra","Lighting_Type":"LED-Powered Lamp","Verification_Date":null},"id":"stl-city-public-streetlights:2:155406","sourceLayerId":2,"sourceObjectId":155406,"sourceURL":"https://maps8.stlouis-mo.gov/arcgis/rest/services/STREETS/Streets_Permitting/MapServer/2","title":"Street light L048138"},"type":"Feature"},{"geometry":{"coordinates":[-90.30050580767761,38.64979998959508],"type":"Point"},"id":"stl-city-public-streetlights:2:155407","properties":{"address":null,"attributes":{"Date_Installed":"6/15/2017","LED_Powered":1,"LightID":"L048139","Light_Source":"LED","Light_Type":"Cobra","Lighting_Type":"LED-Powered Lamp","Verification_Date":null},"id":"stl-city-public-streetlights:2:155407","sourceLayerId":2,"sourceObjectId":155407,"sourceURL":"https://maps8.stlouis-mo.gov/arcgis/rest/services/STREETS/Streets_Permitting/MapServer/2","title":"Street light L048139"},"type":"Feature"},{"geometry":{"coordinates":[-90.30071670471517,38.64992787160746],"type":"Point"},"id":"stl-city-public-streetlights:2:155428","properties":{"address":null,"attributes":{"Date_Installed":"6/15/2017","LED_Powered":1,"LightID":"L048160","Light_Source":"LED","Light_Type":"Cobra","Lighting_Type":"LED-Powered Lamp","Verification_Date":null},"id":"stl-city-public-streetlights:2:155428","sourceLayerId":2,"sourceObjectId":155428,"sourceURL":"https://maps8.stlouis-mo.gov/arcgis/rest/services/STREETS/Streets_Permitting/MapServer/2","title":"Street light L048160"},"type":"Feature"},{"geometry":{"coordinates":[-90.30076917559786,38.64963966406866],"type":"Point"},"id":"stl-city-public-streetlights:2:155429","properties":{"address":null,"attributes":{"Date_Installed":"6/15/2017","LED_Powered":1,"LightID":"L048161","Light_Source":"LED","Light_Type":"Cobra","Lighting_Type":"LED-Powered Lamp","Verification_Date":null},"id":"stl-city-public-streetlights:2:155429","sourceLayerId":2,"sourceObjectId":155429,"sourceURL":"https://maps8.stlouis-mo.gov/arcgis/rest/services/STREETS/Streets_Permitting/MapServer/2","title":"Street light L048161"},"type":"Feature"},{"geometry":{"coordinates":[-90.30091082362408,38.64908076516509],"type":"Point"},"id":"stl-city-public-streetlights:2:155430","properties":{"address":null,"attributes":{"Date_Installed":"6/15/2017","LED_Powered":1,"LightID":"L048162","Light_Source":"LED","Light_Type":"Cobra","Lighting_Type":"LED-Powered Lamp","Verification_Date":null},"id":"stl-city-public-streetlights:2:155430","sourceLayerId":2,"sourceObjectId":155430,"sourceURL":"https://maps8.stlouis-mo.gov/arcgis/rest/services/STREETS/Streets_Permitting/MapServer/2","title":"Street light L048162"},"type":"Feature"},{"geometry":{"coordinates":[-90.30094267545341,38.64856715071399],"type":"Point"},"id":"stl-city-public-streetlights:2:155431","properties":{"address":null,"attributes":{"Date_Installed":"6/15/2017","LED_Powered":1,"LightID":"L048163","Light_Source":"LED","Light_Type":"Cobra","Lighting_Type":"LED-Powered Lamp","Verification_Date":null},"id":"stl-city-public-streetlights:2:155431","sourceLayerId":2,"sourceObjectId":155431,"sourceURL":"https://maps8.stlouis-mo.gov/arcgis/rest/services/STREETS/Streets_Permitting/MapServer/2","title":"Street light L048163"},"type":"Feature"},{"geometry":{"coordinates":[-90.30101557536975,38.6481448993936],"type":"Point"},"id":"stl-city-public-streetlights:2:155432","properties":{"address":null,"attributes":{"Date_Installed":"6/15/2017","LED_Powered":1,"LightID":"L048164","Light_Source":"LED","Light_Type":"Cobra","Lighting_Type":"LED-Powered Lamp","Verification_Date":null},"id":"stl-city-public-streetlights:2:155432","sourceLayerId":2,"sourceObjectId":155432,"sourceURL":"https://maps8.stlouis-mo.gov/arcgis/rest/services/STREETS/Streets_Permitting/MapServer/2","title":"Street light L048164"},"type":"Feature"}],"layerId":"city-streetlights","retrievedAt":"2026-09-13T21:56:18.173251+00:00","schema":"property-infrastructure-geojson-v1","sourceId":"stl-city-public-streetlights","tileId":"-9031_3864","type":"FeatureCollection"}