{"features":[{"geometry":{"coordinates":[-90.29197491478594,38.66552406100061],"type":"Point"},"id":"stl-city-public-streetlights:2:135659","properties":{"address":null,"attributes":{"Date_Installed":null,"LED_Powered":0,"LightID":"L028375","Light_Source":"LED","Light_Type":"Cobra","Lighting_Type":"LED-Powered Lamp","Verification_Date":null},"id":"stl-city-public-streetlights:2:135659","sourceLayerId":2,"sourceObjectId":135659,"sourceURL":"https://maps8.stlouis-mo.gov/arcgis/rest/services/STREETS/Streets_Permitting/MapServer/2","title":"Street light L028375"},"type":"Feature"},{"geometry":{"coordinates":[-90.29141660634201,38.66531354861029],"type":"Point"},"id":"stl-city-public-streetlights:2:135660","properties":{"address":null,"attributes":{"Date_Installed":null,"LED_Powered":0,"LightID":"L028376","Light_Source":"LED","Light_Type":"Cobra","Lighting_Type":"LED-Powered Lamp","Verification_Date":null},"id":"stl-city-public-streetlights:2:135660","sourceLayerId":2,"sourceObjectId":135660,"sourceURL":"https://maps8.stlouis-mo.gov/arcgis/rest/services/STREETS/Streets_Permitting/MapServer/2","title":"Street light L028376"},"type":"Feature"},{"geometry":{"coordinates":[-90.29095226906811,38.665136630707444],"type":"Point"},"id":"stl-city-public-streetlights:2:135661","properties":{"address":null,"attributes":{"Date_Installed":null,"LED_Powered":0,"LightID":"L028377","Light_Source":"LED","Light_Type":"Cobra","Lighting_Type":"LED-Powered Lamp","Verification_Date":null},"id":"stl-city-public-streetlights:2:135661","sourceLayerId":2,"sourceObjectId":135661,"sourceURL":"https://maps8.stlouis-mo.gov/arcgis/rest/services/STREETS/Streets_Permitting/MapServer/2","title":"Street light L028377"},"type":"Feature"},{"geometry":{"coordinates":[-90.29046101969679,38.66495182143995],"type":"Point"},"id":"stl-city-public-streetlights:2:135662","properties":{"address":null,"attributes":{"Date_Installed":null,"LED_Powered":0,"LightID":"L028378","Light_Source":"LED","Light_Type":"Cobra","Lighting_Type":"LED-Powered Lamp","Verification_Date":null},"id":"stl-city-public-streetlights:2:135662","sourceLayerId":2,"sourceObjectId":135662,"sourceURL":"https://maps8.stlouis-mo.gov/arcgis/rest/services/STREETS/Streets_Permitting/MapServer/2","title":"Street light L028378"},"type":"Feature"},{"geometry":{"coordinates":[-90.29088619671973,38.667056358793396],"type":"Point"},"id":"stl-city-public-streetlights:2:136149","properties":{"address":null,"attributes":{"Date_Installed":null,"LED_Powered":0,"LightID":"L028865","Light_Source":"LED","Light_Type":"Cobra","Lighting_Type":"LED-Powered Lamp","Verification_Date":null},"id":"stl-city-public-streetlights:2:136149","sourceLayerId":2,"sourceObjectId":136149,"sourceURL":"https://maps8.stlouis-mo.gov/arcgis/rest/services/STREETS/Streets_Permitting/MapServer/2","title":"Street light L028865"},"type":"Feature"},{"geometry":{"coordinates":[-90.29052818843971,38.666862122382554],"type":"Point"},"id":"stl-city-public-streetlights:2:136150","properties":{"address":null,"attributes":{"Date_Installed":null,"LED_Powered":0,"LightID":"L028866","Light_Source":"LED","Light_Type":"Cobra","Lighting_Type":"LED-Powered Lamp","Verification_Date":null},"id":"stl-city-public-streetlights:2:136150","sourceLayerId":2,"sourceObjectId":136150,"sourceURL":"https://maps8.stlouis-mo.gov/arcgis/rest/services/STREETS/Streets_Permitting/MapServer/2","title":"Street light L028866"},"type":"Feature"},{"geometry":{"coordinates":[-90.29018893807897,38.66667909761026],"type":"Point"},"id":"stl-city-public-streetlights:2:136151","properties":{"address":null,"attributes":{"Date_Installed":null,"LED_Powered":0,"LightID":"L028867","Light_Source":"LED","Light_Type":"Cobra","Lighting_Type":"LED-Powered Lamp","Verification_Date":null},"id":"stl-city-public-streetlights:2:136151","sourceLayerId":2,"sourceObjectId":136151,"sourceURL":"https://maps8.stlouis-mo.gov/arcgis/rest/services/STREETS/Streets_Permitting/MapServer/2","title":"Street light L028867"},"type":"Feature"},{"geometry":{"coordinates":[-90.29022565526195,38.667056626452435],"type":"Point"},"id":"stl-city-public-streetlights:2:136169","properties":{"address":null,"attributes":{"Date_Installed":null,"LED_Powered":0,"LightID":"L028885","Light_Source":"LED","Light_Type":"Cobra","Lighting_Type":"LED-Powered Lamp","Verification_Date":null},"id":"stl-city-public-streetlights:2:136169","sourceLayerId":2,"sourceObjectId":136169,"sourceURL":"https://maps8.stlouis-mo.gov/arcgis/rest/services/STREETS/Streets_Permitting/MapServer/2","title":"Street light L028885"},"type":"Feature"},{"geometry":{"coordinates":[-90.29209917366826,38.665660812080105],"type":"Point"},"id":"stl-city-public-streetlights:2:136175","properties":{"address":null,"attributes":{"Date_Installed":null,"LED_Powered":0,"LightID":"L028891","Light_Source":"LED","Light_Type":"Cobra","Lighting_Type":"LED-Powered Lamp","Verification_Date":null},"id":"stl-city-public-streetlights:2:136175","sourceLayerId":2,"sourceObjectId":136175,"sourceURL":"https://maps8.stlouis-mo.gov/arcgis/rest/services/STREETS/Streets_Permitting/MapServer/2","title":"Street light L028891"},"type":"Feature"},{"geometry":{"coordinates":[-90.29189287549566,38.66593946939461],"type":"Point"},"id":"stl-city-public-streetlights:2:136176","properties":{"address":null,"attributes":{"Date_Installed":null,"LED_Powered":0,"LightID":"L028892","Light_Source":"LED","Light_Type":"Cobra","Lighting_Type":"LED-Powered Lamp","Verification_Date":null},"id":"stl-city-public-streetlights:2:136176","sourceLayerId":2,"sourceObjectId":136176,"sourceURL":"https://maps8.stlouis-mo.gov/arcgis/rest/services/STREETS/Streets_Permitting/MapServer/2","title":"Street light L028892"},"type":"Feature"},{"geometry":{"coordinates":[-90.29168866741067,38.6662207759542],"type":"Point"},"id":"stl-city-public-streetlights:2:136177","properties":{"address":null,"attributes":{"Date_Installed":null,"LED_Powered":0,"LightID":"L028893","Light_Source":"LED","Light_Type":"Cobra","Lighting_Type":"LED-Powered Lamp","Verification_Date":null},"id":"stl-city-public-streetlights:2:136177","sourceLayerId":2,"sourceObjectId":136177,"sourceURL":"https://maps8.stlouis-mo.gov/arcgis/rest/services/STREETS/Streets_Permitting/MapServer/2","title":"Street light L028893"},"type":"Feature"},{"geometry":{"coordinates":[-90.29147737443398,38.6665121044782],"type":"Point"},"id":"stl-city-public-streetlights:2:136178","properties":{"address":null,"attributes":{"Date_Installed":null,"LED_Powered":0,"LightID":"L028894","Light_Source":"LED","Light_Type":"Cobra","Lighting_Type":"LED-Powered Lamp","Verification_Date":null},"id":"stl-city-public-streetlights:2:136178","sourceLayerId":2,"sourceObjectId":136178,"sourceURL":"https://maps8.stlouis-mo.gov/arcgis/rest/services/STREETS/Streets_Permitting/MapServer/2","title":"Street light L028894"},"type":"Feature"},{"geometry":{"coordinates":[-90.29127934048714,38.666785924128156],"type":"Point"},"id":"stl-city-public-streetlights:2:136179","properties":{"address":null,"attributes":{"Date_Installed":null,"LED_Powered":0,"LightID":"L028895","Light_Source":"LED","Light_Type":"Cobra","Lighting_Type":"LED-Powered Lamp","Verification_Date":null},"id":"stl-city-public-streetlights:2:136179","sourceLayerId":2,"sourceObjectId":136179,"sourceURL":"https://maps8.stlouis-mo.gov/arcgis/rest/services/STREETS/Streets_Permitting/MapServer/2","title":"Street light L028895"},"type":"Feature"},{"geometry":{"coordinates":[-90.29106665933278,38.66707771425859],"type":"Point"},"id":"stl-city-public-streetlights:2:136180","properties":{"address":null,"attributes":{"Date_Installed":null,"LED_Powered":0,"LightID":"L028896","Light_Source":"LED","Light_Type":"Cobra","Lighting_Type":"LED-Powered Lamp","Verification_Date":null},"id":"stl-city-public-streetlights:2:136180","sourceLayerId":2,"sourceObjectId":136180,"sourceURL":"https://maps8.stlouis-mo.gov/arcgis/rest/services/STREETS/Streets_Permitting/MapServer/2","title":"Street light L028896"},"type":"Feature"},{"geometry":{"coordinates":[-90.2904736383115,38.66969994178376],"type":"Point"},"id":"stl-city-public-streetlights:2:136225","properties":{"address":null,"attributes":{"Date_Installed":"6/15/2017","LED_Powered":1,"LightID":"L028941","Light_Source":"LED","Light_Type":"Cobra","Lighting_Type":"LED-Powered Lamp (Twin Lights)","Verification_Date":null},"id":"stl-city-public-streetlights:2:136225","sourceLayerId":2,"sourceObjectId":136225,"sourceURL":"https://maps8.stlouis-mo.gov/arcgis/rest/services/STREETS/Streets_Permitting/MapServer/2","title":"Street light L028941"},"type":"Feature"},{"geometry":{"coordinates":[-90.29073719287751,38.66937089950309],"type":"Point"},"id":"stl-city-public-streetlights:2:136226","properties":{"address":null,"attributes":{"Date_Installed":"6/15/2017","LED_Powered":1,"LightID":"L028942","Light_Source":"LED","Light_Type":"Cobra","Lighting_Type":"LED-Powered Lamp (Twin Lights)","Verification_Date":null},"id":"stl-city-public-streetlights:2:136226","sourceLayerId":2,"sourceObjectId":136226,"sourceURL":"https://maps8.stlouis-mo.gov/arcgis/rest/services/STREETS/Streets_Permitting/MapServer/2","title":"Street light L028942"},"type":"Feature"},{"geometry":{"coordinates":[-90.29099399138136,38.66904905522176],"type":"Point"},"id":"stl-city-public-streetlights:2:136227","properties":{"address":null,"attributes":{"Date_Installed":"6/15/2017","LED_Powered":1,"LightID":"L028943","Light_Source":"LED","Light_Type":"Cobra","Lighting_Type":"LED-Powered Lamp (Twin Lights)","Verification_Date":null},"id":"stl-city-public-streetlights:2:136227","sourceLayerId":2,"sourceObjectId":136227,"sourceURL":"https://maps8.stlouis-mo.gov/arcgis/rest/services/STREETS/Streets_Permitting/MapServer/2","title":"Street light L028943"},"type":"Feature"},{"geometry":{"coordinates":[-90.29125775937662,38.66871847249487],"type":"Point"},"id":"stl-city-public-streetlights:2:136228","properties":{"address":null,"attributes":{"Date_Installed":"6/15/2017","LED_Powered":1,"LightID":"L028944","Light_Source":"LED","Light_Type":"Cobra","Lighting_Type":"LED-Powered Lamp (Twin Lights)","Verification_Date":null},"id":"stl-city-public-streetlights:2:136228","sourceLayerId":2,"sourceObjectId":136228,"sourceURL":"https://maps8.stlouis-mo.gov/arcgis/rest/services/STREETS/Streets_Permitting/MapServer/2","title":"Street light L028944"},"type":"Feature"},{"geometry":{"coordinates":[-90.291512937428,38.668398652935636],"type":"Point"},"id":"stl-city-public-streetlights:2:136229","properties":{"address":null,"attributes":{"Date_Installed":"6/15/2017","LED_Powered":1,"LightID":"L028945","Light_Source":"LED","Light_Type":"Cobra","Lighting_Type":"LED-Powered Lamp (Twin Lights)","Verification_Date":null},"id":"stl-city-public-streetlights:2:136229","sourceLayerId":2,"sourceObjectId":136229,"sourceURL":"https://maps8.stlouis-mo.gov/arcgis/rest/services/STREETS/Streets_Permitting/MapServer/2","title":"Street light L028945"},"type":"Feature"},{"geometry":{"coordinates":[-90.29177000969386,38.66806518505404],"type":"Point"},"id":"stl-city-public-streetlights:2:136230","properties":{"address":null,"attributes":{"Date_Installed":"6/15/2017","LED_Powered":1,"LightID":"L028946","Light_Source":"LED","Light_Type":"Cobra","Lighting_Type":"LED-Powered Lamp (Twin Lights)","Verification_Date":null},"id":"stl-city-public-streetlights:2:136230","sourceLayerId":2,"sourceObjectId":136230,"sourceURL":"https://maps8.stlouis-mo.gov/arcgis/rest/services/STREETS/Streets_Permitting/MapServer/2","title":"Street light L028946"},"type":"Feature"},{"geometry":{"coordinates":[-90.2920279632544,38.66773846128136],"type":"Point"},"id":"stl-city-public-streetlights:2:136231","properties":{"address":null,"attributes":{"Date_Installed":"6/15/2017","LED_Powered":1,"LightID":"L028947","Light_Source":"LED","Light_Type":"Cobra","Lighting_Type":"LED-Powered Lamp (Twin Lights)","Verification_Date":null},"id":"stl-city-public-streetlights:2:136231","sourceLayerId":2,"sourceObjectId":136231,"sourceURL":"https://maps8.stlouis-mo.gov/arcgis/rest/services/STREETS/Streets_Permitting/MapServer/2","title":"Street light L028947"},"type":"Feature"},{"geometry":{"coordinates":[-90.2922810162305,38.667420756892085],"type":"Point"},"id":"stl-city-public-streetlights:2:136232","properties":{"address":null,"attributes":{"Date_Installed":"6/15/2017","LED_Powered":1,"LightID":"L028948","Light_Source":"LED","Light_Type":"Cobra","Lighting_Type":"LED-Powered Lamp (Twin Lights)","Verification_Date":null},"id":"stl-city-public-streetlights:2:136232","sourceLayerId":2,"sourceObjectId":136232,"sourceURL":"https://maps8.stlouis-mo.gov/arcgis/rest/services/STREETS/Streets_Permitting/MapServer/2","title":"Street light L028948"},"type":"Feature"},{"geometry":{"coordinates":[-90.29254347791483,38.66708557252311],"type":"Point"},"id":"stl-city-public-streetlights:2:136233","properties":{"address":null,"attributes":{"Date_Installed":"6/15/2017","LED_Powered":1,"LightID":"L028949","Light_Source":"LED","Light_Type":"Cobra","Lighting_Type":"LED-Powered Lamp (Twin Lights)","Verification_Date":null},"id":"stl-city-public-streetlights:2:136233","sourceLayerId":2,"sourceObjectId":136233,"sourceURL":"https://maps8.stlouis-mo.gov/arcgis/rest/services/STREETS/Streets_Permitting/MapServer/2","title":"Street light L028949"},"type":"Feature"},{"geometry":{"coordinates":[-90.29280568449015,38.66675911036803],"type":"Point"},"id":"stl-city-public-streetlights:2:136234","properties":{"address":null,"attributes":{"Date_Installed":"6/15/2017","LED_Powered":1,"LightID":"L028950","Light_Source":"LED","Light_Type":"Cobra","Lighting_Type":"LED-Powered Lamp (Twin Lights)","Verification_Date":null},"id":"stl-city-public-streetlights:2:136234","sourceLayerId":2,"sourceObjectId":136234,"sourceURL":"https://maps8.stlouis-mo.gov/arcgis/rest/services/STREETS/Streets_Permitting/MapServer/2","title":"Street light L028950"},"type":"Feature"},{"geometry":{"coordinates":[-90.29304216626596,38.66645108286213],"type":"Point"},"id":"stl-city-public-streetlights:2:136235","properties":{"address":null,"attributes":{"Date_Installed":"6/15/2017","LED_Powered":1,"LightID":"L028951","Light_Source":"LED","Light_Type":"Cobra","Lighting_Type":"LED-Powered Lamp (Twin Lights)","Verification_Date":null},"id":"stl-city-public-streetlights:2:136235","sourceLayerId":2,"sourceObjectId":136235,"sourceURL":"https://maps8.stlouis-mo.gov/arcgis/rest/services/STREETS/Streets_Permitting/MapServer/2","title":"Street light L028951"},"type":"Feature"},{"geometry":{"coordinates":[-90.29326550015772,38.66614479465629],"type":"Point"},"id":"stl-city-public-streetlights:2:136236","properties":{"address":null,"attributes":{"Date_Installed":"6/15/2017","LED_Powered":1,"LightID":"L028952","Light_Source":"LED","Light_Type":"Cobra","Lighting_Type":"LED-Powered Lamp (Twin Lights)","Verification_Date":null},"id":"stl-city-public-streetlights:2:136236","sourceLayerId":2,"sourceObjectId":136236,"sourceURL":"https://maps8.stlouis-mo.gov/arcgis/rest/services/STREETS/Streets_Permitting/MapServer/2","title":"Street light L028952"},"type":"Feature"},{"geometry":{"coordinates":[-90.29349136376297,38.665866436132305],"type":"Point"},"id":"stl-city-public-streetlights:2:136237","properties":{"address":null,"attributes":{"Date_Installed":"6/15/2017","LED_Powered":1,"LightID":"L028953","Light_Source":"LED","Light_Type":"Cobra","Lighting_Type":"LED-Powered Lamp (Twin Lights)","Verification_Date":null},"id":"stl-city-public-streetlights:2:136237","sourceLayerId":2,"sourceObjectId":136237,"sourceURL":"https://maps8.stlouis-mo.gov/arcgis/rest/services/STREETS/Streets_Permitting/MapServer/2","title":"Street light L028953"},"type":"Feature"},{"geometry":{"coordinates":[-90.29371470910003,38.66582959571905],"type":"Point"},"id":"stl-city-public-streetlights:2:136238","properties":{"address":null,"attributes":{"Date_Installed":null,"LED_Powered":0,"LightID":"L028954","Light_Source":"LED","Light_Type":"Cobra","Lighting_Type":"LED-Powered Lamp","Verification_Date":null},"id":"stl-city-public-streetlights:2:136238","sourceLayerId":2,"sourceObjectId":136238,"sourceURL":"https://maps8.stlouis-mo.gov/arcgis/rest/services/STREETS/Streets_Permitting/MapServer/2","title":"Street light L028954"},"type":"Feature"},{"geometry":{"coordinates":[-90.29381489152053,38.6655004445065],"type":"Point"},"id":"stl-city-public-streetlights:2:136239","properties":{"address":null,"attributes":{"Date_Installed":"6/15/2017","LED_Powered":1,"LightID":"L028955","Light_Source":"LED","Light_Type":"Cobra","Lighting_Type":"LED-Powered Lamp (Twin Lights)","Verification_Date":null},"id":"stl-city-public-streetlights:2:136239","sourceLayerId":2,"sourceObjectId":136239,"sourceURL":"https://maps8.stlouis-mo.gov/arcgis/rest/services/STREETS/Streets_Permitting/MapServer/2","title":"Street light L028955"},"type":"Feature"},{"geometry":{"coordinates":[-90.29402218929559,38.665187890598794],"type":"Point"},"id":"stl-city-public-streetlights:2:136240","properties":{"address":null,"attributes":{"Date_Installed":"6/15/2017","LED_Powered":1,"LightID":"L028956","Light_Source":"LED","Light_Type":"Cobra","Lighting_Type":"LED-Powered Lamp (Twin Lights)","Verification_Date":null},"id":"stl-city-public-streetlights:2:136240","sourceLayerId":2,"sourceObjectId":136240,"sourceURL":"https://maps8.stlouis-mo.gov/arcgis/rest/services/STREETS/Streets_Permitting/MapServer/2","title":"Street light L028956"},"type":"Feature"},{"geometry":{"coordinates":[-90.29417337803713,38.66483917782159],"type":"Point"},"id":"stl-city-public-streetlights:2:136241","properties":{"address":null,"attributes":{"Date_Installed":"6/15/2017","LED_Powered":1,"LightID":"L028957","Light_Source":"LED","Light_Type":"Cobra","Lighting_Type":"LED-Powered Lamp (Twin Lights)","Verification_Date":null},"id":"stl-city-public-streetlights:2:136241","sourceLayerId":2,"sourceObjectId":136241,"sourceURL":"https://maps8.stlouis-mo.gov/arcgis/rest/services/STREETS/Streets_Permitting/MapServer/2","title":"Street light L028957"},"type":"Feature"},{"geometry":{"coordinates":[-90.29428186505598,38.664536373662756],"type":"Point"},"id":"stl-city-public-streetlights:2:136242","properties":{"address":null,"attributes":{"Date_Installed":"6/15/2017","LED_Powered":1,"LightID":"L028958","Light_Source":"LED","Light_Type":"Cobra","Lighting_Type":"LED-Powered Lamp (Twin Lights)","Verification_Date":null},"id":"stl-city-public-streetlights:2:136242","sourceLayerId":2,"sourceObjectId":136242,"sourceURL":"https://maps8.stlouis-mo.gov/arcgis/rest/services/STREETS/Streets_Permitting/MapServer/2","title":"Street light L028958"},"type":"Feature"},{"geometry":{"coordinates":[-90.29436237975592,38.66418219402855],"type":"Point"},"id":"stl-city-public-streetlights:2:136243","properties":{"address":null,"attributes":{"Date_Installed":"6/15/2017","LED_Powered":1,"LightID":"L028959","Light_Source":"LED","Light_Type":"Cobra","Lighting_Type":"LED-Powered Lamp (Twin Lights)","Verification_Date":null},"id":"stl-city-public-streetlights:2:136243","sourceLayerId":2,"sourceObjectId":136243,"sourceURL":"https://maps8.stlouis-mo.gov/arcgis/rest/services/STREETS/Streets_Permitting/MapServer/2","title":"Street light L028959"},"type":"Feature"},{"geometry":{"coordinates":[-90.29440686290398,38.66382329160852],"type":"Point"},"id":"stl-city-public-streetlights:2:136244","properties":{"address":null,"attributes":{"Date_Installed":"6/15/2017","LED_Powered":1,"LightID":"L028960","Light_Source":"LED","Light_Type":"Cobra","Lighting_Type":"LED-Powered Lamp (Twin Lights)","Verification_Date":null},"id":"stl-city-public-streetlights:2:136244","sourceLayerId":2,"sourceObjectId":136244,"sourceURL":"https://maps8.stlouis-mo.gov/arcgis/rest/services/STREETS/Streets_Permitting/MapServer/2","title":"Street light L028960"},"type":"Feature"},{"geometry":{"coordinates":[-90.29443345815808,38.66351276503467],"type":"Point"},"id":"stl-city-public-streetlights:2:136245","properties":{"address":null,"attributes":{"Date_Installed":"6/15/2017","LED_Powered":1,"LightID":"L028961","Light_Source":"LED","Light_Type":"Cobra","Lighting_Type":"LED-Powered Lamp (Twin Lights)","Verification_Date":null},"id":"stl-city-public-streetlights:2:136245","sourceLayerId":2,"sourceObjectId":136245,"sourceURL":"https://maps8.stlouis-mo.gov/arcgis/rest/services/STREETS/Streets_Permitting/MapServer/2","title":"Street light L028961"},"type":"Feature"},{"geometry":{"coordinates":[-90.2944570592418,38.664721887607314],"type":"Point"},"id":"stl-city-public-streetlights:2:136246","properties":{"address":null,"attributes":{"Date_Installed":null,"LED_Powered":0,"LightID":"L028962","Light_Source":"LED","Light_Type":"Cobra","Lighting_Type":"LED-Powered Lamp","Verification_Date":null},"id":"stl-city-public-streetlights:2:136246","sourceLayerId":2,"sourceObjectId":136246,"sourceURL":"https://maps8.stlouis-mo.gov/arcgis/rest/services/STREETS/Streets_Permitting/MapServer/2","title":"Street light L028962"},"type":"Feature"},{"geometry":{"coordinates":[-90.29473318285449,38.663738194931355],"type":"Point"},"id":"stl-city-public-streetlights:2:136247","properties":{"address":null,"attributes":{"Date_Installed":null,"LED_Powered":0,"LightID":"L028963","Light_Source":"LED","Light_Type":"Cobra","Lighting_Type":"LED-Powered Lamp","Verification_Date":null},"id":"stl-city-public-streetlights:2:136247","sourceLayerId":2,"sourceObjectId":136247,"sourceURL":"https://maps8.stlouis-mo.gov/arcgis/rest/services/STREETS/Streets_Permitting/MapServer/2","title":"Street light L028963"},"type":"Feature"},{"geometry":{"coordinates":[-90.29516992071464,38.66383878592153],"type":"Point"},"id":"stl-city-public-streetlights:2:136248","properties":{"address":null,"attributes":{"Date_Installed":null,"LED_Powered":0,"LightID":"L028964","Light_Source":"LED","Light_Type":"Cobra","Lighting_Type":"LED-Powered Lamp","Verification_Date":null},"id":"stl-city-public-streetlights:2:136248","sourceLayerId":2,"sourceObjectId":136248,"sourceURL":"https://maps8.stlouis-mo.gov/arcgis/rest/services/STREETS/Streets_Permitting/MapServer/2","title":"Street light L028964"},"type":"Feature"},{"geometry":{"coordinates":[-90.29454534864578,38.66318914976132],"type":"Point"},"id":"stl-city-public-streetlights:2:136249","properties":{"address":null,"attributes":{"Date_Installed":"6/15/2017","LED_Powered":1,"LightID":"L028965","Light_Source":"LED","Light_Type":"Cobra","Lighting_Type":"LED-Powered Lamp (Twin Lights)","Verification_Date":null},"id":"stl-city-public-streetlights:2:136249","sourceLayerId":2,"sourceObjectId":136249,"sourceURL":"https://maps8.stlouis-mo.gov/arcgis/rest/services/STREETS/Streets_Permitting/MapServer/2","title":"Street light L028965"},"type":"Feature"},{"geometry":{"coordinates":[-90.29450308928911,38.66289696584343],"type":"Point"},"id":"stl-city-public-streetlights:2:136250","properties":{"address":null,"attributes":{"Date_Installed":null,"LED_Powered":1,"LightID":"L028966","Light_Source":"LED","Light_Type":"Cobra","Lighting_Type":"LED-Powered Lamp","Verification_Date":null},"id":"stl-city-public-streetlights:2:136250","sourceLayerId":2,"sourceObjectId":136250,"sourceURL":"https://maps8.stlouis-mo.gov/arcgis/rest/services/STREETS/Streets_Permitting/MapServer/2","title":"Street light L028966"},"type":"Feature"},{"geometry":{"coordinates":[-90.29471487465258,38.66317574221795],"type":"Point"},"id":"stl-city-public-streetlights:2:136251","properties":{"address":null,"attributes":{"Date_Installed":null,"LED_Powered":1,"LightID":"L028967","Light_Source":"LED","Light_Type":"Cobra","Lighting_Type":"LED-Powered Lamp","Verification_Date":null},"id":"stl-city-public-streetlights:2:136251","sourceLayerId":2,"sourceObjectId":136251,"sourceURL":"https://maps8.stlouis-mo.gov/arcgis/rest/services/STREETS/Streets_Permitting/MapServer/2","title":"Street light L028967"},"type":"Feature"},{"geometry":{"coordinates":[-90.29477920020001,38.662933995043325],"type":"Point"},"id":"stl-city-public-streetlights:2:136252","properties":{"address":null,"attributes":{"Date_Installed":null,"LED_Powered":1,"LightID":"L028968","Light_Source":"LED","Light_Type":"Cobra","Lighting_Type":"LED-Powered Lamp","Verification_Date":null},"id":"stl-city-public-streetlights:2:136252","sourceLayerId":2,"sourceObjectId":136252,"sourceURL":"https://maps8.stlouis-mo.gov/arcgis/rest/services/STREETS/Streets_Permitting/MapServer/2","title":"Street light L028968"},"type":"Feature"},{"geometry":{"coordinates":[-90.29435082057637,38.66288203901627],"type":"Point"},"id":"stl-city-public-streetlights:2:136253","properties":{"address":null,"attributes":{"Date_Installed":null,"LED_Powered":0,"LightID":"L028969","Light_Source":"High Pressure Sodium","Light_Type":"Cobra","Lighting_Type":"400-W High Pressure Sodium Vapor Lamp","Verification_Date":null},"id":"stl-city-public-streetlights:2:136253","sourceLayerId":2,"sourceObjectId":136253,"sourceURL":"https://maps8.stlouis-mo.gov/arcgis/rest/services/STREETS/Streets_Permitting/MapServer/2","title":"Street light L028969"},"type":"Feature"},{"geometry":{"coordinates":[-90.29447628845986,38.66254152359131],"type":"Point"},"id":"stl-city-public-streetlights:2:136254","properties":{"address":null,"attributes":{"Date_Installed":null,"LED_Powered":0,"LightID":"L028970","Light_Source":"LED","Light_Type":"Cobra","Lighting_Type":"LED-Powered Lamp","Verification_Date":null},"id":"stl-city-public-streetlights:2:136254","sourceLayerId":2,"sourceObjectId":136254,"sourceURL":"https://maps8.stlouis-mo.gov/arcgis/rest/services/STREETS/Streets_Permitting/MapServer/2","title":"Street light L028970"},"type":"Feature"},{"geometry":{"coordinates":[-90.29451682387996,38.66228689980384],"type":"Point"},"id":"stl-city-public-streetlights:2:136255","properties":{"address":null,"attributes":{"Date_Installed":null,"LED_Powered":0,"LightID":"L028971","Light_Source":"LED","Light_Type":"Cobra","Lighting_Type":"LED-Powered Lamp","Verification_Date":null},"id":"stl-city-public-streetlights:2:136255","sourceLayerId":2,"sourceObjectId":136255,"sourceURL":"https://maps8.stlouis-mo.gov/arcgis/rest/services/STREETS/Streets_Permitting/MapServer/2","title":"Street light L028971"},"type":"Feature"},{"geometry":{"coordinates":[-90.29459618162667,38.66228736890704],"type":"Point"},"id":"stl-city-public-streetlights:2:136256","properties":{"address":null,"attributes":{"Date_Installed":null,"LED_Powered":0,"LightID":"L028972","Light_Source":"LED","Light_Type":"Cobra","Lighting_Type":"LED-Powered Lamp","Verification_Date":null},"id":"stl-city-public-streetlights:2:136256","sourceLayerId":2,"sourceObjectId":136256,"sourceURL":"https://maps8.stlouis-mo.gov/arcgis/rest/services/STREETS/Streets_Permitting/MapServer/2","title":"Street light L028972"},"type":"Feature"},{"geometry":{"coordinates":[-90.29471077250213,38.66197522282808],"type":"Point"},"id":"stl-city-public-streetlights:2:136257","properties":{"address":null,"attributes":{"Date_Installed":null,"LED_Powered":0,"LightID":"L028973","Light_Source":"LED","Light_Type":"Cobra","Lighting_Type":"LED-Powered Lamp","Verification_Date":null},"id":"stl-city-public-streetlights:2:136257","sourceLayerId":2,"sourceObjectId":136257,"sourceURL":"https://maps8.stlouis-mo.gov/arcgis/rest/services/STREETS/Streets_Permitting/MapServer/2","title":"Street light L028973"},"type":"Feature"},{"geometry":{"coordinates":[-90.29472666255943,38.66215983694573],"type":"Point"},"id":"stl-city-public-streetlights:2:136258","properties":{"address":null,"attributes":{"Date_Installed":"6/15/2017","LED_Powered":1,"LightID":"L028974","Light_Source":"LED","Light_Type":"Cobra","Lighting_Type":"LED-Powered Lamp (Twin Lights)","Verification_Date":null},"id":"stl-city-public-streetlights:2:136258","sourceLayerId":2,"sourceObjectId":136258,"sourceURL":"https://maps8.stlouis-mo.gov/arcgis/rest/services/STREETS/Streets_Permitting/MapServer/2","title":"Street light L028974"},"type":"Feature"},{"geometry":{"coordinates":[-90.29501301869998,38.661687432265076],"type":"Point"},"id":"stl-city-public-streetlights:2:136259","properties":{"address":null,"attributes":{"Date_Installed":null,"LED_Powered":1,"LightID":"L028975","Light_Source":"LED","Light_Type":"Cobra","Lighting_Type":"LED (Twin Lights)","Verification_Date":null},"id":"stl-city-public-streetlights:2:136259","sourceLayerId":2,"sourceObjectId":136259,"sourceURL":"https://maps8.stlouis-mo.gov/arcgis/rest/services/STREETS/Streets_Permitting/MapServer/2","title":"Street light L028975"},"type":"Feature"},{"geometry":{"coordinates":[-90.29540643670663,38.66146392731267],"type":"Point"},"id":"stl-city-public-streetlights:2:136260","properties":{"address":null,"attributes":{"Date_Installed":null,"LED_Powered":1,"LightID":"L028976","Light_Source":"LED","Light_Type":"Cobra","Lighting_Type":"LED (Twin Lights)","Verification_Date":null},"id":"stl-city-public-streetlights:2:136260","sourceLayerId":2,"sourceObjectId":136260,"sourceURL":"https://maps8.stlouis-mo.gov/arcgis/rest/services/STREETS/Streets_Permitting/MapServer/2","title":"Street light L028976"},"type":"Feature"},{"geometry":{"coordinates":[-90.29571429063897,38.66108277142071],"type":"Point"},"id":"stl-city-public-streetlights:2:136261","properties":{"address":null,"attributes":{"Date_Installed":null,"LED_Powered":0,"LightID":"L028977","Light_Source":"LED","Light_Type":"Cobra","Lighting_Type":"LED-Powered Lamp","Verification_Date":null},"id":"stl-city-public-streetlights:2:136261","sourceLayerId":2,"sourceObjectId":136261,"sourceURL":"https://maps8.stlouis-mo.gov/arcgis/rest/services/STREETS/Streets_Permitting/MapServer/2","title":"Street light L028977"},"type":"Feature"},{"geometry":{"coordinates":[-90.29561486327974,38.66140984299339],"type":"Point"},"id":"stl-city-public-streetlights:2:136262","properties":{"address":null,"attributes":{"Date_Installed":null,"LED_Powered":0,"LightID":"L028978","Light_Source":"LED","Light_Type":"Cobra","Lighting_Type":"LED-Powered Lamp","Verification_Date":null},"id":"stl-city-public-streetlights:2:136262","sourceLayerId":2,"sourceObjectId":136262,"sourceURL":"https://maps8.stlouis-mo.gov/arcgis/rest/services/STREETS/Streets_Permitting/MapServer/2","title":"Street light L028978"},"type":"Feature"},{"geometry":{"coordinates":[-90.29572584600301,38.66154350590597],"type":"Point"},"id":"stl-city-public-streetlights:2:136263","properties":{"address":null,"attributes":{"Date_Installed":"6/15/2017","LED_Powered":1,"LightID":"L028979","Light_Source":"LED","Light_Type":"Cobra","Lighting_Type":"LED-Powered Lamp","Verification_Date":null},"id":"stl-city-public-streetlights:2:136263","sourceLayerId":2,"sourceObjectId":136263,"sourceURL":"https://maps8.stlouis-mo.gov/arcgis/rest/services/STREETS/Streets_Permitting/MapServer/2","title":"Street light L028979"},"type":"Feature"},{"geometry":{"coordinates":[-90.29624524753436,38.661298592281305],"type":"Point"},"id":"stl-city-public-streetlights:2:136264","properties":{"address":null,"attributes":{"Date_Installed":"6/15/2017","LED_Powered":1,"LightID":"L028980","Light_Source":"LED","Light_Type":"Cobra","Lighting_Type":"LED-Powered Lamp","Verification_Date":null},"id":"stl-city-public-streetlights:2:136264","sourceLayerId":2,"sourceObjectId":136264,"sourceURL":"https://maps8.stlouis-mo.gov/arcgis/rest/services/STREETS/Streets_Permitting/MapServer/2","title":"Street light L028980"},"type":"Feature"},{"geometry":{"coordinates":[-90.2967127217753,38.66107950010874],"type":"Point"},"id":"stl-city-public-streetlights:2:136265","properties":{"address":null,"attributes":{"Date_Installed":"6/15/2017","LED_Powered":1,"LightID":"L028981","Light_Source":"LED","Light_Type":"Cobra","Lighting_Type":"LED-Powered Lamp","Verification_Date":null},"id":"stl-city-public-streetlights:2:136265","sourceLayerId":2,"sourceObjectId":136265,"sourceURL":"https://maps8.stlouis-mo.gov/arcgis/rest/services/STREETS/Streets_Permitting/MapServer/2","title":"Street light L028981"},"type":"Feature"},{"geometry":{"coordinates":[-90.2957923902719,38.66291319022257],"type":"Point"},"id":"stl-city-public-streetlights:2:136266","properties":{"address":null,"attributes":{"Date_Installed":null,"LED_Powered":0,"LightID":"L028982","Light_Source":"LED","Light_Type":"Cobra","Lighting_Type":"LED-Powered Lamp","Verification_Date":null},"id":"stl-city-public-streetlights:2:136266","sourceLayerId":2,"sourceObjectId":136266,"sourceURL":"https://maps8.stlouis-mo.gov/arcgis/rest/services/STREETS/Streets_Permitting/MapServer/2","title":"Street light L028982"},"type":"Feature"},{"geometry":{"coordinates":[-90.29528178193664,38.66286581736939],"type":"Point"},"id":"stl-city-public-streetlights:2:136267","properties":{"address":null,"attributes":{"Date_Installed":null,"LED_Powered":0,"LightID":"L028983","Light_Source":"LED","Light_Type":"Cobra","Lighting_Type":"LED-Powered Lamp","Verification_Date":null},"id":"stl-city-public-streetlights:2:136267","sourceLayerId":2,"sourceObjectId":136267,"sourceURL":"https://maps8.stlouis-mo.gov/arcgis/rest/services/STREETS/Streets_Permitting/MapServer/2","title":"Street light L028983"},"type":"Feature"},{"geometry":{"coordinates":[-90.29482128547494,38.662730277569075],"type":"Point"},"id":"stl-city-public-streetlights:2:136268","properties":{"address":null,"attributes":{"Date_Installed":null,"LED_Powered":1,"LightID":"L028984","Light_Source":"LED","Light_Type":"Cobra","Lighting_Type":"LED-Powered Lamp","Verification_Date":null},"id":"stl-city-public-streetlights:2:136268","sourceLayerId":2,"sourceObjectId":136268,"sourceURL":"https://maps8.stlouis-mo.gov/arcgis/rest/services/STREETS/Streets_Permitting/MapServer/2","title":"Street light L028984"},"type":"Feature"},{"geometry":{"coordinates":[-90.2948785572545,38.66252006248487],"type":"Point"},"id":"stl-city-public-streetlights:2:136269","properties":{"address":null,"attributes":{"Date_Installed":null,"LED_Powered":1,"LightID":"L028985","Light_Source":"LED","Light_Type":"Cobra","Lighting_Type":"LED-Powered Lamp","Verification_Date":null},"id":"stl-city-public-streetlights:2:136269","sourceLayerId":2,"sourceObjectId":136269,"sourceURL":"https://maps8.stlouis-mo.gov/arcgis/rest/services/STREETS/Streets_Permitting/MapServer/2","title":"Street light L028985"},"type":"Feature"},{"geometry":{"coordinates":[-90.29466863463475,38.662574040150965],"type":"Point"},"id":"stl-city-public-streetlights:2:136270","properties":{"address":null,"attributes":{"Date_Installed":"6/15/2017","LED_Powered":1,"LightID":"L028986","Light_Source":"LED","Light_Type":"Cobra","Lighting_Type":"LED-Powered Lamp (Twin Lights)","Verification_Date":null},"id":"stl-city-public-streetlights:2:136270","sourceLayerId":2,"sourceObjectId":136270,"sourceURL":"https://maps8.stlouis-mo.gov/arcgis/rest/services/STREETS/Streets_Permitting/MapServer/2","title":"Street light L028986"},"type":"Feature"},{"geometry":{"coordinates":[-90.29492359598275,38.66218464954931],"type":"Point"},"id":"stl-city-public-streetlights:2:136271","properties":{"address":null,"attributes":{"Date_Installed":"6/15/2017","LED_Powered":1,"LightID":"L028987","Light_Source":"LED","Light_Type":"Cobra","Lighting_Type":"LED-Powered Lamp (Twin Lights)","Verification_Date":null},"id":"stl-city-public-streetlights:2:136271","sourceLayerId":2,"sourceObjectId":136271,"sourceURL":"https://maps8.stlouis-mo.gov/arcgis/rest/services/STREETS/Streets_Permitting/MapServer/2","title":"Street light L028987"},"type":"Feature"},{"geometry":{"coordinates":[-90.29523339686241,38.66191262727569],"type":"Point"},"id":"stl-city-public-streetlights:2:136272","properties":{"address":null,"attributes":{"Date_Installed":"6/15/2017","LED_Powered":1,"LightID":"L028988","Light_Source":"LED","Light_Type":"Cobra","Lighting_Type":"LED-Powered Lamp (Twin Lights)","Verification_Date":null},"id":"stl-city-public-streetlights:2:136272","sourceLayerId":2,"sourceObjectId":136272,"sourceURL":"https://maps8.stlouis-mo.gov/arcgis/rest/services/STREETS/Streets_Permitting/MapServer/2","title":"Street light L028988"},"type":"Feature"},{"geometry":{"coordinates":[-90.29558667864023,38.66173347417415],"type":"Point"},"id":"stl-city-public-streetlights:2:136273","properties":{"address":null,"attributes":{"Date_Installed":"6/15/2017","LED_Powered":1,"LightID":"L028989","Light_Source":"LED","Light_Type":"Cobra","Lighting_Type":"LED-Powered Lamp (Twin Lights)","Verification_Date":null},"id":"stl-city-public-streetlights:2:136273","sourceLayerId":2,"sourceObjectId":136273,"sourceURL":"https://maps8.stlouis-mo.gov/arcgis/rest/services/STREETS/Streets_Permitting/MapServer/2","title":"Street light L028989"},"type":"Feature"},{"geometry":{"coordinates":[-90.29679961437205,38.66190949825436],"type":"Point"},"id":"stl-city-public-streetlights:2:136274","properties":{"address":null,"attributes":{"Date_Installed":null,"LED_Powered":0,"LightID":"L028990","Light_Source":"LED","Light_Type":"Cobra","Lighting_Type":"LED-Powered Lamp","Verification_Date":null},"id":"stl-city-public-streetlights:2:136274","sourceLayerId":2,"sourceObjectId":136274,"sourceURL":"https://maps8.stlouis-mo.gov/arcgis/rest/services/STREETS/Streets_Permitting/MapServer/2","title":"Street light L028990"},"type":"Feature"},{"geometry":{"coordinates":[-90.29645441964293,38.66187457431271],"type":"Point"},"id":"stl-city-public-streetlights:2:136275","properties":{"address":null,"attributes":{"Date_Installed":null,"LED_Powered":0,"LightID":"L028991","Light_Source":"LED","Light_Type":"Cobra","Lighting_Type":"LED-Powered Lamp","Verification_Date":null},"id":"stl-city-public-streetlights:2:136275","sourceLayerId":2,"sourceObjectId":136275,"sourceURL":"https://maps8.stlouis-mo.gov/arcgis/rest/services/STREETS/Streets_Permitting/MapServer/2","title":"Street light L028991"},"type":"Feature"},{"geometry":{"coordinates":[-90.29589323717866,38.66186787582143],"type":"Point"},"id":"stl-city-public-streetlights:2:136276","properties":{"address":null,"attributes":{"Date_Installed":null,"LED_Powered":0,"LightID":"L028992","Light_Source":"LED","Light_Type":"Cobra","Lighting_Type":"LED-Powered Lamp","Verification_Date":null},"id":"stl-city-public-streetlights:2:136276","sourceLayerId":2,"sourceObjectId":136276,"sourceURL":"https://maps8.stlouis-mo.gov/arcgis/rest/services/STREETS/Streets_Permitting/MapServer/2","title":"Street light L028992"},"type":"Feature"},{"geometry":{"coordinates":[-90.29596903674708,38.66168301371416],"type":"Point"},"id":"stl-city-public-streetlights:2:136277","properties":{"address":null,"attributes":{"Date_Installed":"6/15/2017","LED_Powered":1,"LightID":"L028993","Light_Source":"LED","Light_Type":"Cobra","Lighting_Type":"LED-Powered Lamp","Verification_Date":null},"id":"stl-city-public-streetlights:2:136277","sourceLayerId":2,"sourceObjectId":136277,"sourceURL":"https://maps8.stlouis-mo.gov/arcgis/rest/services/STREETS/Streets_Permitting/MapServer/2","title":"Street light L028993"},"type":"Feature"},{"geometry":{"coordinates":[-90.29620532781452,38.661564960846505],"type":"Point"},"id":"stl-city-public-streetlights:2:136278","properties":{"address":null,"attributes":{"Date_Installed":"6/15/2017","LED_Powered":1,"LightID":"L028994","Light_Source":"LED","Light_Type":"Cobra","Lighting_Type":"LED-Powered Lamp","Verification_Date":null},"id":"stl-city-public-streetlights:2:136278","sourceLayerId":2,"sourceObjectId":136278,"sourceURL":"https://maps8.stlouis-mo.gov/arcgis/rest/services/STREETS/Streets_Permitting/MapServer/2","title":"Street light L028994"},"type":"Feature"},{"geometry":{"coordinates":[-90.29664276726822,38.66135989839253],"type":"Point"},"id":"stl-city-public-streetlights:2:136279","properties":{"address":null,"attributes":{"Date_Installed":"6/15/2017","LED_Powered":1,"LightID":"L028995","Light_Source":"LED","Light_Type":"Cobra","Lighting_Type":"LED-Powered Lamp","Verification_Date":null},"id":"stl-city-public-streetlights:2:136279","sourceLayerId":2,"sourceObjectId":136279,"sourceURL":"https://maps8.stlouis-mo.gov/arcgis/rest/services/STREETS/Streets_Permitting/MapServer/2","title":"Street light L028995"},"type":"Feature"},{"geometry":{"coordinates":[-90.29714210732399,38.66113050961274],"type":"Point"},"id":"stl-city-public-streetlights:2:136280","properties":{"address":null,"attributes":{"Date_Installed":"6/15/2017","LED_Powered":1,"LightID":"L028996","Light_Source":"LED","Light_Type":"Cobra","Lighting_Type":"LED-Powered Lamp","Verification_Date":null},"id":"stl-city-public-streetlights:2:136280","sourceLayerId":2,"sourceObjectId":136280,"sourceURL":"https://maps8.stlouis-mo.gov/arcgis/rest/services/STREETS/Streets_Permitting/MapServer/2","title":"Street light L028996"},"type":"Feature"},{"geometry":{"coordinates":[-90.29754748915468,38.66097236849493],"type":"Point"},"id":"stl-city-public-streetlights:2:136281","properties":{"address":null,"attributes":{"Date_Installed":"6/15/2017","LED_Powered":1,"LightID":"L028997","Light_Source":"LED","Light_Type":"Cobra","Lighting_Type":"LED-Powered Lamp","Verification_Date":null},"id":"stl-city-public-streetlights:2:136281","sourceLayerId":2,"sourceObjectId":136281,"sourceURL":"https://maps8.stlouis-mo.gov/arcgis/rest/services/STREETS/Streets_Permitting/MapServer/2","title":"Street light L028997"},"type":"Feature"},{"geometry":{"coordinates":[-90.2978580057113,38.66074855138964],"type":"Point"},"id":"stl-city-public-streetlights:2:136282","properties":{"address":null,"attributes":{"Date_Installed":"6/15/2017","LED_Powered":1,"LightID":"L028998","Light_Source":"LED","Light_Type":"Cobra","Lighting_Type":"LED-Powered Lamp","Verification_Date":null},"id":"stl-city-public-streetlights:2:136282","sourceLayerId":2,"sourceObjectId":136282,"sourceURL":"https://maps8.stlouis-mo.gov/arcgis/rest/services/STREETS/Streets_Permitting/MapServer/2","title":"Street light L028998"},"type":"Feature"},{"geometry":{"coordinates":[-90.29823936857085,38.660004868319426],"type":"Point"},"id":"stl-city-public-streetlights:2:136283","properties":{"address":null,"attributes":{"Date_Installed":"6/15/2017","LED_Powered":1,"LightID":"L028999","Light_Source":"LED","Light_Type":"Cobra","Lighting_Type":"LED-Powered Lamp","Verification_Date":null},"id":"stl-city-public-streetlights:2:136283","sourceLayerId":2,"sourceObjectId":136283,"sourceURL":"https://maps8.stlouis-mo.gov/arcgis/rest/services/STREETS/Streets_Permitting/MapServer/2","title":"Street light L028999"},"type":"Feature"},{"geometry":{"coordinates":[-90.2972917939563,38.66080733908079],"type":"Point"},"id":"stl-city-public-streetlights:2:136299","properties":{"address":null,"attributes":{"Date_Installed":"6/15/2017","LED_Powered":1,"LightID":"L029015","Light_Source":"LED","Light_Type":"Cobra","Lighting_Type":"LED-Powered Lamp","Verification_Date":null},"id":"stl-city-public-streetlights:2:136299","sourceLayerId":2,"sourceObjectId":136299,"sourceURL":"https://maps8.stlouis-mo.gov/arcgis/rest/services/STREETS/Streets_Permitting/MapServer/2","title":"Street light L029015"},"type":"Feature"},{"geometry":{"coordinates":[-90.29789300040223,38.66015131132775],"type":"Point"},"id":"stl-city-public-streetlights:2:136300","properties":{"address":null,"attributes":{"Date_Installed":"6/15/2017","LED_Powered":1,"LightID":"L029016","Light_Source":"LED","Light_Type":"Cobra","Lighting_Type":"LED-Powered Lamp","Verification_Date":null},"id":"stl-city-public-streetlights:2:136300","sourceLayerId":2,"sourceObjectId":136300,"sourceURL":"https://maps8.stlouis-mo.gov/arcgis/rest/services/STREETS/Streets_Permitting/MapServer/2","title":"Street light L029016"},"type":"Feature"},{"geometry":{"coordinates":[-90.29624407541974,38.660087374201815],"type":"Point"},"id":"stl-city-public-streetlights:2:137267","properties":{"address":null,"attributes":{"Date_Installed":"2020-01-13","LED_Powered":1,"LightID":"L029983","Light_Source":"LED","Light_Type":"Cobra","Lighting_Type":"5G Pole - 5G Pole -5G Pole - 1A","Verification_Date":null},"id":"stl-city-public-streetlights:2:137267","sourceLayerId":2,"sourceObjectId":137267,"sourceURL":"https://maps8.stlouis-mo.gov/arcgis/rest/services/STREETS/Streets_Permitting/MapServer/2","title":"Street light L029983"},"type":"Feature"},{"geometry":{"coordinates":[-90.29613258910736,38.660379838424404],"type":"Point"},"id":"stl-city-public-streetlights:2:137268","properties":{"address":null,"attributes":{"Date_Installed":null,"LED_Powered":0,"LightID":"L029984","Light_Source":"LED","Light_Type":"Cobra","Lighting_Type":"LED-Powered Lamp","Verification_Date":null},"id":"stl-city-public-streetlights:2:137268","sourceLayerId":2,"sourceObjectId":137268,"sourceURL":"https://maps8.stlouis-mo.gov/arcgis/rest/services/STREETS/Streets_Permitting/MapServer/2","title":"Street light L029984"},"type":"Feature"},{"geometry":{"coordinates":[-90.29601509630292,38.660646311379445],"type":"Point"},"id":"stl-city-public-streetlights:2:137269","properties":{"address":null,"attributes":{"Date_Installed":null,"LED_Powered":0,"LightID":"L029985","Light_Source":"LED","Light_Type":"Cobra","Lighting_Type":"LED-Powered Lamp","Verification_Date":null},"id":"stl-city-public-streetlights:2:137269","sourceLayerId":2,"sourceObjectId":137269,"sourceURL":"https://maps8.stlouis-mo.gov/arcgis/rest/services/STREETS/Streets_Permitting/MapServer/2","title":"Street light L029985"},"type":"Feature"},{"geometry":{"coordinates":[-90.29590371473193,38.660901639187],"type":"Point"},"id":"stl-city-public-streetlights:2:137270","properties":{"address":null,"attributes":{"Date_Installed":null,"LED_Powered":0,"LightID":"L029986","Light_Source":"LED","Light_Type":"Cobra","Lighting_Type":"LED-Powered Lamp","Verification_Date":null},"id":"stl-city-public-streetlights:2:137270","sourceLayerId":2,"sourceObjectId":137270,"sourceURL":"https://maps8.stlouis-mo.gov/arcgis/rest/services/STREETS/Streets_Permitting/MapServer/2","title":"Street light L029986"},"type":"Feature"},{"geometry":{"coordinates":[-90.29518939701936,38.66055661320992],"type":"Point"},"id":"stl-city-public-streetlights:2:137311","properties":{"address":null,"attributes":{"Date_Installed":null,"LED_Powered":0,"LightID":"L030027","Light_Source":"LED","Light_Type":"Cobra","Lighting_Type":"LED-Powered Lamp","Verification_Date":null},"id":"stl-city-public-streetlights:2:137311","sourceLayerId":2,"sourceObjectId":137311,"sourceURL":"https://maps8.stlouis-mo.gov/arcgis/rest/services/STREETS/Streets_Permitting/MapServer/2","title":"Street light L030027"},"type":"Feature"},{"geometry":{"coordinates":[-90.29483841989051,38.660504750316214],"type":"Point"},"id":"stl-city-public-streetlights:2:137312","properties":{"address":null,"attributes":{"Date_Installed":null,"LED_Powered":0,"LightID":"L030028","Light_Source":"LED","Light_Type":"Cobra","Lighting_Type":"LED-Powered Lamp","Verification_Date":null},"id":"stl-city-public-streetlights:2:137312","sourceLayerId":2,"sourceObjectId":137312,"sourceURL":"https://maps8.stlouis-mo.gov/arcgis/rest/services/STREETS/Streets_Permitting/MapServer/2","title":"Street light L030028"},"type":"Feature"},{"geometry":{"coordinates":[-90.2944616379042,38.660440923199744],"type":"Point"},"id":"stl-city-public-streetlights:2:137313","properties":{"address":null,"attributes":{"Date_Installed":null,"LED_Powered":0,"LightID":"L030029","Light_Source":"LED","Light_Type":"Cobra","Lighting_Type":"LED-Powered Lamp","Verification_Date":null},"id":"stl-city-public-streetlights:2:137313","sourceLayerId":2,"sourceObjectId":137313,"sourceURL":"https://maps8.stlouis-mo.gov/arcgis/rest/services/STREETS/Streets_Permitting/MapServer/2","title":"Street light L030029"},"type":"Feature"},{"geometry":{"coordinates":[-90.29402550901075,38.660400826945356],"type":"Point"},"id":"stl-city-public-streetlights:2:137314","properties":{"address":null,"attributes":{"Date_Installed":null,"LED_Powered":0,"LightID":"L030030","Light_Source":"LED","Light_Type":"Cobra","Lighting_Type":"LED-Powered Lamp","Verification_Date":null},"id":"stl-city-public-streetlights:2:137314","sourceLayerId":2,"sourceObjectId":137314,"sourceURL":"https://maps8.stlouis-mo.gov/arcgis/rest/services/STREETS/Streets_Permitting/MapServer/2","title":"Street light L030030"},"type":"Feature"},{"geometry":{"coordinates":[-90.29354269704316,38.660370438417615],"type":"Point"},"id":"stl-city-public-streetlights:2:137315","properties":{"address":null,"attributes":{"Date_Installed":null,"LED_Powered":0,"LightID":"L030031","Light_Source":"LED","Light_Type":"Cobra","Lighting_Type":"LED-Powered Lamp","Verification_Date":null},"id":"stl-city-public-streetlights:2:137315","sourceLayerId":2,"sourceObjectId":137315,"sourceURL":"https://maps8.stlouis-mo.gov/arcgis/rest/services/STREETS/Streets_Permitting/MapServer/2","title":"Street light L030031"},"type":"Feature"},{"geometry":{"coordinates":[-90.29539865495663,38.66105428506967],"type":"Point"},"id":"stl-city-public-streetlights:2:137316","properties":{"address":null,"attributes":{"Date_Installed":null,"LED_Powered":0,"LightID":"L030032","Light_Source":"LED","Light_Type":"Cobra","Lighting_Type":"LED-Powered Lamp","Verification_Date":null},"id":"stl-city-public-streetlights:2:137316","sourceLayerId":2,"sourceObjectId":137316,"sourceURL":"https://maps8.stlouis-mo.gov/arcgis/rest/services/STREETS/Streets_Permitting/MapServer/2","title":"Street light L030032"},"type":"Feature"},{"geometry":{"coordinates":[-90.29522538842528,38.661077753573075],"type":"Point"},"id":"stl-city-public-streetlights:2:137317","properties":{"address":null,"attributes":{"Date_Installed":null,"LED_Powered":0,"LightID":"L030033","Light_Source":"LED","Light_Type":"Cobra","Lighting_Type":"LED-Powered Lamp","Verification_Date":null},"id":"stl-city-public-streetlights:2:137317","sourceLayerId":2,"sourceObjectId":137317,"sourceURL":"https://maps8.stlouis-mo.gov/arcgis/rest/services/STREETS/Streets_Permitting/MapServer/2","title":"Street light L030033"},"type":"Feature"},{"geometry":{"coordinates":[-90.29497617507919,38.66115129784357],"type":"Point"},"id":"stl-city-public-streetlights:2:137318","properties":{"address":null,"attributes":{"Date_Installed":null,"LED_Powered":0,"LightID":"L030034","Light_Source":"High Pressure Sodium","Light_Type":"Cobra","Lighting_Type":"150-W High Pressure Sodium Vapor Lamp","Verification_Date":null},"id":"stl-city-public-streetlights:2:137318","sourceLayerId":2,"sourceObjectId":137318,"sourceURL":"https://maps8.stlouis-mo.gov/arcgis/rest/services/STREETS/Streets_Permitting/MapServer/2","title":"Street light L030034"},"type":"Feature"},{"geometry":{"coordinates":[-90.29469027033338,38.66123205274769],"type":"Point"},"id":"stl-city-public-streetlights:2:137319","properties":{"address":null,"attributes":{"Date_Installed":null,"LED_Powered":0,"LightID":"L030035","Light_Source":"LED","Light_Type":"Cobra","Lighting_Type":"LED-Powered Lamp","Verification_Date":null},"id":"stl-city-public-streetlights:2:137319","sourceLayerId":2,"sourceObjectId":137319,"sourceURL":"https://maps8.stlouis-mo.gov/arcgis/rest/services/STREETS/Streets_Permitting/MapServer/2","title":"Street light L030035"},"type":"Feature"},{"geometry":{"coordinates":[-90.29445446432153,38.66124263304871],"type":"Point"},"id":"stl-city-public-streetlights:2:137320","properties":{"address":null,"attributes":{"Date_Installed":null,"LED_Powered":0,"LightID":"L030036","Light_Source":"LED","Light_Type":"Cobra","Lighting_Type":"LED-Powered Lamp","Verification_Date":null},"id":"stl-city-public-streetlights:2:137320","sourceLayerId":2,"sourceObjectId":137320,"sourceURL":"https://maps8.stlouis-mo.gov/arcgis/rest/services/STREETS/Streets_Permitting/MapServer/2","title":"Street light L030036"},"type":"Feature"},{"geometry":{"coordinates":[-90.29438977644142,38.661325945062785],"type":"Point"},"id":"stl-city-public-streetlights:2:137321","properties":{"address":null,"attributes":{"Date_Installed":null,"LED_Powered":0,"LightID":"L030037","Light_Source":"LED","Light_Type":"Cobra","Lighting_Type":"LED-Powered Lamp","Verification_Date":null},"id":"stl-city-public-streetlights:2:137321","sourceLayerId":2,"sourceObjectId":137321,"sourceURL":"https://maps8.stlouis-mo.gov/arcgis/rest/services/STREETS/Streets_Permitting/MapServer/2","title":"Street light L030037"},"type":"Feature"},{"geometry":{"coordinates":[-90.29428790053824,38.661237900676326],"type":"Point"},"id":"stl-city-public-streetlights:2:137322","properties":{"address":null,"attributes":{"Date_Installed":null,"LED_Powered":0,"LightID":"L030038","Light_Source":"LED","Light_Type":"Cobra","Lighting_Type":"LED-Powered Lamp","Verification_Date":null},"id":"stl-city-public-streetlights:2:137322","sourceLayerId":2,"sourceObjectId":137322,"sourceURL":"https://maps8.stlouis-mo.gov/arcgis/rest/services/STREETS/Streets_Permitting/MapServer/2","title":"Street light L030038"},"type":"Feature"},{"geometry":{"coordinates":[-90.29424434490849,38.66139308556565],"type":"Point"},"id":"stl-city-public-streetlights:2:137323","properties":{"address":null,"attributes":{"Date_Installed":null,"LED_Powered":0,"LightID":"L030039","Light_Source":"LED","Light_Type":"Cobra","Lighting_Type":"LED-Powered Lamp","Verification_Date":null},"id":"stl-city-public-streetlights:2:137323","sourceLayerId":2,"sourceObjectId":137323,"sourceURL":"https://maps8.stlouis-mo.gov/arcgis/rest/services/STREETS/Streets_Permitting/MapServer/2","title":"Street light L030039"},"type":"Feature"},{"geometry":{"coordinates":[-90.29417134975132,38.661537677362425],"type":"Point"},"id":"stl-city-public-streetlights:2:137324","properties":{"address":null,"attributes":{"Date_Installed":null,"LED_Powered":0,"LightID":"L030040","Light_Source":"LED","Light_Type":"Cobra","Lighting_Type":"LED-Powered Lamp","Verification_Date":null},"id":"stl-city-public-streetlights:2:137324","sourceLayerId":2,"sourceObjectId":137324,"sourceURL":"https://maps8.stlouis-mo.gov/arcgis/rest/services/STREETS/Streets_Permitting/MapServer/2","title":"Street light L030040"},"type":"Feature"},{"geometry":{"coordinates":[-90.29110473289954,38.660194020885804],"type":"Point"},"id":"stl-city-public-streetlights:2:137325","properties":{"address":null,"attributes":{"Date_Installed":null,"LED_Powered":0,"LightID":"L030041","Light_Source":"LED","Light_Type":"Cobra","Lighting_Type":"LED-Powered Lamp","Verification_Date":null},"id":"stl-city-public-streetlights:2:137325","sourceLayerId":2,"sourceObjectId":137325,"sourceURL":"https://maps8.stlouis-mo.gov/arcgis/rest/services/STREETS/Streets_Permitting/MapServer/2","title":"Street light L030041"},"type":"Feature"},{"geometry":{"coordinates":[-90.29157628460919,38.660241556799605],"type":"Point"},"id":"stl-city-public-streetlights:2:137326","properties":{"address":null,"attributes":{"Date_Installed":null,"LED_Powered":0,"LightID":"L030042","Light_Source":"LED","Light_Type":"Cobra","Lighting_Type":"LED-Powered Lamp","Verification_Date":null},"id":"stl-city-public-streetlights:2:137326","sourceLayerId":2,"sourceObjectId":137326,"sourceURL":"https://maps8.stlouis-mo.gov/arcgis/rest/services/STREETS/Streets_Permitting/MapServer/2","title":"Street light L030042"},"type":"Feature"},{"geometry":{"coordinates":[-90.29203980782418,38.66029029183588],"type":"Point"},"id":"stl-city-public-streetlights:2:137327","properties":{"address":null,"attributes":{"Date_Installed":null,"LED_Powered":0,"LightID":"L030043","Light_Source":"LED","Light_Type":"Cobra","Lighting_Type":"LED-Powered Lamp","Verification_Date":null},"id":"stl-city-public-streetlights:2:137327","sourceLayerId":2,"sourceObjectId":137327,"sourceURL":"https://maps8.stlouis-mo.gov/arcgis/rest/services/STREETS/Streets_Permitting/MapServer/2","title":"Street light L030043"},"type":"Feature"},{"geometry":{"coordinates":[-90.29012030885693,38.661397494571666],"type":"Point"},"id":"stl-city-public-streetlights:2:137328","properties":{"address":null,"attributes":{"Date_Installed":null,"LED_Powered":0,"LightID":"L030044","Light_Source":"LED","Light_Type":"Cobra","Lighting_Type":"LED-Powered Lamp","Verification_Date":null},"id":"stl-city-public-streetlights:2:137328","sourceLayerId":2,"sourceObjectId":137328,"sourceURL":"https://maps8.stlouis-mo.gov/arcgis/rest/services/STREETS/Streets_Permitting/MapServer/2","title":"Street light L030044"},"type":"Feature"},{"geometry":{"coordinates":[-90.29060111441116,38.661443643832826],"type":"Point"},"id":"stl-city-public-streetlights:2:137329","properties":{"address":null,"attributes":{"Date_Installed":null,"LED_Powered":0,"LightID":"L030045","Light_Source":"LED","Light_Type":"Cobra","Lighting_Type":"LED-Powered Lamp","Verification_Date":null},"id":"stl-city-public-streetlights:2:137329","sourceLayerId":2,"sourceObjectId":137329,"sourceURL":"https://maps8.stlouis-mo.gov/arcgis/rest/services/STREETS/Streets_Permitting/MapServer/2","title":"Street light L030045"},"type":"Feature"},{"geometry":{"coordinates":[-90.29107620155574,38.66149073584423],"type":"Point"},"id":"stl-city-public-streetlights:2:137330","properties":{"address":null,"attributes":{"Date_Installed":null,"LED_Powered":0,"LightID":"L030046","Light_Source":"LED","Light_Type":"Cobra","Lighting_Type":"LED-Powered Lamp","Verification_Date":null},"id":"stl-city-public-streetlights:2:137330","sourceLayerId":2,"sourceObjectId":137330,"sourceURL":"https://maps8.stlouis-mo.gov/arcgis/rest/services/STREETS/Streets_Permitting/MapServer/2","title":"Street light L030046"},"type":"Feature"},{"geometry":{"coordinates":[-90.29154363449007,38.66153590510942],"type":"Point"},"id":"stl-city-public-streetlights:2:137331","properties":{"address":null,"attributes":{"Date_Installed":null,"LED_Powered":0,"LightID":"L030047","Light_Source":"LED","Light_Type":"Cobra","Lighting_Type":"LED-Powered Lamp","Verification_Date":null},"id":"stl-city-public-streetlights:2:137331","sourceLayerId":2,"sourceObjectId":137331,"sourceURL":"https://maps8.stlouis-mo.gov/arcgis/rest/services/STREETS/Streets_Permitting/MapServer/2","title":"Street light L030047"},"type":"Feature"},{"geometry":{"coordinates":[-90.29201203594027,38.661582503035014],"type":"Point"},"id":"stl-city-public-streetlights:2:137332","properties":{"address":null,"attributes":{"Date_Installed":null,"LED_Powered":0,"LightID":"L030048","Light_Source":"LED","Light_Type":"Cobra","Lighting_Type":"LED-Powered Lamp","Verification_Date":null},"id":"stl-city-public-streetlights:2:137332","sourceLayerId":2,"sourceObjectId":137332,"sourceURL":"https://maps8.stlouis-mo.gov/arcgis/rest/services/STREETS/Streets_Permitting/MapServer/2","title":"Street light L030048"},"type":"Feature"},{"geometry":{"coordinates":[-90.29249724305741,38.6616319910149],"type":"Point"},"id":"stl-city-public-streetlights:2:137333","properties":{"address":null,"attributes":{"Date_Installed":null,"LED_Powered":0,"LightID":"L030049","Light_Source":"LED","Light_Type":"Cobra","Lighting_Type":"LED-Powered Lamp","Verification_Date":null},"id":"stl-city-public-streetlights:2:137333","sourceLayerId":2,"sourceObjectId":137333,"sourceURL":"https://maps8.stlouis-mo.gov/arcgis/rest/services/STREETS/Streets_Permitting/MapServer/2","title":"Street light L030049"},"type":"Feature"},{"geometry":{"coordinates":[-90.29297865407915,38.66168003875542],"type":"Point"},"id":"stl-city-public-streetlights:2:137334","properties":{"address":null,"attributes":{"Date_Installed":null,"LED_Powered":0,"LightID":"L030050","Light_Source":"LED","Light_Type":"Cobra","Lighting_Type":"LED-Powered Lamp","Verification_Date":null},"id":"stl-city-public-streetlights:2:137334","sourceLayerId":2,"sourceObjectId":137334,"sourceURL":"https://maps8.stlouis-mo.gov/arcgis/rest/services/STREETS/Streets_Permitting/MapServer/2","title":"Street light L030050"},"type":"Feature"},{"geometry":{"coordinates":[-90.29342420327568,38.66172396990156],"type":"Point"},"id":"stl-city-public-streetlights:2:137335","properties":{"address":null,"attributes":{"Date_Installed":null,"LED_Powered":0,"LightID":"L030051","Light_Source":"LED","Light_Type":"Cobra","Lighting_Type":"LED-Powered Lamp","Verification_Date":null},"id":"stl-city-public-streetlights:2:137335","sourceLayerId":2,"sourceObjectId":137335,"sourceURL":"https://maps8.stlouis-mo.gov/arcgis/rest/services/STREETS/Streets_Permitting/MapServer/2","title":"Street light L030051"},"type":"Feature"},{"geometry":{"coordinates":[-90.29385987590987,38.66176758375247],"type":"Point"},"id":"stl-city-public-streetlights:2:137336","properties":{"address":null,"attributes":{"Date_Installed":null,"LED_Powered":0,"LightID":"L030052","Light_Source":"LED","Light_Type":"Cobra","Lighting_Type":"LED-Powered Lamp","Verification_Date":null},"id":"stl-city-public-streetlights:2:137336","sourceLayerId":2,"sourceObjectId":137336,"sourceURL":"https://maps8.stlouis-mo.gov/arcgis/rest/services/STREETS/Streets_Permitting/MapServer/2","title":"Street light L030052"},"type":"Feature"},{"geometry":{"coordinates":[-90.29409967125508,38.66179094806965],"type":"Point"},"id":"stl-city-public-streetlights:2:137337","properties":{"address":null,"attributes":{"Date_Installed":null,"LED_Powered":0,"LightID":"L030053","Light_Source":"LED","Light_Type":"Cobra","Lighting_Type":"LED-Powered Lamp","Verification_Date":null},"id":"stl-city-public-streetlights:2:137337","sourceLayerId":2,"sourceObjectId":137337,"sourceURL":"https://maps8.stlouis-mo.gov/arcgis/rest/services/STREETS/Streets_Permitting/MapServer/2","title":"Street light L030053"},"type":"Feature"},{"geometry":{"coordinates":[-90.29400878442854,38.66270234458018],"type":"Point"},"id":"stl-city-public-streetlights:2:137338","properties":{"address":null,"attributes":{"Date_Installed":null,"LED_Powered":0,"LightID":"L030054","Light_Source":"LED","Light_Type":"Cobra","Lighting_Type":"LED-Powered Lamp","Verification_Date":null},"id":"stl-city-public-streetlights:2:137338","sourceLayerId":2,"sourceObjectId":137338,"sourceURL":"https://maps8.stlouis-mo.gov/arcgis/rest/services/STREETS/Streets_Permitting/MapServer/2","title":"Street light L030054"},"type":"Feature"},{"geometry":{"coordinates":[-90.29357380848171,38.6626581955863],"type":"Point"},"id":"stl-city-public-streetlights:2:137339","properties":{"address":null,"attributes":{"Date_Installed":null,"LED_Powered":0,"LightID":"L030055","Light_Source":"LED","Light_Type":"Cobra","Lighting_Type":"LED-Powered Lamp","Verification_Date":null},"id":"stl-city-public-streetlights:2:137339","sourceLayerId":2,"sourceObjectId":137339,"sourceURL":"https://maps8.stlouis-mo.gov/arcgis/rest/services/STREETS/Streets_Permitting/MapServer/2","title":"Street light L030055"},"type":"Feature"},{"geometry":{"coordinates":[-90.29304923114354,38.66260649831536],"type":"Point"},"id":"stl-city-public-streetlights:2:137340","properties":{"address":null,"attributes":{"Date_Installed":null,"LED_Powered":0,"LightID":"L030056","Light_Source":"LED","Light_Type":"Cobra","Lighting_Type":"LED-Powered Lamp","Verification_Date":null},"id":"stl-city-public-streetlights:2:137340","sourceLayerId":2,"sourceObjectId":137340,"sourceURL":"https://maps8.stlouis-mo.gov/arcgis/rest/services/STREETS/Streets_Permitting/MapServer/2","title":"Street light L030056"},"type":"Feature"},{"geometry":{"coordinates":[-90.29255768956457,38.662558551818265],"type":"Point"},"id":"stl-city-public-streetlights:2:137341","properties":{"address":null,"attributes":{"Date_Installed":null,"LED_Powered":0,"LightID":"L030057","Light_Source":"LED","Light_Type":"Cobra","Lighting_Type":"LED-Powered Lamp","Verification_Date":null},"id":"stl-city-public-streetlights:2:137341","sourceLayerId":2,"sourceObjectId":137341,"sourceURL":"https://maps8.stlouis-mo.gov/arcgis/rest/services/STREETS/Streets_Permitting/MapServer/2","title":"Street light L030057"},"type":"Feature"},{"geometry":{"coordinates":[-90.29205046783196,38.66250866820493],"type":"Point"},"id":"stl-city-public-streetlights:2:137342","properties":{"address":null,"attributes":{"Date_Installed":null,"LED_Powered":0,"LightID":"L030058","Light_Source":"LED","Light_Type":"Cobra","Lighting_Type":"LED-Powered Lamp","Verification_Date":null},"id":"stl-city-public-streetlights:2:137342","sourceLayerId":2,"sourceObjectId":137342,"sourceURL":"https://maps8.stlouis-mo.gov/arcgis/rest/services/STREETS/Streets_Permitting/MapServer/2","title":"Street light L030058"},"type":"Feature"},{"geometry":{"coordinates":[-90.29153258733459,38.66245483012706],"type":"Point"},"id":"stl-city-public-streetlights:2:137343","properties":{"address":null,"attributes":{"Date_Installed":null,"LED_Powered":0,"LightID":"L030059","Light_Source":"LED","Light_Type":"Cobra","Lighting_Type":"LED-Powered Lamp","Verification_Date":null},"id":"stl-city-public-streetlights:2:137343","sourceLayerId":2,"sourceObjectId":137343,"sourceURL":"https://maps8.stlouis-mo.gov/arcgis/rest/services/STREETS/Streets_Permitting/MapServer/2","title":"Street light L030059"},"type":"Feature"},{"geometry":{"coordinates":[-90.29103238577729,38.66240674287009],"type":"Point"},"id":"stl-city-public-streetlights:2:137344","properties":{"address":null,"attributes":{"Date_Installed":null,"LED_Powered":0,"LightID":"L030060","Light_Source":"LED","Light_Type":"Cobra","Lighting_Type":"LED-Powered Lamp","Verification_Date":null},"id":"stl-city-public-streetlights:2:137344","sourceLayerId":2,"sourceObjectId":137344,"sourceURL":"https://maps8.stlouis-mo.gov/arcgis/rest/services/STREETS/Streets_Permitting/MapServer/2","title":"Street light L030060"},"type":"Feature"},{"geometry":{"coordinates":[-90.29057832731998,38.66236016490137],"type":"Point"},"id":"stl-city-public-streetlights:2:137345","properties":{"address":null,"attributes":{"Date_Installed":null,"LED_Powered":0,"LightID":"L030061","Light_Source":"LED","Light_Type":"Cobra","Lighting_Type":"LED-Powered Lamp","Verification_Date":null},"id":"stl-city-public-streetlights:2:137345","sourceLayerId":2,"sourceObjectId":137345,"sourceURL":"https://maps8.stlouis-mo.gov/arcgis/rest/services/STREETS/Streets_Permitting/MapServer/2","title":"Street light L030061"},"type":"Feature"},{"geometry":{"coordinates":[-90.29006007111076,38.662310610554066],"type":"Point"},"id":"stl-city-public-streetlights:2:137346","properties":{"address":null,"attributes":{"Date_Installed":null,"LED_Powered":0,"LightID":"L030062","Light_Source":"LED","Light_Type":"Cobra","Lighting_Type":"LED-Powered Lamp","Verification_Date":null},"id":"stl-city-public-streetlights:2:137346","sourceLayerId":2,"sourceObjectId":137346,"sourceURL":"https://maps8.stlouis-mo.gov/arcgis/rest/services/STREETS/Streets_Permitting/MapServer/2","title":"Street light L030062"},"type":"Feature"},{"geometry":{"coordinates":[-90.29343157801388,38.66368809624827],"type":"Point"},"id":"stl-city-public-streetlights:2:137349","properties":{"address":null,"attributes":{"Date_Installed":null,"LED_Powered":0,"LightID":"L030065","Light_Source":"LED","Light_Type":"Cobra","Lighting_Type":"LED-Powered Lamp","Verification_Date":null},"id":"stl-city-public-streetlights:2:137349","sourceLayerId":2,"sourceObjectId":137349,"sourceURL":"https://maps8.stlouis-mo.gov/arcgis/rest/services/STREETS/Streets_Permitting/MapServer/2","title":"Street light L030065"},"type":"Feature"},{"geometry":{"coordinates":[-90.29300053145353,38.66364490700287],"type":"Point"},"id":"stl-city-public-streetlights:2:137350","properties":{"address":null,"attributes":{"Date_Installed":null,"LED_Powered":0,"LightID":"L030066","Light_Source":"LED","Light_Type":"Cobra","Lighting_Type":"LED-Powered Lamp","Verification_Date":null},"id":"stl-city-public-streetlights:2:137350","sourceLayerId":2,"sourceObjectId":137350,"sourceURL":"https://maps8.stlouis-mo.gov/arcgis/rest/services/STREETS/Streets_Permitting/MapServer/2","title":"Street light L030066"},"type":"Feature"},{"geometry":{"coordinates":[-90.29252338639485,38.66359960741787],"type":"Point"},"id":"stl-city-public-streetlights:2:137351","properties":{"address":null,"attributes":{"Date_Installed":null,"LED_Powered":0,"LightID":"L030067","Light_Source":"LED","Light_Type":"Cobra","Lighting_Type":"LED-Powered Lamp","Verification_Date":null},"id":"stl-city-public-streetlights:2:137351","sourceLayerId":2,"sourceObjectId":137351,"sourceURL":"https://maps8.stlouis-mo.gov/arcgis/rest/services/STREETS/Streets_Permitting/MapServer/2","title":"Street light L030067"},"type":"Feature"},{"geometry":{"coordinates":[-90.29206513248633,38.663555364678665],"type":"Point"},"id":"stl-city-public-streetlights:2:137352","properties":{"address":null,"attributes":{"Date_Installed":null,"LED_Powered":0,"LightID":"L030068","Light_Source":"LED","Light_Type":"Cobra","Lighting_Type":"LED-Powered Lamp","Verification_Date":null},"id":"stl-city-public-streetlights:2:137352","sourceLayerId":2,"sourceObjectId":137352,"sourceURL":"https://maps8.stlouis-mo.gov/arcgis/rest/services/STREETS/Streets_Permitting/MapServer/2","title":"Street light L030068"},"type":"Feature"},{"geometry":{"coordinates":[-90.29156839469742,38.66350471113932],"type":"Point"},"id":"stl-city-public-streetlights:2:137353","properties":{"address":null,"attributes":{"Date_Installed":null,"LED_Powered":0,"LightID":"L030069","Light_Source":"LED","Light_Type":"Cobra","Lighting_Type":"LED-Powered Lamp","Verification_Date":null},"id":"stl-city-public-streetlights:2:137353","sourceLayerId":2,"sourceObjectId":137353,"sourceURL":"https://maps8.stlouis-mo.gov/arcgis/rest/services/STREETS/Streets_Permitting/MapServer/2","title":"Street light L030069"},"type":"Feature"},{"geometry":{"coordinates":[-90.29227755046962,38.66448081701749],"type":"Point"},"id":"stl-city-public-streetlights:2:137354","properties":{"address":null,"attributes":{"Date_Installed":null,"LED_Powered":0,"LightID":"L030070","Light_Source":"LED","Light_Type":"Cobra","Lighting_Type":"LED-Powered Lamp","Verification_Date":null},"id":"stl-city-public-streetlights:2:137354","sourceLayerId":2,"sourceObjectId":137354,"sourceURL":"https://maps8.stlouis-mo.gov/arcgis/rest/services/STREETS/Streets_Permitting/MapServer/2","title":"Street light L030070"},"type":"Feature"},{"geometry":{"coordinates":[-90.29184094564458,38.66438672257594],"type":"Point"},"id":"stl-city-public-streetlights:2:137355","properties":{"address":null,"attributes":{"Date_Installed":null,"LED_Powered":0,"LightID":"L030071","Light_Source":"LED","Light_Type":"Cobra","Lighting_Type":"LED-Powered Lamp","Verification_Date":null},"id":"stl-city-public-streetlights:2:137355","sourceLayerId":2,"sourceObjectId":137355,"sourceURL":"https://maps8.stlouis-mo.gov/arcgis/rest/services/STREETS/Streets_Permitting/MapServer/2","title":"Street light L030071"},"type":"Feature"},{"geometry":{"coordinates":[-90.29135958431081,38.664283894571106],"type":"Point"},"id":"stl-city-public-streetlights:2:137356","properties":{"address":null,"attributes":{"Date_Installed":null,"LED_Powered":0,"LightID":"L030072","Light_Source":"LED","Light_Type":"Cobra","Lighting_Type":"LED-Powered Lamp","Verification_Date":null},"id":"stl-city-public-streetlights:2:137356","sourceLayerId":2,"sourceObjectId":137356,"sourceURL":"https://maps8.stlouis-mo.gov/arcgis/rest/services/STREETS/Streets_Permitting/MapServer/2","title":"Street light L030072"},"type":"Feature"},{"geometry":{"coordinates":[-90.29430552659802,38.66166555008837],"type":"Point"},"id":"stl-city-public-streetlights:2:137357","properties":{"address":null,"attributes":{"Date_Installed":"2020-01-20","LED_Powered":1,"LightID":"L030073","Light_Source":"LED","Light_Type":"Cobra","Lighting_Type":"5G Pole - 5G Pole -5G Pole - 1A","Verification_Date":null},"id":"stl-city-public-streetlights:2:137357","sourceLayerId":2,"sourceObjectId":137357,"sourceURL":"https://maps8.stlouis-mo.gov/arcgis/rest/services/STREETS/Streets_Permitting/MapServer/2","title":"Street light L030073"},"type":"Feature"},{"geometry":{"coordinates":[-90.29313839272109,38.66570545024336],"type":"Point"},"id":"stl-city-public-streetlights:2:137358","properties":{"address":null,"attributes":{"Date_Installed":null,"LED_Powered":0,"LightID":"L030074","Light_Source":"High Pressure Sodium","Light_Type":"Cobra","Lighting_Type":"400-W High Pressure Sodium Vapor Lamp","Verification_Date":null},"id":"stl-city-public-streetlights:2:137358","sourceLayerId":2,"sourceObjectId":137358,"sourceURL":"https://maps8.stlouis-mo.gov/arcgis/rest/services/STREETS/Streets_Permitting/MapServer/2","title":"Street light L030074"},"type":"Feature"},{"geometry":{"coordinates":[-90.29273214427394,38.66566848033843],"type":"Point"},"id":"stl-city-public-streetlights:2:137359","properties":{"address":null,"attributes":{"Date_Installed":null,"LED_Powered":0,"LightID":"L030075","Light_Source":"LED","Light_Type":"Cobra","Lighting_Type":"LED-Powered Lamp","Verification_Date":null},"id":"stl-city-public-streetlights:2:137359","sourceLayerId":2,"sourceObjectId":137359,"sourceURL":"https://maps8.stlouis-mo.gov/arcgis/rest/services/STREETS/Streets_Permitting/MapServer/2","title":"Street light L030075"},"type":"Feature"},{"geometry":{"coordinates":[-90.29339761844832,38.664397420147424],"type":"Point"},"id":"stl-city-public-streetlights:2:137360","properties":{"address":null,"attributes":{"Date_Installed":null,"LED_Powered":0,"LightID":"L030076","Light_Source":"LED","Light_Type":"Cobra","Lighting_Type":"LED-Powered Lamp","Verification_Date":null},"id":"stl-city-public-streetlights:2:137360","sourceLayerId":2,"sourceObjectId":137360,"sourceURL":"https://maps8.stlouis-mo.gov/arcgis/rest/services/STREETS/Streets_Permitting/MapServer/2","title":"Street light L030076"},"type":"Feature"},{"geometry":{"coordinates":[-90.29378415854595,38.6645637625813],"type":"Point"},"id":"stl-city-public-streetlights:2:137361","properties":{"address":null,"attributes":{"Date_Installed":null,"LED_Powered":0,"LightID":"L030077","Light_Source":"LED","Light_Type":"Cobra","Lighting_Type":"LED-Powered Lamp","Verification_Date":null},"id":"stl-city-public-streetlights:2:137361","sourceLayerId":2,"sourceObjectId":137361,"sourceURL":"https://maps8.stlouis-mo.gov/arcgis/rest/services/STREETS/Streets_Permitting/MapServer/2","title":"Street light L030077"},"type":"Feature"},{"geometry":{"coordinates":[-90.29010037453943,38.6676182056718],"type":"Point"},"id":"stl-city-public-streetlights:2:137381","properties":{"address":null,"attributes":{"Date_Installed":"Sept 2016","LED_Powered":1,"LightID":"L030097","Light_Source":"LED","Light_Type":"Cobra","Lighting_Type":"LED-Powered Lamp","Verification_Date":null},"id":"stl-city-public-streetlights:2:137381","sourceLayerId":2,"sourceObjectId":137381,"sourceURL":"https://maps8.stlouis-mo.gov/arcgis/rest/services/STREETS/Streets_Permitting/MapServer/2","title":"Street light L030097"},"type":"Feature"},{"geometry":{"coordinates":[-90.29022972457376,38.66784927162008],"type":"Point"},"id":"stl-city-public-streetlights:2:137382","properties":{"address":null,"attributes":{"Date_Installed":"Sept 2016","LED_Powered":1,"LightID":"L030098","Light_Source":"LED","Light_Type":"Cobra","Lighting_Type":"LED-Powered Lamp","Verification_Date":null},"id":"stl-city-public-streetlights:2:137382","sourceLayerId":2,"sourceObjectId":137382,"sourceURL":"https://maps8.stlouis-mo.gov/arcgis/rest/services/STREETS/Streets_Permitting/MapServer/2","title":"Street light L030098"},"type":"Feature"},{"geometry":{"coordinates":[-90.29045639486803,38.667850393214465],"type":"Point"},"id":"stl-city-public-streetlights:2:137383","properties":{"address":null,"attributes":{"Date_Installed":null,"LED_Powered":0,"LightID":"L030099","Light_Source":"LED","Light_Type":"Cobra","Lighting_Type":"LED-Powered Lamp","Verification_Date":null},"id":"stl-city-public-streetlights:2:137383","sourceLayerId":2,"sourceObjectId":137383,"sourceURL":"https://maps8.stlouis-mo.gov/arcgis/rest/services/STREETS/Streets_Permitting/MapServer/2","title":"Street light L030099"},"type":"Feature"},{"geometry":{"coordinates":[-90.29063221889807,38.667609869828745],"type":"Point"},"id":"stl-city-public-streetlights:2:137384","properties":{"address":null,"attributes":{"Date_Installed":null,"LED_Powered":0,"LightID":"L030100","Light_Source":"LED","Light_Type":"Cobra","Lighting_Type":"LED-Powered Lamp","Verification_Date":null},"id":"stl-city-public-streetlights:2:137384","sourceLayerId":2,"sourceObjectId":137384,"sourceURL":"https://maps8.stlouis-mo.gov/arcgis/rest/services/STREETS/Streets_Permitting/MapServer/2","title":"Street light L030100"},"type":"Feature"},{"geometry":{"coordinates":[-90.29080315933862,38.667375629218505],"type":"Point"},"id":"stl-city-public-streetlights:2:137385","properties":{"address":null,"attributes":{"Date_Installed":null,"LED_Powered":0,"LightID":"L030101","Light_Source":"LED","Light_Type":"Cobra","Lighting_Type":"LED-Powered Lamp","Verification_Date":null},"id":"stl-city-public-streetlights:2:137385","sourceLayerId":2,"sourceObjectId":137385,"sourceURL":"https://maps8.stlouis-mo.gov/arcgis/rest/services/STREETS/Streets_Permitting/MapServer/2","title":"Street light L030101"},"type":"Feature"},{"geometry":{"coordinates":[-90.2927177045003,38.66457777553086],"type":"Point"},"id":"stl-city-public-streetlights:2:154710","properties":{"address":null,"attributes":{"Date_Installed":null,"LED_Powered":0,"LightID":"L047442","Light_Source":"LED","Light_Type":"Cobra","Lighting_Type":"LED-Powered Lamp","Verification_Date":null},"id":"stl-city-public-streetlights:2:154710","sourceLayerId":2,"sourceObjectId":154710,"sourceURL":"https://maps8.stlouis-mo.gov/arcgis/rest/services/STREETS/Streets_Permitting/MapServer/2","title":"Street light L047442"},"type":"Feature"},{"geometry":{"coordinates":[-90.29223964832501,38.665466059516554],"type":"Point"},"id":"stl-city-public-streetlights:2:154711","properties":{"address":null,"attributes":{"Date_Installed":null,"LED_Powered":0,"LightID":"L047443","Light_Source":"LED","Light_Type":"Cobra","Lighting_Type":"LED-Powered Lamp","Verification_Date":null},"id":"stl-city-public-streetlights:2:154711","sourceLayerId":2,"sourceObjectId":154711,"sourceURL":"https://maps8.stlouis-mo.gov/arcgis/rest/services/STREETS/Streets_Permitting/MapServer/2","title":"Street light L047443"},"type":"Feature"},{"geometry":{"coordinates":[-90.29240112878776,38.66523530411785],"type":"Point"},"id":"stl-city-public-streetlights:2:154712","properties":{"address":null,"attributes":{"Date_Installed":null,"LED_Powered":0,"LightID":"L047444","Light_Source":"LED","Light_Type":"Cobra","Lighting_Type":"LED-Powered Lamp","Verification_Date":null},"id":"stl-city-public-streetlights:2:154712","sourceLayerId":2,"sourceObjectId":154712,"sourceURL":"https://maps8.stlouis-mo.gov/arcgis/rest/services/STREETS/Streets_Permitting/MapServer/2","title":"Street light L047444"},"type":"Feature"},{"geometry":{"coordinates":[-90.29258112159135,38.66499428418787],"type":"Point"},"id":"stl-city-public-streetlights:2:154713","properties":{"address":null,"attributes":{"Date_Installed":null,"LED_Powered":0,"LightID":"L047445","Light_Source":"LED","Light_Type":"Cobra","Lighting_Type":"LED-Powered Lamp","Verification_Date":null},"id":"stl-city-public-streetlights:2:154713","sourceLayerId":2,"sourceObjectId":154713,"sourceURL":"https://maps8.stlouis-mo.gov/arcgis/rest/services/STREETS/Streets_Permitting/MapServer/2","title":"Street light L047445"},"type":"Feature"},{"geometry":{"coordinates":[-90.29275366333059,38.664753846254015],"type":"Point"},"id":"stl-city-public-streetlights:2:154714","properties":{"address":null,"attributes":{"Date_Installed":null,"LED_Powered":0,"LightID":"L047446","Light_Source":"LED","Light_Type":"Cobra","Lighting_Type":"LED-Powered Lamp","Verification_Date":null},"id":"stl-city-public-streetlights:2:154714","sourceLayerId":2,"sourceObjectId":154714,"sourceURL":"https://maps8.stlouis-mo.gov/arcgis/rest/services/STREETS/Streets_Permitting/MapServer/2","title":"Street light L047446"},"type":"Feature"},{"geometry":{"coordinates":[-90.29290818252232,38.66454281440171],"type":"Point"},"id":"stl-city-public-streetlights:2:154715","properties":{"address":null,"attributes":{"Date_Installed":null,"LED_Powered":0,"LightID":"L047447","Light_Source":"LED","Light_Type":"Cobra","Lighting_Type":"LED-Powered Lamp","Verification_Date":null},"id":"stl-city-public-streetlights:2:154715","sourceLayerId":2,"sourceObjectId":154715,"sourceURL":"https://maps8.stlouis-mo.gov/arcgis/rest/services/STREETS/Streets_Permitting/MapServer/2","title":"Street light L047447"},"type":"Feature"},{"geometry":{"coordinates":[-90.29307300073981,38.664317855740755],"type":"Point"},"id":"stl-city-public-streetlights:2:154716","properties":{"address":null,"attributes":{"Date_Installed":null,"LED_Powered":0,"LightID":"L047448","Light_Source":"LED","Light_Type":"Cobra","Lighting_Type":"LED-Powered Lamp","Verification_Date":null},"id":"stl-city-public-streetlights:2:154716","sourceLayerId":2,"sourceObjectId":154716,"sourceURL":"https://maps8.stlouis-mo.gov/arcgis/rest/services/STREETS/Streets_Permitting/MapServer/2","title":"Street light L047448"},"type":"Feature"},{"geometry":{"coordinates":[-90.29324687626246,38.66407956441761],"type":"Point"},"id":"stl-city-public-streetlights:2:154717","properties":{"address":null,"attributes":{"Date_Installed":null,"LED_Powered":0,"LightID":"L047449","Light_Source":"LED","Light_Type":"Cobra","Lighting_Type":"LED-Powered Lamp","Verification_Date":null},"id":"stl-city-public-streetlights:2:154717","sourceLayerId":2,"sourceObjectId":154717,"sourceURL":"https://maps8.stlouis-mo.gov/arcgis/rest/services/STREETS/Streets_Permitting/MapServer/2","title":"Street light L047449"},"type":"Feature"},{"geometry":{"coordinates":[-90.29341274472563,38.66383226153363],"type":"Point"},"id":"stl-city-public-streetlights:2:154718","properties":{"address":null,"attributes":{"Date_Installed":null,"LED_Powered":0,"LightID":"L047450","Light_Source":"LED","Light_Type":"Cobra","Lighting_Type":"LED-Powered Lamp","Verification_Date":null},"id":"stl-city-public-streetlights:2:154718","sourceLayerId":2,"sourceObjectId":154718,"sourceURL":"https://maps8.stlouis-mo.gov/arcgis/rest/services/STREETS/Streets_Permitting/MapServer/2","title":"Street light L047450"},"type":"Feature"},{"geometry":{"coordinates":[-90.29365622828284,38.66351290102609],"type":"Point"},"id":"stl-city-public-streetlights:2:154719","properties":{"address":null,"attributes":{"Date_Installed":null,"LED_Powered":0,"LightID":"L047451","Light_Source":"LED","Light_Type":"Cobra","Lighting_Type":"LED-Powered Lamp","Verification_Date":null},"id":"stl-city-public-streetlights:2:154719","sourceLayerId":2,"sourceObjectId":154719,"sourceURL":"https://maps8.stlouis-mo.gov/arcgis/rest/services/STREETS/Streets_Permitting/MapServer/2","title":"Street light L047451"},"type":"Feature"},{"geometry":{"coordinates":[-90.29386167417543,38.663230515606976],"type":"Point"},"id":"stl-city-public-streetlights:2:154720","properties":{"address":null,"attributes":{"Date_Installed":null,"LED_Powered":0,"LightID":"L047452","Light_Source":"LED","Light_Type":"Cobra","Lighting_Type":"LED-Powered Lamp","Verification_Date":null},"id":"stl-city-public-streetlights:2:154720","sourceLayerId":2,"sourceObjectId":154720,"sourceURL":"https://maps8.stlouis-mo.gov/arcgis/rest/services/STREETS/Streets_Permitting/MapServer/2","title":"Street light L047452"},"type":"Feature"},{"geometry":{"coordinates":[-90.29401772144118,38.66287003869016],"type":"Point"},"id":"stl-city-public-streetlights:2:154721","properties":{"address":null,"attributes":{"Date_Installed":null,"LED_Powered":0,"LightID":"L047453","Light_Source":"LED","Light_Type":"Cobra","Lighting_Type":"LED-Powered Lamp","Verification_Date":null},"id":"stl-city-public-streetlights:2:154721","sourceLayerId":2,"sourceObjectId":154721,"sourceURL":"https://maps8.stlouis-mo.gov/arcgis/rest/services/STREETS/Streets_Permitting/MapServer/2","title":"Street light L047453"},"type":"Feature"},{"geometry":{"coordinates":[-90.29407491102198,38.66250682903125],"type":"Point"},"id":"stl-city-public-streetlights:2:154722","properties":{"address":null,"attributes":{"Date_Installed":null,"LED_Powered":0,"LightID":"L047454","Light_Source":"LED","Light_Type":"Cobra","Lighting_Type":"LED-Powered Lamp","Verification_Date":null},"id":"stl-city-public-streetlights:2:154722","sourceLayerId":2,"sourceObjectId":154722,"sourceURL":"https://maps8.stlouis-mo.gov/arcgis/rest/services/STREETS/Streets_Permitting/MapServer/2","title":"Street light L047454"},"type":"Feature"},{"geometry":{"coordinates":[-90.29412858044923,38.66216373442461],"type":"Point"},"id":"stl-city-public-streetlights:2:154723","properties":{"address":null,"attributes":{"Date_Installed":null,"LED_Powered":0,"LightID":"L047455","Light_Source":"LED","Light_Type":"Cobra","Lighting_Type":"LED-Powered Lamp","Verification_Date":null},"id":"stl-city-public-streetlights:2:154723","sourceLayerId":2,"sourceObjectId":154723,"sourceURL":"https://maps8.stlouis-mo.gov/arcgis/rest/services/STREETS/Streets_Permitting/MapServer/2","title":"Street light L047455"},"type":"Feature"},{"geometry":{"coordinates":[-90.29417813678282,38.661844419542525],"type":"Point"},"id":"stl-city-public-streetlights:2:154724","properties":{"address":null,"attributes":{"Date_Installed":null,"LED_Powered":0,"LightID":"L047456","Light_Source":"LED","Light_Type":"Cobra","Lighting_Type":"LED-Powered Lamp","Verification_Date":null},"id":"stl-city-public-streetlights:2:154724","sourceLayerId":2,"sourceObjectId":154724,"sourceURL":"https://maps8.stlouis-mo.gov/arcgis/rest/services/STREETS/Streets_Permitting/MapServer/2","title":"Street light L047456"},"type":"Feature"},{"geometry":{"coordinates":[-90.29084499472184,38.66475791007633],"type":"Point"},"id":"stl-city-public-streetlights:2:154725","properties":{"address":null,"attributes":{"Date_Installed":null,"LED_Powered":0,"LightID":"L047457","Light_Source":"LED","Light_Type":"Cobra","Lighting_Type":"LED-Powered Lamp","Verification_Date":null},"id":"stl-city-public-streetlights:2:154725","sourceLayerId":2,"sourceObjectId":154725,"sourceURL":"https://maps8.stlouis-mo.gov/arcgis/rest/services/STREETS/Streets_Permitting/MapServer/2","title":"Street light L047457"},"type":"Feature"},{"geometry":{"coordinates":[-90.29108634233295,38.6644229451151],"type":"Point"},"id":"stl-city-public-streetlights:2:154726","properties":{"address":null,"attributes":{"Date_Installed":null,"LED_Powered":0,"LightID":"L047458","Light_Source":"LED","Light_Type":"Cobra","Lighting_Type":"LED-Powered Lamp","Verification_Date":null},"id":"stl-city-public-streetlights:2:154726","sourceLayerId":2,"sourceObjectId":154726,"sourceURL":"https://maps8.stlouis-mo.gov/arcgis/rest/services/STREETS/Streets_Permitting/MapServer/2","title":"Street light L047458"},"type":"Feature"},{"geometry":{"coordinates":[-90.29121362414402,38.66406034050399],"type":"Point"},"id":"stl-city-public-streetlights:2:154727","properties":{"address":null,"attributes":{"Date_Installed":null,"LED_Powered":0,"LightID":"L047459","Light_Source":"LED","Light_Type":"Cobra","Lighting_Type":"LED-Powered Lamp","Verification_Date":null},"id":"stl-city-public-streetlights:2:154727","sourceLayerId":2,"sourceObjectId":154727,"sourceURL":"https://maps8.stlouis-mo.gov/arcgis/rest/services/STREETS/Streets_Permitting/MapServer/2","title":"Street light L047459"},"type":"Feature"},{"geometry":{"coordinates":[-90.29127116149664,38.663677541354325],"type":"Point"},"id":"stl-city-public-streetlights:2:154728","properties":{"address":null,"attributes":{"Date_Installed":null,"LED_Powered":0,"LightID":"L047460","Light_Source":"LED","Light_Type":"Cobra","Lighting_Type":"LED-Powered Lamp","Verification_Date":null},"id":"stl-city-public-streetlights:2:154728","sourceLayerId":2,"sourceObjectId":154728,"sourceURL":"https://maps8.stlouis-mo.gov/arcgis/rest/services/STREETS/Streets_Permitting/MapServer/2","title":"Street light L047460"},"type":"Feature"},{"geometry":{"coordinates":[-90.29323682034384,38.66138130825804],"type":"Point"},"id":"stl-city-public-streetlights:2:154729","properties":{"address":null,"attributes":{"Date_Installed":null,"LED_Powered":0,"LightID":"L047461","Light_Source":"LED","Light_Type":"Cobra","Lighting_Type":"LED-Powered Lamp","Verification_Date":null},"id":"stl-city-public-streetlights:2:154729","sourceLayerId":2,"sourceObjectId":154729,"sourceURL":"https://maps8.stlouis-mo.gov/arcgis/rest/services/STREETS/Streets_Permitting/MapServer/2","title":"Street light L047461"},"type":"Feature"},{"geometry":{"coordinates":[-90.2933036566128,38.660973973394356],"type":"Point"},"id":"stl-city-public-streetlights:2:154730","properties":{"address":null,"attributes":{"Date_Installed":null,"LED_Powered":0,"LightID":"L047462","Light_Source":"LED","Light_Type":"Cobra","Lighting_Type":"LED-Powered Lamp","Verification_Date":null},"id":"stl-city-public-streetlights:2:154730","sourceLayerId":2,"sourceObjectId":154730,"sourceURL":"https://maps8.stlouis-mo.gov/arcgis/rest/services/STREETS/Streets_Permitting/MapServer/2","title":"Street light L047462"},"type":"Feature"},{"geometry":{"coordinates":[-90.29336399651307,38.66058436094191],"type":"Point"},"id":"stl-city-public-streetlights:2:154731","properties":{"address":null,"attributes":{"Date_Installed":null,"LED_Powered":0,"LightID":"L047463","Light_Source":"LED","Light_Type":"Cobra","Lighting_Type":"LED-Powered Lamp","Verification_Date":null},"id":"stl-city-public-streetlights:2:154731","sourceLayerId":2,"sourceObjectId":154731,"sourceURL":"https://maps8.stlouis-mo.gov/arcgis/rest/services/STREETS/Streets_Permitting/MapServer/2","title":"Street light L047463"},"type":"Feature"},{"geometry":{"coordinates":[-90.29209796921839,38.66129782430731],"type":"Point"},"id":"stl-city-public-streetlights:2:154732","properties":{"address":null,"attributes":{"Date_Installed":null,"LED_Powered":0,"LightID":"L047464","Light_Source":"LED","Light_Type":"Cobra","Lighting_Type":"LED-Powered Lamp","Verification_Date":null},"id":"stl-city-public-streetlights:2:154732","sourceLayerId":2,"sourceObjectId":154732,"sourceURL":"https://maps8.stlouis-mo.gov/arcgis/rest/services/STREETS/Streets_Permitting/MapServer/2","title":"Street light L047464"},"type":"Feature"},{"geometry":{"coordinates":[-90.29216392261611,38.66088290846631],"type":"Point"},"id":"stl-city-public-streetlights:2:154733","properties":{"address":null,"attributes":{"Date_Installed":null,"LED_Powered":0,"LightID":"L047465","Light_Source":"LED","Light_Type":"Cobra","Lighting_Type":"LED-Powered Lamp","Verification_Date":null},"id":"stl-city-public-streetlights:2:154733","sourceLayerId":2,"sourceObjectId":154733,"sourceURL":"https://maps8.stlouis-mo.gov/arcgis/rest/services/STREETS/Streets_Permitting/MapServer/2","title":"Street light L047465"},"type":"Feature"},{"geometry":{"coordinates":[-90.29223105465994,38.66048012779319],"type":"Point"},"id":"stl-city-public-streetlights:2:154734","properties":{"address":null,"attributes":{"Date_Installed":null,"LED_Powered":0,"LightID":"L047466","Light_Source":"LED","Light_Type":"Cobra","Lighting_Type":"LED-Powered Lamp","Verification_Date":null},"id":"stl-city-public-streetlights:2:154734","sourceLayerId":2,"sourceObjectId":154734,"sourceURL":"https://maps8.stlouis-mo.gov/arcgis/rest/services/STREETS/Streets_Permitting/MapServer/2","title":"Street light L047466"},"type":"Feature"},{"geometry":{"coordinates":[-90.29074377123507,38.66106770421696],"type":"Point"},"id":"stl-city-public-streetlights:2:154735","properties":{"address":null,"attributes":{"Date_Installed":null,"LED_Powered":0,"LightID":"L047467","Light_Source":"LED","Light_Type":"Cobra","Lighting_Type":"LED-Powered Lamp","Verification_Date":null},"id":"stl-city-public-streetlights:2:154735","sourceLayerId":2,"sourceObjectId":154735,"sourceURL":"https://maps8.stlouis-mo.gov/arcgis/rest/services/STREETS/Streets_Permitting/MapServer/2","title":"Street light L047467"},"type":"Feature"},{"geometry":{"coordinates":[-90.2908069108917,38.66068181607151],"type":"Point"},"id":"stl-city-public-streetlights:2:154736","properties":{"address":null,"attributes":{"Date_Installed":null,"LED_Powered":0,"LightID":"L047468","Light_Source":"LED","Light_Type":"Cobra","Lighting_Type":"LED-Powered Lamp","Verification_Date":null},"id":"stl-city-public-streetlights:2:154736","sourceLayerId":2,"sourceObjectId":154736,"sourceURL":"https://maps8.stlouis-mo.gov/arcgis/rest/services/STREETS/Streets_Permitting/MapServer/2","title":"Street light L047468"},"type":"Feature"},{"geometry":{"coordinates":[-90.29087090412793,38.66031588132932],"type":"Point"},"id":"stl-city-public-streetlights:2:154737","properties":{"address":null,"attributes":{"Date_Installed":null,"LED_Powered":0,"LightID":"L047469","Light_Source":"LED","Light_Type":"Cobra","Lighting_Type":"LED-Powered Lamp","Verification_Date":null},"id":"stl-city-public-streetlights:2:154737","sourceLayerId":2,"sourceObjectId":154737,"sourceURL":"https://maps8.stlouis-mo.gov/arcgis/rest/services/STREETS/Streets_Permitting/MapServer/2","title":"Street light L047469"},"type":"Feature"},{"geometry":{"coordinates":[-90.29108749508707,38.66345987557633],"type":"Point"},"id":"stl-city-public-streetlights:2:154749","properties":{"address":null,"attributes":{"Date_Installed":null,"LED_Powered":0,"LightID":"L047481","Light_Source":"LED","Light_Type":"Cobra","Lighting_Type":"LED-Powered Lamp","Verification_Date":null},"id":"stl-city-public-streetlights:2:154749","sourceLayerId":2,"sourceObjectId":154749,"sourceURL":"https://maps8.stlouis-mo.gov/arcgis/rest/services/STREETS/Streets_Permitting/MapServer/2","title":"Street light L047481"},"type":"Feature"},{"geometry":{"coordinates":[-90.2906108440575,38.66341425106023],"type":"Point"},"id":"stl-city-public-streetlights:2:154750","properties":{"address":null,"attributes":{"Date_Installed":null,"LED_Powered":0,"LightID":"L047482","Light_Source":"LED","Light_Type":"Cobra","Lighting_Type":"LED-Powered Lamp","Verification_Date":null},"id":"stl-city-public-streetlights:2:154750","sourceLayerId":2,"sourceObjectId":154750,"sourceURL":"https://maps8.stlouis-mo.gov/arcgis/rest/services/STREETS/Streets_Permitting/MapServer/2","title":"Street light L047482"},"type":"Feature"},{"geometry":{"coordinates":[-90.29015191753011,38.6633674257907],"type":"Point"},"id":"stl-city-public-streetlights:2:154751","properties":{"address":null,"attributes":{"Date_Installed":null,"LED_Powered":0,"LightID":"L047483","Light_Source":"LED","Light_Type":"Cobra","Lighting_Type":"LED-Powered Lamp","Verification_Date":null},"id":"stl-city-public-streetlights:2:154751","sourceLayerId":2,"sourceObjectId":154751,"sourceURL":"https://maps8.stlouis-mo.gov/arcgis/rest/services/STREETS/Streets_Permitting/MapServer/2","title":"Street light L047483"},"type":"Feature"}],"layerId":"city-streetlights","retrievedAt":"2026-09-13T21:56:18.173251+00:00","schema":"property-infrastructure-geojson-v1","sourceId":"stl-city-public-streetlights","tileId":"-9030_3866","type":"FeatureCollection"}