{"features":[{"geometry":{"coordinates":[-90.3009280213393,38.65574147856154],"type":"Point"},"id":"stl-city-public-streetlights:2:136296","properties":{"address":null,"attributes":{"Date_Installed":null,"LED_Powered":0,"LightID":"L029012","Light_Source":"LED","Light_Type":"Cobra","Lighting_Type":"400-W High Pressure Sodium Vapor Lamp","Verification_Date":null},"id":"stl-city-public-streetlights:2:136296","sourceLayerId":2,"sourceObjectId":136296,"sourceURL":"https://maps8.stlouis-mo.gov/arcgis/rest/services/STREETS/Streets_Permitting/MapServer/2","title":"Street light L029012"},"type":"Feature"},{"geometry":{"coordinates":[-90.30086680532273,38.65611235803542],"type":"Point"},"id":"stl-city-public-streetlights:2:136297","properties":{"address":null,"attributes":{"Date_Installed":null,"LED_Powered":0,"LightID":"L029013","Light_Source":"LED","Light_Type":"Cobra","Lighting_Type":"400-W High Pressure Sodium Vapor Lamp","Verification_Date":null},"id":"stl-city-public-streetlights:2:136297","sourceLayerId":2,"sourceObjectId":136297,"sourceURL":"https://maps8.stlouis-mo.gov/arcgis/rest/services/STREETS/Streets_Permitting/MapServer/2","title":"Street light L029013"},"type":"Feature"},{"geometry":{"coordinates":[-90.3007789803611,38.6564319451594],"type":"Point"},"id":"stl-city-public-streetlights:2:136298","properties":{"address":null,"attributes":{"Date_Installed":null,"LED_Powered":0,"LightID":"L029014","Light_Source":"High Pressure Sodium","Light_Type":"Cobra","Lighting_Type":"400-W High Pressure Sodium Vapor Lamp","Verification_Date":null},"id":"stl-city-public-streetlights:2:136298","sourceLayerId":2,"sourceObjectId":136298,"sourceURL":"https://maps8.stlouis-mo.gov/arcgis/rest/services/STREETS/Streets_Permitting/MapServer/2","title":"Street light L029014"},"type":"Feature"},{"geometry":{"coordinates":[-90.3002328952061,38.655588914712936],"type":"Point"},"id":"stl-city-public-streetlights:2:136313","properties":{"address":null,"attributes":{"Date_Installed":null,"LED_Powered":0,"LightID":"L029029","Light_Source":"LED","Light_Type":"Cobra","Lighting_Type":"400-W High Pressure Sodium Vapor Lamp","Verification_Date":null},"id":"stl-city-public-streetlights:2:136313","sourceLayerId":2,"sourceObjectId":136313,"sourceURL":"https://maps8.stlouis-mo.gov/arcgis/rest/services/STREETS/Streets_Permitting/MapServer/2","title":"Street light L029029"},"type":"Feature"},{"geometry":{"coordinates":[-90.30021250027727,38.65558542407777],"type":"Point"},"id":"stl-city-public-streetlights:2:136314","properties":{"address":null,"attributes":{"Date_Installed":null,"LED_Powered":0,"LightID":"L029030","Light_Source":"LED","Light_Type":"Cobra","Lighting_Type":"400-W High Pressure Sodium Vapor Lamp","Verification_Date":null},"id":"stl-city-public-streetlights:2:136314","sourceLayerId":2,"sourceObjectId":136314,"sourceURL":"https://maps8.stlouis-mo.gov/arcgis/rest/services/STREETS/Streets_Permitting/MapServer/2","title":"Street light L029030"},"type":"Feature"},{"geometry":{"coordinates":[-90.30133594123784,38.65569613398419],"type":"Point"},"id":"stl-city-public-streetlights:2:136315","properties":{"address":null,"attributes":{"Date_Installed":null,"LED_Powered":0,"LightID":"L029031","Light_Source":"LED","Light_Type":"Cobra","Lighting_Type":"400-W High Pressure Sodium Vapor Lamp","Verification_Date":null},"id":"stl-city-public-streetlights:2:136315","sourceLayerId":2,"sourceObjectId":136315,"sourceURL":"https://maps8.stlouis-mo.gov/arcgis/rest/services/STREETS/Streets_Permitting/MapServer/2","title":"Street light L029031"},"type":"Feature"},{"geometry":{"coordinates":[-90.30170386068073,38.65572394792625],"type":"Point"},"id":"stl-city-public-streetlights:2:136316","properties":{"address":null,"attributes":{"Date_Installed":null,"LED_Powered":0,"LightID":"L029032","Light_Source":"LED","Light_Type":"Cobra","Lighting_Type":"400-W High Pressure Sodium Vapor Lamp","Verification_Date":null},"id":"stl-city-public-streetlights:2:136316","sourceLayerId":2,"sourceObjectId":136316,"sourceURL":"https://maps8.stlouis-mo.gov/arcgis/rest/services/STREETS/Streets_Permitting/MapServer/2","title":"Street light L029032"},"type":"Feature"},{"geometry":{"coordinates":[-90.3014817353384,38.65554433780249],"type":"Point"},"id":"stl-city-public-streetlights:2:142197","properties":{"address":null,"attributes":{"Date_Installed":null,"LED_Powered":0,"LightID":"L035051","Light_Source":"LED","Light_Type":"Cobra","Lighting_Type":"400-W High Pressure Sodium Vapor Lamp","Verification_Date":null},"id":"stl-city-public-streetlights:2:142197","sourceLayerId":2,"sourceObjectId":142197,"sourceURL":"https://maps8.stlouis-mo.gov/arcgis/rest/services/STREETS/Streets_Permitting/MapServer/2","title":"Street light L035051"},"type":"Feature"},{"geometry":{"coordinates":[-90.30100973448313,38.65549429873665],"type":"Point"},"id":"stl-city-public-streetlights:2:142198","properties":{"address":null,"attributes":{"Date_Installed":null,"LED_Powered":0,"LightID":"L035052","Light_Source":"LED","Light_Type":"Cobra","Lighting_Type":"400-W High Pressure Sodium Vapor Lamp","Verification_Date":null},"id":"stl-city-public-streetlights:2:142198","sourceLayerId":2,"sourceObjectId":142198,"sourceURL":"https://maps8.stlouis-mo.gov/arcgis/rest/services/STREETS/Streets_Permitting/MapServer/2","title":"Street light L035052"},"type":"Feature"},{"geometry":{"coordinates":[-90.30021164176092,38.65541553053538],"type":"Point"},"id":"stl-city-public-streetlights:2:142199","properties":{"address":null,"attributes":{"Date_Installed":null,"LED_Powered":0,"LightID":"L035053","Light_Source":"LED","Light_Type":"Cobra","Lighting_Type":"400-W High Pressure Sodium Vapor Lamp","Verification_Date":null},"id":"stl-city-public-streetlights:2:142199","sourceLayerId":2,"sourceObjectId":142199,"sourceURL":"https://maps8.stlouis-mo.gov/arcgis/rest/services/STREETS/Streets_Permitting/MapServer/2","title":"Street light L035053"},"type":"Feature"},{"geometry":{"coordinates":[-90.30047028319518,38.65004588956309],"type":"Point"},"id":"stl-city-public-streetlights:2:148927","properties":{"address":null,"attributes":{"Date_Installed":null,"LED_Powered":0,"LightID":"L041783","Light_Source":"High Pressure Sodium","Light_Type":"Decorative","Lighting_Type":"Sterner/ELA (singlearm) (Historic Light Fixture)","Verification_Date":null},"id":"stl-city-public-streetlights:2:148927","sourceLayerId":2,"sourceObjectId":148927,"sourceURL":"https://maps8.stlouis-mo.gov/arcgis/rest/services/STREETS/Streets_Permitting/MapServer/2","title":"Street light L041783"},"type":"Feature"},{"geometry":{"coordinates":[-90.30045910386886,38.65013167921262],"type":"Point"},"id":"stl-city-public-streetlights:2:148928","properties":{"address":null,"attributes":{"Date_Installed":null,"LED_Powered":0,"LightID":"L041784","Light_Source":"High Pressure Sodium","Light_Type":"Decorative","Lighting_Type":"Sterner/ELA (singlearm) (Historic Light Fixture)","Verification_Date":null},"id":"stl-city-public-streetlights:2:148928","sourceLayerId":2,"sourceObjectId":148928,"sourceURL":"https://maps8.stlouis-mo.gov/arcgis/rest/services/STREETS/Streets_Permitting/MapServer/2","title":"Street light L041784"},"type":"Feature"},{"geometry":{"coordinates":[-90.30043683293172,38.65027036722044],"type":"Point"},"id":"stl-city-public-streetlights:2:148929","properties":{"address":null,"attributes":{"Date_Installed":null,"LED_Powered":0,"LightID":"L041785","Light_Source":"High Pressure Sodium","Light_Type":"Decorative","Lighting_Type":"Sterner/ELA (singlearm) (Historic Light Fixture)","Verification_Date":null},"id":"stl-city-public-streetlights:2:148929","sourceLayerId":2,"sourceObjectId":148929,"sourceURL":"https://maps8.stlouis-mo.gov/arcgis/rest/services/STREETS/Streets_Permitting/MapServer/2","title":"Street light L041785"},"type":"Feature"},{"geometry":{"coordinates":[-90.30040926960483,38.65034516600091],"type":"Point"},"id":"stl-city-public-streetlights:2:148930","properties":{"address":null,"attributes":{"Date_Installed":null,"LED_Powered":0,"LightID":"L041786","Light_Source":"High Pressure Sodium","Light_Type":"Decorative","Lighting_Type":"Sterner/ELA (singlearm) (Historic Light Fixture)","Verification_Date":null},"id":"stl-city-public-streetlights:2:148930","sourceLayerId":2,"sourceObjectId":148930,"sourceURL":"https://maps8.stlouis-mo.gov/arcgis/rest/services/STREETS/Streets_Permitting/MapServer/2","title":"Street light L041786"},"type":"Feature"},{"geometry":{"coordinates":[-90.30038858303793,38.650460974134035],"type":"Point"},"id":"stl-city-public-streetlights:2:148931","properties":{"address":null,"attributes":{"Date_Installed":null,"LED_Powered":0,"LightID":"L041787","Light_Source":"High Pressure Sodium","Light_Type":"Decorative","Lighting_Type":"Sterner/ELA (singlearm) (Historic Light Fixture)","Verification_Date":null},"id":"stl-city-public-streetlights:2:148931","sourceLayerId":2,"sourceObjectId":148931,"sourceURL":"https://maps8.stlouis-mo.gov/arcgis/rest/services/STREETS/Streets_Permitting/MapServer/2","title":"Street light L041787"},"type":"Feature"},{"geometry":{"coordinates":[-90.30036911186396,38.650576782533435],"type":"Point"},"id":"stl-city-public-streetlights:2:148932","properties":{"address":null,"attributes":{"Date_Installed":null,"LED_Powered":0,"LightID":"L041788","Light_Source":"High Pressure Sodium","Light_Type":"Decorative","Lighting_Type":"Sterner/ELA (singlearm) (Historic Light Fixture)","Verification_Date":null},"id":"stl-city-public-streetlights:2:148932","sourceLayerId":2,"sourceObjectId":148932,"sourceURL":"https://maps8.stlouis-mo.gov/arcgis/rest/services/STREETS/Streets_Permitting/MapServer/2","title":"Street light L041788"},"type":"Feature"},{"geometry":{"coordinates":[-90.30037374398626,38.650659979364654],"type":"Point"},"id":"stl-city-public-streetlights:2:148933","properties":{"address":null,"attributes":{"Date_Installed":null,"LED_Powered":0,"LightID":"L041789","Light_Source":"High Pressure Sodium","Light_Type":"Decorative","Lighting_Type":"Sterner/ELA (singlearm) (Historic Light Fixture)","Verification_Date":null},"id":"stl-city-public-streetlights:2:148933","sourceLayerId":2,"sourceObjectId":148933,"sourceURL":"https://maps8.stlouis-mo.gov/arcgis/rest/services/STREETS/Streets_Permitting/MapServer/2","title":"Street light L041789"},"type":"Feature"},{"geometry":{"coordinates":[-90.30034550951466,38.65075713432406],"type":"Point"},"id":"stl-city-public-streetlights:2:148934","properties":{"address":null,"attributes":{"Date_Installed":null,"LED_Powered":0,"LightID":"L041790","Light_Source":"High Pressure Sodium","Light_Type":"Decorative","Lighting_Type":"Sterner/ELA (singlearm) (Historic Light Fixture)","Verification_Date":null},"id":"stl-city-public-streetlights:2:148934","sourceLayerId":2,"sourceObjectId":148934,"sourceURL":"https://maps8.stlouis-mo.gov/arcgis/rest/services/STREETS/Streets_Permitting/MapServer/2","title":"Street light L041790"},"type":"Feature"},{"geometry":{"coordinates":[-90.30029789419196,38.650992492989566],"type":"Point"},"id":"stl-city-public-streetlights:2:148935","properties":{"address":null,"attributes":{"Date_Installed":null,"LED_Powered":0,"LightID":"L041791","Light_Source":"High Pressure Sodium","Light_Type":"Decorative","Lighting_Type":"Sterner/ELA (singlearm) (Historic Light Fixture)","Verification_Date":null},"id":"stl-city-public-streetlights:2:148935","sourceLayerId":2,"sourceObjectId":148935,"sourceURL":"https://maps8.stlouis-mo.gov/arcgis/rest/services/STREETS/Streets_Permitting/MapServer/2","title":"Street light L041791"},"type":"Feature"},{"geometry":{"coordinates":[-90.30028502073377,38.65114049325511],"type":"Point"},"id":"stl-city-public-streetlights:2:148936","properties":{"address":null,"attributes":{"Date_Installed":null,"LED_Powered":0,"LightID":"L041792","Light_Source":"High Pressure Sodium","Light_Type":"Decorative","Lighting_Type":"Sterner/ELA (singlearm) (Historic Light Fixture)","Verification_Date":null},"id":"stl-city-public-streetlights:2:148936","sourceLayerId":2,"sourceObjectId":148936,"sourceURL":"https://maps8.stlouis-mo.gov/arcgis/rest/services/STREETS/Streets_Permitting/MapServer/2","title":"Street light L041792"},"type":"Feature"},{"geometry":{"coordinates":[-90.30027353078363,38.65122795258689],"type":"Point"},"id":"stl-city-public-streetlights:2:148937","properties":{"address":null,"attributes":{"Date_Installed":null,"LED_Powered":0,"LightID":"L041793","Light_Source":"High Pressure Sodium","Light_Type":"Decorative","Lighting_Type":"Sterner/ELA (singlearm) (Historic Light Fixture)","Verification_Date":null},"id":"stl-city-public-streetlights:2:148937","sourceLayerId":2,"sourceObjectId":148937,"sourceURL":"https://maps8.stlouis-mo.gov/arcgis/rest/services/STREETS/Streets_Permitting/MapServer/2","title":"Street light L041793"},"type":"Feature"},{"geometry":{"coordinates":[-90.30025225270751,38.65133815794532],"type":"Point"},"id":"stl-city-public-streetlights:2:148938","properties":{"address":null,"attributes":{"Date_Installed":null,"LED_Powered":0,"LightID":"L041794","Light_Source":"High Pressure Sodium","Light_Type":"Decorative","Lighting_Type":"Sterner/ELA (singlearm) (Historic Light Fixture)","Verification_Date":null},"id":"stl-city-public-streetlights:2:148938","sourceLayerId":2,"sourceObjectId":148938,"sourceURL":"https://maps8.stlouis-mo.gov/arcgis/rest/services/STREETS/Streets_Permitting/MapServer/2","title":"Street light L041794"},"type":"Feature"},{"geometry":{"coordinates":[-90.30024000348064,38.65142513850355],"type":"Point"},"id":"stl-city-public-streetlights:2:148939","properties":{"address":null,"attributes":{"Date_Installed":null,"LED_Powered":0,"LightID":"L041795","Light_Source":"High Pressure Sodium","Light_Type":"Decorative","Lighting_Type":"Sterner/ELA (singlearm) (Historic Light Fixture)","Verification_Date":null},"id":"stl-city-public-streetlights:2:148939","sourceLayerId":2,"sourceObjectId":148939,"sourceURL":"https://maps8.stlouis-mo.gov/arcgis/rest/services/STREETS/Streets_Permitting/MapServer/2","title":"Street light L041795"},"type":"Feature"},{"geometry":{"coordinates":[-90.30022916666833,38.65149662709565],"type":"Point"},"id":"stl-city-public-streetlights:2:148940","properties":{"address":null,"attributes":{"Date_Installed":null,"LED_Powered":0,"LightID":"L041796","Light_Source":"High Pressure Sodium","Light_Type":"Decorative","Lighting_Type":"Sterner/ELA (singlearm) (Historic Light Fixture)","Verification_Date":null},"id":"stl-city-public-streetlights:2:148940","sourceLayerId":2,"sourceObjectId":148940,"sourceURL":"https://maps8.stlouis-mo.gov/arcgis/rest/services/STREETS/Streets_Permitting/MapServer/2","title":"Street light L041796"},"type":"Feature"},{"geometry":{"coordinates":[-90.3002167569548,38.65158718390094],"type":"Point"},"id":"stl-city-public-streetlights:2:148941","properties":{"address":null,"attributes":{"Date_Installed":null,"LED_Powered":0,"LightID":"L041797","Light_Source":"High Pressure Sodium","Light_Type":"Decorative","Lighting_Type":"Sterner/ELA (singlearm) (Historic Light Fixture)","Verification_Date":null},"id":"stl-city-public-streetlights:2:148941","sourceLayerId":2,"sourceObjectId":148941,"sourceURL":"https://maps8.stlouis-mo.gov/arcgis/rest/services/STREETS/Streets_Permitting/MapServer/2","title":"Street light L041797"},"type":"Feature"},{"geometry":{"coordinates":[-90.30020587260069,38.65167535865775],"type":"Point"},"id":"stl-city-public-streetlights:2:148942","properties":{"address":null,"attributes":{"Date_Installed":null,"LED_Powered":0,"LightID":"L041798","Light_Source":"High Pressure Sodium","Light_Type":"Decorative","Lighting_Type":"Sterner/ELA (singlearm) (Historic Light Fixture)","Verification_Date":null},"id":"stl-city-public-streetlights:2:148942","sourceLayerId":2,"sourceObjectId":148942,"sourceURL":"https://maps8.stlouis-mo.gov/arcgis/rest/services/STREETS/Streets_Permitting/MapServer/2","title":"Street light L041798"},"type":"Feature"},{"geometry":{"coordinates":[-90.3001621027644,38.651894098808555],"type":"Point"},"id":"stl-city-public-streetlights:2:148943","properties":{"address":null,"attributes":{"Date_Installed":null,"LED_Powered":0,"LightID":"L041799","Light_Source":"High Pressure Sodium","Light_Type":"Decorative","Lighting_Type":"Sterner/ELA (singlearm) (Historic Light Fixture)","Verification_Date":null},"id":"stl-city-public-streetlights:2:148943","sourceLayerId":2,"sourceObjectId":148943,"sourceURL":"https://maps8.stlouis-mo.gov/arcgis/rest/services/STREETS/Streets_Permitting/MapServer/2","title":"Street light L041799"},"type":"Feature"},{"geometry":{"coordinates":[-90.30014759057977,38.651975115207286],"type":"Point"},"id":"stl-city-public-streetlights:2:148944","properties":{"address":null,"attributes":{"Date_Installed":null,"LED_Powered":0,"LightID":"L041800","Light_Source":"High Pressure Sodium","Light_Type":"Decorative","Lighting_Type":"Sterner/ELA (singlearm) (Historic Light Fixture)","Verification_Date":null},"id":"stl-city-public-streetlights:2:148944","sourceLayerId":2,"sourceObjectId":148944,"sourceURL":"https://maps8.stlouis-mo.gov/arcgis/rest/services/STREETS/Streets_Permitting/MapServer/2","title":"Street light L041800"},"type":"Feature"},{"geometry":{"coordinates":[-90.30012901571878,38.652095933103965],"type":"Point"},"id":"stl-city-public-streetlights:2:148945","properties":{"address":null,"attributes":{"Date_Installed":null,"LED_Powered":0,"LightID":"L041801","Light_Source":"High Pressure Sodium","Light_Type":"Decorative","Lighting_Type":"Sterner/ELA (singlearm) (Historic Light Fixture)","Verification_Date":null},"id":"stl-city-public-streetlights:2:148945","sourceLayerId":2,"sourceObjectId":148945,"sourceURL":"https://maps8.stlouis-mo.gov/arcgis/rest/services/STREETS/Streets_Permitting/MapServer/2","title":"Street light L041801"},"type":"Feature"},{"geometry":{"coordinates":[-90.30010679037247,38.65221817446679],"type":"Point"},"id":"stl-city-public-streetlights:2:148946","properties":{"address":null,"attributes":{"Date_Installed":null,"LED_Powered":0,"LightID":"L041802","Light_Source":"High Pressure Sodium","Light_Type":"Decorative","Lighting_Type":"Sterner/ELA (singlearm) (Historic Light Fixture)","Verification_Date":null},"id":"stl-city-public-streetlights:2:148946","sourceLayerId":2,"sourceObjectId":148946,"sourceURL":"https://maps8.stlouis-mo.gov/arcgis/rest/services/STREETS/Streets_Permitting/MapServer/2","title":"Street light L041802"},"type":"Feature"},{"geometry":{"coordinates":[-90.30009159411512,38.6523274361285],"type":"Point"},"id":"stl-city-public-streetlights:2:148947","properties":{"address":null,"attributes":{"Date_Installed":null,"LED_Powered":0,"LightID":"L041803","Light_Source":"High Pressure Sodium","Light_Type":"Decorative","Lighting_Type":"Sterner/ELA (singlearm) (Historic Light Fixture)","Verification_Date":null},"id":"stl-city-public-streetlights:2:148947","sourceLayerId":2,"sourceObjectId":148947,"sourceURL":"https://maps8.stlouis-mo.gov/arcgis/rest/services/STREETS/Streets_Permitting/MapServer/2","title":"Street light L041803"},"type":"Feature"},{"geometry":{"coordinates":[-90.30006816524458,38.6524449088238],"type":"Point"},"id":"stl-city-public-streetlights:2:148948","properties":{"address":null,"attributes":{"Date_Installed":null,"LED_Powered":0,"LightID":"L041804","Light_Source":"High Pressure Sodium","Light_Type":"Decorative","Lighting_Type":"Sterner/ELA (singlearm) (Historic Light Fixture)","Verification_Date":null},"id":"stl-city-public-streetlights:2:148948","sourceLayerId":2,"sourceObjectId":148948,"sourceURL":"https://maps8.stlouis-mo.gov/arcgis/rest/services/STREETS/Streets_Permitting/MapServer/2","title":"Street light L041804"},"type":"Feature"},{"geometry":{"coordinates":[-90.30005114036591,38.65255524030827],"type":"Point"},"id":"stl-city-public-streetlights:2:148949","properties":{"address":null,"attributes":{"Date_Installed":null,"LED_Powered":0,"LightID":"L041805","Light_Source":"High Pressure Sodium","Light_Type":"Decorative","Lighting_Type":"Sterner/ELA (singlearm) (Historic Light Fixture)","Verification_Date":null},"id":"stl-city-public-streetlights:2:148949","sourceLayerId":2,"sourceObjectId":148949,"sourceURL":"https://maps8.stlouis-mo.gov/arcgis/rest/services/STREETS/Streets_Permitting/MapServer/2","title":"Street light L041805"},"type":"Feature"},{"geometry":{"coordinates":[-90.30003440018002,38.65267224605288],"type":"Point"},"id":"stl-city-public-streetlights:2:148950","properties":{"address":null,"attributes":{"Date_Installed":null,"LED_Powered":0,"LightID":"L041806","Light_Source":"High Pressure Sodium","Light_Type":"Decorative","Lighting_Type":"Sterner/ELA (singlearm) (Historic Light Fixture)","Verification_Date":null},"id":"stl-city-public-streetlights:2:148950","sourceLayerId":2,"sourceObjectId":148950,"sourceURL":"https://maps8.stlouis-mo.gov/arcgis/rest/services/STREETS/Streets_Permitting/MapServer/2","title":"Street light L041806"},"type":"Feature"},{"geometry":{"coordinates":[-90.30001271132994,38.65281999244065],"type":"Point"},"id":"stl-city-public-streetlights:2:148951","properties":{"address":null,"attributes":{"Date_Installed":null,"LED_Powered":0,"LightID":"L041807","Light_Source":"High Pressure Sodium","Light_Type":"Decorative","Lighting_Type":"Sterner/ELA (singlearm) (Historic Light Fixture)","Verification_Date":null},"id":"stl-city-public-streetlights:2:148951","sourceLayerId":2,"sourceObjectId":148951,"sourceURL":"https://maps8.stlouis-mo.gov/arcgis/rest/services/STREETS/Streets_Permitting/MapServer/2","title":"Street light L041807"},"type":"Feature"},{"geometry":{"coordinates":[-90.30004870117001,38.6555685877007],"type":"Point"},"id":"stl-city-public-streetlights:2:149037","properties":{"address":null,"attributes":{"Date_Installed":null,"LED_Powered":0,"LightID":"L041893","Light_Source":"High Pressure Sodium","Light_Type":"Decorative","Lighting_Type":"Sterner/ELA (singlearm) (Historic Light Fixture)","Verification_Date":null},"id":"stl-city-public-streetlights:2:149037","sourceLayerId":2,"sourceObjectId":149037,"sourceURL":"https://maps8.stlouis-mo.gov/arcgis/rest/services/STREETS/Streets_Permitting/MapServer/2","title":"Street light L041893"},"type":"Feature"},{"geometry":{"coordinates":[-90.3002328952061,38.655588914712936],"type":"Point"},"id":"stl-city-public-streetlights:2:149038","properties":{"address":null,"attributes":{"Date_Installed":null,"LED_Powered":0,"LightID":"L041894","Light_Source":"High Pressure Sodium","Light_Type":"Decorative","Lighting_Type":"Sterner/ELA (singlearm) (Historic Light Fixture)","Verification_Date":null},"id":"stl-city-public-streetlights:2:149038","sourceLayerId":2,"sourceObjectId":149038,"sourceURL":"https://maps8.stlouis-mo.gov/arcgis/rest/services/STREETS/Streets_Permitting/MapServer/2","title":"Street light L041894"},"type":"Feature"},{"geometry":{"coordinates":[-90.30056054942428,38.655616156282186],"type":"Point"},"id":"stl-city-public-streetlights:2:149039","properties":{"address":null,"attributes":{"Date_Installed":null,"LED_Powered":0,"LightID":"L041895","Light_Source":"High Pressure Sodium","Light_Type":"Decorative","Lighting_Type":"Sterner/ELA (singlearm) (Historic Light Fixture)","Verification_Date":null},"id":"stl-city-public-streetlights:2:149039","sourceLayerId":2,"sourceObjectId":149039,"sourceURL":"https://maps8.stlouis-mo.gov/arcgis/rest/services/STREETS/Streets_Permitting/MapServer/2","title":"Street light L041895"},"type":"Feature"},{"geometry":{"coordinates":[-90.30070732690051,38.655632853036465],"type":"Point"},"id":"stl-city-public-streetlights:2:149040","properties":{"address":null,"attributes":{"Date_Installed":null,"LED_Powered":0,"LightID":"L041896","Light_Source":"High Pressure Sodium","Light_Type":"Decorative","Lighting_Type":"Sterner/ELA (singlearm) (Historic Light Fixture)","Verification_Date":null},"id":"stl-city-public-streetlights:2:149040","sourceLayerId":2,"sourceObjectId":149040,"sourceURL":"https://maps8.stlouis-mo.gov/arcgis/rest/services/STREETS/Streets_Permitting/MapServer/2","title":"Street light L041896"},"type":"Feature"},{"geometry":{"coordinates":[-90.30075929406335,38.65563794689059],"type":"Point"},"id":"stl-city-public-streetlights:2:149041","properties":{"address":null,"attributes":{"Date_Installed":null,"LED_Powered":0,"LightID":"L041897","Light_Source":"High Pressure Sodium","Light_Type":"Decorative","Lighting_Type":"Sterner/ELA (singlearm) (Historic Light Fixture)","Verification_Date":null},"id":"stl-city-public-streetlights:2:149041","sourceLayerId":2,"sourceObjectId":149041,"sourceURL":"https://maps8.stlouis-mo.gov/arcgis/rest/services/STREETS/Streets_Permitting/MapServer/2","title":"Street light L041897"},"type":"Feature"},{"geometry":{"coordinates":[-90.30090197367885,38.655652492308676],"type":"Point"},"id":"stl-city-public-streetlights:2:149042","properties":{"address":null,"attributes":{"Date_Installed":null,"LED_Powered":0,"LightID":"L041898","Light_Source":"High Pressure Sodium","Light_Type":"Decorative","Lighting_Type":"Sterner/ELA (singlearm) (Historic Light Fixture)","Verification_Date":null},"id":"stl-city-public-streetlights:2:149042","sourceLayerId":2,"sourceObjectId":149042,"sourceURL":"https://maps8.stlouis-mo.gov/arcgis/rest/services/STREETS/Streets_Permitting/MapServer/2","title":"Street light L041898"},"type":"Feature"},{"geometry":{"coordinates":[-90.30111713886174,38.655672165242564],"type":"Point"},"id":"stl-city-public-streetlights:2:149043","properties":{"address":null,"attributes":{"Date_Installed":null,"LED_Powered":0,"LightID":"L041899","Light_Source":"High Pressure Sodium","Light_Type":"Decorative","Lighting_Type":"Sterner/ELA (singlearm) (Historic Light Fixture)","Verification_Date":null},"id":"stl-city-public-streetlights:2:149043","sourceLayerId":2,"sourceObjectId":149043,"sourceURL":"https://maps8.stlouis-mo.gov/arcgis/rest/services/STREETS/Streets_Permitting/MapServer/2","title":"Street light L041899"},"type":"Feature"},{"geometry":{"coordinates":[-90.30133594123784,38.65569613398419],"type":"Point"},"id":"stl-city-public-streetlights:2:149044","properties":{"address":null,"attributes":{"Date_Installed":null,"LED_Powered":0,"LightID":"L041900","Light_Source":"High Pressure Sodium","Light_Type":"Decorative","Lighting_Type":"Sterner/ELA (singlearm) (Historic Light Fixture)","Verification_Date":null},"id":"stl-city-public-streetlights:2:149044","sourceLayerId":2,"sourceObjectId":149044,"sourceURL":"https://maps8.stlouis-mo.gov/arcgis/rest/services/STREETS/Streets_Permitting/MapServer/2","title":"Street light L041900"},"type":"Feature"},{"geometry":{"coordinates":[-90.30145902965847,38.65570492391303],"type":"Point"},"id":"stl-city-public-streetlights:2:149045","properties":{"address":null,"attributes":{"Date_Installed":null,"LED_Powered":0,"LightID":"L041901","Light_Source":"High Pressure Sodium","Light_Type":"Decorative","Lighting_Type":"Sterner/ELA (singlearm) (Historic Light Fixture)","Verification_Date":null},"id":"stl-city-public-streetlights:2:149045","sourceLayerId":2,"sourceObjectId":149045,"sourceURL":"https://maps8.stlouis-mo.gov/arcgis/rest/services/STREETS/Streets_Permitting/MapServer/2","title":"Street light L041901"},"type":"Feature"},{"geometry":{"coordinates":[-90.30170727409711,38.655733949059574],"type":"Point"},"id":"stl-city-public-streetlights:2:149046","properties":{"address":null,"attributes":{"Date_Installed":null,"LED_Powered":0,"LightID":"L041902","Light_Source":"High Pressure Sodium","Light_Type":"Decorative","Lighting_Type":"Sterner/ELA (singlearm) (Historic Light Fixture)","Verification_Date":null},"id":"stl-city-public-streetlights:2:149046","sourceLayerId":2,"sourceObjectId":149046,"sourceURL":"https://maps8.stlouis-mo.gov/arcgis/rest/services/STREETS/Streets_Permitting/MapServer/2","title":"Street light L041902"},"type":"Feature"},{"geometry":{"coordinates":[-90.30196803754339,38.65575369861489],"type":"Point"},"id":"stl-city-public-streetlights:2:149047","properties":{"address":null,"attributes":{"Date_Installed":null,"LED_Powered":0,"LightID":"L041903","Light_Source":"High Pressure Sodium","Light_Type":"Decorative","Lighting_Type":"Sterner/ELA (singlearm) (Historic Light Fixture)","Verification_Date":null},"id":"stl-city-public-streetlights:2:149047","sourceLayerId":2,"sourceObjectId":149047,"sourceURL":"https://maps8.stlouis-mo.gov/arcgis/rest/services/STREETS/Streets_Permitting/MapServer/2","title":"Street light L041903"},"type":"Feature"},{"geometry":{"coordinates":[-90.30181837386964,38.65557673876699],"type":"Point"},"id":"stl-city-public-streetlights:2:149048","properties":{"address":null,"attributes":{"Date_Installed":null,"LED_Powered":0,"LightID":"L041904","Light_Source":"High Pressure Sodium","Light_Type":"Decorative","Lighting_Type":"Sterner/ELA (singlearm) (Historic Light Fixture)","Verification_Date":null},"id":"stl-city-public-streetlights:2:149048","sourceLayerId":2,"sourceObjectId":149048,"sourceURL":"https://maps8.stlouis-mo.gov/arcgis/rest/services/STREETS/Streets_Permitting/MapServer/2","title":"Street light L041904"},"type":"Feature"},{"geometry":{"coordinates":[-90.30168638046652,38.6555612693539],"type":"Point"},"id":"stl-city-public-streetlights:2:149049","properties":{"address":null,"attributes":{"Date_Installed":null,"LED_Powered":0,"LightID":"L041905","Light_Source":"High Pressure Sodium","Light_Type":"Decorative","Lighting_Type":"Sterner/ELA (singlearm) (Historic Light Fixture)","Verification_Date":null},"id":"stl-city-public-streetlights:2:149049","sourceLayerId":2,"sourceObjectId":149049,"sourceURL":"https://maps8.stlouis-mo.gov/arcgis/rest/services/STREETS/Streets_Permitting/MapServer/2","title":"Street light L041905"},"type":"Feature"},{"geometry":{"coordinates":[-90.30154293766292,38.65554767763751],"type":"Point"},"id":"stl-city-public-streetlights:2:149050","properties":{"address":null,"attributes":{"Date_Installed":null,"LED_Powered":0,"LightID":"L041906","Light_Source":"High Pressure Sodium","Light_Type":"Decorative","Lighting_Type":"Sterner/ELA (singlearm) (Historic Light Fixture)","Verification_Date":null},"id":"stl-city-public-streetlights:2:149050","sourceLayerId":2,"sourceObjectId":149050,"sourceURL":"https://maps8.stlouis-mo.gov/arcgis/rest/services/STREETS/Streets_Permitting/MapServer/2","title":"Street light L041906"},"type":"Feature"},{"geometry":{"coordinates":[-90.30137883702031,38.65552928317471],"type":"Point"},"id":"stl-city-public-streetlights:2:149051","properties":{"address":null,"attributes":{"Date_Installed":null,"LED_Powered":0,"LightID":"L041907","Light_Source":"High Pressure Sodium","Light_Type":"Decorative","Lighting_Type":"Sterner/ELA (singlearm) (Historic Light Fixture)","Verification_Date":null},"id":"stl-city-public-streetlights:2:149051","sourceLayerId":2,"sourceObjectId":149051,"sourceURL":"https://maps8.stlouis-mo.gov/arcgis/rest/services/STREETS/Streets_Permitting/MapServer/2","title":"Street light L041907"},"type":"Feature"},{"geometry":{"coordinates":[-90.30112208964384,38.65550882563109],"type":"Point"},"id":"stl-city-public-streetlights:2:149052","properties":{"address":null,"attributes":{"Date_Installed":null,"LED_Powered":0,"LightID":"L041908","Light_Source":"High Pressure Sodium","Light_Type":"Decorative","Lighting_Type":"Sterner/ELA (singlearm) (Historic Light Fixture)","Verification_Date":null},"id":"stl-city-public-streetlights:2:149052","sourceLayerId":2,"sourceObjectId":149052,"sourceURL":"https://maps8.stlouis-mo.gov/arcgis/rest/services/STREETS/Streets_Permitting/MapServer/2","title":"Street light L041908"},"type":"Feature"},{"geometry":{"coordinates":[-90.30098836161775,38.65550001724753],"type":"Point"},"id":"stl-city-public-streetlights:2:149053","properties":{"address":null,"attributes":{"Date_Installed":null,"LED_Powered":0,"LightID":"L041909","Light_Source":"High Pressure Sodium","Light_Type":"Decorative","Lighting_Type":"Sterner/ELA (singlearm) (Historic Light Fixture)","Verification_Date":null},"id":"stl-city-public-streetlights:2:149053","sourceLayerId":2,"sourceObjectId":149053,"sourceURL":"https://maps8.stlouis-mo.gov/arcgis/rest/services/STREETS/Streets_Permitting/MapServer/2","title":"Street light L041909"},"type":"Feature"},{"geometry":{"coordinates":[-90.3008740891356,38.65549124092976],"type":"Point"},"id":"stl-city-public-streetlights:2:149054","properties":{"address":null,"attributes":{"Date_Installed":null,"LED_Powered":0,"LightID":"L041910","Light_Source":"High Pressure Sodium","Light_Type":"Decorative","Lighting_Type":"Sterner/ELA (singlearm) (Historic Light Fixture)","Verification_Date":null},"id":"stl-city-public-streetlights:2:149054","sourceLayerId":2,"sourceObjectId":149054,"sourceURL":"https://maps8.stlouis-mo.gov/arcgis/rest/services/STREETS/Streets_Permitting/MapServer/2","title":"Street light L041910"},"type":"Feature"},{"geometry":{"coordinates":[-90.3007574055815,38.65547483438063],"type":"Point"},"id":"stl-city-public-streetlights:2:149055","properties":{"address":null,"attributes":{"Date_Installed":null,"LED_Powered":0,"LightID":"L041911","Light_Source":"High Pressure Sodium","Light_Type":"Decorative","Lighting_Type":"Sterner/ELA (singlearm) (Historic Light Fixture)","Verification_Date":null},"id":"stl-city-public-streetlights:2:149055","sourceLayerId":2,"sourceObjectId":149055,"sourceURL":"https://maps8.stlouis-mo.gov/arcgis/rest/services/STREETS/Streets_Permitting/MapServer/2","title":"Street light L041911"},"type":"Feature"},{"geometry":{"coordinates":[-90.3005094305776,38.65544771485672],"type":"Point"},"id":"stl-city-public-streetlights:2:149056","properties":{"address":null,"attributes":{"Date_Installed":null,"LED_Powered":0,"LightID":"L041912","Light_Source":"High Pressure Sodium","Light_Type":"Decorative","Lighting_Type":"Sterner/ELA (singlearm) (Historic Light Fixture)","Verification_Date":null},"id":"stl-city-public-streetlights:2:149056","sourceLayerId":2,"sourceObjectId":149056,"sourceURL":"https://maps8.stlouis-mo.gov/arcgis/rest/services/STREETS/Streets_Permitting/MapServer/2","title":"Street light L041912"},"type":"Feature"},{"geometry":{"coordinates":[-90.30037449778978,38.65543509025992],"type":"Point"},"id":"stl-city-public-streetlights:2:149057","properties":{"address":null,"attributes":{"Date_Installed":null,"LED_Powered":0,"LightID":"L041913","Light_Source":"High Pressure Sodium","Light_Type":"Decorative","Lighting_Type":"Sterner/ELA (singlearm) (Historic Light Fixture)","Verification_Date":null},"id":"stl-city-public-streetlights:2:149057","sourceLayerId":2,"sourceObjectId":149057,"sourceURL":"https://maps8.stlouis-mo.gov/arcgis/rest/services/STREETS/Streets_Permitting/MapServer/2","title":"Street light L041913"},"type":"Feature"},{"geometry":{"coordinates":[-90.30018730090724,38.655414748431575],"type":"Point"},"id":"stl-city-public-streetlights:2:149058","properties":{"address":null,"attributes":{"Date_Installed":null,"LED_Powered":0,"LightID":"L041914","Light_Source":"High Pressure Sodium","Light_Type":"Decorative","Lighting_Type":"Sterner/ELA (singlearm) (Historic Light Fixture)","Verification_Date":null},"id":"stl-city-public-streetlights:2:149058","sourceLayerId":2,"sourceObjectId":149058,"sourceURL":"https://maps8.stlouis-mo.gov/arcgis/rest/services/STREETS/Streets_Permitting/MapServer/2","title":"Street light L041914"},"type":"Feature"},{"geometry":{"coordinates":[-90.30009199700933,38.65540600464959],"type":"Point"},"id":"stl-city-public-streetlights:2:149059","properties":{"address":null,"attributes":{"Date_Installed":null,"LED_Powered":0,"LightID":"L041915","Light_Source":"High Pressure Sodium","Light_Type":"Decorative","Lighting_Type":"Sterner/ELA (singlearm) (Historic Light Fixture)","Verification_Date":null},"id":"stl-city-public-streetlights:2:149059","sourceLayerId":2,"sourceObjectId":149059,"sourceURL":"https://maps8.stlouis-mo.gov/arcgis/rest/services/STREETS/Streets_Permitting/MapServer/2","title":"Street light L041915"},"type":"Feature"},{"geometry":{"coordinates":[-90.30001071551048,38.6542456710737],"type":"Point"},"id":"stl-city-public-streetlights:2:149071","properties":{"address":null,"attributes":{"Date_Installed":null,"LED_Powered":0,"LightID":"L041927","Light_Source":"High Pressure Sodium","Light_Type":"Decorative","Lighting_Type":"Sterner/ELA (singlearm) (Historic Light Fixture)","Verification_Date":null},"id":"stl-city-public-streetlights:2:149071","sourceLayerId":2,"sourceObjectId":149071,"sourceURL":"https://maps8.stlouis-mo.gov/arcgis/rest/services/STREETS/Streets_Permitting/MapServer/2","title":"Street light L041927"},"type":"Feature"},{"geometry":{"coordinates":[-90.30002981805352,38.65415393389885],"type":"Point"},"id":"stl-city-public-streetlights:2:149072","properties":{"address":null,"attributes":{"Date_Installed":null,"LED_Powered":0,"LightID":"L041928","Light_Source":"High Pressure Sodium","Light_Type":"Decorative","Lighting_Type":"Sterner/ELA (singlearm) (Historic Light Fixture)","Verification_Date":null},"id":"stl-city-public-streetlights:2:149072","sourceLayerId":2,"sourceObjectId":149072,"sourceURL":"https://maps8.stlouis-mo.gov/arcgis/rest/services/STREETS/Streets_Permitting/MapServer/2","title":"Street light L041928"},"type":"Feature"},{"geometry":{"coordinates":[-90.30004292584199,38.65403072476904],"type":"Point"},"id":"stl-city-public-streetlights:2:149073","properties":{"address":null,"attributes":{"Date_Installed":null,"LED_Powered":0,"LightID":"L041929","Light_Source":"High Pressure Sodium","Light_Type":"Decorative","Lighting_Type":"Sterner/ELA (singlearm) (Historic Light Fixture)","Verification_Date":null},"id":"stl-city-public-streetlights:2:149073","sourceLayerId":2,"sourceObjectId":149073,"sourceURL":"https://maps8.stlouis-mo.gov/arcgis/rest/services/STREETS/Streets_Permitting/MapServer/2","title":"Street light L041929"},"type":"Feature"},{"geometry":{"coordinates":[-90.30005991831968,38.653932596684584],"type":"Point"},"id":"stl-city-public-streetlights:2:149074","properties":{"address":null,"attributes":{"Date_Installed":null,"LED_Powered":0,"LightID":"L041930","Light_Source":"High Pressure Sodium","Light_Type":"Decorative","Lighting_Type":"Sterner/ELA (singlearm) (Historic Light Fixture)","Verification_Date":null},"id":"stl-city-public-streetlights:2:149074","sourceLayerId":2,"sourceObjectId":149074,"sourceURL":"https://maps8.stlouis-mo.gov/arcgis/rest/services/STREETS/Streets_Permitting/MapServer/2","title":"Street light L041930"},"type":"Feature"},{"geometry":{"coordinates":[-90.30007942140341,38.653805821951835],"type":"Point"},"id":"stl-city-public-streetlights:2:149075","properties":{"address":null,"attributes":{"Date_Installed":null,"LED_Powered":0,"LightID":"L041931","Light_Source":"High Pressure Sodium","Light_Type":"Decorative","Lighting_Type":"Sterner/ELA (singlearm) (Historic Light Fixture)","Verification_Date":null},"id":"stl-city-public-streetlights:2:149075","sourceLayerId":2,"sourceObjectId":149075,"sourceURL":"https://maps8.stlouis-mo.gov/arcgis/rest/services/STREETS/Streets_Permitting/MapServer/2","title":"Street light L041931"},"type":"Feature"},{"geometry":{"coordinates":[-90.30009947387607,38.65370002442393],"type":"Point"},"id":"stl-city-public-streetlights:2:149076","properties":{"address":null,"attributes":{"Date_Installed":null,"LED_Powered":0,"LightID":"L041932","Light_Source":"High Pressure Sodium","Light_Type":"Decorative","Lighting_Type":"Sterner/ELA (singlearm) (Historic Light Fixture)","Verification_Date":null},"id":"stl-city-public-streetlights:2:149076","sourceLayerId":2,"sourceObjectId":149076,"sourceURL":"https://maps8.stlouis-mo.gov/arcgis/rest/services/STREETS/Streets_Permitting/MapServer/2","title":"Street light L041932"},"type":"Feature"},{"geometry":{"coordinates":[-90.3001197035973,38.653585407501495],"type":"Point"},"id":"stl-city-public-streetlights:2:149077","properties":{"address":null,"attributes":{"Date_Installed":null,"LED_Powered":0,"LightID":"L041933","Light_Source":"High Pressure Sodium","Light_Type":"Decorative","Lighting_Type":"Sterner/ELA (singlearm) (Historic Light Fixture)","Verification_Date":null},"id":"stl-city-public-streetlights:2:149077","sourceLayerId":2,"sourceObjectId":149077,"sourceURL":"https://maps8.stlouis-mo.gov/arcgis/rest/services/STREETS/Streets_Permitting/MapServer/2","title":"Street light L041933"},"type":"Feature"},{"geometry":{"coordinates":[-90.3001345472761,38.65349396301752],"type":"Point"},"id":"stl-city-public-streetlights:2:149078","properties":{"address":null,"attributes":{"Date_Installed":null,"LED_Powered":0,"LightID":"L041934","Light_Source":"High Pressure Sodium","Light_Type":"Decorative","Lighting_Type":"Sterner/ELA (singlearm) (Historic Light Fixture)","Verification_Date":null},"id":"stl-city-public-streetlights:2:149078","sourceLayerId":2,"sourceObjectId":149078,"sourceURL":"https://maps8.stlouis-mo.gov/arcgis/rest/services/STREETS/Streets_Permitting/MapServer/2","title":"Street light L041934"},"type":"Feature"},{"geometry":{"coordinates":[-90.30016557092183,38.653323385153335],"type":"Point"},"id":"stl-city-public-streetlights:2:149079","properties":{"address":null,"attributes":{"Date_Installed":null,"LED_Powered":0,"LightID":"L041935","Light_Source":"High Pressure Sodium","Light_Type":"Decorative","Lighting_Type":"Sterner/ELA (singlearm) (Historic Light Fixture)","Verification_Date":null},"id":"stl-city-public-streetlights:2:149079","sourceLayerId":2,"sourceObjectId":149079,"sourceURL":"https://maps8.stlouis-mo.gov/arcgis/rest/services/STREETS/Streets_Permitting/MapServer/2","title":"Street light L041935"},"type":"Feature"},{"geometry":{"coordinates":[-90.30019463568316,38.65314657158749],"type":"Point"},"id":"stl-city-public-streetlights:2:149080","properties":{"address":null,"attributes":{"Date_Installed":null,"LED_Powered":0,"LightID":"L041936","Light_Source":"High Pressure Sodium","Light_Type":"Decorative","Lighting_Type":"Sterner/ELA (singlearm) (Historic Light Fixture)","Verification_Date":null},"id":"stl-city-public-streetlights:2:149080","sourceLayerId":2,"sourceObjectId":149080,"sourceURL":"https://maps8.stlouis-mo.gov/arcgis/rest/services/STREETS/Streets_Permitting/MapServer/2","title":"Street light L041936"},"type":"Feature"},{"geometry":{"coordinates":[-90.30021136844084,38.653032187400434],"type":"Point"},"id":"stl-city-public-streetlights:2:149081","properties":{"address":null,"attributes":{"Date_Installed":null,"LED_Powered":0,"LightID":"L041937","Light_Source":"High Pressure Sodium","Light_Type":"Decorative","Lighting_Type":"Sterner/ELA (singlearm) (Historic Light Fixture)","Verification_Date":null},"id":"stl-city-public-streetlights:2:149081","sourceLayerId":2,"sourceObjectId":149081,"sourceURL":"https://maps8.stlouis-mo.gov/arcgis/rest/services/STREETS/Streets_Permitting/MapServer/2","title":"Street light L041937"},"type":"Feature"},{"geometry":{"coordinates":[-90.30022406980311,38.652945921144806],"type":"Point"},"id":"stl-city-public-streetlights:2:149082","properties":{"address":null,"attributes":{"Date_Installed":null,"LED_Powered":0,"LightID":"L041938","Light_Source":"High Pressure Sodium","Light_Type":"Decorative","Lighting_Type":"Sterner/ELA (singlearm) (Historic Light Fixture)","Verification_Date":null},"id":"stl-city-public-streetlights:2:149082","sourceLayerId":2,"sourceObjectId":149082,"sourceURL":"https://maps8.stlouis-mo.gov/arcgis/rest/services/STREETS/Streets_Permitting/MapServer/2","title":"Street light L041938"},"type":"Feature"},{"geometry":{"coordinates":[-90.30024200696896,38.652835496607004],"type":"Point"},"id":"stl-city-public-streetlights:2:149083","properties":{"address":null,"attributes":{"Date_Installed":null,"LED_Powered":0,"LightID":"L041939","Light_Source":"High Pressure Sodium","Light_Type":"Decorative","Lighting_Type":"Sterner/ELA (singlearm) (Historic Light Fixture)","Verification_Date":null},"id":"stl-city-public-streetlights:2:149083","sourceLayerId":2,"sourceObjectId":149083,"sourceURL":"https://maps8.stlouis-mo.gov/arcgis/rest/services/STREETS/Streets_Permitting/MapServer/2","title":"Street light L041939"},"type":"Feature"},{"geometry":{"coordinates":[-90.30026671643083,38.65269452550728],"type":"Point"},"id":"stl-city-public-streetlights:2:149084","properties":{"address":null,"attributes":{"Date_Installed":null,"LED_Powered":0,"LightID":"L041940","Light_Source":"High Pressure Sodium","Light_Type":"Decorative","Lighting_Type":"Sterner/ELA (singlearm) (Historic Light Fixture)","Verification_Date":null},"id":"stl-city-public-streetlights:2:149084","sourceLayerId":2,"sourceObjectId":149084,"sourceURL":"https://maps8.stlouis-mo.gov/arcgis/rest/services/STREETS/Streets_Permitting/MapServer/2","title":"Street light L041940"},"type":"Feature"},{"geometry":{"coordinates":[-90.300284661811,38.652581095609705],"type":"Point"},"id":"stl-city-public-streetlights:2:149085","properties":{"address":null,"attributes":{"Date_Installed":null,"LED_Powered":0,"LightID":"L041941","Light_Source":"High Pressure Sodium","Light_Type":"Decorative","Lighting_Type":"Sterner/ELA (singlearm) (Historic Light Fixture)","Verification_Date":null},"id":"stl-city-public-streetlights:2:149085","sourceLayerId":2,"sourceObjectId":149085,"sourceURL":"https://maps8.stlouis-mo.gov/arcgis/rest/services/STREETS/Streets_Permitting/MapServer/2","title":"Street light L041941"},"type":"Feature"},{"geometry":{"coordinates":[-90.30029943888547,38.652513903781056],"type":"Point"},"id":"stl-city-public-streetlights:2:149086","properties":{"address":null,"attributes":{"Date_Installed":null,"LED_Powered":0,"LightID":"L041942","Light_Source":"High Pressure Sodium","Light_Type":"Decorative","Lighting_Type":"Sterner/ELA (singlearm) (Historic Light Fixture)","Verification_Date":null},"id":"stl-city-public-streetlights:2:149086","sourceLayerId":2,"sourceObjectId":149086,"sourceURL":"https://maps8.stlouis-mo.gov/arcgis/rest/services/STREETS/Streets_Permitting/MapServer/2","title":"Street light L041942"},"type":"Feature"},{"geometry":{"coordinates":[-90.30031187247837,38.65241476696466],"type":"Point"},"id":"stl-city-public-streetlights:2:149087","properties":{"address":null,"attributes":{"Date_Installed":null,"LED_Powered":0,"LightID":"L041943","Light_Source":"High Pressure Sodium","Light_Type":"Decorative","Lighting_Type":"Sterner/ELA (singlearm) (Historic Light Fixture)","Verification_Date":null},"id":"stl-city-public-streetlights:2:149087","sourceLayerId":2,"sourceObjectId":149087,"sourceURL":"https://maps8.stlouis-mo.gov/arcgis/rest/services/STREETS/Streets_Permitting/MapServer/2","title":"Street light L041943"},"type":"Feature"},{"geometry":{"coordinates":[-90.30032481700457,38.652350907991035],"type":"Point"},"id":"stl-city-public-streetlights:2:149088","properties":{"address":null,"attributes":{"Date_Installed":null,"LED_Powered":0,"LightID":"L041944","Light_Source":"High Pressure Sodium","Light_Type":"Decorative","Lighting_Type":"Sterner/ELA (singlearm) (Historic Light Fixture)","Verification_Date":null},"id":"stl-city-public-streetlights:2:149088","sourceLayerId":2,"sourceObjectId":149088,"sourceURL":"https://maps8.stlouis-mo.gov/arcgis/rest/services/STREETS/Streets_Permitting/MapServer/2","title":"Street light L041944"},"type":"Feature"},{"geometry":{"coordinates":[-90.3003403166803,38.65224271887377],"type":"Point"},"id":"stl-city-public-streetlights:2:149293","properties":{"address":null,"attributes":{"Date_Installed":null,"LED_Powered":0,"LightID":"L042149","Light_Source":"High Pressure Sodium","Light_Type":"Decorative","Lighting_Type":"Sterner/ELA (singlearm) (Historic Light Fixture)","Verification_Date":null},"id":"stl-city-public-streetlights:2:149293","sourceLayerId":2,"sourceObjectId":149293,"sourceURL":"https://maps8.stlouis-mo.gov/arcgis/rest/services/STREETS/Streets_Permitting/MapServer/2","title":"Street light L042149"},"type":"Feature"},{"geometry":{"coordinates":[-90.30036254114893,38.65212023963079],"type":"Point"},"id":"stl-city-public-streetlights:2:149294","properties":{"address":null,"attributes":{"Date_Installed":null,"LED_Powered":0,"LightID":"L042150","Light_Source":"High Pressure Sodium","Light_Type":"Decorative","Lighting_Type":"Sterner/ELA (singlearm) (Historic Light Fixture)","Verification_Date":null},"id":"stl-city-public-streetlights:2:149294","sourceLayerId":2,"sourceObjectId":149294,"sourceURL":"https://maps8.stlouis-mo.gov/arcgis/rest/services/STREETS/Streets_Permitting/MapServer/2","title":"Street light L042150"},"type":"Feature"},{"geometry":{"coordinates":[-90.30039473207792,38.65191196779592],"type":"Point"},"id":"stl-city-public-streetlights:2:149295","properties":{"address":null,"attributes":{"Date_Installed":null,"LED_Powered":0,"LightID":"L042151","Light_Source":"High Pressure Sodium","Light_Type":"Decorative","Lighting_Type":"Sterner/ELA (singlearm) (Historic Light Fixture)","Verification_Date":null},"id":"stl-city-public-streetlights:2:149295","sourceLayerId":2,"sourceObjectId":149295,"sourceURL":"https://maps8.stlouis-mo.gov/arcgis/rest/services/STREETS/Streets_Permitting/MapServer/2","title":"Street light L042151"},"type":"Feature"},{"geometry":{"coordinates":[-90.30042631096691,38.651741617786335],"type":"Point"},"id":"stl-city-public-streetlights:2:149296","properties":{"address":null,"attributes":{"Date_Installed":null,"LED_Powered":0,"LightID":"L042152","Light_Source":"High Pressure Sodium","Light_Type":"Decorative","Lighting_Type":"Sterner/ELA (singlearm) (Historic Light Fixture)","Verification_Date":null},"id":"stl-city-public-streetlights:2:149296","sourceLayerId":2,"sourceObjectId":149296,"sourceURL":"https://maps8.stlouis-mo.gov/arcgis/rest/services/STREETS/Streets_Permitting/MapServer/2","title":"Street light L042152"},"type":"Feature"},{"geometry":{"coordinates":[-90.30045254400441,38.651598646545075],"type":"Point"},"id":"stl-city-public-streetlights:2:149297","properties":{"address":null,"attributes":{"Date_Installed":null,"LED_Powered":0,"LightID":"L042153","Light_Source":"High Pressure Sodium","Light_Type":"Decorative","Lighting_Type":"Sterner/ELA (singlearm) (Historic Light Fixture)","Verification_Date":null},"id":"stl-city-public-streetlights:2:149297","sourceLayerId":2,"sourceObjectId":149297,"sourceURL":"https://maps8.stlouis-mo.gov/arcgis/rest/services/STREETS/Streets_Permitting/MapServer/2","title":"Street light L042153"},"type":"Feature"},{"geometry":{"coordinates":[-90.3004726885215,38.651459239634136],"type":"Point"},"id":"stl-city-public-streetlights:2:149298","properties":{"address":null,"attributes":{"Date_Installed":null,"LED_Powered":0,"LightID":"L042154","Light_Source":"High Pressure Sodium","Light_Type":"Decorative","Lighting_Type":"Sterner/ELA (singlearm) (Historic Light Fixture)","Verification_Date":null},"id":"stl-city-public-streetlights:2:149298","sourceLayerId":2,"sourceObjectId":149298,"sourceURL":"https://maps8.stlouis-mo.gov/arcgis/rest/services/STREETS/Streets_Permitting/MapServer/2","title":"Street light L042154"},"type":"Feature"},{"geometry":{"coordinates":[-90.30050664881547,38.65127015878],"type":"Point"},"id":"stl-city-public-streetlights:2:149299","properties":{"address":null,"attributes":{"Date_Installed":null,"LED_Powered":0,"LightID":"L042155","Light_Source":"High Pressure Sodium","Light_Type":"Decorative","Lighting_Type":"Sterner/ELA (singlearm) (Historic Light Fixture)","Verification_Date":null},"id":"stl-city-public-streetlights:2:149299","sourceLayerId":2,"sourceObjectId":149299,"sourceURL":"https://maps8.stlouis-mo.gov/arcgis/rest/services/STREETS/Streets_Permitting/MapServer/2","title":"Street light L042155"},"type":"Feature"},{"geometry":{"coordinates":[-90.30052054611222,38.651191523226366],"type":"Point"},"id":"stl-city-public-streetlights:2:149300","properties":{"address":null,"attributes":{"Date_Installed":null,"LED_Powered":0,"LightID":"L042156","Light_Source":"High Pressure Sodium","Light_Type":"Decorative","Lighting_Type":"Sterner/ELA (singlearm) (Historic Light Fixture)","Verification_Date":null},"id":"stl-city-public-streetlights:2:149300","sourceLayerId":2,"sourceObjectId":149300,"sourceURL":"https://maps8.stlouis-mo.gov/arcgis/rest/services/STREETS/Streets_Permitting/MapServer/2","title":"Street light L042156"},"type":"Feature"},{"geometry":{"coordinates":[-90.30053346201623,38.65108273416849],"type":"Point"},"id":"stl-city-public-streetlights:2:149301","properties":{"address":null,"attributes":{"Date_Installed":null,"LED_Powered":0,"LightID":"L042157","Light_Source":"High Pressure Sodium","Light_Type":"Decorative","Lighting_Type":"Sterner/ELA (singlearm) (Historic Light Fixture)","Verification_Date":null},"id":"stl-city-public-streetlights:2:149301","sourceLayerId":2,"sourceObjectId":149301,"sourceURL":"https://maps8.stlouis-mo.gov/arcgis/rest/services/STREETS/Streets_Permitting/MapServer/2","title":"Street light L042157"},"type":"Feature"},{"geometry":{"coordinates":[-90.30054532824863,38.651023520999324],"type":"Point"},"id":"stl-city-public-streetlights:2:149302","properties":{"address":null,"attributes":{"Date_Installed":null,"LED_Powered":0,"LightID":"L042158","Light_Source":"High Pressure Sodium","Light_Type":"Decorative","Lighting_Type":"Sterner/ELA (singlearm) (Historic Light Fixture)","Verification_Date":null},"id":"stl-city-public-streetlights:2:149302","sourceLayerId":2,"sourceObjectId":149302,"sourceURL":"https://maps8.stlouis-mo.gov/arcgis/rest/services/STREETS/Streets_Permitting/MapServer/2","title":"Street light L042158"},"type":"Feature"},{"geometry":{"coordinates":[-90.30056536090576,38.65092433762755],"type":"Point"},"id":"stl-city-public-streetlights:2:149303","properties":{"address":null,"attributes":{"Date_Installed":null,"LED_Powered":0,"LightID":"L042159","Light_Source":"High Pressure Sodium","Light_Type":"Decorative","Lighting_Type":"Sterner/ELA (singlearm) (Historic Light Fixture)","Verification_Date":null},"id":"stl-city-public-streetlights:2:149303","sourceLayerId":2,"sourceObjectId":149303,"sourceURL":"https://maps8.stlouis-mo.gov/arcgis/rest/services/STREETS/Streets_Permitting/MapServer/2","title":"Street light L042159"},"type":"Feature"},{"geometry":{"coordinates":[-90.30058246901223,38.650783555253554],"type":"Point"},"id":"stl-city-public-streetlights:2:149304","properties":{"address":null,"attributes":{"Date_Installed":null,"LED_Powered":0,"LightID":"L042160","Light_Source":"High Pressure Sodium","Light_Type":"Decorative","Lighting_Type":"Sterner/ELA (singlearm) (Historic Light Fixture)","Verification_Date":null},"id":"stl-city-public-streetlights:2:149304","sourceLayerId":2,"sourceObjectId":149304,"sourceURL":"https://maps8.stlouis-mo.gov/arcgis/rest/services/STREETS/Streets_Permitting/MapServer/2","title":"Street light L042160"},"type":"Feature"},{"geometry":{"coordinates":[-90.30058873691335,38.65071563355617],"type":"Point"},"id":"stl-city-public-streetlights:2:149305","properties":{"address":null,"attributes":{"Date_Installed":null,"LED_Powered":0,"LightID":"L042161","Light_Source":"High Pressure Sodium","Light_Type":"Decorative","Lighting_Type":"Sterner/ELA (singlearm) (Historic Light Fixture)","Verification_Date":null},"id":"stl-city-public-streetlights:2:149305","sourceLayerId":2,"sourceObjectId":149305,"sourceURL":"https://maps8.stlouis-mo.gov/arcgis/rest/services/STREETS/Streets_Permitting/MapServer/2","title":"Street light L042161"},"type":"Feature"},{"geometry":{"coordinates":[-90.30061029840158,38.6506131753457],"type":"Point"},"id":"stl-city-public-streetlights:2:149306","properties":{"address":null,"attributes":{"Date_Installed":null,"LED_Powered":0,"LightID":"L042162","Light_Source":"High Pressure Sodium","Light_Type":"Decorative","Lighting_Type":"Sterner/ELA (singlearm) (Historic Light Fixture)","Verification_Date":null},"id":"stl-city-public-streetlights:2:149306","sourceLayerId":2,"sourceObjectId":149306,"sourceURL":"https://maps8.stlouis-mo.gov/arcgis/rest/services/STREETS/Streets_Permitting/MapServer/2","title":"Street light L042162"},"type":"Feature"},{"geometry":{"coordinates":[-90.30062979051185,38.650489261649916],"type":"Point"},"id":"stl-city-public-streetlights:2:149307","properties":{"address":null,"attributes":{"Date_Installed":null,"LED_Powered":0,"LightID":"L042163","Light_Source":"High Pressure Sodium","Light_Type":"Decorative","Lighting_Type":"Sterner/ELA (singlearm) (Historic Light Fixture)","Verification_Date":null},"id":"stl-city-public-streetlights:2:149307","sourceLayerId":2,"sourceObjectId":149307,"sourceURL":"https://maps8.stlouis-mo.gov/arcgis/rest/services/STREETS/Streets_Permitting/MapServer/2","title":"Street light L042163"},"type":"Feature"},{"geometry":{"coordinates":[-90.3006473039794,38.65042183568061],"type":"Point"},"id":"stl-city-public-streetlights:2:149308","properties":{"address":null,"attributes":{"Date_Installed":null,"LED_Powered":0,"LightID":"L042164","Light_Source":"High Pressure Sodium","Light_Type":"Decorative","Lighting_Type":"Sterner/ELA (singlearm) (Historic Light Fixture)","Verification_Date":null},"id":"stl-city-public-streetlights:2:149308","sourceLayerId":2,"sourceObjectId":149308,"sourceURL":"https://maps8.stlouis-mo.gov/arcgis/rest/services/STREETS/Streets_Permitting/MapServer/2","title":"Street light L042164"},"type":"Feature"},{"geometry":{"coordinates":[-90.30065975257318,38.650316977274564],"type":"Point"},"id":"stl-city-public-streetlights:2:149309","properties":{"address":null,"attributes":{"Date_Installed":null,"LED_Powered":0,"LightID":"L042165","Light_Source":"High Pressure Sodium","Light_Type":"Decorative","Lighting_Type":"Sterner/ELA (singlearm) (Historic Light Fixture)","Verification_Date":null},"id":"stl-city-public-streetlights:2:149309","sourceLayerId":2,"sourceObjectId":149309,"sourceURL":"https://maps8.stlouis-mo.gov/arcgis/rest/services/STREETS/Streets_Permitting/MapServer/2","title":"Street light L042165"},"type":"Feature"},{"geometry":{"coordinates":[-90.30068591972224,38.65019784243832],"type":"Point"},"id":"stl-city-public-streetlights:2:149310","properties":{"address":null,"attributes":{"Date_Installed":null,"LED_Powered":0,"LightID":"L042166","Light_Source":"High Pressure Sodium","Light_Type":"Decorative","Lighting_Type":"Sterner/ELA (singlearm) (Historic Light Fixture)","Verification_Date":null},"id":"stl-city-public-streetlights:2:149310","sourceLayerId":2,"sourceObjectId":149310,"sourceURL":"https://maps8.stlouis-mo.gov/arcgis/rest/services/STREETS/Streets_Permitting/MapServer/2","title":"Street light L042166"},"type":"Feature"},{"geometry":{"coordinates":[-90.30047019169028,38.65003828951256],"type":"Point"},"id":"stl-city-public-streetlights:2:155408","properties":{"address":null,"attributes":{"Date_Installed":"6/15/2017","LED_Powered":1,"LightID":"L048140","Light_Source":"LED","Light_Type":"Cobra","Lighting_Type":"LED-Powered Lamp","Verification_Date":null},"id":"stl-city-public-streetlights:2:155408","sourceLayerId":2,"sourceObjectId":155408,"sourceURL":"https://maps8.stlouis-mo.gov/arcgis/rest/services/STREETS/Streets_Permitting/MapServer/2","title":"Street light L048140"},"type":"Feature"},{"geometry":{"coordinates":[-90.30036210304304,38.65065164430043],"type":"Point"},"id":"stl-city-public-streetlights:2:155409","properties":{"address":null,"attributes":{"Date_Installed":"6/15/2017","LED_Powered":1,"LightID":"L048141","Light_Source":"LED","Light_Type":"Cobra","Lighting_Type":"LED-Powered Lamp","Verification_Date":null},"id":"stl-city-public-streetlights:2:155409","sourceLayerId":2,"sourceObjectId":155409,"sourceURL":"https://maps8.stlouis-mo.gov/arcgis/rest/services/STREETS/Streets_Permitting/MapServer/2","title":"Street light L048141"},"type":"Feature"},{"geometry":{"coordinates":[-90.3002970631066,38.65108701816978],"type":"Point"},"id":"stl-city-public-streetlights:2:155410","properties":{"address":null,"attributes":{"Date_Installed":"6/15/2017","LED_Powered":1,"LightID":"L048142","Light_Source":"LED","Light_Type":"Cobra","Lighting_Type":"LED-Powered Lamp","Verification_Date":null},"id":"stl-city-public-streetlights:2:155410","sourceLayerId":2,"sourceObjectId":155410,"sourceURL":"https://maps8.stlouis-mo.gov/arcgis/rest/services/STREETS/Streets_Permitting/MapServer/2","title":"Street light L048142"},"type":"Feature"},{"geometry":{"coordinates":[-90.30023666502711,38.6514921282524],"type":"Point"},"id":"stl-city-public-streetlights:2:155411","properties":{"address":null,"attributes":{"Date_Installed":"6/15/2017","LED_Powered":1,"LightID":"L048143","Light_Source":"LED","Light_Type":"Cobra","Lighting_Type":"LED-Powered Lamp","Verification_Date":null},"id":"stl-city-public-streetlights:2:155411","sourceLayerId":2,"sourceObjectId":155411,"sourceURL":"https://maps8.stlouis-mo.gov/arcgis/rest/services/STREETS/Streets_Permitting/MapServer/2","title":"Street light L048143"},"type":"Feature"},{"geometry":{"coordinates":[-90.30015505919273,38.651926757482926],"type":"Point"},"id":"stl-city-public-streetlights:2:155412","properties":{"address":null,"attributes":{"Date_Installed":"2020-01-27","LED_Powered":1,"LightID":"L048144","Light_Source":"LED","Light_Type":"Cobra","Lighting_Type":"5G Pole - 5G Pole -5G Pole - LED-Powered Lamp","Verification_Date":null},"id":"stl-city-public-streetlights:2:155412","sourceLayerId":2,"sourceObjectId":155412,"sourceURL":"https://maps8.stlouis-mo.gov/arcgis/rest/services/STREETS/Streets_Permitting/MapServer/2","title":"Street light L048144"},"type":"Feature"},{"geometry":{"coordinates":[-90.30001178745448,38.65283824195032],"type":"Point"},"id":"stl-city-public-streetlights:2:155413","properties":{"address":null,"attributes":{"Date_Installed":"6/15/2017","LED_Powered":1,"LightID":"L048145","Light_Source":"LED","Light_Type":"Cobra","Lighting_Type":"LED-Powered Lamp","Verification_Date":null},"id":"stl-city-public-streetlights:2:155413","sourceLayerId":2,"sourceObjectId":155413,"sourceURL":"https://maps8.stlouis-mo.gov/arcgis/rest/services/STREETS/Streets_Permitting/MapServer/2","title":"Street light L048145"},"type":"Feature"},{"geometry":{"coordinates":[-90.30002640350536,38.654141144464646],"type":"Point"},"id":"stl-city-public-streetlights:2:155420","properties":{"address":null,"attributes":{"Date_Installed":"6/15/2017","LED_Powered":1,"LightID":"L048152","Light_Source":"LED","Light_Type":"Cobra","Lighting_Type":"LED-Powered Lamp","Verification_Date":null},"id":"stl-city-public-streetlights:2:155420","sourceLayerId":2,"sourceObjectId":155420,"sourceURL":"https://maps8.stlouis-mo.gov/arcgis/rest/services/STREETS/Streets_Permitting/MapServer/2","title":"Street light L048152"},"type":"Feature"},{"geometry":{"coordinates":[-90.30011159964252,38.65364651348864],"type":"Point"},"id":"stl-city-public-streetlights:2:155421","properties":{"address":null,"attributes":{"Date_Installed":"6/15/2017","LED_Powered":1,"LightID":"L048153","Light_Source":"LED","Light_Type":"Cobra","Lighting_Type":"LED-Powered Lamp","Verification_Date":null},"id":"stl-city-public-streetlights:2:155421","sourceLayerId":2,"sourceObjectId":155421,"sourceURL":"https://maps8.stlouis-mo.gov/arcgis/rest/services/STREETS/Streets_Permitting/MapServer/2","title":"Street light L048153"},"type":"Feature"},{"geometry":{"coordinates":[-90.30020045378912,38.653093133646614],"type":"Point"},"id":"stl-city-public-streetlights:2:155422","properties":{"address":null,"attributes":{"Date_Installed":"6/15/2017","LED_Powered":1,"LightID":"L048154","Light_Source":"LED","Light_Type":"Cobra","Lighting_Type":"LED-Powered Lamp","Verification_Date":null},"id":"stl-city-public-streetlights:2:155422","sourceLayerId":2,"sourceObjectId":155422,"sourceURL":"https://maps8.stlouis-mo.gov/arcgis/rest/services/STREETS/Streets_Permitting/MapServer/2","title":"Street light L048154"},"type":"Feature"},{"geometry":{"coordinates":[-90.30034646369772,38.65217998611557],"type":"Point"},"id":"stl-city-public-streetlights:2:155423","properties":{"address":null,"attributes":{"Date_Installed":"6/15/2017","LED_Powered":1,"LightID":"L048155","Light_Source":"LED","Light_Type":"Cobra","Lighting_Type":"LED-Powered Lamp","Verification_Date":null},"id":"stl-city-public-streetlights:2:155423","sourceLayerId":2,"sourceObjectId":155423,"sourceURL":"https://maps8.stlouis-mo.gov/arcgis/rest/services/STREETS/Streets_Permitting/MapServer/2","title":"Street light L048155"},"type":"Feature"},{"geometry":{"coordinates":[-90.30042520561479,38.65173629255263],"type":"Point"},"id":"stl-city-public-streetlights:2:155424","properties":{"address":null,"attributes":{"Date_Installed":"6/15/2017","LED_Powered":1,"LightID":"L048156","Light_Source":"LED","Light_Type":"Cobra","Lighting_Type":"LED-Powered Lamp","Verification_Date":null},"id":"stl-city-public-streetlights:2:155424","sourceLayerId":2,"sourceObjectId":155424,"sourceURL":"https://maps8.stlouis-mo.gov/arcgis/rest/services/STREETS/Streets_Permitting/MapServer/2","title":"Street light L048156"},"type":"Feature"},{"geometry":{"coordinates":[-90.3005073237405,38.65122646054675],"type":"Point"},"id":"stl-city-public-streetlights:2:155425","properties":{"address":null,"attributes":{"Date_Installed":"6/15/2017","LED_Powered":1,"LightID":"L048157","Light_Source":"LED","Light_Type":"Cobra","Lighting_Type":"LED-Powered Lamp","Verification_Date":null},"id":"stl-city-public-streetlights:2:155425","sourceLayerId":2,"sourceObjectId":155425,"sourceURL":"https://maps8.stlouis-mo.gov/arcgis/rest/services/STREETS/Streets_Permitting/MapServer/2","title":"Street light L048157"},"type":"Feature"},{"geometry":{"coordinates":[-90.30056518722449,38.650857695924074],"type":"Point"},"id":"stl-city-public-streetlights:2:155426","properties":{"address":null,"attributes":{"Date_Installed":"6/15/2017","LED_Powered":1,"LightID":"L048158","Light_Source":"LED","Light_Type":"Cobra","Lighting_Type":"LED-Powered Lamp","Verification_Date":null},"id":"stl-city-public-streetlights:2:155426","sourceLayerId":2,"sourceObjectId":155426,"sourceURL":"https://maps8.stlouis-mo.gov/arcgis/rest/services/STREETS/Streets_Permitting/MapServer/2","title":"Street light L048158"},"type":"Feature"},{"geometry":{"coordinates":[-90.30064548583033,38.65039970406206],"type":"Point"},"id":"stl-city-public-streetlights:2:155427","properties":{"address":null,"attributes":{"Date_Installed":"6/15/2017","LED_Powered":1,"LightID":"L048159","Light_Source":"LED","Light_Type":"Cobra","Lighting_Type":"LED-Powered Lamp","Verification_Date":null},"id":"stl-city-public-streetlights:2:155427","sourceLayerId":2,"sourceObjectId":155427,"sourceURL":"https://maps8.stlouis-mo.gov/arcgis/rest/services/STREETS/Streets_Permitting/MapServer/2","title":"Street light L048159"},"type":"Feature"},{"geometry":{"coordinates":[-90.30003035157203,38.65671378877879],"type":"Point"},"id":"stl-city-public-streetlights:2:159593","properties":{"address":null,"attributes":{"Date_Installed":null,"LED_Powered":0,"LightID":"L052519","Light_Source":"LED","Light_Type":"Cobra","Lighting_Type":"LED-Powered Lamp","Verification_Date":null},"id":"stl-city-public-streetlights:2:159593","sourceLayerId":2,"sourceObjectId":159593,"sourceURL":"https://maps8.stlouis-mo.gov/arcgis/rest/services/STREETS/Streets_Permitting/MapServer/2","title":"Street light L052519"},"type":"Feature"}],"layerId":"city-streetlights","retrievedAt":"2026-09-13T21:56:18.173251+00:00","schema":"property-infrastructure-geojson-v1","sourceId":"stl-city-public-streetlights","tileId":"-9031_3865","type":"FeatureCollection"}