{"features":[{"geometry":{"coordinates":[-90.31042120062325,38.61396367792447],"type":"Point"},"id":"stl-city-public-streetlights:2:123856","properties":{"address":null,"attributes":{"Date_Installed":null,"LED_Powered":0,"LightID":"L016584","Light_Source":"LED","Light_Type":"Cobra","Lighting_Type":"LED-Powered Lamp","Verification_Date":null},"id":"stl-city-public-streetlights:2:123856","sourceLayerId":2,"sourceObjectId":123856,"sourceURL":"https://maps8.stlouis-mo.gov/arcgis/rest/services/STREETS/Streets_Permitting/MapServer/2","title":"Street light L016584"},"type":"Feature"},{"geometry":{"coordinates":[-90.31086520741904,38.61401616269128],"type":"Point"},"id":"stl-city-public-streetlights:2:123857","properties":{"address":null,"attributes":{"Date_Installed":null,"LED_Powered":0,"LightID":"L016585","Light_Source":"LED","Light_Type":"Cobra","Lighting_Type":"LED-Powered Lamp","Verification_Date":null},"id":"stl-city-public-streetlights:2:123857","sourceLayerId":2,"sourceObjectId":123857,"sourceURL":"https://maps8.stlouis-mo.gov/arcgis/rest/services/STREETS/Streets_Permitting/MapServer/2","title":"Street light L016585"},"type":"Feature"},{"geometry":{"coordinates":[-90.31135033018207,38.61408090476655],"type":"Point"},"id":"stl-city-public-streetlights:2:123858","properties":{"address":null,"attributes":{"Date_Installed":null,"LED_Powered":0,"LightID":"L016586","Light_Source":"LED","Light_Type":"Cobra","Lighting_Type":"LED-Powered Lamp","Verification_Date":null},"id":"stl-city-public-streetlights:2:123858","sourceLayerId":2,"sourceObjectId":123858,"sourceURL":"https://maps8.stlouis-mo.gov/arcgis/rest/services/STREETS/Streets_Permitting/MapServer/2","title":"Street light L016586"},"type":"Feature"},{"geometry":{"coordinates":[-90.31185421254946,38.614093848361016],"type":"Point"},"id":"stl-city-public-streetlights:2:123859","properties":{"address":null,"attributes":{"Date_Installed":null,"LED_Powered":0,"LightID":"L016587","Light_Source":"LED","Light_Type":"Cobra","Lighting_Type":"LED-Powered Lamp","Verification_Date":null},"id":"stl-city-public-streetlights:2:123859","sourceLayerId":2,"sourceObjectId":123859,"sourceURL":"https://maps8.stlouis-mo.gov/arcgis/rest/services/STREETS/Streets_Permitting/MapServer/2","title":"Street light L016587"},"type":"Feature"},{"geometry":{"coordinates":[-90.31233469933123,38.614146106023306],"type":"Point"},"id":"stl-city-public-streetlights:2:123860","properties":{"address":null,"attributes":{"Date_Installed":null,"LED_Powered":0,"LightID":"L016588","Light_Source":"LED","Light_Type":"Cobra","Lighting_Type":"LED-Powered Lamp","Verification_Date":null},"id":"stl-city-public-streetlights:2:123860","sourceLayerId":2,"sourceObjectId":123860,"sourceURL":"https://maps8.stlouis-mo.gov/arcgis/rest/services/STREETS/Streets_Permitting/MapServer/2","title":"Street light L016588"},"type":"Feature"},{"geometry":{"coordinates":[-90.31203123555173,38.615360196094265],"type":"Point"},"id":"stl-city-public-streetlights:2:123861","properties":{"address":null,"attributes":{"Date_Installed":null,"LED_Powered":0,"LightID":"L016589","Light_Source":"LED","Light_Type":"Cobra","Lighting_Type":"LED-Powered Lamp","Verification_Date":null},"id":"stl-city-public-streetlights:2:123861","sourceLayerId":2,"sourceObjectId":123861,"sourceURL":"https://maps8.stlouis-mo.gov/arcgis/rest/services/STREETS/Streets_Permitting/MapServer/2","title":"Street light L016589"},"type":"Feature"},{"geometry":{"coordinates":[-90.31167868433621,38.6155836896502],"type":"Point"},"id":"stl-city-public-streetlights:2:123862","properties":{"address":null,"attributes":{"Date_Installed":null,"LED_Powered":0,"LightID":"L016590","Light_Source":"LED","Light_Type":"Cobra","Lighting_Type":"LED-Powered Lamp","Verification_Date":null},"id":"stl-city-public-streetlights:2:123862","sourceLayerId":2,"sourceObjectId":123862,"sourceURL":"https://maps8.stlouis-mo.gov/arcgis/rest/services/STREETS/Streets_Permitting/MapServer/2","title":"Street light L016590"},"type":"Feature"},{"geometry":{"coordinates":[-90.31130750134506,38.61578569910616],"type":"Point"},"id":"stl-city-public-streetlights:2:123863","properties":{"address":null,"attributes":{"Date_Installed":null,"LED_Powered":0,"LightID":"L016591","Light_Source":"LED","Light_Type":"Cobra","Lighting_Type":"LED-Powered Lamp","Verification_Date":null},"id":"stl-city-public-streetlights:2:123863","sourceLayerId":2,"sourceObjectId":123863,"sourceURL":"https://maps8.stlouis-mo.gov/arcgis/rest/services/STREETS/Streets_Permitting/MapServer/2","title":"Street light L016591"},"type":"Feature"},{"geometry":{"coordinates":[-90.31090521695118,38.615972163549344],"type":"Point"},"id":"stl-city-public-streetlights:2:123864","properties":{"address":null,"attributes":{"Date_Installed":null,"LED_Powered":0,"LightID":"L016592","Light_Source":"LED","Light_Type":"Cobra","Lighting_Type":"LED-Powered Lamp","Verification_Date":null},"id":"stl-city-public-streetlights:2:123864","sourceLayerId":2,"sourceObjectId":123864,"sourceURL":"https://maps8.stlouis-mo.gov/arcgis/rest/services/STREETS/Streets_Permitting/MapServer/2","title":"Street light L016592"},"type":"Feature"},{"geometry":{"coordinates":[-90.31051283271348,38.61614791659294],"type":"Point"},"id":"stl-city-public-streetlights:2:123865","properties":{"address":null,"attributes":{"Date_Installed":null,"LED_Powered":0,"LightID":"L016593","Light_Source":"LED","Light_Type":"Cobra","Lighting_Type":"LED-Powered Lamp","Verification_Date":1659599097000},"id":"stl-city-public-streetlights:2:123865","sourceLayerId":2,"sourceObjectId":123865,"sourceURL":"https://maps8.stlouis-mo.gov/arcgis/rest/services/STREETS/Streets_Permitting/MapServer/2","title":"Street light L016593"},"type":"Feature"},{"geometry":{"coordinates":[-90.31010178535688,38.616314699360245],"type":"Point"},"id":"stl-city-public-streetlights:2:123866","properties":{"address":null,"attributes":{"Date_Installed":null,"LED_Powered":0,"LightID":"L016594","Light_Source":"LED","Light_Type":"Cobra","Lighting_Type":"LED-Powered Lamp","Verification_Date":1659599097000},"id":"stl-city-public-streetlights:2:123866","sourceLayerId":2,"sourceObjectId":123866,"sourceURL":"https://maps8.stlouis-mo.gov/arcgis/rest/services/STREETS/Streets_Permitting/MapServer/2","title":"Street light L016594"},"type":"Feature"},{"geometry":{"coordinates":[-90.31066502775819,38.61821634344245],"type":"Point"},"id":"stl-city-public-streetlights:2:123869","properties":{"address":null,"attributes":{"Date_Installed":"3/26/20","LED_Powered":1,"LightID":"L016597","Light_Source":"LED","Light_Type":"Cobra","Lighting_Type":"LED-Powered Lamp","Verification_Date":null},"id":"stl-city-public-streetlights:2:123869","sourceLayerId":2,"sourceObjectId":123869,"sourceURL":"https://maps8.stlouis-mo.gov/arcgis/rest/services/STREETS/Streets_Permitting/MapServer/2","title":"Street light L016597"},"type":"Feature"},{"geometry":{"coordinates":[-90.31028111671665,38.618180682269674],"type":"Point"},"id":"stl-city-public-streetlights:2:123870","properties":{"address":null,"attributes":{"Date_Installed":"3/26/20","LED_Powered":1,"LightID":"L016598","Light_Source":"LED","Light_Type":"Cobra","Lighting_Type":"LED-Powered Lamp","Verification_Date":null},"id":"stl-city-public-streetlights:2:123870","sourceLayerId":2,"sourceObjectId":123870,"sourceURL":"https://maps8.stlouis-mo.gov/arcgis/rest/services/STREETS/Streets_Permitting/MapServer/2","title":"Street light L016598"},"type":"Feature"},{"geometry":{"coordinates":[-90.31102340643366,38.618099707530114],"type":"Point"},"id":"stl-city-public-streetlights:2:123874","properties":{"address":null,"attributes":{"Date_Installed":null,"LED_Powered":0,"LightID":"L016602","Light_Source":"LED","Light_Type":"Cobra","Lighting_Type":"LED-Powered Lamp","Verification_Date":null},"id":"stl-city-public-streetlights:2:123874","sourceLayerId":2,"sourceObjectId":123874,"sourceURL":"https://maps8.stlouis-mo.gov/arcgis/rest/services/STREETS/Streets_Permitting/MapServer/2","title":"Street light L016602"},"type":"Feature"},{"geometry":{"coordinates":[-90.3110973179134,38.61772083180055],"type":"Point"},"id":"stl-city-public-streetlights:2:123875","properties":{"address":null,"attributes":{"Date_Installed":null,"LED_Powered":0,"LightID":"L016603","Light_Source":"LED","Light_Type":"Cobra","Lighting_Type":"LED-Powered Lamp","Verification_Date":null},"id":"stl-city-public-streetlights:2:123875","sourceLayerId":2,"sourceObjectId":123875,"sourceURL":"https://maps8.stlouis-mo.gov/arcgis/rest/services/STREETS/Streets_Permitting/MapServer/2","title":"Street light L016603"},"type":"Feature"},{"geometry":{"coordinates":[-90.31116144278006,38.61736649135691],"type":"Point"},"id":"stl-city-public-streetlights:2:123876","properties":{"address":null,"attributes":{"Date_Installed":null,"LED_Powered":0,"LightID":"L016604","Light_Source":"LED","Light_Type":"Cobra","Lighting_Type":"LED-Powered Lamp","Verification_Date":null},"id":"stl-city-public-streetlights:2:123876","sourceLayerId":2,"sourceObjectId":123876,"sourceURL":"https://maps8.stlouis-mo.gov/arcgis/rest/services/STREETS/Streets_Permitting/MapServer/2","title":"Street light L016604"},"type":"Feature"},{"geometry":{"coordinates":[-90.31123765795948,38.61697118690787],"type":"Point"},"id":"stl-city-public-streetlights:2:123877","properties":{"address":null,"attributes":{"Date_Installed":null,"LED_Powered":0,"LightID":"L016605","Light_Source":"LED","Light_Type":"Cobra","Lighting_Type":"LED-Powered Lamp","Verification_Date":null},"id":"stl-city-public-streetlights:2:123877","sourceLayerId":2,"sourceObjectId":123877,"sourceURL":"https://maps8.stlouis-mo.gov/arcgis/rest/services/STREETS/Streets_Permitting/MapServer/2","title":"Street light L016605"},"type":"Feature"},{"geometry":{"coordinates":[-90.31130907111974,38.61659655465271],"type":"Point"},"id":"stl-city-public-streetlights:2:123878","properties":{"address":null,"attributes":{"Date_Installed":null,"LED_Powered":0,"LightID":"L016606","Light_Source":"LED","Light_Type":"Cobra","Lighting_Type":"LED-Powered Lamp","Verification_Date":null},"id":"stl-city-public-streetlights:2:123878","sourceLayerId":2,"sourceObjectId":123878,"sourceURL":"https://maps8.stlouis-mo.gov/arcgis/rest/services/STREETS/Streets_Permitting/MapServer/2","title":"Street light L016606"},"type":"Feature"},{"geometry":{"coordinates":[-90.31138481951172,38.616218824837475],"type":"Point"},"id":"stl-city-public-streetlights:2:123879","properties":{"address":null,"attributes":{"Date_Installed":null,"LED_Powered":0,"LightID":"L016607","Light_Source":"LED","Light_Type":"Cobra","Lighting_Type":"LED-Powered Lamp","Verification_Date":null},"id":"stl-city-public-streetlights:2:123879","sourceLayerId":2,"sourceObjectId":123879,"sourceURL":"https://maps8.stlouis-mo.gov/arcgis/rest/services/STREETS/Streets_Permitting/MapServer/2","title":"Street light L016607"},"type":"Feature"},{"geometry":{"coordinates":[-90.31144883515883,38.6158472426612],"type":"Point"},"id":"stl-city-public-streetlights:2:123880","properties":{"address":null,"attributes":{"Date_Installed":null,"LED_Powered":0,"LightID":"L016608","Light_Source":"LED","Light_Type":"Cobra","Lighting_Type":"LED-Powered Lamp","Verification_Date":null},"id":"stl-city-public-streetlights:2:123880","sourceLayerId":2,"sourceObjectId":123880,"sourceURL":"https://maps8.stlouis-mo.gov/arcgis/rest/services/STREETS/Streets_Permitting/MapServer/2","title":"Street light L016608"},"type":"Feature"},{"geometry":{"coordinates":[-90.31003656204894,38.61805085504752],"type":"Point"},"id":"stl-city-public-streetlights:2:123884","properties":{"address":null,"attributes":{"Date_Installed":"3/26/20","LED_Powered":1,"LightID":"L016612","Light_Source":"LED","Light_Type":"Cobra","Lighting_Type":"LED-Powered Lamp","Verification_Date":null},"id":"stl-city-public-streetlights:2:123884","sourceLayerId":2,"sourceObjectId":123884,"sourceURL":"https://maps8.stlouis-mo.gov/arcgis/rest/services/STREETS/Streets_Permitting/MapServer/2","title":"Street light L016612"},"type":"Feature"},{"geometry":{"coordinates":[-90.31010861651956,38.617686635367434],"type":"Point"},"id":"stl-city-public-streetlights:2:123885","properties":{"address":null,"attributes":{"Date_Installed":null,"LED_Powered":0,"LightID":"L016613","Light_Source":"LED","Light_Type":"Cobra","Lighting_Type":"LED-Powered Lamp","Verification_Date":null},"id":"stl-city-public-streetlights:2:123885","sourceLayerId":2,"sourceObjectId":123885,"sourceURL":"https://maps8.stlouis-mo.gov/arcgis/rest/services/STREETS/Streets_Permitting/MapServer/2","title":"Street light L016613"},"type":"Feature"},{"geometry":{"coordinates":[-90.31016964532195,38.617356007368976],"type":"Point"},"id":"stl-city-public-streetlights:2:123886","properties":{"address":null,"attributes":{"Date_Installed":null,"LED_Powered":0,"LightID":"L016614","Light_Source":"LED","Light_Type":"Cobra","Lighting_Type":"LED-Powered Lamp","Verification_Date":null},"id":"stl-city-public-streetlights:2:123886","sourceLayerId":2,"sourceObjectId":123886,"sourceURL":"https://maps8.stlouis-mo.gov/arcgis/rest/services/STREETS/Streets_Permitting/MapServer/2","title":"Street light L016614"},"type":"Feature"},{"geometry":{"coordinates":[-90.31023712786975,38.61699714406861],"type":"Point"},"id":"stl-city-public-streetlights:2:123887","properties":{"address":null,"attributes":{"Date_Installed":null,"LED_Powered":0,"LightID":"L016615","Light_Source":"LED","Light_Type":"Cobra","Lighting_Type":"LED-Powered Lamp","Verification_Date":null},"id":"stl-city-public-streetlights:2:123887","sourceLayerId":2,"sourceObjectId":123887,"sourceURL":"https://maps8.stlouis-mo.gov/arcgis/rest/services/STREETS/Streets_Permitting/MapServer/2","title":"Street light L016615"},"type":"Feature"},{"geometry":{"coordinates":[-90.3103055325691,38.616633633590276],"type":"Point"},"id":"stl-city-public-streetlights:2:123888","properties":{"address":null,"attributes":{"Date_Installed":null,"LED_Powered":0,"LightID":"L016616","Light_Source":"LED","Light_Type":"Cobra","Lighting_Type":"LED-Powered Lamp","Verification_Date":null},"id":"stl-city-public-streetlights:2:123888","sourceLayerId":2,"sourceObjectId":123888,"sourceURL":"https://maps8.stlouis-mo.gov/arcgis/rest/services/STREETS/Streets_Permitting/MapServer/2","title":"Street light L016616"},"type":"Feature"},{"geometry":{"coordinates":[-90.31037299586491,38.61628156287336],"type":"Point"},"id":"stl-city-public-streetlights:2:123889","properties":{"address":null,"attributes":{"Date_Installed":null,"LED_Powered":0,"LightID":"L016617","Light_Source":"LED","Light_Type":"Cobra","Lighting_Type":"LED-Powered Lamp","Verification_Date":1659599097000},"id":"stl-city-public-streetlights:2:123889","sourceLayerId":2,"sourceObjectId":123889,"sourceURL":"https://maps8.stlouis-mo.gov/arcgis/rest/services/STREETS/Streets_Permitting/MapServer/2","title":"Street light L016617"},"type":"Feature"},{"geometry":{"coordinates":[-90.31217640183131,38.61391845466843],"type":"Point"},"id":"stl-city-public-streetlights:2:123890","properties":{"address":null,"attributes":{"Date_Installed":null,"LED_Powered":0,"LightID":"L016618","Light_Source":"LED","Light_Type":"Cobra","Lighting_Type":"LED-Powered Lamp","Verification_Date":null},"id":"stl-city-public-streetlights:2:123890","sourceLayerId":2,"sourceObjectId":123890,"sourceURL":"https://maps8.stlouis-mo.gov/arcgis/rest/services/STREETS/Streets_Permitting/MapServer/2","title":"Street light L016618"},"type":"Feature"},{"geometry":{"coordinates":[-90.31224579095935,38.61358381538762],"type":"Point"},"id":"stl-city-public-streetlights:2:123891","properties":{"address":null,"attributes":{"Date_Installed":null,"LED_Powered":0,"LightID":"L016619","Light_Source":"LED","Light_Type":"Cobra","Lighting_Type":"LED-Powered Lamp","Verification_Date":null},"id":"stl-city-public-streetlights:2:123891","sourceLayerId":2,"sourceObjectId":123891,"sourceURL":"https://maps8.stlouis-mo.gov/arcgis/rest/services/STREETS/Streets_Permitting/MapServer/2","title":"Street light L016619"},"type":"Feature"},{"geometry":{"coordinates":[-90.31230906233607,38.6132581661666],"type":"Point"},"id":"stl-city-public-streetlights:2:123892","properties":{"address":null,"attributes":{"Date_Installed":null,"LED_Powered":0,"LightID":"L016620","Light_Source":"LED","Light_Type":"Cobra","Lighting_Type":"LED-Powered Lamp","Verification_Date":null},"id":"stl-city-public-streetlights:2:123892","sourceLayerId":2,"sourceObjectId":123892,"sourceURL":"https://maps8.stlouis-mo.gov/arcgis/rest/services/STREETS/Streets_Permitting/MapServer/2","title":"Street light L016620"},"type":"Feature"},{"geometry":{"coordinates":[-90.31098174215384,38.61314652598532],"type":"Point"},"id":"stl-city-public-streetlights:2:123893","properties":{"address":null,"attributes":{"Date_Installed":null,"LED_Powered":0,"LightID":"L016621","Light_Source":"LED","Light_Type":"Cobra","Lighting_Type":"LED-Powered Lamp","Verification_Date":null},"id":"stl-city-public-streetlights:2:123893","sourceLayerId":2,"sourceObjectId":123893,"sourceURL":"https://maps8.stlouis-mo.gov/arcgis/rest/services/STREETS/Streets_Permitting/MapServer/2","title":"Street light L016621"},"type":"Feature"},{"geometry":{"coordinates":[-90.31062551649923,38.61344151899872],"type":"Point"},"id":"stl-city-public-streetlights:2:123894","properties":{"address":null,"attributes":{"Date_Installed":null,"LED_Powered":0,"LightID":"L016622","Light_Source":"LED","Light_Type":"Cobra","Lighting_Type":"LED-Powered Lamp","Verification_Date":null},"id":"stl-city-public-streetlights:2:123894","sourceLayerId":2,"sourceObjectId":123894,"sourceURL":"https://maps8.stlouis-mo.gov/arcgis/rest/services/STREETS/Streets_Permitting/MapServer/2","title":"Street light L016622"},"type":"Feature"},{"geometry":{"coordinates":[-90.3102620286437,38.61372434337074],"type":"Point"},"id":"stl-city-public-streetlights:2:123895","properties":{"address":null,"attributes":{"Date_Installed":null,"LED_Powered":0,"LightID":"L016623","Light_Source":"LED","Light_Type":"Cobra","Lighting_Type":"LED-Powered Lamp","Verification_Date":null},"id":"stl-city-public-streetlights:2:123895","sourceLayerId":2,"sourceObjectId":123895,"sourceURL":"https://maps8.stlouis-mo.gov/arcgis/rest/services/STREETS/Streets_Permitting/MapServer/2","title":"Street light L016623"},"type":"Feature"},{"geometry":{"coordinates":[-90.31348354381765,38.611463372456065],"type":"Point"},"id":"stl-city-public-streetlights:2:123896","properties":{"address":null,"attributes":{"Date_Installed":null,"LED_Powered":0,"LightID":"L016624","Light_Source":"LED","Light_Type":"Cobra","Lighting_Type":"LED-Powered Lamp","Verification_Date":null},"id":"stl-city-public-streetlights:2:123896","sourceLayerId":2,"sourceObjectId":123896,"sourceURL":"https://maps8.stlouis-mo.gov/arcgis/rest/services/STREETS/Streets_Permitting/MapServer/2","title":"Street light L016624"},"type":"Feature"},{"geometry":{"coordinates":[-90.31349962873834,38.61163290409221],"type":"Point"},"id":"stl-city-public-streetlights:2:123897","properties":{"address":null,"attributes":{"Date_Installed":null,"LED_Powered":0,"LightID":"L016625","Light_Source":"LED","Light_Type":"Cobra","Lighting_Type":"LED-Powered Lamp","Verification_Date":null},"id":"stl-city-public-streetlights:2:123897","sourceLayerId":2,"sourceObjectId":123897,"sourceURL":"https://maps8.stlouis-mo.gov/arcgis/rest/services/STREETS/Streets_Permitting/MapServer/2","title":"Street light L016625"},"type":"Feature"},{"geometry":{"coordinates":[-90.3134127840104,38.611851462282736],"type":"Point"},"id":"stl-city-public-streetlights:2:123898","properties":{"address":null,"attributes":{"Date_Installed":null,"LED_Powered":0,"LightID":"L016626","Light_Source":"LED","Light_Type":"Cobra","Lighting_Type":"LED-Powered Lamp","Verification_Date":null},"id":"stl-city-public-streetlights:2:123898","sourceLayerId":2,"sourceObjectId":123898,"sourceURL":"https://maps8.stlouis-mo.gov/arcgis/rest/services/STREETS/Streets_Permitting/MapServer/2","title":"Street light L016626"},"type":"Feature"},{"geometry":{"coordinates":[-90.3133057377533,38.612127792258946],"type":"Point"},"id":"stl-city-public-streetlights:2:123899","properties":{"address":null,"attributes":{"Date_Installed":null,"LED_Powered":0,"LightID":"L016627","Light_Source":"LED","Light_Type":"Cobra","Lighting_Type":"LED-Powered Lamp","Verification_Date":null},"id":"stl-city-public-streetlights:2:123899","sourceLayerId":2,"sourceObjectId":123899,"sourceURL":"https://maps8.stlouis-mo.gov/arcgis/rest/services/STREETS/Streets_Permitting/MapServer/2","title":"Street light L016627"},"type":"Feature"},{"geometry":{"coordinates":[-90.31320332635015,38.61237433334248],"type":"Point"},"id":"stl-city-public-streetlights:2:123900","properties":{"address":null,"attributes":{"Date_Installed":null,"LED_Powered":0,"LightID":"L016628","Light_Source":"LED","Light_Type":"Cobra","Lighting_Type":"LED-Powered Lamp","Verification_Date":null},"id":"stl-city-public-streetlights:2:123900","sourceLayerId":2,"sourceObjectId":123900,"sourceURL":"https://maps8.stlouis-mo.gov/arcgis/rest/services/STREETS/Streets_Permitting/MapServer/2","title":"Street light L016628"},"type":"Feature"},{"geometry":{"coordinates":[-90.31306419271134,38.6127227158222],"type":"Point"},"id":"stl-city-public-streetlights:2:123901","properties":{"address":null,"attributes":{"Date_Installed":null,"LED_Powered":0,"LightID":"L016629","Light_Source":"LED","Light_Type":"Cobra","Lighting_Type":"LED-Powered Lamp","Verification_Date":null},"id":"stl-city-public-streetlights:2:123901","sourceLayerId":2,"sourceObjectId":123901,"sourceURL":"https://maps8.stlouis-mo.gov/arcgis/rest/services/STREETS/Streets_Permitting/MapServer/2","title":"Street light L016629"},"type":"Feature"},{"geometry":{"coordinates":[-90.31292614141019,38.61306676924619],"type":"Point"},"id":"stl-city-public-streetlights:2:123902","properties":{"address":null,"attributes":{"Date_Installed":null,"LED_Powered":0,"LightID":"L016630","Light_Source":"LED","Light_Type":"Cobra","Lighting_Type":"LED-Powered Lamp","Verification_Date":null},"id":"stl-city-public-streetlights:2:123902","sourceLayerId":2,"sourceObjectId":123902,"sourceURL":"https://maps8.stlouis-mo.gov/arcgis/rest/services/STREETS/Streets_Permitting/MapServer/2","title":"Street light L016630"},"type":"Feature"},{"geometry":{"coordinates":[-90.31224119966038,38.61039591300751],"type":"Point"},"id":"stl-city-public-streetlights:2:123903","properties":{"address":null,"attributes":{"Date_Installed":null,"LED_Powered":0,"LightID":"L016631","Light_Source":"LED","Light_Type":"Cobra","Lighting_Type":"LED-Powered Lamp","Verification_Date":null},"id":"stl-city-public-streetlights:2:123903","sourceLayerId":2,"sourceObjectId":123903,"sourceURL":"https://maps8.stlouis-mo.gov/arcgis/rest/services/STREETS/Streets_Permitting/MapServer/2","title":"Street light L016631"},"type":"Feature"},{"geometry":{"coordinates":[-90.3123008313614,38.61004138589744],"type":"Point"},"id":"stl-city-public-streetlights:2:123904","properties":{"address":null,"attributes":{"Date_Installed":null,"LED_Powered":0,"LightID":"L016632","Light_Source":"LED","Light_Type":"Cobra","Lighting_Type":"LED-Powered Lamp","Verification_Date":null},"id":"stl-city-public-streetlights:2:123904","sourceLayerId":2,"sourceObjectId":123904,"sourceURL":"https://maps8.stlouis-mo.gov/arcgis/rest/services/STREETS/Streets_Permitting/MapServer/2","title":"Street light L016632"},"type":"Feature"},{"geometry":{"coordinates":[-90.31053536100568,38.61270176053362],"type":"Point"},"id":"stl-city-public-streetlights:2:123906","properties":{"address":null,"attributes":{"Date_Installed":null,"LED_Powered":0,"LightID":"L016634","Light_Source":"LED","Light_Type":"Cobra","Lighting_Type":"LED-Powered Lamp","Verification_Date":null},"id":"stl-city-public-streetlights:2:123906","sourceLayerId":2,"sourceObjectId":123906,"sourceURL":"https://maps8.stlouis-mo.gov/arcgis/rest/services/STREETS/Streets_Permitting/MapServer/2","title":"Street light L016634"},"type":"Feature"},{"geometry":{"coordinates":[-90.31060811600092,38.6122995226977],"type":"Point"},"id":"stl-city-public-streetlights:2:123907","properties":{"address":null,"attributes":{"Date_Installed":null,"LED_Powered":0,"LightID":"L016635","Light_Source":"LED","Light_Type":"Cobra","Lighting_Type":"LED-Powered Lamp","Verification_Date":null},"id":"stl-city-public-streetlights:2:123907","sourceLayerId":2,"sourceObjectId":123907,"sourceURL":"https://maps8.stlouis-mo.gov/arcgis/rest/services/STREETS/Streets_Permitting/MapServer/2","title":"Street light L016635"},"type":"Feature"},{"geometry":{"coordinates":[-90.31068203987296,38.61191444961827],"type":"Point"},"id":"stl-city-public-streetlights:2:123908","properties":{"address":null,"attributes":{"Date_Installed":null,"LED_Powered":0,"LightID":"L016636","Light_Source":"LED","Light_Type":"Cobra","Lighting_Type":"LED-Powered Lamp","Verification_Date":null},"id":"stl-city-public-streetlights:2:123908","sourceLayerId":2,"sourceObjectId":123908,"sourceURL":"https://maps8.stlouis-mo.gov/arcgis/rest/services/STREETS/Streets_Permitting/MapServer/2","title":"Street light L016636"},"type":"Feature"},{"geometry":{"coordinates":[-90.31075229236069,38.61153890469455],"type":"Point"},"id":"stl-city-public-streetlights:2:123909","properties":{"address":null,"attributes":{"Date_Installed":null,"LED_Powered":0,"LightID":"L016637","Light_Source":"LED","Light_Type":"Cobra","Lighting_Type":"LED-Powered Lamp","Verification_Date":null},"id":"stl-city-public-streetlights:2:123909","sourceLayerId":2,"sourceObjectId":123909,"sourceURL":"https://maps8.stlouis-mo.gov/arcgis/rest/services/STREETS/Streets_Permitting/MapServer/2","title":"Street light L016637"},"type":"Feature"},{"geometry":{"coordinates":[-90.3108347029716,38.61116051901839],"type":"Point"},"id":"stl-city-public-streetlights:2:123910","properties":{"address":null,"attributes":{"Date_Installed":null,"LED_Powered":0,"LightID":"L016638","Light_Source":"LED","Light_Type":"Cobra","Lighting_Type":"LED-Powered Lamp","Verification_Date":null},"id":"stl-city-public-streetlights:2:123910","sourceLayerId":2,"sourceObjectId":123910,"sourceURL":"https://maps8.stlouis-mo.gov/arcgis/rest/services/STREETS/Streets_Permitting/MapServer/2","title":"Street light L016638"},"type":"Feature"},{"geometry":{"coordinates":[-90.31101177933681,38.610827097580156],"type":"Point"},"id":"stl-city-public-streetlights:2:123911","properties":{"address":null,"attributes":{"Date_Installed":null,"LED_Powered":0,"LightID":"L016639","Light_Source":"LED","Light_Type":"Cobra","Lighting_Type":"LED-Powered Lamp","Verification_Date":null},"id":"stl-city-public-streetlights:2:123911","sourceLayerId":2,"sourceObjectId":123911,"sourceURL":"https://maps8.stlouis-mo.gov/arcgis/rest/services/STREETS/Streets_Permitting/MapServer/2","title":"Street light L016639"},"type":"Feature"},{"geometry":{"coordinates":[-90.31118402512824,38.61048127355102],"type":"Point"},"id":"stl-city-public-streetlights:2:123912","properties":{"address":null,"attributes":{"Date_Installed":null,"LED_Powered":0,"LightID":"L016640","Light_Source":"LED","Light_Type":"Cobra","Lighting_Type":"LED-Powered Lamp","Verification_Date":null},"id":"stl-city-public-streetlights:2:123912","sourceLayerId":2,"sourceObjectId":123912,"sourceURL":"https://maps8.stlouis-mo.gov/arcgis/rest/services/STREETS/Streets_Permitting/MapServer/2","title":"Street light L016640"},"type":"Feature"},{"geometry":{"coordinates":[-90.31115817355685,38.610144903540295],"type":"Point"},"id":"stl-city-public-streetlights:2:123913","properties":{"address":null,"attributes":{"Date_Installed":null,"LED_Powered":0,"LightID":"L016641","Light_Source":"LED","Light_Type":"Cobra","Lighting_Type":"LED-Powered Lamp","Verification_Date":null},"id":"stl-city-public-streetlights:2:123913","sourceLayerId":2,"sourceObjectId":123913,"sourceURL":"https://maps8.stlouis-mo.gov/arcgis/rest/services/STREETS/Streets_Permitting/MapServer/2","title":"Street light L016641"},"type":"Feature"},{"geometry":{"coordinates":[-90.31004068791734,38.61106867936425],"type":"Point"},"id":"stl-city-public-streetlights:2:124069","properties":{"address":null,"attributes":{"Date_Installed":"6/15/2017","LED_Powered":1,"LightID":"L016797","Light_Source":"LED","Light_Type":"Cobra","Lighting_Type":"LED-Powered Lamp","Verification_Date":null},"id":"stl-city-public-streetlights:2:124069","sourceLayerId":2,"sourceObjectId":124069,"sourceURL":"https://maps8.stlouis-mo.gov/arcgis/rest/services/STREETS/Streets_Permitting/MapServer/2","title":"Street light L016797"},"type":"Feature"},{"geometry":{"coordinates":[-90.31027268372861,38.6106466785329],"type":"Point"},"id":"stl-city-public-streetlights:2:124070","properties":{"address":null,"attributes":{"Date_Installed":"6/15/2017","LED_Powered":1,"LightID":"L016798","Light_Source":"LED","Light_Type":"Cobra","Lighting_Type":"LED-Powered Lamp","Verification_Date":null},"id":"stl-city-public-streetlights:2:124070","sourceLayerId":2,"sourceObjectId":124070,"sourceURL":"https://maps8.stlouis-mo.gov/arcgis/rest/services/STREETS/Streets_Permitting/MapServer/2","title":"Street light L016798"},"type":"Feature"},{"geometry":{"coordinates":[-90.3107417589838,38.61840125702771],"type":"Point"},"id":"stl-city-public-streetlights:2:125335","properties":{"address":null,"attributes":{"Date_Installed":"3/26/20","LED_Powered":1,"LightID":"L018063","Light_Source":"LED","Light_Type":"Cobra","Lighting_Type":"LED-Powered Lamp","Verification_Date":null},"id":"stl-city-public-streetlights:2:125335","sourceLayerId":2,"sourceObjectId":125335,"sourceURL":"https://maps8.stlouis-mo.gov/arcgis/rest/services/STREETS/Streets_Permitting/MapServer/2","title":"Street light L018063"},"type":"Feature"},{"geometry":{"coordinates":[-90.3106752056592,38.618753924792166],"type":"Point"},"id":"stl-city-public-streetlights:2:125336","properties":{"address":null,"attributes":{"Date_Installed":"3/26/20","LED_Powered":1,"LightID":"L018064","Light_Source":"LED","Light_Type":"Cobra","Lighting_Type":"LED-Powered Lamp","Verification_Date":null},"id":"stl-city-public-streetlights:2:125336","sourceLayerId":2,"sourceObjectId":125336,"sourceURL":"https://maps8.stlouis-mo.gov/arcgis/rest/services/STREETS/Streets_Permitting/MapServer/2","title":"Street light L018064"},"type":"Feature"},{"geometry":{"coordinates":[-90.31060991925365,38.61908657219418],"type":"Point"},"id":"stl-city-public-streetlights:2:125337","properties":{"address":null,"attributes":{"Date_Installed":"3/26/20","LED_Powered":1,"LightID":"L018065","Light_Source":"LED","Light_Type":"Cobra","Lighting_Type":"LED-Powered Lamp","Verification_Date":null},"id":"stl-city-public-streetlights:2:125337","sourceLayerId":2,"sourceObjectId":125337,"sourceURL":"https://maps8.stlouis-mo.gov/arcgis/rest/services/STREETS/Streets_Permitting/MapServer/2","title":"Street light L018065"},"type":"Feature"},{"geometry":{"coordinates":[-90.31053241176812,38.61944494277644],"type":"Point"},"id":"stl-city-public-streetlights:2:125338","properties":{"address":null,"attributes":{"Date_Installed":"3/26/20","LED_Powered":1,"LightID":"L018066","Light_Source":"LED","Light_Type":"Cobra","Lighting_Type":"LED-Powered Lamp","Verification_Date":null},"id":"stl-city-public-streetlights:2:125338","sourceLayerId":2,"sourceObjectId":125338,"sourceURL":"https://maps8.stlouis-mo.gov/arcgis/rest/services/STREETS/Streets_Permitting/MapServer/2","title":"Street light L018066"},"type":"Feature"},{"geometry":{"coordinates":[-90.3104682987447,38.6197933242564],"type":"Point"},"id":"stl-city-public-streetlights:2:125339","properties":{"address":null,"attributes":{"Date_Installed":"3/26/20","LED_Powered":1,"LightID":"L018067","Light_Source":"LED","Light_Type":"Cobra","Lighting_Type":"LED-Powered Lamp","Verification_Date":null},"id":"stl-city-public-streetlights:2:125339","sourceLayerId":2,"sourceObjectId":125339,"sourceURL":"https://maps8.stlouis-mo.gov/arcgis/rest/services/STREETS/Streets_Permitting/MapServer/2","title":"Street light L018067"},"type":"Feature"},{"geometry":{"coordinates":[-90.31017484830151,38.610314738402444],"type":"Point"},"id":"stl-city-public-streetlights:2:134015","properties":{"address":null,"attributes":{"Date_Installed":"6/15/2017","LED_Powered":1,"LightID":"L026731","Light_Source":"LED","Light_Type":"Cobra","Lighting_Type":"LED-Powered Lamp","Verification_Date":1648771200000},"id":"stl-city-public-streetlights:2:134015","sourceLayerId":2,"sourceObjectId":134015,"sourceURL":"https://maps8.stlouis-mo.gov/arcgis/rest/services/STREETS/Streets_Permitting/MapServer/2","title":"Street light L026731"},"type":"Feature"},{"geometry":{"coordinates":[-90.31345725950594,38.610630483268146],"type":"Point"},"id":"stl-city-public-streetlights:2:135021","properties":{"address":null,"attributes":{"Date_Installed":null,"LED_Powered":0,"LightID":"L027737","Light_Source":"LED","Light_Type":"Cobra","Lighting_Type":"LED-Powered Lamp","Verification_Date":null},"id":"stl-city-public-streetlights:2:135021","sourceLayerId":2,"sourceObjectId":135021,"sourceURL":"https://maps8.stlouis-mo.gov/arcgis/rest/services/STREETS/Streets_Permitting/MapServer/2","title":"Street light L027737"},"type":"Feature"},{"geometry":{"coordinates":[-90.31302827968844,38.61058153050817],"type":"Point"},"id":"stl-city-public-streetlights:2:135022","properties":{"address":null,"attributes":{"Date_Installed":null,"LED_Powered":0,"LightID":"L027738","Light_Source":"LED","Light_Type":"Cobra","Lighting_Type":"LED-Powered Lamp","Verification_Date":null},"id":"stl-city-public-streetlights:2:135022","sourceLayerId":2,"sourceObjectId":135022,"sourceURL":"https://maps8.stlouis-mo.gov/arcgis/rest/services/STREETS/Streets_Permitting/MapServer/2","title":"Street light L027738"},"type":"Feature"},{"geometry":{"coordinates":[-90.31261114008998,38.61053497890373],"type":"Point"},"id":"stl-city-public-streetlights:2:135023","properties":{"address":null,"attributes":{"Date_Installed":null,"LED_Powered":0,"LightID":"L027739","Light_Source":"LED","Light_Type":"Cobra","Lighting_Type":"LED-Powered Lamp","Verification_Date":null},"id":"stl-city-public-streetlights:2:135023","sourceLayerId":2,"sourceObjectId":135023,"sourceURL":"https://maps8.stlouis-mo.gov/arcgis/rest/services/STREETS/Streets_Permitting/MapServer/2","title":"Street light L027739"},"type":"Feature"},{"geometry":{"coordinates":[-90.31217349830719,38.61048779651432],"type":"Point"},"id":"stl-city-public-streetlights:2:135024","properties":{"address":null,"attributes":{"Date_Installed":null,"LED_Powered":0,"LightID":"L027740","Light_Source":"LED","Light_Type":"Cobra","Lighting_Type":"LED-Powered Lamp","Verification_Date":null},"id":"stl-city-public-streetlights:2:135024","sourceLayerId":2,"sourceObjectId":135024,"sourceURL":"https://maps8.stlouis-mo.gov/arcgis/rest/services/STREETS/Streets_Permitting/MapServer/2","title":"Street light L027740"},"type":"Feature"},{"geometry":{"coordinates":[-90.31171187645023,38.61043342350555],"type":"Point"},"id":"stl-city-public-streetlights:2:135025","properties":{"address":null,"attributes":{"Date_Installed":null,"LED_Powered":0,"LightID":"L027741","Light_Source":"LED","Light_Type":"Cobra","Lighting_Type":"LED-Powered Lamp","Verification_Date":null},"id":"stl-city-public-streetlights:2:135025","sourceLayerId":2,"sourceObjectId":135025,"sourceURL":"https://maps8.stlouis-mo.gov/arcgis/rest/services/STREETS/Streets_Permitting/MapServer/2","title":"Street light L027741"},"type":"Feature"},{"geometry":{"coordinates":[-90.31129610450522,38.610387464905706],"type":"Point"},"id":"stl-city-public-streetlights:2:135026","properties":{"address":null,"attributes":{"Date_Installed":null,"LED_Powered":0,"LightID":"L027742","Light_Source":"LED","Light_Type":"Cobra","Lighting_Type":"LED-Powered Lamp","Verification_Date":null},"id":"stl-city-public-streetlights:2:135026","sourceLayerId":2,"sourceObjectId":135026,"sourceURL":"https://maps8.stlouis-mo.gov/arcgis/rest/services/STREETS/Streets_Permitting/MapServer/2","title":"Street light L027742"},"type":"Feature"},{"geometry":{"coordinates":[-90.31088579621843,38.61148000653429],"type":"Point"},"id":"stl-city-public-streetlights:2:135027","properties":{"address":null,"attributes":{"Date_Installed":null,"LED_Powered":0,"LightID":"L027743","Light_Source":"LED","Light_Type":"Cobra","Lighting_Type":"LED-Powered Lamp","Verification_Date":null},"id":"stl-city-public-streetlights:2:135027","sourceLayerId":2,"sourceObjectId":135027,"sourceURL":"https://maps8.stlouis-mo.gov/arcgis/rest/services/STREETS/Streets_Permitting/MapServer/2","title":"Street light L027743"},"type":"Feature"},{"geometry":{"coordinates":[-90.31136260121426,38.611539174807774],"type":"Point"},"id":"stl-city-public-streetlights:2:135028","properties":{"address":null,"attributes":{"Date_Installed":null,"LED_Powered":0,"LightID":"L027744","Light_Source":"LED","Light_Type":"Cobra","Lighting_Type":"LED-Powered Lamp","Verification_Date":null},"id":"stl-city-public-streetlights:2:135028","sourceLayerId":2,"sourceObjectId":135028,"sourceURL":"https://maps8.stlouis-mo.gov/arcgis/rest/services/STREETS/Streets_Permitting/MapServer/2","title":"Street light L027744"},"type":"Feature"},{"geometry":{"coordinates":[-90.31182514581602,38.611592359691805],"type":"Point"},"id":"stl-city-public-streetlights:2:135029","properties":{"address":null,"attributes":{"Date_Installed":null,"LED_Powered":0,"LightID":"L027745","Light_Source":"LED","Light_Type":"Cobra","Lighting_Type":"LED-Powered Lamp","Verification_Date":null},"id":"stl-city-public-streetlights:2:135029","sourceLayerId":2,"sourceObjectId":135029,"sourceURL":"https://maps8.stlouis-mo.gov/arcgis/rest/services/STREETS/Streets_Permitting/MapServer/2","title":"Street light L027745"},"type":"Feature"},{"geometry":{"coordinates":[-90.31227555405673,38.611639562961095],"type":"Point"},"id":"stl-city-public-streetlights:2:135030","properties":{"address":null,"attributes":{"Date_Installed":null,"LED_Powered":0,"LightID":"L027746","Light_Source":"LED","Light_Type":"Cobra","Lighting_Type":"LED-Powered Lamp","Verification_Date":null},"id":"stl-city-public-streetlights:2:135030","sourceLayerId":2,"sourceObjectId":135030,"sourceURL":"https://maps8.stlouis-mo.gov/arcgis/rest/services/STREETS/Streets_Permitting/MapServer/2","title":"Street light L027746"},"type":"Feature"},{"geometry":{"coordinates":[-90.31116450329316,38.61237717987576],"type":"Point"},"id":"stl-city-public-streetlights:2:135031","properties":{"address":null,"attributes":{"Date_Installed":null,"LED_Powered":0,"LightID":"L027747","Light_Source":"LED","Light_Type":"Cobra","Lighting_Type":"LED-Powered Lamp","Verification_Date":null},"id":"stl-city-public-streetlights:2:135031","sourceLayerId":2,"sourceObjectId":135031,"sourceURL":"https://maps8.stlouis-mo.gov/arcgis/rest/services/STREETS/Streets_Permitting/MapServer/2","title":"Street light L027747"},"type":"Feature"},{"geometry":{"coordinates":[-90.31071131821919,38.612324299413395],"type":"Point"},"id":"stl-city-public-streetlights:2:135032","properties":{"address":null,"attributes":{"Date_Installed":null,"LED_Powered":0,"LightID":"L027748","Light_Source":"LED","Light_Type":"Cobra","Lighting_Type":"LED-Powered Lamp","Verification_Date":null},"id":"stl-city-public-streetlights:2:135032","sourceLayerId":2,"sourceObjectId":135032,"sourceURL":"https://maps8.stlouis-mo.gov/arcgis/rest/services/STREETS/Streets_Permitting/MapServer/2","title":"Street light L027748"},"type":"Feature"},{"geometry":{"coordinates":[-90.31279122467156,38.613131573719286],"type":"Point"},"id":"stl-city-public-streetlights:2:135033","properties":{"address":null,"attributes":{"Date_Installed":null,"LED_Powered":0,"LightID":"L027749","Light_Source":"LED","Light_Type":"Cobra","Lighting_Type":"LED-Powered Lamp","Verification_Date":null},"id":"stl-city-public-streetlights:2:135033","sourceLayerId":2,"sourceObjectId":135033,"sourceURL":"https://maps8.stlouis-mo.gov/arcgis/rest/services/STREETS/Streets_Permitting/MapServer/2","title":"Street light L027749"},"type":"Feature"},{"geometry":{"coordinates":[-90.31227658046508,38.61306233983883],"type":"Point"},"id":"stl-city-public-streetlights:2:135034","properties":{"address":null,"attributes":{"Date_Installed":null,"LED_Powered":0,"LightID":"L027750","Light_Source":"LED","Light_Type":"Cobra","Lighting_Type":"LED-Powered Lamp","Verification_Date":null},"id":"stl-city-public-streetlights:2:135034","sourceLayerId":2,"sourceObjectId":135034,"sourceURL":"https://maps8.stlouis-mo.gov/arcgis/rest/services/STREETS/Streets_Permitting/MapServer/2","title":"Street light L027750"},"type":"Feature"},{"geometry":{"coordinates":[-90.31175944944728,38.612991191600635],"type":"Point"},"id":"stl-city-public-streetlights:2:135035","properties":{"address":null,"attributes":{"Date_Installed":null,"LED_Powered":0,"LightID":"L027751","Light_Source":"LED","Light_Type":"Cobra","Lighting_Type":"LED-Powered Lamp","Verification_Date":null},"id":"stl-city-public-streetlights:2:135035","sourceLayerId":2,"sourceObjectId":135035,"sourceURL":"https://maps8.stlouis-mo.gov/arcgis/rest/services/STREETS/Streets_Permitting/MapServer/2","title":"Street light L027751"},"type":"Feature"},{"geometry":{"coordinates":[-90.31124374449779,38.61293315409143],"type":"Point"},"id":"stl-city-public-streetlights:2:135036","properties":{"address":null,"attributes":{"Date_Installed":null,"LED_Powered":0,"LightID":"L027752","Light_Source":"LED","Light_Type":"Cobra","Lighting_Type":"LED-Powered Lamp","Verification_Date":null},"id":"stl-city-public-streetlights:2:135036","sourceLayerId":2,"sourceObjectId":135036,"sourceURL":"https://maps8.stlouis-mo.gov/arcgis/rest/services/STREETS/Streets_Permitting/MapServer/2","title":"Street light L027752"},"type":"Feature"},{"geometry":{"coordinates":[-90.31078782275137,38.612862478653085],"type":"Point"},"id":"stl-city-public-streetlights:2:135037","properties":{"address":null,"attributes":{"Date_Installed":null,"LED_Powered":0,"LightID":"L027753","Light_Source":"LED","Light_Type":"Cobra","Lighting_Type":"LED-Powered Lamp","Verification_Date":null},"id":"stl-city-public-streetlights:2:135037","sourceLayerId":2,"sourceObjectId":135037,"sourceURL":"https://maps8.stlouis-mo.gov/arcgis/rest/services/STREETS/Streets_Permitting/MapServer/2","title":"Street light L027753"},"type":"Feature"},{"geometry":{"coordinates":[-90.31030157982357,38.61289110921212],"type":"Point"},"id":"stl-city-public-streetlights:2:135038","properties":{"address":null,"attributes":{"Date_Installed":null,"LED_Powered":0,"LightID":"L027754","Light_Source":"LED","Light_Type":"Cobra","Lighting_Type":"LED-Powered Lamp","Verification_Date":null},"id":"stl-city-public-streetlights:2:135038","sourceLayerId":2,"sourceObjectId":135038,"sourceURL":"https://maps8.stlouis-mo.gov/arcgis/rest/services/STREETS/Streets_Permitting/MapServer/2","title":"Street light L027754"},"type":"Feature"}],"layerId":"city-streetlights","retrievedAt":"2026-09-13T21:56:18.173251+00:00","schema":"property-infrastructure-geojson-v1","sourceId":"stl-city-public-streetlights","tileId":"-9032_3861","type":"FeatureCollection"}