{"features":[{"geometry":{"coordinates":[-90.31122868707534,38.60008073677852],"type":"Point"},"id":"stl-city-public-streetlights:2:115454","properties":{"address":null,"attributes":{"Date_Installed":null,"LED_Powered":0,"LightID":"L008191","Light_Source":"LED","Light_Type":"Cobra","Lighting_Type":"LED-Powered Lamp","Verification_Date":null},"id":"stl-city-public-streetlights:2:115454","sourceLayerId":2,"sourceObjectId":115454,"sourceURL":"https://maps8.stlouis-mo.gov/arcgis/rest/services/STREETS/Streets_Permitting/MapServer/2","title":"Street light L008191"},"type":"Feature"},{"geometry":{"coordinates":[-90.31024210856735,38.6031506334663],"type":"Point"},"id":"stl-city-public-streetlights:2:116925","properties":{"address":null,"attributes":{"Date_Installed":null,"LED_Powered":0,"LightID":"L009650","Light_Source":"LED","Light_Type":"Cobra","Lighting_Type":"LED-Powered Lamp","Verification_Date":null},"id":"stl-city-public-streetlights:2:116925","sourceLayerId":2,"sourceObjectId":116925,"sourceURL":"https://maps8.stlouis-mo.gov/arcgis/rest/services/STREETS/Streets_Permitting/MapServer/2","title":"Street light L009650"},"type":"Feature"},{"geometry":{"coordinates":[-90.31048798370158,38.60288373341701],"type":"Point"},"id":"stl-city-public-streetlights:2:116926","properties":{"address":null,"attributes":{"Date_Installed":null,"LED_Powered":0,"LightID":"L009651","Light_Source":"LED","Light_Type":"Cobra","Lighting_Type":"LED-Powered Lamp","Verification_Date":null},"id":"stl-city-public-streetlights:2:116926","sourceLayerId":2,"sourceObjectId":116926,"sourceURL":"https://maps8.stlouis-mo.gov/arcgis/rest/services/STREETS/Streets_Permitting/MapServer/2","title":"Street light L009651"},"type":"Feature"},{"geometry":{"coordinates":[-90.31071423313605,38.60256526444831],"type":"Point"},"id":"stl-city-public-streetlights:2:116927","properties":{"address":null,"attributes":{"Date_Installed":null,"LED_Powered":0,"LightID":"L009652","Light_Source":"LED","Light_Type":"Cobra","Lighting_Type":"LED-Powered Lamp","Verification_Date":null},"id":"stl-city-public-streetlights:2:116927","sourceLayerId":2,"sourceObjectId":116927,"sourceURL":"https://maps8.stlouis-mo.gov/arcgis/rest/services/STREETS/Streets_Permitting/MapServer/2","title":"Street light L009652"},"type":"Feature"},{"geometry":{"coordinates":[-90.31082457189878,38.602212952041754],"type":"Point"},"id":"stl-city-public-streetlights:2:116928","properties":{"address":null,"attributes":{"Date_Installed":null,"LED_Powered":0,"LightID":"L009653","Light_Source":"LED","Light_Type":"Cobra","Lighting_Type":"LED-Powered Lamp","Verification_Date":null},"id":"stl-city-public-streetlights:2:116928","sourceLayerId":2,"sourceObjectId":116928,"sourceURL":"https://maps8.stlouis-mo.gov/arcgis/rest/services/STREETS/Streets_Permitting/MapServer/2","title":"Street light L009653"},"type":"Feature"},{"geometry":{"coordinates":[-90.31089016299659,38.601844490719834],"type":"Point"},"id":"stl-city-public-streetlights:2:116929","properties":{"address":null,"attributes":{"Date_Installed":null,"LED_Powered":0,"LightID":"L009654","Light_Source":"LED","Light_Type":"Cobra","Lighting_Type":"LED-Powered Lamp","Verification_Date":null},"id":"stl-city-public-streetlights:2:116929","sourceLayerId":2,"sourceObjectId":116929,"sourceURL":"https://maps8.stlouis-mo.gov/arcgis/rest/services/STREETS/Streets_Permitting/MapServer/2","title":"Street light L009654"},"type":"Feature"},{"geometry":{"coordinates":[-90.31096496892529,38.601495231505446],"type":"Point"},"id":"stl-city-public-streetlights:2:116930","properties":{"address":null,"attributes":{"Date_Installed":null,"LED_Powered":0,"LightID":"L009655","Light_Source":"LED","Light_Type":"Cobra","Lighting_Type":"LED-Powered Lamp","Verification_Date":null},"id":"stl-city-public-streetlights:2:116930","sourceLayerId":2,"sourceObjectId":116930,"sourceURL":"https://maps8.stlouis-mo.gov/arcgis/rest/services/STREETS/Streets_Permitting/MapServer/2","title":"Street light L009655"},"type":"Feature"},{"geometry":{"coordinates":[-90.31102664375766,38.60114255464064],"type":"Point"},"id":"stl-city-public-streetlights:2:116931","properties":{"address":null,"attributes":{"Date_Installed":null,"LED_Powered":0,"LightID":"L009656","Light_Source":"LED","Light_Type":"Cobra","Lighting_Type":"LED-Powered Lamp","Verification_Date":null},"id":"stl-city-public-streetlights:2:116931","sourceLayerId":2,"sourceObjectId":116931,"sourceURL":"https://maps8.stlouis-mo.gov/arcgis/rest/services/STREETS/Streets_Permitting/MapServer/2","title":"Street light L009656"},"type":"Feature"},{"geometry":{"coordinates":[-90.31108973174219,38.60080149976072],"type":"Point"},"id":"stl-city-public-streetlights:2:116932","properties":{"address":null,"attributes":{"Date_Installed":null,"LED_Powered":0,"LightID":"L009657","Light_Source":"LED","Light_Type":"Cobra","Lighting_Type":"LED-Powered Lamp","Verification_Date":null},"id":"stl-city-public-streetlights:2:116932","sourceLayerId":2,"sourceObjectId":116932,"sourceURL":"https://maps8.stlouis-mo.gov/arcgis/rest/services/STREETS/Streets_Permitting/MapServer/2","title":"Street light L009657"},"type":"Feature"},{"geometry":{"coordinates":[-90.3111572763499,38.600440071944696],"type":"Point"},"id":"stl-city-public-streetlights:2:116933","properties":{"address":null,"attributes":{"Date_Installed":null,"LED_Powered":0,"LightID":"L009658","Light_Source":"LED","Light_Type":"Cobra","Lighting_Type":"LED-Powered Lamp","Verification_Date":null},"id":"stl-city-public-streetlights:2:116933","sourceLayerId":2,"sourceObjectId":116933,"sourceURL":"https://maps8.stlouis-mo.gov/arcgis/rest/services/STREETS/Streets_Permitting/MapServer/2","title":"Street light L009658"},"type":"Feature"},{"geometry":{"coordinates":[-90.31015482546509,38.600659120964565],"type":"Point"},"id":"stl-city-public-streetlights:2:116982","properties":{"address":null,"attributes":{"Date_Installed":null,"LED_Powered":0,"LightID":"L009707","Light_Source":"LED","Light_Type":"Cobra","Lighting_Type":"LED-Powered Lamp","Verification_Date":null},"id":"stl-city-public-streetlights:2:116982","sourceLayerId":2,"sourceObjectId":116982,"sourceURL":"https://maps8.stlouis-mo.gov/arcgis/rest/services/STREETS/Streets_Permitting/MapServer/2","title":"Street light L009707"},"type":"Feature"},{"geometry":{"coordinates":[-90.31059848886281,38.60070355582163],"type":"Point"},"id":"stl-city-public-streetlights:2:116983","properties":{"address":null,"attributes":{"Date_Installed":null,"LED_Powered":0,"LightID":"L009708","Light_Source":"LED","Light_Type":"Cobra","Lighting_Type":"LED-Powered Lamp","Verification_Date":null},"id":"stl-city-public-streetlights:2:116983","sourceLayerId":2,"sourceObjectId":116983,"sourceURL":"https://maps8.stlouis-mo.gov/arcgis/rest/services/STREETS/Streets_Permitting/MapServer/2","title":"Street light L009708"},"type":"Feature"},{"geometry":{"coordinates":[-90.31103471554142,38.60074635447526],"type":"Point"},"id":"stl-city-public-streetlights:2:116984","properties":{"address":null,"attributes":{"Date_Installed":null,"LED_Powered":0,"LightID":"L009709","Light_Source":"LED","Light_Type":"Cobra","Lighting_Type":"LED-Powered Lamp","Verification_Date":null},"id":"stl-city-public-streetlights:2:116984","sourceLayerId":2,"sourceObjectId":116984,"sourceURL":"https://maps8.stlouis-mo.gov/arcgis/rest/services/STREETS/Streets_Permitting/MapServer/2","title":"Street light L009709"},"type":"Feature"},{"geometry":{"coordinates":[-90.31147335737901,38.60079473554422],"type":"Point"},"id":"stl-city-public-streetlights:2:116985","properties":{"address":null,"attributes":{"Date_Installed":null,"LED_Powered":0,"LightID":"L009710","Light_Source":"LED","Light_Type":"Cobra","Lighting_Type":"LED-Powered Lamp","Verification_Date":null},"id":"stl-city-public-streetlights:2:116985","sourceLayerId":2,"sourceObjectId":116985,"sourceURL":"https://maps8.stlouis-mo.gov/arcgis/rest/services/STREETS/Streets_Permitting/MapServer/2","title":"Street light L009710"},"type":"Feature"},{"geometry":{"coordinates":[-90.31188057768708,38.600837104135856],"type":"Point"},"id":"stl-city-public-streetlights:2:116986","properties":{"address":null,"attributes":{"Date_Installed":null,"LED_Powered":0,"LightID":"L009711","Light_Source":"LED","Light_Type":"Cobra","Lighting_Type":"LED-Powered Lamp","Verification_Date":null},"id":"stl-city-public-streetlights:2:116986","sourceLayerId":2,"sourceObjectId":116986,"sourceURL":"https://maps8.stlouis-mo.gov/arcgis/rest/services/STREETS/Streets_Permitting/MapServer/2","title":"Street light L009711"},"type":"Feature"},{"geometry":{"coordinates":[-90.31231177911785,38.60088546920124],"type":"Point"},"id":"stl-city-public-streetlights:2:116987","properties":{"address":null,"attributes":{"Date_Installed":null,"LED_Powered":0,"LightID":"L009712","Light_Source":"LED","Light_Type":"Cobra","Lighting_Type":"LED-Powered Lamp","Verification_Date":null},"id":"stl-city-public-streetlights:2:116987","sourceLayerId":2,"sourceObjectId":116987,"sourceURL":"https://maps8.stlouis-mo.gov/arcgis/rest/services/STREETS/Streets_Permitting/MapServer/2","title":"Street light L009712"},"type":"Feature"},{"geometry":{"coordinates":[-90.3127359101453,38.600757197075716],"type":"Point"},"id":"stl-city-public-streetlights:2:116988","properties":{"address":null,"attributes":{"Date_Installed":null,"LED_Powered":0,"LightID":"L009713","Light_Source":"LED","Light_Type":"Cobra","Lighting_Type":"LED-Powered Lamp","Verification_Date":null},"id":"stl-city-public-streetlights:2:116988","sourceLayerId":2,"sourceObjectId":116988,"sourceURL":"https://maps8.stlouis-mo.gov/arcgis/rest/services/STREETS/Streets_Permitting/MapServer/2","title":"Street light L009713"},"type":"Feature"},{"geometry":{"coordinates":[-90.31312047348713,38.60051706532283],"type":"Point"},"id":"stl-city-public-streetlights:2:116989","properties":{"address":null,"attributes":{"Date_Installed":null,"LED_Powered":0,"LightID":"L009714","Light_Source":"LED","Light_Type":"Cobra","Lighting_Type":"LED-Powered Lamp","Verification_Date":null},"id":"stl-city-public-streetlights:2:116989","sourceLayerId":2,"sourceObjectId":116989,"sourceURL":"https://maps8.stlouis-mo.gov/arcgis/rest/services/STREETS/Streets_Permitting/MapServer/2","title":"Street light L009714"},"type":"Feature"},{"geometry":{"coordinates":[-90.31349894950847,38.60028145229943],"type":"Point"},"id":"stl-city-public-streetlights:2:116990","properties":{"address":null,"attributes":{"Date_Installed":null,"LED_Powered":0,"LightID":"L009715","Light_Source":"LED","Light_Type":"Cobra","Lighting_Type":"LED-Powered Lamp","Verification_Date":null},"id":"stl-city-public-streetlights:2:116990","sourceLayerId":2,"sourceObjectId":116990,"sourceURL":"https://maps8.stlouis-mo.gov/arcgis/rest/services/STREETS/Streets_Permitting/MapServer/2","title":"Street light L009715"},"type":"Feature"},{"geometry":{"coordinates":[-90.31391862081223,38.60008904657042],"type":"Point"},"id":"stl-city-public-streetlights:2:116991","properties":{"address":null,"attributes":{"Date_Installed":null,"LED_Powered":0,"LightID":"L009716","Light_Source":"LED","Light_Type":"Cobra","Lighting_Type":"LED-Powered Lamp","Verification_Date":null},"id":"stl-city-public-streetlights:2:116991","sourceLayerId":2,"sourceObjectId":116991,"sourceURL":"https://maps8.stlouis-mo.gov/arcgis/rest/services/STREETS/Streets_Permitting/MapServer/2","title":"Street light L009716"},"type":"Feature"},{"geometry":{"coordinates":[-90.31160113515791,38.60157145606244],"type":"Point"},"id":"stl-city-public-streetlights:2:116992","properties":{"address":null,"attributes":{"Date_Installed":null,"LED_Powered":0,"LightID":"L009717","Light_Source":"LED","Light_Type":"Cobra","Lighting_Type":"LED-Powered Lamp","Verification_Date":null},"id":"stl-city-public-streetlights:2:116992","sourceLayerId":2,"sourceObjectId":116992,"sourceURL":"https://maps8.stlouis-mo.gov/arcgis/rest/services/STREETS/Streets_Permitting/MapServer/2","title":"Street light L009717"},"type":"Feature"},{"geometry":{"coordinates":[-90.31120386901763,38.60184372786643],"type":"Point"},"id":"stl-city-public-streetlights:2:116993","properties":{"address":null,"attributes":{"Date_Installed":null,"LED_Powered":0,"LightID":"L009718","Light_Source":"LED","Light_Type":"Cobra","Lighting_Type":"LED-Powered Lamp","Verification_Date":null},"id":"stl-city-public-streetlights:2:116993","sourceLayerId":2,"sourceObjectId":116993,"sourceURL":"https://maps8.stlouis-mo.gov/arcgis/rest/services/STREETS/Streets_Permitting/MapServer/2","title":"Street light L009718"},"type":"Feature"},{"geometry":{"coordinates":[-90.31074421647907,38.60180093790922],"type":"Point"},"id":"stl-city-public-streetlights:2:116994","properties":{"address":null,"attributes":{"Date_Installed":null,"LED_Powered":0,"LightID":"L009719","Light_Source":"LED","Light_Type":"Cobra","Lighting_Type":"LED-Powered Lamp","Verification_Date":null},"id":"stl-city-public-streetlights:2:116994","sourceLayerId":2,"sourceObjectId":116994,"sourceURL":"https://maps8.stlouis-mo.gov/arcgis/rest/services/STREETS/Streets_Permitting/MapServer/2","title":"Street light L009719"},"type":"Feature"},{"geometry":{"coordinates":[-90.31031756724154,38.60175257444984],"type":"Point"},"id":"stl-city-public-streetlights:2:116995","properties":{"address":null,"attributes":{"Date_Installed":null,"LED_Powered":0,"LightID":"L009720","Light_Source":"LED","Light_Type":"Cobra","Lighting_Type":"LED-Powered Lamp","Verification_Date":null},"id":"stl-city-public-streetlights:2:116995","sourceLayerId":2,"sourceObjectId":116995,"sourceURL":"https://maps8.stlouis-mo.gov/arcgis/rest/services/STREETS/Streets_Permitting/MapServer/2","title":"Street light L009720"},"type":"Feature"},{"geometry":{"coordinates":[-90.3103308221874,38.602723268002464],"type":"Point"},"id":"stl-city-public-streetlights:2:117245","properties":{"address":null,"attributes":{"Date_Installed":null,"LED_Powered":0,"LightID":"L009970","Light_Source":"LED","Light_Type":"Cobra","Lighting_Type":"LED-Powered Lamp","Verification_Date":null},"id":"stl-city-public-streetlights:2:117245","sourceLayerId":2,"sourceObjectId":117245,"sourceURL":"https://maps8.stlouis-mo.gov/arcgis/rest/services/STREETS/Streets_Permitting/MapServer/2","title":"Street light L009970"},"type":"Feature"},{"geometry":{"coordinates":[-90.31561804758068,38.600432753541604],"type":"Point"},"id":"stl-city-public-streetlights:2:117329","properties":{"address":null,"attributes":{"Date_Installed":"6/15/2017","LED_Powered":1,"LightID":"L010054","Light_Source":"LED","Light_Type":"Cobra","Lighting_Type":"LED-Powered Lamp","Verification_Date":null},"id":"stl-city-public-streetlights:2:117329","sourceLayerId":2,"sourceObjectId":117329,"sourceURL":"https://maps8.stlouis-mo.gov/arcgis/rest/services/STREETS/Streets_Permitting/MapServer/2","title":"Street light L010054"},"type":"Feature"},{"geometry":{"coordinates":[-90.3156467990311,38.60075445391359],"type":"Point"},"id":"stl-city-public-streetlights:2:117330","properties":{"address":null,"attributes":{"Date_Installed":"6/15/2017","LED_Powered":1,"LightID":"L010055","Light_Source":"LED","Light_Type":"Cobra","Lighting_Type":"LED-Powered Lamp","Verification_Date":null},"id":"stl-city-public-streetlights:2:117330","sourceLayerId":2,"sourceObjectId":117330,"sourceURL":"https://maps8.stlouis-mo.gov/arcgis/rest/services/STREETS/Streets_Permitting/MapServer/2","title":"Street light L010055"},"type":"Feature"},{"geometry":{"coordinates":[-90.31122941107604,38.60907016725178],"type":"Point"},"id":"stl-city-public-streetlights:2:118433","properties":{"address":null,"attributes":{"Date_Installed":"6/15/2017","LED_Powered":1,"LightID":"L011158","Light_Source":"LED","Light_Type":"Cobra","Lighting_Type":"LED-Powered Lamp","Verification_Date":null},"id":"stl-city-public-streetlights:2:118433","sourceLayerId":2,"sourceObjectId":118433,"sourceURL":"https://maps8.stlouis-mo.gov/arcgis/rest/services/STREETS/Streets_Permitting/MapServer/2","title":"Street light L011158"},"type":"Feature"},{"geometry":{"coordinates":[-90.31141323098169,38.60880059427089],"type":"Point"},"id":"stl-city-public-streetlights:2:118434","properties":{"address":null,"attributes":{"Date_Installed":null,"LED_Powered":0,"LightID":"L011159","Light_Source":"LED","Light_Type":"Cobra","Lighting_Type":"LED-Powered Lamp","Verification_Date":null},"id":"stl-city-public-streetlights:2:118434","sourceLayerId":2,"sourceObjectId":118434,"sourceURL":"https://maps8.stlouis-mo.gov/arcgis/rest/services/STREETS/Streets_Permitting/MapServer/2","title":"Street light L011159"},"type":"Feature"},{"geometry":{"coordinates":[-90.31151307250258,38.608634422002915],"type":"Point"},"id":"stl-city-public-streetlights:2:118435","properties":{"address":null,"attributes":{"Date_Installed":"6/15/2017","LED_Powered":1,"LightID":"L011160","Light_Source":"LED","Light_Type":"Cobra","Lighting_Type":"LED-Powered Lamp","Verification_Date":null},"id":"stl-city-public-streetlights:2:118435","sourceLayerId":2,"sourceObjectId":118435,"sourceURL":"https://maps8.stlouis-mo.gov/arcgis/rest/services/STREETS/Streets_Permitting/MapServer/2","title":"Street light L011160"},"type":"Feature"},{"geometry":{"coordinates":[-90.31178215585837,38.60802154924132],"type":"Point"},"id":"stl-city-public-streetlights:2:118436","properties":{"address":null,"attributes":{"Date_Installed":"6/15/2017","LED_Powered":1,"LightID":"L011161","Light_Source":"LED","Light_Type":"Cobra","Lighting_Type":"LED-Powered Lamp","Verification_Date":null},"id":"stl-city-public-streetlights:2:118436","sourceLayerId":2,"sourceObjectId":118436,"sourceURL":"https://maps8.stlouis-mo.gov/arcgis/rest/services/STREETS/Streets_Permitting/MapServer/2","title":"Street light L011161"},"type":"Feature"},{"geometry":{"coordinates":[-90.3121041010159,38.60769694080187],"type":"Point"},"id":"stl-city-public-streetlights:2:118437","properties":{"address":null,"attributes":{"Date_Installed":"6/15/2017","LED_Powered":1,"LightID":"L011162","Light_Source":"LED","Light_Type":"Cobra","Lighting_Type":"LED-Powered Lamp","Verification_Date":null},"id":"stl-city-public-streetlights:2:118437","sourceLayerId":2,"sourceObjectId":118437,"sourceURL":"https://maps8.stlouis-mo.gov/arcgis/rest/services/STREETS/Streets_Permitting/MapServer/2","title":"Street light L011162"},"type":"Feature"},{"geometry":{"coordinates":[-90.31259453126228,38.60730848018639],"type":"Point"},"id":"stl-city-public-streetlights:2:118438","properties":{"address":null,"attributes":{"Date_Installed":"6/15/2017","LED_Powered":1,"LightID":"L011163","Light_Source":"LED","Light_Type":"Cobra","Lighting_Type":"LED-Powered Lamp","Verification_Date":null},"id":"stl-city-public-streetlights:2:118438","sourceLayerId":2,"sourceObjectId":118438,"sourceURL":"https://maps8.stlouis-mo.gov/arcgis/rest/services/STREETS/Streets_Permitting/MapServer/2","title":"Street light L011163"},"type":"Feature"},{"geometry":{"coordinates":[-90.31322589046592,38.60678633613793],"type":"Point"},"id":"stl-city-public-streetlights:2:118439","properties":{"address":null,"attributes":{"Date_Installed":"6/15/2017","LED_Powered":1,"LightID":"L011164","Light_Source":"LED","Light_Type":"Cobra","Lighting_Type":"LED-Powered Lamp","Verification_Date":null},"id":"stl-city-public-streetlights:2:118439","sourceLayerId":2,"sourceObjectId":118439,"sourceURL":"https://maps8.stlouis-mo.gov/arcgis/rest/services/STREETS/Streets_Permitting/MapServer/2","title":"Street light L011164"},"type":"Feature"},{"geometry":{"coordinates":[-90.31357628551463,38.60649016519098],"type":"Point"},"id":"stl-city-public-streetlights:2:118440","properties":{"address":null,"attributes":{"Date_Installed":"6/15/2017","LED_Powered":1,"LightID":"L011165","Light_Source":"LED","Light_Type":"Cobra","Lighting_Type":"LED-Powered Lamp","Verification_Date":null},"id":"stl-city-public-streetlights:2:118440","sourceLayerId":2,"sourceObjectId":118440,"sourceURL":"https://maps8.stlouis-mo.gov/arcgis/rest/services/STREETS/Streets_Permitting/MapServer/2","title":"Street light L011165"},"type":"Feature"},{"geometry":{"coordinates":[-90.31388862611861,38.606192865101804],"type":"Point"},"id":"stl-city-public-streetlights:2:118441","properties":{"address":null,"attributes":{"Date_Installed":"6/15/2017","LED_Powered":1,"LightID":"L011166","Light_Source":"LED","Light_Type":"Cobra","Lighting_Type":"LED-Powered Lamp","Verification_Date":null},"id":"stl-city-public-streetlights:2:118441","sourceLayerId":2,"sourceObjectId":118441,"sourceURL":"https://maps8.stlouis-mo.gov/arcgis/rest/services/STREETS/Streets_Permitting/MapServer/2","title":"Street light L011166"},"type":"Feature"},{"geometry":{"coordinates":[-90.31410054736274,38.60581421419056],"type":"Point"},"id":"stl-city-public-streetlights:2:118442","properties":{"address":null,"attributes":{"Date_Installed":"6/15/2017","LED_Powered":1,"LightID":"L011167","Light_Source":"LED","Light_Type":"Cobra","Lighting_Type":"LED-Powered Lamp","Verification_Date":null},"id":"stl-city-public-streetlights:2:118442","sourceLayerId":2,"sourceObjectId":118442,"sourceURL":"https://maps8.stlouis-mo.gov/arcgis/rest/services/STREETS/Streets_Permitting/MapServer/2","title":"Street light L011167"},"type":"Feature"},{"geometry":{"coordinates":[-90.31430620417346,38.605253959433256],"type":"Point"},"id":"stl-city-public-streetlights:2:118443","properties":{"address":null,"attributes":{"Date_Installed":"6/15/2017","LED_Powered":1,"LightID":"L011168","Light_Source":"LED","Light_Type":"Cobra","Lighting_Type":"LED-Powered Lamp","Verification_Date":null},"id":"stl-city-public-streetlights:2:118443","sourceLayerId":2,"sourceObjectId":118443,"sourceURL":"https://maps8.stlouis-mo.gov/arcgis/rest/services/STREETS/Streets_Permitting/MapServer/2","title":"Street light L011168"},"type":"Feature"},{"geometry":{"coordinates":[-90.31420794679384,38.60475309386746],"type":"Point"},"id":"stl-city-public-streetlights:2:118444","properties":{"address":null,"attributes":{"Date_Installed":"6/15/2017","LED_Powered":1,"LightID":"L011169","Light_Source":"LED","Light_Type":"Cobra","Lighting_Type":"LED-Powered Lamp","Verification_Date":null},"id":"stl-city-public-streetlights:2:118444","sourceLayerId":2,"sourceObjectId":118444,"sourceURL":"https://maps8.stlouis-mo.gov/arcgis/rest/services/STREETS/Streets_Permitting/MapServer/2","title":"Street light L011169"},"type":"Feature"},{"geometry":{"coordinates":[-90.31411652005532,38.60427920283313],"type":"Point"},"id":"stl-city-public-streetlights:2:118445","properties":{"address":null,"attributes":{"Date_Installed":"6/15/2017","LED_Powered":1,"LightID":"L011170","Light_Source":"LED","Light_Type":"Cobra","Lighting_Type":"LED-Powered Lamp","Verification_Date":null},"id":"stl-city-public-streetlights:2:118445","sourceLayerId":2,"sourceObjectId":118445,"sourceURL":"https://maps8.stlouis-mo.gov/arcgis/rest/services/STREETS/Streets_Permitting/MapServer/2","title":"Street light L011170"},"type":"Feature"},{"geometry":{"coordinates":[-90.31404022822146,38.603826788769865],"type":"Point"},"id":"stl-city-public-streetlights:2:118446","properties":{"address":null,"attributes":{"Date_Installed":"6/15/2017","LED_Powered":1,"LightID":"L011171","Light_Source":"LED","Light_Type":"Cobra","Lighting_Type":"LED-Powered Lamp","Verification_Date":null},"id":"stl-city-public-streetlights:2:118446","sourceLayerId":2,"sourceObjectId":118446,"sourceURL":"https://maps8.stlouis-mo.gov/arcgis/rest/services/STREETS/Streets_Permitting/MapServer/2","title":"Street light L011171"},"type":"Feature"},{"geometry":{"coordinates":[-90.31409743135038,38.603436561182484],"type":"Point"},"id":"stl-city-public-streetlights:2:118447","properties":{"address":null,"attributes":{"Date_Installed":"6/15/2017","LED_Powered":1,"LightID":"L011172","Light_Source":"LED","Light_Type":"Cobra","Lighting_Type":"LED-Powered Lamp","Verification_Date":null},"id":"stl-city-public-streetlights:2:118447","sourceLayerId":2,"sourceObjectId":118447,"sourceURL":"https://maps8.stlouis-mo.gov/arcgis/rest/services/STREETS/Streets_Permitting/MapServer/2","title":"Street light L011172"},"type":"Feature"},{"geometry":{"coordinates":[-90.31436801655,38.602990657210405],"type":"Point"},"id":"stl-city-public-streetlights:2:118448","properties":{"address":null,"attributes":{"Date_Installed":"6/15/2017","LED_Powered":1,"LightID":"L011173","Light_Source":"LED","Light_Type":"Cobra","Lighting_Type":"LED-Powered Lamp","Verification_Date":null},"id":"stl-city-public-streetlights:2:118448","sourceLayerId":2,"sourceObjectId":118448,"sourceURL":"https://maps8.stlouis-mo.gov/arcgis/rest/services/STREETS/Streets_Permitting/MapServer/2","title":"Street light L011173"},"type":"Feature"},{"geometry":{"coordinates":[-90.31475009301307,38.60265755551418],"type":"Point"},"id":"stl-city-public-streetlights:2:118449","properties":{"address":null,"attributes":{"Date_Installed":"6/15/2017","LED_Powered":1,"LightID":"L011174","Light_Source":"LED","Light_Type":"Cobra","Lighting_Type":"LED-Powered Lamp","Verification_Date":null},"id":"stl-city-public-streetlights:2:118449","sourceLayerId":2,"sourceObjectId":118449,"sourceURL":"https://maps8.stlouis-mo.gov/arcgis/rest/services/STREETS/Streets_Permitting/MapServer/2","title":"Street light L011174"},"type":"Feature"},{"geometry":{"coordinates":[-90.31513958185586,38.60239358819941],"type":"Point"},"id":"stl-city-public-streetlights:2:118450","properties":{"address":null,"attributes":{"Date_Installed":"6/15/2017","LED_Powered":1,"LightID":"L011175","Light_Source":"LED","Light_Type":"Cobra","Lighting_Type":"LED-Powered Lamp","Verification_Date":null},"id":"stl-city-public-streetlights:2:118450","sourceLayerId":2,"sourceObjectId":118450,"sourceURL":"https://maps8.stlouis-mo.gov/arcgis/rest/services/STREETS/Streets_Permitting/MapServer/2","title":"Street light L011175"},"type":"Feature"},{"geometry":{"coordinates":[-90.31540172001958,38.60215861950195],"type":"Point"},"id":"stl-city-public-streetlights:2:118451","properties":{"address":null,"attributes":{"Date_Installed":"6/15/2017","LED_Powered":1,"LightID":"L011176","Light_Source":"LED","Light_Type":"Cobra","Lighting_Type":"LED-Powered Lamp","Verification_Date":null},"id":"stl-city-public-streetlights:2:118451","sourceLayerId":2,"sourceObjectId":118451,"sourceURL":"https://maps8.stlouis-mo.gov/arcgis/rest/services/STREETS/Streets_Permitting/MapServer/2","title":"Street light L011176"},"type":"Feature"},{"geometry":{"coordinates":[-90.31563172081327,38.60189916638059],"type":"Point"},"id":"stl-city-public-streetlights:2:118452","properties":{"address":null,"attributes":{"Date_Installed":"6/15/2017","LED_Powered":1,"LightID":"L011177","Light_Source":"LED","Light_Type":"Cobra","Lighting_Type":"LED-Powered Lamp","Verification_Date":null},"id":"stl-city-public-streetlights:2:118452","sourceLayerId":2,"sourceObjectId":118452,"sourceURL":"https://maps8.stlouis-mo.gov/arcgis/rest/services/STREETS/Streets_Permitting/MapServer/2","title":"Street light L011177"},"type":"Feature"},{"geometry":{"coordinates":[-90.31601492844887,38.60198675818209],"type":"Point"},"id":"stl-city-public-streetlights:2:118453","properties":{"address":null,"attributes":{"Date_Installed":null,"LED_Powered":0,"LightID":"L011178","Light_Source":"High Pressure Sodium","Light_Type":"Cobra","Lighting_Type":"400-W High Pressure Sodium Vapor Lamp","Verification_Date":null},"id":"stl-city-public-streetlights:2:118453","sourceLayerId":2,"sourceObjectId":118453,"sourceURL":"https://maps8.stlouis-mo.gov/arcgis/rest/services/STREETS/Streets_Permitting/MapServer/2","title":"Street light L011178"},"type":"Feature"},{"geometry":{"coordinates":[-90.31236633013232,38.60967917990662],"type":"Point"},"id":"stl-city-public-streetlights:2:123905","properties":{"address":null,"attributes":{"Date_Installed":null,"LED_Powered":0,"LightID":"L016633","Light_Source":"LED","Light_Type":"Cobra","Lighting_Type":"LED-Powered Lamp","Verification_Date":null},"id":"stl-city-public-streetlights:2:123905","sourceLayerId":2,"sourceObjectId":123905,"sourceURL":"https://maps8.stlouis-mo.gov/arcgis/rest/services/STREETS/Streets_Permitting/MapServer/2","title":"Street light L016633"},"type":"Feature"},{"geometry":{"coordinates":[-90.31117912008692,38.60980312527981],"type":"Point"},"id":"stl-city-public-streetlights:2:123914","properties":{"address":null,"attributes":{"Date_Installed":null,"LED_Powered":0,"LightID":"L016642","Light_Source":"LED","Light_Type":"Cobra","Lighting_Type":"LED-Powered Lamp","Verification_Date":null},"id":"stl-city-public-streetlights:2:123914","sourceLayerId":2,"sourceObjectId":123914,"sourceURL":"https://maps8.stlouis-mo.gov/arcgis/rest/services/STREETS/Streets_Permitting/MapServer/2","title":"Street light L016642"},"type":"Feature"},{"geometry":{"coordinates":[-90.31123467476931,38.60946962709503],"type":"Point"},"id":"stl-city-public-streetlights:2:123915","properties":{"address":null,"attributes":{"Date_Installed":null,"LED_Powered":0,"LightID":"L016643","Light_Source":"LED","Light_Type":"Cobra","Lighting_Type":"LED-Powered Lamp","Verification_Date":null},"id":"stl-city-public-streetlights:2:123915","sourceLayerId":2,"sourceObjectId":123915,"sourceURL":"https://maps8.stlouis-mo.gov/arcgis/rest/services/STREETS/Streets_Permitting/MapServer/2","title":"Street light L016643"},"type":"Feature"},{"geometry":{"coordinates":[-90.31117797322682,38.609313289829906],"type":"Point"},"id":"stl-city-public-streetlights:2:123916","properties":{"address":null,"attributes":{"Date_Installed":null,"LED_Powered":0,"LightID":"L016644","Light_Source":"LED","Light_Type":"Cobra","Lighting_Type":"LED-Powered Lamp","Verification_Date":null},"id":"stl-city-public-streetlights:2:123916","sourceLayerId":2,"sourceObjectId":123916,"sourceURL":"https://maps8.stlouis-mo.gov/arcgis/rest/services/STREETS/Streets_Permitting/MapServer/2","title":"Street light L016644"},"type":"Feature"},{"geometry":{"coordinates":[-90.31129370124091,38.609129896667135],"type":"Point"},"id":"stl-city-public-streetlights:2:123917","properties":{"address":null,"attributes":{"Date_Installed":null,"LED_Powered":0,"LightID":"L016645","Light_Source":"LED","Light_Type":"Cobra","Lighting_Type":"LED-Powered Lamp","Verification_Date":null},"id":"stl-city-public-streetlights:2:123917","sourceLayerId":2,"sourceObjectId":123917,"sourceURL":"https://maps8.stlouis-mo.gov/arcgis/rest/services/STREETS/Streets_Permitting/MapServer/2","title":"Street light L016645"},"type":"Feature"},{"geometry":{"coordinates":[-90.31563611731795,38.60107098316374],"type":"Point"},"id":"stl-city-public-streetlights:2:133915","properties":{"address":null,"attributes":{"Date_Installed":"6/15/2017","LED_Powered":1,"LightID":"L026631","Light_Source":"LED","Light_Type":"Cobra","Lighting_Type":"LED-Powered Lamp","Verification_Date":null},"id":"stl-city-public-streetlights:2:133915","sourceLayerId":2,"sourceObjectId":133915,"sourceURL":"https://maps8.stlouis-mo.gov/arcgis/rest/services/STREETS/Streets_Permitting/MapServer/2","title":"Street light L026631"},"type":"Feature"},{"geometry":{"coordinates":[-90.31566114125062,38.601381966871614],"type":"Point"},"id":"stl-city-public-streetlights:2:133916","properties":{"address":null,"attributes":{"Date_Installed":"6/15/2017","LED_Powered":1,"LightID":"L026632","Light_Source":"LED","Light_Type":"Cobra","Lighting_Type":"LED-Powered Lamp","Verification_Date":null},"id":"stl-city-public-streetlights:2:133916","sourceLayerId":2,"sourceObjectId":133916,"sourceURL":"https://maps8.stlouis-mo.gov/arcgis/rest/services/STREETS/Streets_Permitting/MapServer/2","title":"Street light L026632"},"type":"Feature"},{"geometry":{"coordinates":[-90.31579820785419,38.6017456113668],"type":"Point"},"id":"stl-city-public-streetlights:2:133917","properties":{"address":null,"attributes":{"Date_Installed":"6/15/2017","LED_Powered":1,"LightID":"L026633","Light_Source":"LED","Light_Type":"Cobra","Lighting_Type":"LED-Powered Lamp","Verification_Date":null},"id":"stl-city-public-streetlights:2:133917","sourceLayerId":2,"sourceObjectId":133917,"sourceURL":"https://maps8.stlouis-mo.gov/arcgis/rest/services/STREETS/Streets_Permitting/MapServer/2","title":"Street light L026633"},"type":"Feature"},{"geometry":{"coordinates":[-90.31604668742624,38.60188632577205],"type":"Point"},"id":"stl-city-public-streetlights:2:133918","properties":{"address":null,"attributes":{"Date_Installed":null,"LED_Powered":0,"LightID":"L026634","Light_Source":"LED","Light_Type":"Cobra","Lighting_Type":"LED-Powered Lamp","Verification_Date":null},"id":"stl-city-public-streetlights:2:133918","sourceLayerId":2,"sourceObjectId":133918,"sourceURL":"https://maps8.stlouis-mo.gov/arcgis/rest/services/STREETS/Streets_Permitting/MapServer/2","title":"Street light L026634"},"type":"Feature"},{"geometry":{"coordinates":[-90.3161847133524,38.60202939232234],"type":"Point"},"id":"stl-city-public-streetlights:2:133919","properties":{"address":null,"attributes":{"Date_Installed":null,"LED_Powered":0,"LightID":"L026635","Light_Source":"LED","Light_Type":"Cobra","Lighting_Type":"LED-Powered Lamp","Verification_Date":null},"id":"stl-city-public-streetlights:2:133919","sourceLayerId":2,"sourceObjectId":133919,"sourceURL":"https://maps8.stlouis-mo.gov/arcgis/rest/services/STREETS/Streets_Permitting/MapServer/2","title":"Street light L026635"},"type":"Feature"},{"geometry":{"coordinates":[-90.3164366054349,38.602290482665346],"type":"Point"},"id":"stl-city-public-streetlights:2:133920","properties":{"address":null,"attributes":{"Date_Installed":null,"LED_Powered":0,"LightID":"L026636","Light_Source":"LED","Light_Type":"Cobra","Lighting_Type":"LED-Powered Lamp","Verification_Date":null},"id":"stl-city-public-streetlights:2:133920","sourceLayerId":2,"sourceObjectId":133920,"sourceURL":"https://maps8.stlouis-mo.gov/arcgis/rest/services/STREETS/Streets_Permitting/MapServer/2","title":"Street light L026636"},"type":"Feature"},{"geometry":{"coordinates":[-90.31668482260744,38.60254776041451],"type":"Point"},"id":"stl-city-public-streetlights:2:133921","properties":{"address":null,"attributes":{"Date_Installed":null,"LED_Powered":0,"LightID":"L026637","Light_Source":"LED","Light_Type":"Cobra","Lighting_Type":"LED-Powered Lamp","Verification_Date":null},"id":"stl-city-public-streetlights:2:133921","sourceLayerId":2,"sourceObjectId":133921,"sourceURL":"https://maps8.stlouis-mo.gov/arcgis/rest/services/STREETS/Streets_Permitting/MapServer/2","title":"Street light L026637"},"type":"Feature"},{"geometry":{"coordinates":[-90.31695585900836,38.60282868940593],"type":"Point"},"id":"stl-city-public-streetlights:2:133922","properties":{"address":null,"attributes":{"Date_Installed":null,"LED_Powered":0,"LightID":"L026638","Light_Source":"LED","Light_Type":"Cobra","Lighting_Type":"LED-Powered Lamp","Verification_Date":null},"id":"stl-city-public-streetlights:2:133922","sourceLayerId":2,"sourceObjectId":133922,"sourceURL":"https://maps8.stlouis-mo.gov/arcgis/rest/services/STREETS/Streets_Permitting/MapServer/2","title":"Street light L026638"},"type":"Feature"},{"geometry":{"coordinates":[-90.31518363704237,38.602543740733104],"type":"Point"},"id":"stl-city-public-streetlights:2:133923","properties":{"address":null,"attributes":{"Date_Installed":null,"LED_Powered":0,"LightID":"L026639","Light_Source":"LED","Light_Type":"Cobra","Lighting_Type":"LED-Powered Lamp","Verification_Date":null},"id":"stl-city-public-streetlights:2:133923","sourceLayerId":2,"sourceObjectId":133923,"sourceURL":"https://maps8.stlouis-mo.gov/arcgis/rest/services/STREETS/Streets_Permitting/MapServer/2","title":"Street light L026639"},"type":"Feature"},{"geometry":{"coordinates":[-90.31546967611008,38.602820692371616],"type":"Point"},"id":"stl-city-public-streetlights:2:133924","properties":{"address":null,"attributes":{"Date_Installed":null,"LED_Powered":0,"LightID":"L026640","Light_Source":"LED","Light_Type":"Cobra","Lighting_Type":"LED-Powered Lamp","Verification_Date":null},"id":"stl-city-public-streetlights:2:133924","sourceLayerId":2,"sourceObjectId":133924,"sourceURL":"https://maps8.stlouis-mo.gov/arcgis/rest/services/STREETS/Streets_Permitting/MapServer/2","title":"Street light L026640"},"type":"Feature"},{"geometry":{"coordinates":[-90.31577440839376,38.60308221515816],"type":"Point"},"id":"stl-city-public-streetlights:2:133925","properties":{"address":null,"attributes":{"Date_Installed":null,"LED_Powered":0,"LightID":"L026641","Light_Source":"LED","Light_Type":"Cobra","Lighting_Type":"LED-Powered Lamp","Verification_Date":null},"id":"stl-city-public-streetlights:2:133925","sourceLayerId":2,"sourceObjectId":133925,"sourceURL":"https://maps8.stlouis-mo.gov/arcgis/rest/services/STREETS/Streets_Permitting/MapServer/2","title":"Street light L026641"},"type":"Feature"},{"geometry":{"coordinates":[-90.31608134509173,38.60336165401753],"type":"Point"},"id":"stl-city-public-streetlights:2:133926","properties":{"address":null,"attributes":{"Date_Installed":null,"LED_Powered":0,"LightID":"L026642","Light_Source":"LED","Light_Type":"Cobra","Lighting_Type":"LED-Powered Lamp","Verification_Date":null},"id":"stl-city-public-streetlights:2:133926","sourceLayerId":2,"sourceObjectId":133926,"sourceURL":"https://maps8.stlouis-mo.gov/arcgis/rest/services/STREETS/Streets_Permitting/MapServer/2","title":"Street light L026642"},"type":"Feature"},{"geometry":{"coordinates":[-90.3143689867572,38.60335919269207],"type":"Point"},"id":"stl-city-public-streetlights:2:133927","properties":{"address":null,"attributes":{"Date_Installed":null,"LED_Powered":0,"LightID":"L026643","Light_Source":"LED","Light_Type":"Cobra","Lighting_Type":"LED-Powered Lamp","Verification_Date":null},"id":"stl-city-public-streetlights:2:133927","sourceLayerId":2,"sourceObjectId":133927,"sourceURL":"https://maps8.stlouis-mo.gov/arcgis/rest/services/STREETS/Streets_Permitting/MapServer/2","title":"Street light L026643"},"type":"Feature"},{"geometry":{"coordinates":[-90.31465093284415,38.60357416628322],"type":"Point"},"id":"stl-city-public-streetlights:2:133928","properties":{"address":null,"attributes":{"Date_Installed":null,"LED_Powered":0,"LightID":"L026644","Light_Source":"LED","Light_Type":"Cobra","Lighting_Type":"LED-Powered Lamp","Verification_Date":null},"id":"stl-city-public-streetlights:2:133928","sourceLayerId":2,"sourceObjectId":133928,"sourceURL":"https://maps8.stlouis-mo.gov/arcgis/rest/services/STREETS/Streets_Permitting/MapServer/2","title":"Street light L026644"},"type":"Feature"},{"geometry":{"coordinates":[-90.31497834341019,38.6038285405805],"type":"Point"},"id":"stl-city-public-streetlights:2:133929","properties":{"address":null,"attributes":{"Date_Installed":null,"LED_Powered":0,"LightID":"L026645","Light_Source":"LED","Light_Type":"Cobra","Lighting_Type":"LED-Powered Lamp","Verification_Date":null},"id":"stl-city-public-streetlights:2:133929","sourceLayerId":2,"sourceObjectId":133929,"sourceURL":"https://maps8.stlouis-mo.gov/arcgis/rest/services/STREETS/Streets_Permitting/MapServer/2","title":"Street light L026645"},"type":"Feature"},{"geometry":{"coordinates":[-90.31523329783954,38.60402797557237],"type":"Point"},"id":"stl-city-public-streetlights:2:133930","properties":{"address":null,"attributes":{"Date_Installed":null,"LED_Powered":0,"LightID":"L026646","Light_Source":"LED","Light_Type":"Cobra","Lighting_Type":"LED-Powered Lamp","Verification_Date":null},"id":"stl-city-public-streetlights:2:133930","sourceLayerId":2,"sourceObjectId":133930,"sourceURL":"https://maps8.stlouis-mo.gov/arcgis/rest/services/STREETS/Streets_Permitting/MapServer/2","title":"Street light L026646"},"type":"Feature"},{"geometry":{"coordinates":[-90.31552281319624,38.60425487694185],"type":"Point"},"id":"stl-city-public-streetlights:2:133931","properties":{"address":null,"attributes":{"Date_Installed":null,"LED_Powered":0,"LightID":"L026647","Light_Source":"LED","Light_Type":"Cobra","Lighting_Type":"LED-Powered Lamp","Verification_Date":null},"id":"stl-city-public-streetlights:2:133931","sourceLayerId":2,"sourceObjectId":133931,"sourceURL":"https://maps8.stlouis-mo.gov/arcgis/rest/services/STREETS/Streets_Permitting/MapServer/2","title":"Street light L026647"},"type":"Feature"},{"geometry":{"coordinates":[-90.31582901452802,38.60449074163421],"type":"Point"},"id":"stl-city-public-streetlights:2:133932","properties":{"address":null,"attributes":{"Date_Installed":null,"LED_Powered":0,"LightID":"L026648","Light_Source":"LED","Light_Type":"Cobra","Lighting_Type":"LED-Powered Lamp","Verification_Date":null},"id":"stl-city-public-streetlights:2:133932","sourceLayerId":2,"sourceObjectId":133932,"sourceURL":"https://maps8.stlouis-mo.gov/arcgis/rest/services/STREETS/Streets_Permitting/MapServer/2","title":"Street light L026648"},"type":"Feature"},{"geometry":{"coordinates":[-90.31618674698001,38.60477018801361],"type":"Point"},"id":"stl-city-public-streetlights:2:133933","properties":{"address":null,"attributes":{"Date_Installed":null,"LED_Powered":0,"LightID":"L026649","Light_Source":"LED","Light_Type":"Cobra","Lighting_Type":"LED-Powered Lamp","Verification_Date":null},"id":"stl-city-public-streetlights:2:133933","sourceLayerId":2,"sourceObjectId":133933,"sourceURL":"https://maps8.stlouis-mo.gov/arcgis/rest/services/STREETS/Streets_Permitting/MapServer/2","title":"Street light L026649"},"type":"Feature"},{"geometry":{"coordinates":[-90.31442329373604,38.60538905066178],"type":"Point"},"id":"stl-city-public-streetlights:2:133934","properties":{"address":null,"attributes":{"Date_Installed":null,"LED_Powered":0,"LightID":"L026650","Light_Source":"LED","Light_Type":"Cobra","Lighting_Type":"LED-Powered Lamp","Verification_Date":null},"id":"stl-city-public-streetlights:2:133934","sourceLayerId":2,"sourceObjectId":133934,"sourceURL":"https://maps8.stlouis-mo.gov/arcgis/rest/services/STREETS/Streets_Permitting/MapServer/2","title":"Street light L026650"},"type":"Feature"},{"geometry":{"coordinates":[-90.31472645990057,38.60562431788931],"type":"Point"},"id":"stl-city-public-streetlights:2:133935","properties":{"address":null,"attributes":{"Date_Installed":null,"LED_Powered":0,"LightID":"L026651","Light_Source":"LED","Light_Type":"Cobra","Lighting_Type":"LED-Powered Lamp","Verification_Date":null},"id":"stl-city-public-streetlights:2:133935","sourceLayerId":2,"sourceObjectId":133935,"sourceURL":"https://maps8.stlouis-mo.gov/arcgis/rest/services/STREETS/Streets_Permitting/MapServer/2","title":"Street light L026651"},"type":"Feature"},{"geometry":{"coordinates":[-90.31297990514766,38.60700243199555],"type":"Point"},"id":"stl-city-public-streetlights:2:133936","properties":{"address":null,"attributes":{"Date_Installed":null,"LED_Powered":0,"LightID":"L026652","Light_Source":"LED","Light_Type":"Cobra","Lighting_Type":"LED-Powered Lamp","Verification_Date":null},"id":"stl-city-public-streetlights:2:133936","sourceLayerId":2,"sourceObjectId":133936,"sourceURL":"https://maps8.stlouis-mo.gov/arcgis/rest/services/STREETS/Streets_Permitting/MapServer/2","title":"Street light L026652"},"type":"Feature"},{"geometry":{"coordinates":[-90.31325363460857,38.6073442038945],"type":"Point"},"id":"stl-city-public-streetlights:2:133937","properties":{"address":null,"attributes":{"Date_Installed":null,"LED_Powered":0,"LightID":"L026653","Light_Source":"LED","Light_Type":"Cobra","Lighting_Type":"LED-Powered Lamp","Verification_Date":null},"id":"stl-city-public-streetlights:2:133937","sourceLayerId":2,"sourceObjectId":133937,"sourceURL":"https://maps8.stlouis-mo.gov/arcgis/rest/services/STREETS/Streets_Permitting/MapServer/2","title":"Street light L026653"},"type":"Feature"},{"geometry":{"coordinates":[-90.31358614782967,38.607603595449795],"type":"Point"},"id":"stl-city-public-streetlights:2:133938","properties":{"address":null,"attributes":{"Date_Installed":null,"LED_Powered":0,"LightID":"L026654","Light_Source":"LED","Light_Type":"Cobra","Lighting_Type":"LED-Powered Lamp","Verification_Date":null},"id":"stl-city-public-streetlights:2:133938","sourceLayerId":2,"sourceObjectId":133938,"sourceURL":"https://maps8.stlouis-mo.gov/arcgis/rest/services/STREETS/Streets_Permitting/MapServer/2","title":"Street light L026654"},"type":"Feature"},{"geometry":{"coordinates":[-90.31394729744251,38.607880194534836],"type":"Point"},"id":"stl-city-public-streetlights:2:133939","properties":{"address":null,"attributes":{"Date_Installed":null,"LED_Powered":0,"LightID":"L026655","Light_Source":"LED","Light_Type":"Cobra","Lighting_Type":"LED-Powered Lamp","Verification_Date":null},"id":"stl-city-public-streetlights:2:133939","sourceLayerId":2,"sourceObjectId":133939,"sourceURL":"https://maps8.stlouis-mo.gov/arcgis/rest/services/STREETS/Streets_Permitting/MapServer/2","title":"Street light L026655"},"type":"Feature"},{"geometry":{"coordinates":[-90.31412139909139,38.608262950695334],"type":"Point"},"id":"stl-city-public-streetlights:2:133940","properties":{"address":null,"attributes":{"Date_Installed":null,"LED_Powered":0,"LightID":"L026656","Light_Source":"LED","Light_Type":"Cobra","Lighting_Type":"LED-Powered Lamp","Verification_Date":null},"id":"stl-city-public-streetlights:2:133940","sourceLayerId":2,"sourceObjectId":133940,"sourceURL":"https://maps8.stlouis-mo.gov/arcgis/rest/services/STREETS/Streets_Permitting/MapServer/2","title":"Street light L026656"},"type":"Feature"},{"geometry":{"coordinates":[-90.31406772490655,38.608578933616464],"type":"Point"},"id":"stl-city-public-streetlights:2:133941","properties":{"address":null,"attributes":{"Date_Installed":null,"LED_Powered":0,"LightID":"L026657","Light_Source":"LED","Light_Type":"Cobra","Lighting_Type":"LED-Powered Lamp","Verification_Date":null},"id":"stl-city-public-streetlights:2:133941","sourceLayerId":2,"sourceObjectId":133941,"sourceURL":"https://maps8.stlouis-mo.gov/arcgis/rest/services/STREETS/Streets_Permitting/MapServer/2","title":"Street light L026657"},"type":"Feature"},{"geometry":{"coordinates":[-90.31225229500343,38.6078936593592],"type":"Point"},"id":"stl-city-public-streetlights:2:133942","properties":{"address":null,"attributes":{"Date_Installed":null,"LED_Powered":0,"LightID":"L026658","Light_Source":"LED","Light_Type":"Cobra","Lighting_Type":"LED-Powered Lamp","Verification_Date":null},"id":"stl-city-public-streetlights:2:133942","sourceLayerId":2,"sourceObjectId":133942,"sourceURL":"https://maps8.stlouis-mo.gov/arcgis/rest/services/STREETS/Streets_Permitting/MapServer/2","title":"Street light L026658"},"type":"Feature"},{"geometry":{"coordinates":[-90.31258701597818,38.60817166976077],"type":"Point"},"id":"stl-city-public-streetlights:2:133943","properties":{"address":null,"attributes":{"Date_Installed":null,"LED_Powered":0,"LightID":"L026659","Light_Source":"LED","Light_Type":"Cobra","Lighting_Type":"LED-Powered Lamp","Verification_Date":null},"id":"stl-city-public-streetlights:2:133943","sourceLayerId":2,"sourceObjectId":133943,"sourceURL":"https://maps8.stlouis-mo.gov/arcgis/rest/services/STREETS/Streets_Permitting/MapServer/2","title":"Street light L026659"},"type":"Feature"},{"geometry":{"coordinates":[-90.31294817204527,38.60843345669425],"type":"Point"},"id":"stl-city-public-streetlights:2:133944","properties":{"address":null,"attributes":{"Date_Installed":null,"LED_Powered":0,"LightID":"L026660","Light_Source":"LED","Light_Type":"Cobra","Lighting_Type":"LED-Powered Lamp","Verification_Date":null},"id":"stl-city-public-streetlights:2:133944","sourceLayerId":2,"sourceObjectId":133944,"sourceURL":"https://maps8.stlouis-mo.gov/arcgis/rest/services/STREETS/Streets_Permitting/MapServer/2","title":"Street light L026660"},"type":"Feature"},{"geometry":{"coordinates":[-90.31311725993842,38.60855209093091],"type":"Point"},"id":"stl-city-public-streetlights:2:133945","properties":{"address":null,"attributes":{"Date_Installed":null,"LED_Powered":0,"LightID":"L026661","Light_Source":"LED","Light_Type":"Cobra","Lighting_Type":"LED-Powered Lamp","Verification_Date":null},"id":"stl-city-public-streetlights:2:133945","sourceLayerId":2,"sourceObjectId":133945,"sourceURL":"https://maps8.stlouis-mo.gov/arcgis/rest/services/STREETS/Streets_Permitting/MapServer/2","title":"Street light L026661"},"type":"Feature"},{"geometry":{"coordinates":[-90.31156149302983,38.60726291164744],"type":"Point"},"id":"stl-city-public-streetlights:2:133946","properties":{"address":null,"attributes":{"Date_Installed":null,"LED_Powered":0,"LightID":"L026662","Light_Source":"LED","Light_Type":"Cobra","Lighting_Type":"LED-Powered Lamp","Verification_Date":null},"id":"stl-city-public-streetlights:2:133946","sourceLayerId":2,"sourceObjectId":133946,"sourceURL":"https://maps8.stlouis-mo.gov/arcgis/rest/services/STREETS/Streets_Permitting/MapServer/2","title":"Street light L026662"},"type":"Feature"},{"geometry":{"coordinates":[-90.31179120894247,38.607550412811456],"type":"Point"},"id":"stl-city-public-streetlights:2:133947","properties":{"address":null,"attributes":{"Date_Installed":null,"LED_Powered":0,"LightID":"L026663","Light_Source":"LED","Light_Type":"Cobra","Lighting_Type":"LED-Powered Lamp","Verification_Date":null},"id":"stl-city-public-streetlights:2:133947","sourceLayerId":2,"sourceObjectId":133947,"sourceURL":"https://maps8.stlouis-mo.gov/arcgis/rest/services/STREETS/Streets_Permitting/MapServer/2","title":"Street light L026663"},"type":"Feature"},{"geometry":{"coordinates":[-90.31057983199824,38.607840467183784],"type":"Point"},"id":"stl-city-public-streetlights:2:133948","properties":{"address":null,"attributes":{"Date_Installed":null,"LED_Powered":0,"LightID":"L026664","Light_Source":"LED","Light_Type":"Cobra","Lighting_Type":"LED-Powered Lamp","Verification_Date":null},"id":"stl-city-public-streetlights:2:133948","sourceLayerId":2,"sourceObjectId":133948,"sourceURL":"https://maps8.stlouis-mo.gov/arcgis/rest/services/STREETS/Streets_Permitting/MapServer/2","title":"Street light L026664"},"type":"Feature"},{"geometry":{"coordinates":[-90.31097566459472,38.60806993546765],"type":"Point"},"id":"stl-city-public-streetlights:2:133949","properties":{"address":null,"attributes":{"Date_Installed":null,"LED_Powered":0,"LightID":"L026665","Light_Source":"LED","Light_Type":"Cobra","Lighting_Type":"LED-Powered Lamp","Verification_Date":null},"id":"stl-city-public-streetlights:2:133949","sourceLayerId":2,"sourceObjectId":133949,"sourceURL":"https://maps8.stlouis-mo.gov/arcgis/rest/services/STREETS/Streets_Permitting/MapServer/2","title":"Street light L026665"},"type":"Feature"},{"geometry":{"coordinates":[-90.3113351177398,38.60827193132813],"type":"Point"},"id":"stl-city-public-streetlights:2:133950","properties":{"address":null,"attributes":{"Date_Installed":null,"LED_Powered":0,"LightID":"L026666","Light_Source":"LED","Light_Type":"Cobra","Lighting_Type":"LED-Powered Lamp","Verification_Date":null},"id":"stl-city-public-streetlights:2:133950","sourceLayerId":2,"sourceObjectId":133950,"sourceURL":"https://maps8.stlouis-mo.gov/arcgis/rest/services/STREETS/Streets_Permitting/MapServer/2","title":"Street light L026666"},"type":"Feature"},{"geometry":{"coordinates":[-90.31690570615577,38.60299839468347],"type":"Point"},"id":"stl-city-public-streetlights:2:133951","properties":{"address":null,"attributes":{"Date_Installed":null,"LED_Powered":0,"LightID":"L026667","Light_Source":"LED","Light_Type":"Cobra","Lighting_Type":"LED-Powered Lamp","Verification_Date":null},"id":"stl-city-public-streetlights:2:133951","sourceLayerId":2,"sourceObjectId":133951,"sourceURL":"https://maps8.stlouis-mo.gov/arcgis/rest/services/STREETS/Streets_Permitting/MapServer/2","title":"Street light L026667"},"type":"Feature"},{"geometry":{"coordinates":[-90.31658676868133,38.60320862559855],"type":"Point"},"id":"stl-city-public-streetlights:2:133952","properties":{"address":null,"attributes":{"Date_Installed":null,"LED_Powered":0,"LightID":"L026668","Light_Source":"LED","Light_Type":"Cobra","Lighting_Type":"LED-Powered Lamp","Verification_Date":null},"id":"stl-city-public-streetlights:2:133952","sourceLayerId":2,"sourceObjectId":133952,"sourceURL":"https://maps8.stlouis-mo.gov/arcgis/rest/services/STREETS/Streets_Permitting/MapServer/2","title":"Street light L026668"},"type":"Feature"},{"geometry":{"coordinates":[-90.31624916698502,38.6034311568911],"type":"Point"},"id":"stl-city-public-streetlights:2:133953","properties":{"address":null,"attributes":{"Date_Installed":null,"LED_Powered":0,"LightID":"L026669","Light_Source":"LED","Light_Type":"Cobra","Lighting_Type":"LED-Powered Lamp","Verification_Date":null},"id":"stl-city-public-streetlights:2:133953","sourceLayerId":2,"sourceObjectId":133953,"sourceURL":"https://maps8.stlouis-mo.gov/arcgis/rest/services/STREETS/Streets_Permitting/MapServer/2","title":"Street light L026669"},"type":"Feature"},{"geometry":{"coordinates":[-90.31591409324379,38.60365201911345],"type":"Point"},"id":"stl-city-public-streetlights:2:133954","properties":{"address":null,"attributes":{"Date_Installed":null,"LED_Powered":0,"LightID":"L026670","Light_Source":"LED","Light_Type":"Cobra","Lighting_Type":"LED-Powered Lamp","Verification_Date":null},"id":"stl-city-public-streetlights:2:133954","sourceLayerId":2,"sourceObjectId":133954,"sourceURL":"https://maps8.stlouis-mo.gov/arcgis/rest/services/STREETS/Streets_Permitting/MapServer/2","title":"Street light L026670"},"type":"Feature"},{"geometry":{"coordinates":[-90.31556904362742,38.603878873619074],"type":"Point"},"id":"stl-city-public-streetlights:2:133955","properties":{"address":null,"attributes":{"Date_Installed":null,"LED_Powered":0,"LightID":"L026671","Light_Source":"LED","Light_Type":"Cobra","Lighting_Type":"LED-Powered Lamp","Verification_Date":null},"id":"stl-city-public-streetlights:2:133955","sourceLayerId":2,"sourceObjectId":133955,"sourceURL":"https://maps8.stlouis-mo.gov/arcgis/rest/services/STREETS/Streets_Permitting/MapServer/2","title":"Street light L026671"},"type":"Feature"},{"geometry":{"coordinates":[-90.31522578130517,38.60411931632581],"type":"Point"},"id":"stl-city-public-streetlights:2:133956","properties":{"address":null,"attributes":{"Date_Installed":null,"LED_Powered":0,"LightID":"L026672","Light_Source":"LED","Light_Type":"Cobra","Lighting_Type":"LED-Powered Lamp","Verification_Date":null},"id":"stl-city-public-streetlights:2:133956","sourceLayerId":2,"sourceObjectId":133956,"sourceURL":"https://maps8.stlouis-mo.gov/arcgis/rest/services/STREETS/Streets_Permitting/MapServer/2","title":"Street light L026672"},"type":"Feature"},{"geometry":{"coordinates":[-90.31492444116678,38.604357679288555],"type":"Point"},"id":"stl-city-public-streetlights:2:133957","properties":{"address":null,"attributes":{"Date_Installed":null,"LED_Powered":0,"LightID":"L026673","Light_Source":"LED","Light_Type":"Cobra","Lighting_Type":"LED-Powered Lamp","Verification_Date":null},"id":"stl-city-public-streetlights:2:133957","sourceLayerId":2,"sourceObjectId":133957,"sourceURL":"https://maps8.stlouis-mo.gov/arcgis/rest/services/STREETS/Streets_Permitting/MapServer/2","title":"Street light L026673"},"type":"Feature"},{"geometry":{"coordinates":[-90.31463878933016,38.60458963031621],"type":"Point"},"id":"stl-city-public-streetlights:2:133958","properties":{"address":null,"attributes":{"Date_Installed":null,"LED_Powered":0,"LightID":"L026674","Light_Source":"LED","Light_Type":"Cobra","Lighting_Type":"LED-Powered Lamp","Verification_Date":null},"id":"stl-city-public-streetlights:2:133958","sourceLayerId":2,"sourceObjectId":133958,"sourceURL":"https://maps8.stlouis-mo.gov/arcgis/rest/services/STREETS/Streets_Permitting/MapServer/2","title":"Street light L026674"},"type":"Feature"},{"geometry":{"coordinates":[-90.31432832916859,38.604829407897356],"type":"Point"},"id":"stl-city-public-streetlights:2:133959","properties":{"address":null,"attributes":{"Date_Installed":null,"LED_Powered":0,"LightID":"L026675","Light_Source":"LED","Light_Type":"Cobra","Lighting_Type":"LED-Powered Lamp","Verification_Date":null},"id":"stl-city-public-streetlights:2:133959","sourceLayerId":2,"sourceObjectId":133959,"sourceURL":"https://maps8.stlouis-mo.gov/arcgis/rest/services/STREETS/Streets_Permitting/MapServer/2","title":"Street light L026675"},"type":"Feature"},{"geometry":{"coordinates":[-90.31629151167819,38.60454835383418],"type":"Point"},"id":"stl-city-public-streetlights:2:133960","properties":{"address":null,"attributes":{"Date_Installed":null,"LED_Powered":0,"LightID":"L026676","Light_Source":"LED","Light_Type":"Cobra","Lighting_Type":"LED-Powered Lamp","Verification_Date":null},"id":"stl-city-public-streetlights:2:133960","sourceLayerId":2,"sourceObjectId":133960,"sourceURL":"https://maps8.stlouis-mo.gov/arcgis/rest/services/STREETS/Streets_Permitting/MapServer/2","title":"Street light L026676"},"type":"Feature"},{"geometry":{"coordinates":[-90.31590116798463,38.60484291254132],"type":"Point"},"id":"stl-city-public-streetlights:2:133961","properties":{"address":null,"attributes":{"Date_Installed":null,"LED_Powered":0,"LightID":"L026677","Light_Source":"LED","Light_Type":"Cobra","Lighting_Type":"LED-Powered Lamp","Verification_Date":null},"id":"stl-city-public-streetlights:2:133961","sourceLayerId":2,"sourceObjectId":133961,"sourceURL":"https://maps8.stlouis-mo.gov/arcgis/rest/services/STREETS/Streets_Permitting/MapServer/2","title":"Street light L026677"},"type":"Feature"},{"geometry":{"coordinates":[-90.31563682299743,38.605046932104],"type":"Point"},"id":"stl-city-public-streetlights:2:133962","properties":{"address":null,"attributes":{"Date_Installed":null,"LED_Powered":0,"LightID":"L026678","Light_Source":"LED","Light_Type":"Cobra","Lighting_Type":"LED-Powered Lamp","Verification_Date":null},"id":"stl-city-public-streetlights:2:133962","sourceLayerId":2,"sourceObjectId":133962,"sourceURL":"https://maps8.stlouis-mo.gov/arcgis/rest/services/STREETS/Streets_Permitting/MapServer/2","title":"Street light L026678"},"type":"Feature"},{"geometry":{"coordinates":[-90.31534186039937,38.605284829574884],"type":"Point"},"id":"stl-city-public-streetlights:2:133963","properties":{"address":null,"attributes":{"Date_Installed":null,"LED_Powered":0,"LightID":"L026679","Light_Source":"LED","Light_Type":"Cobra","Lighting_Type":"LED-Powered Lamp","Verification_Date":null},"id":"stl-city-public-streetlights:2:133963","sourceLayerId":2,"sourceObjectId":133963,"sourceURL":"https://maps8.stlouis-mo.gov/arcgis/rest/services/STREETS/Streets_Permitting/MapServer/2","title":"Street light L026679"},"type":"Feature"},{"geometry":{"coordinates":[-90.31499546560727,38.605559193419325],"type":"Point"},"id":"stl-city-public-streetlights:2:133964","properties":{"address":null,"attributes":{"Date_Installed":null,"LED_Powered":0,"LightID":"L026680","Light_Source":"LED","Light_Type":"Cobra","Lighting_Type":"LED-Powered Lamp","Verification_Date":null},"id":"stl-city-public-streetlights:2:133964","sourceLayerId":2,"sourceObjectId":133964,"sourceURL":"https://maps8.stlouis-mo.gov/arcgis/rest/services/STREETS/Streets_Permitting/MapServer/2","title":"Street light L026680"},"type":"Feature"},{"geometry":{"coordinates":[-90.31467712591015,38.60580986386391],"type":"Point"},"id":"stl-city-public-streetlights:2:133965","properties":{"address":null,"attributes":{"Date_Installed":null,"LED_Powered":0,"LightID":"L026681","Light_Source":"LED","Light_Type":"Cobra","Lighting_Type":"LED-Powered Lamp","Verification_Date":null},"id":"stl-city-public-streetlights:2:133965","sourceLayerId":2,"sourceObjectId":133965,"sourceURL":"https://maps8.stlouis-mo.gov/arcgis/rest/services/STREETS/Streets_Permitting/MapServer/2","title":"Street light L026681"},"type":"Feature"},{"geometry":{"coordinates":[-90.31434690437389,38.60607124154117],"type":"Point"},"id":"stl-city-public-streetlights:2:133966","properties":{"address":null,"attributes":{"Date_Installed":null,"LED_Powered":0,"LightID":"L026682","Light_Source":"LED","Light_Type":"Cobra","Lighting_Type":"LED-Powered Lamp","Verification_Date":null},"id":"stl-city-public-streetlights:2:133966","sourceLayerId":2,"sourceObjectId":133966,"sourceURL":"https://maps8.stlouis-mo.gov/arcgis/rest/services/STREETS/Streets_Permitting/MapServer/2","title":"Street light L026682"},"type":"Feature"},{"geometry":{"coordinates":[-90.31413290446854,38.606385778269136],"type":"Point"},"id":"stl-city-public-streetlights:2:133967","properties":{"address":null,"attributes":{"Date_Installed":null,"LED_Powered":0,"LightID":"L026683","Light_Source":"LED","Light_Type":"Cobra","Lighting_Type":"LED-Powered Lamp","Verification_Date":null},"id":"stl-city-public-streetlights:2:133967","sourceLayerId":2,"sourceObjectId":133967,"sourceURL":"https://maps8.stlouis-mo.gov/arcgis/rest/services/STREETS/Streets_Permitting/MapServer/2","title":"Street light L026683"},"type":"Feature"},{"geometry":{"coordinates":[-90.31429939128924,38.60673250257238],"type":"Point"},"id":"stl-city-public-streetlights:2:133968","properties":{"address":null,"attributes":{"Date_Installed":null,"LED_Powered":0,"LightID":"L026684","Light_Source":"LED","Light_Type":"Cobra","Lighting_Type":"LED-Powered Lamp","Verification_Date":null},"id":"stl-city-public-streetlights:2:133968","sourceLayerId":2,"sourceObjectId":133968,"sourceURL":"https://maps8.stlouis-mo.gov/arcgis/rest/services/STREETS/Streets_Permitting/MapServer/2","title":"Street light L026684"},"type":"Feature"},{"geometry":{"coordinates":[-90.31460328990406,38.60696848654277],"type":"Point"},"id":"stl-city-public-streetlights:2:133969","properties":{"address":null,"attributes":{"Date_Installed":null,"LED_Powered":0,"LightID":"L026685","Light_Source":"LED","Light_Type":"Cobra","Lighting_Type":"LED-Powered Lamp","Verification_Date":null},"id":"stl-city-public-streetlights:2:133969","sourceLayerId":2,"sourceObjectId":133969,"sourceURL":"https://maps8.stlouis-mo.gov/arcgis/rest/services/STREETS/Streets_Permitting/MapServer/2","title":"Street light L026685"},"type":"Feature"},{"geometry":{"coordinates":[-90.31490707370715,38.60720256233954],"type":"Point"},"id":"stl-city-public-streetlights:2:133970","properties":{"address":null,"attributes":{"Date_Installed":null,"LED_Powered":0,"LightID":"L026686","Light_Source":"LED","Light_Type":"Cobra","Lighting_Type":"LED-Powered Lamp","Verification_Date":null},"id":"stl-city-public-streetlights:2:133970","sourceLayerId":2,"sourceObjectId":133970,"sourceURL":"https://maps8.stlouis-mo.gov/arcgis/rest/services/STREETS/Streets_Permitting/MapServer/2","title":"Street light L026686"},"type":"Feature"},{"geometry":{"coordinates":[-90.31520661656798,38.60743281715411],"type":"Point"},"id":"stl-city-public-streetlights:2:133971","properties":{"address":null,"attributes":{"Date_Installed":null,"LED_Powered":0,"LightID":"L026687","Light_Source":"LED","Light_Type":"Cobra","Lighting_Type":"LED-Powered Lamp","Verification_Date":null},"id":"stl-city-public-streetlights:2:133971","sourceLayerId":2,"sourceObjectId":133971,"sourceURL":"https://maps8.stlouis-mo.gov/arcgis/rest/services/STREETS/Streets_Permitting/MapServer/2","title":"Street light L026687"},"type":"Feature"},{"geometry":{"coordinates":[-90.31409784344348,38.606725596124235],"type":"Point"},"id":"stl-city-public-streetlights:2:133972","properties":{"address":null,"attributes":{"Date_Installed":null,"LED_Powered":0,"LightID":"L026688","Light_Source":"LED","Light_Type":"Cobra","Lighting_Type":"LED-Powered Lamp","Verification_Date":null},"id":"stl-city-public-streetlights:2:133972","sourceLayerId":2,"sourceObjectId":133972,"sourceURL":"https://maps8.stlouis-mo.gov/arcgis/rest/services/STREETS/Streets_Permitting/MapServer/2","title":"Street light L026688"},"type":"Feature"},{"geometry":{"coordinates":[-90.31376029231429,38.60700537295129],"type":"Point"},"id":"stl-city-public-streetlights:2:133973","properties":{"address":null,"attributes":{"Date_Installed":null,"LED_Powered":0,"LightID":"L026689","Light_Source":"LED","Light_Type":"Cobra","Lighting_Type":"LED-Powered Lamp","Verification_Date":null},"id":"stl-city-public-streetlights:2:133973","sourceLayerId":2,"sourceObjectId":133973,"sourceURL":"https://maps8.stlouis-mo.gov/arcgis/rest/services/STREETS/Streets_Permitting/MapServer/2","title":"Street light L026689"},"type":"Feature"},{"geometry":{"coordinates":[-90.31343339884062,38.60725108041293],"type":"Point"},"id":"stl-city-public-streetlights:2:133974","properties":{"address":null,"attributes":{"Date_Installed":null,"LED_Powered":0,"LightID":"L026690","Light_Source":"LED","Light_Type":"Cobra","Lighting_Type":"LED-Powered Lamp","Verification_Date":null},"id":"stl-city-public-streetlights:2:133974","sourceLayerId":2,"sourceObjectId":133974,"sourceURL":"https://maps8.stlouis-mo.gov/arcgis/rest/services/STREETS/Streets_Permitting/MapServer/2","title":"Street light L026690"},"type":"Feature"},{"geometry":{"coordinates":[-90.31548427797206,38.606424690477766],"type":"Point"},"id":"stl-city-public-streetlights:2:133975","properties":{"address":null,"attributes":{"Date_Installed":null,"LED_Powered":0,"LightID":"L026691","Light_Source":"LED","Light_Type":"Cobra","Lighting_Type":"LED-Powered Lamp","Verification_Date":null},"id":"stl-city-public-streetlights:2:133975","sourceLayerId":2,"sourceObjectId":133975,"sourceURL":"https://maps8.stlouis-mo.gov/arcgis/rest/services/STREETS/Streets_Permitting/MapServer/2","title":"Street light L026691"},"type":"Feature"},{"geometry":{"coordinates":[-90.3151761403619,38.60667549544273],"type":"Point"},"id":"stl-city-public-streetlights:2:133976","properties":{"address":null,"attributes":{"Date_Installed":null,"LED_Powered":0,"LightID":"L026692","Light_Source":"LED","Light_Type":"Cobra","Lighting_Type":"LED-Powered Lamp","Verification_Date":null},"id":"stl-city-public-streetlights:2:133976","sourceLayerId":2,"sourceObjectId":133976,"sourceURL":"https://maps8.stlouis-mo.gov/arcgis/rest/services/STREETS/Streets_Permitting/MapServer/2","title":"Street light L026692"},"type":"Feature"},{"geometry":{"coordinates":[-90.31487661684923,38.606912192579344],"type":"Point"},"id":"stl-city-public-streetlights:2:133977","properties":{"address":null,"attributes":{"Date_Installed":null,"LED_Powered":0,"LightID":"L026693","Light_Source":"LED","Light_Type":"Cobra","Lighting_Type":"LED-Powered Lamp","Verification_Date":null},"id":"stl-city-public-streetlights:2:133977","sourceLayerId":2,"sourceObjectId":133977,"sourceURL":"https://maps8.stlouis-mo.gov/arcgis/rest/services/STREETS/Streets_Permitting/MapServer/2","title":"Street light L026693"},"type":"Feature"},{"geometry":{"coordinates":[-90.31496056531157,38.607448485905174],"type":"Point"},"id":"stl-city-public-streetlights:2:133978","properties":{"address":null,"attributes":{"Date_Installed":null,"LED_Powered":0,"LightID":"L026694","Light_Source":"LED","Light_Type":"Cobra","Lighting_Type":"LED-Powered Lamp","Verification_Date":null},"id":"stl-city-public-streetlights:2:133978","sourceLayerId":2,"sourceObjectId":133978,"sourceURL":"https://maps8.stlouis-mo.gov/arcgis/rest/services/STREETS/Streets_Permitting/MapServer/2","title":"Street light L026694"},"type":"Feature"},{"geometry":{"coordinates":[-90.3146281617643,38.60771111218987],"type":"Point"},"id":"stl-city-public-streetlights:2:133979","properties":{"address":null,"attributes":{"Date_Installed":null,"LED_Powered":0,"LightID":"L026695","Light_Source":"LED","Light_Type":"Cobra","Lighting_Type":"LED-Powered Lamp","Verification_Date":null},"id":"stl-city-public-streetlights:2:133979","sourceLayerId":2,"sourceObjectId":133979,"sourceURL":"https://maps8.stlouis-mo.gov/arcgis/rest/services/STREETS/Streets_Permitting/MapServer/2","title":"Street light L026695"},"type":"Feature"},{"geometry":{"coordinates":[-90.31429621621646,38.607971949966455],"type":"Point"},"id":"stl-city-public-streetlights:2:133980","properties":{"address":null,"attributes":{"Date_Installed":null,"LED_Powered":0,"LightID":"L026696","Light_Source":"LED","Light_Type":"Cobra","Lighting_Type":"LED-Powered Lamp","Verification_Date":null},"id":"stl-city-public-streetlights:2:133980","sourceLayerId":2,"sourceObjectId":133980,"sourceURL":"https://maps8.stlouis-mo.gov/arcgis/rest/services/STREETS/Streets_Permitting/MapServer/2","title":"Street light L026696"},"type":"Feature"},{"geometry":{"coordinates":[-90.31214091248681,38.608621344287094],"type":"Point"},"id":"stl-city-public-streetlights:2:133981","properties":{"address":null,"attributes":{"Date_Installed":null,"LED_Powered":0,"LightID":"L026697","Light_Source":"LED","Light_Type":"Cobra","Lighting_Type":"LED-Powered Lamp","Verification_Date":null},"id":"stl-city-public-streetlights:2:133981","sourceLayerId":2,"sourceObjectId":133981,"sourceURL":"https://maps8.stlouis-mo.gov/arcgis/rest/services/STREETS/Streets_Permitting/MapServer/2","title":"Street light L026697"},"type":"Feature"},{"geometry":{"coordinates":[-90.31275544646054,38.608690346772946],"type":"Point"},"id":"stl-city-public-streetlights:2:133982","properties":{"address":null,"attributes":{"Date_Installed":null,"LED_Powered":0,"LightID":"L026698","Light_Source":"LED","Light_Type":"Cobra","Lighting_Type":"LED-Powered Lamp","Verification_Date":null},"id":"stl-city-public-streetlights:2:133982","sourceLayerId":2,"sourceObjectId":133982,"sourceURL":"https://maps8.stlouis-mo.gov/arcgis/rest/services/STREETS/Streets_Permitting/MapServer/2","title":"Street light L026698"},"type":"Feature"},{"geometry":{"coordinates":[-90.3133785711317,38.60875974801799],"type":"Point"},"id":"stl-city-public-streetlights:2:133983","properties":{"address":null,"attributes":{"Date_Installed":null,"LED_Powered":0,"LightID":"L026699","Light_Source":"LED","Light_Type":"Cobra","Lighting_Type":"LED-Powered Lamp","Verification_Date":null},"id":"stl-city-public-streetlights:2:133983","sourceLayerId":2,"sourceObjectId":133983,"sourceURL":"https://maps8.stlouis-mo.gov/arcgis/rest/services/STREETS/Streets_Permitting/MapServer/2","title":"Street light L026699"},"type":"Feature"},{"geometry":{"coordinates":[-90.31404599359259,38.6088383171857],"type":"Point"},"id":"stl-city-public-streetlights:2:133984","properties":{"address":null,"attributes":{"Date_Installed":null,"LED_Powered":0,"LightID":"L026700","Light_Source":"LED","Light_Type":"Cobra","Lighting_Type":"LED-Powered Lamp","Verification_Date":null},"id":"stl-city-public-streetlights:2:133984","sourceLayerId":2,"sourceObjectId":133984,"sourceURL":"https://maps8.stlouis-mo.gov/arcgis/rest/services/STREETS/Streets_Permitting/MapServer/2","title":"Street light L026700"},"type":"Feature"},{"geometry":{"coordinates":[-90.31435650112049,38.608705327290586],"type":"Point"},"id":"stl-city-public-streetlights:2:133985","properties":{"address":null,"attributes":{"Date_Installed":null,"LED_Powered":0,"LightID":"L026701","Light_Source":"LED","Light_Type":"Cobra","Lighting_Type":"LED-Powered Lamp","Verification_Date":null},"id":"stl-city-public-streetlights:2:133985","sourceLayerId":2,"sourceObjectId":133985,"sourceURL":"https://maps8.stlouis-mo.gov/arcgis/rest/services/STREETS/Streets_Permitting/MapServer/2","title":"Street light L026701"},"type":"Feature"},{"geometry":{"coordinates":[-90.31373527897276,38.608621520862094],"type":"Point"},"id":"stl-city-public-streetlights:2:133986","properties":{"address":null,"attributes":{"Date_Installed":null,"LED_Powered":0,"LightID":"L026702","Light_Source":"LED","Light_Type":"Cobra","Lighting_Type":"LED-Powered Lamp","Verification_Date":null},"id":"stl-city-public-streetlights:2:133986","sourceLayerId":2,"sourceObjectId":133986,"sourceURL":"https://maps8.stlouis-mo.gov/arcgis/rest/services/STREETS/Streets_Permitting/MapServer/2","title":"Street light L026702"},"type":"Feature"},{"geometry":{"coordinates":[-90.31250335446866,38.60848102379735],"type":"Point"},"id":"stl-city-public-streetlights:2:133987","properties":{"address":null,"attributes":{"Date_Installed":null,"LED_Powered":0,"LightID":"L026703","Light_Source":"LED","Light_Type":"Cobra","Lighting_Type":"LED-Powered Lamp","Verification_Date":null},"id":"stl-city-public-streetlights:2:133987","sourceLayerId":2,"sourceObjectId":133987,"sourceURL":"https://maps8.stlouis-mo.gov/arcgis/rest/services/STREETS/Streets_Permitting/MapServer/2","title":"Street light L026703"},"type":"Feature"},{"geometry":{"coordinates":[-90.31188247416308,38.60841253861056],"type":"Point"},"id":"stl-city-public-streetlights:2:133988","properties":{"address":null,"attributes":{"Date_Installed":null,"LED_Powered":0,"LightID":"L026704","Light_Source":"LED","Light_Type":"Cobra","Lighting_Type":"LED-Powered Lamp","Verification_Date":null},"id":"stl-city-public-streetlights:2:133988","sourceLayerId":2,"sourceObjectId":133988,"sourceURL":"https://maps8.stlouis-mo.gov/arcgis/rest/services/STREETS/Streets_Permitting/MapServer/2","title":"Street light L026704"},"type":"Feature"},{"geometry":{"coordinates":[-90.31528911767211,38.60018369468892],"type":"Point"},"id":"stl-city-public-streetlights:2:133989","properties":{"address":null,"attributes":{"Date_Installed":null,"LED_Powered":1,"LightID":"L026705","Light_Source":"LED","Light_Type":"Cobra","Lighting_Type":"LED-Powered Wallpacks","Verification_Date":null},"id":"stl-city-public-streetlights:2:133989","sourceLayerId":2,"sourceObjectId":133989,"sourceURL":"https://maps8.stlouis-mo.gov/arcgis/rest/services/STREETS/Streets_Permitting/MapServer/2","title":"Street light L026705"},"type":"Feature"},{"geometry":{"coordinates":[-90.3153786404249,38.600496600095916],"type":"Point"},"id":"stl-city-public-streetlights:2:133990","properties":{"address":null,"attributes":{"Date_Installed":"6/15/2017","LED_Powered":1,"LightID":"L026706","Light_Source":"LED","Light_Type":"Cobra","Lighting_Type":"LED-Powered Lamp","Verification_Date":null},"id":"stl-city-public-streetlights:2:133990","sourceLayerId":2,"sourceObjectId":133990,"sourceURL":"https://maps8.stlouis-mo.gov/arcgis/rest/services/STREETS/Streets_Permitting/MapServer/2","title":"Street light L026706"},"type":"Feature"},{"geometry":{"coordinates":[-90.31540711916422,38.60088088534793],"type":"Point"},"id":"stl-city-public-streetlights:2:133991","properties":{"address":null,"attributes":{"Date_Installed":"6/15/2017","LED_Powered":1,"LightID":"L026707","Light_Source":"LED","Light_Type":"Cobra","Lighting_Type":"LED-Powered Lamp","Verification_Date":null},"id":"stl-city-public-streetlights:2:133991","sourceLayerId":2,"sourceObjectId":133991,"sourceURL":"https://maps8.stlouis-mo.gov/arcgis/rest/services/STREETS/Streets_Permitting/MapServer/2","title":"Street light L026707"},"type":"Feature"},{"geometry":{"coordinates":[-90.315438344269,38.601439566758195],"type":"Point"},"id":"stl-city-public-streetlights:2:133992","properties":{"address":null,"attributes":{"Date_Installed":"6/15/2017","LED_Powered":1,"LightID":"L026708","Light_Source":"LED","Light_Type":"Cobra","Lighting_Type":"LED-Powered Lamp","Verification_Date":null},"id":"stl-city-public-streetlights:2:133992","sourceLayerId":2,"sourceObjectId":133992,"sourceURL":"https://maps8.stlouis-mo.gov/arcgis/rest/services/STREETS/Streets_Permitting/MapServer/2","title":"Street light L026708"},"type":"Feature"},{"geometry":{"coordinates":[-90.31543328617704,38.6016940997511],"type":"Point"},"id":"stl-city-public-streetlights:2:133993","properties":{"address":null,"attributes":{"Date_Installed":"6/15/2017","LED_Powered":1,"LightID":"L026709","Light_Source":"LED","Light_Type":"Cobra","Lighting_Type":"LED-Powered Lamp","Verification_Date":null},"id":"stl-city-public-streetlights:2:133993","sourceLayerId":2,"sourceObjectId":133993,"sourceURL":"https://maps8.stlouis-mo.gov/arcgis/rest/services/STREETS/Streets_Permitting/MapServer/2","title":"Street light L026709"},"type":"Feature"},{"geometry":{"coordinates":[-90.31530495773605,38.60198684524796],"type":"Point"},"id":"stl-city-public-streetlights:2:133994","properties":{"address":null,"attributes":{"Date_Installed":"6/15/2017","LED_Powered":1,"LightID":"L026710","Light_Source":"LED","Light_Type":"Cobra","Lighting_Type":"LED-Powered Lamp","Verification_Date":null},"id":"stl-city-public-streetlights:2:133994","sourceLayerId":2,"sourceObjectId":133994,"sourceURL":"https://maps8.stlouis-mo.gov/arcgis/rest/services/STREETS/Streets_Permitting/MapServer/2","title":"Street light L026710"},"type":"Feature"},{"geometry":{"coordinates":[-90.31509662240757,38.60216009279039],"type":"Point"},"id":"stl-city-public-streetlights:2:133995","properties":{"address":null,"attributes":{"Date_Installed":"6/15/2017","LED_Powered":1,"LightID":"L026711","Light_Source":"LED","Light_Type":"Cobra","Lighting_Type":"LED-Powered Lamp","Verification_Date":null},"id":"stl-city-public-streetlights:2:133995","sourceLayerId":2,"sourceObjectId":133995,"sourceURL":"https://maps8.stlouis-mo.gov/arcgis/rest/services/STREETS/Streets_Permitting/MapServer/2","title":"Street light L026711"},"type":"Feature"},{"geometry":{"coordinates":[-90.31486013775421,38.602388379806285],"type":"Point"},"id":"stl-city-public-streetlights:2:133996","properties":{"address":null,"attributes":{"Date_Installed":"6/15/2017","LED_Powered":1,"LightID":"L026712","Light_Source":"LED","Light_Type":"Cobra","Lighting_Type":"LED-Powered Lamp","Verification_Date":null},"id":"stl-city-public-streetlights:2:133996","sourceLayerId":2,"sourceObjectId":133996,"sourceURL":"https://maps8.stlouis-mo.gov/arcgis/rest/services/STREETS/Streets_Permitting/MapServer/2","title":"Street light L026712"},"type":"Feature"},{"geometry":{"coordinates":[-90.31444152136729,38.602757178701374],"type":"Point"},"id":"stl-city-public-streetlights:2:133997","properties":{"address":null,"attributes":{"Date_Installed":"6/15/2017","LED_Powered":1,"LightID":"L026713","Light_Source":"LED","Light_Type":"Cobra","Lighting_Type":"LED-Powered Lamp","Verification_Date":null},"id":"stl-city-public-streetlights:2:133997","sourceLayerId":2,"sourceObjectId":133997,"sourceURL":"https://maps8.stlouis-mo.gov/arcgis/rest/services/STREETS/Streets_Permitting/MapServer/2","title":"Street light L026713"},"type":"Feature"},{"geometry":{"coordinates":[-90.31404202438414,38.603130773094136],"type":"Point"},"id":"stl-city-public-streetlights:2:133998","properties":{"address":null,"attributes":{"Date_Installed":"6/15/2017","LED_Powered":1,"LightID":"L026714","Light_Source":"LED","Light_Type":"Cobra","Lighting_Type":"LED-Powered Lamp","Verification_Date":null},"id":"stl-city-public-streetlights:2:133998","sourceLayerId":2,"sourceObjectId":133998,"sourceURL":"https://maps8.stlouis-mo.gov/arcgis/rest/services/STREETS/Streets_Permitting/MapServer/2","title":"Street light L026714"},"type":"Feature"},{"geometry":{"coordinates":[-90.31380541943585,38.60359103298898],"type":"Point"},"id":"stl-city-public-streetlights:2:133999","properties":{"address":null,"attributes":{"Date_Installed":"6/15/2017","LED_Powered":1,"LightID":"L026715","Light_Source":"LED","Light_Type":"Cobra","Lighting_Type":"LED-Powered Lamp","Verification_Date":null},"id":"stl-city-public-streetlights:2:133999","sourceLayerId":2,"sourceObjectId":133999,"sourceURL":"https://maps8.stlouis-mo.gov/arcgis/rest/services/STREETS/Streets_Permitting/MapServer/2","title":"Street light L026715"},"type":"Feature"},{"geometry":{"coordinates":[-90.31382090220609,38.604064802622325],"type":"Point"},"id":"stl-city-public-streetlights:2:134000","properties":{"address":null,"attributes":{"Date_Installed":"6/15/2017","LED_Powered":1,"LightID":"L026716","Light_Source":"LED","Light_Type":"Cobra","Lighting_Type":"LED-Powered Lamp","Verification_Date":null},"id":"stl-city-public-streetlights:2:134000","sourceLayerId":2,"sourceObjectId":134000,"sourceURL":"https://maps8.stlouis-mo.gov/arcgis/rest/services/STREETS/Streets_Permitting/MapServer/2","title":"Street light L026716"},"type":"Feature"},{"geometry":{"coordinates":[-90.31391227441091,38.604558954056664],"type":"Point"},"id":"stl-city-public-streetlights:2:134001","properties":{"address":null,"attributes":{"Date_Installed":"6/15/2017","LED_Powered":1,"LightID":"L026717","Light_Source":"LED","Light_Type":"Cobra","Lighting_Type":"LED-Powered Lamp","Verification_Date":null},"id":"stl-city-public-streetlights:2:134001","sourceLayerId":2,"sourceObjectId":134001,"sourceURL":"https://maps8.stlouis-mo.gov/arcgis/rest/services/STREETS/Streets_Permitting/MapServer/2","title":"Street light L026717"},"type":"Feature"},{"geometry":{"coordinates":[-90.31401125790586,38.60504715895315],"type":"Point"},"id":"stl-city-public-streetlights:2:134002","properties":{"address":null,"attributes":{"Date_Installed":"6/15/2017","LED_Powered":1,"LightID":"L026718","Light_Source":"LED","Light_Type":"Cobra","Lighting_Type":"LED-Powered Lamp","Verification_Date":null},"id":"stl-city-public-streetlights:2:134002","sourceLayerId":2,"sourceObjectId":134002,"sourceURL":"https://maps8.stlouis-mo.gov/arcgis/rest/services/STREETS/Streets_Permitting/MapServer/2","title":"Street light L026718"},"type":"Feature"},{"geometry":{"coordinates":[-90.31403108946706,38.605489183294544],"type":"Point"},"id":"stl-city-public-streetlights:2:134003","properties":{"address":null,"attributes":{"Date_Installed":"6/15/2017","LED_Powered":1,"LightID":"L026719","Light_Source":"LED","Light_Type":"Cobra","Lighting_Type":"LED-Powered Lamp","Verification_Date":null},"id":"stl-city-public-streetlights:2:134003","sourceLayerId":2,"sourceObjectId":134003,"sourceURL":"https://maps8.stlouis-mo.gov/arcgis/rest/services/STREETS/Streets_Permitting/MapServer/2","title":"Street light L026719"},"type":"Feature"},{"geometry":{"coordinates":[-90.31387660911179,38.60590559551222],"type":"Point"},"id":"stl-city-public-streetlights:2:134004","properties":{"address":null,"attributes":{"Date_Installed":"6/15/2017","LED_Powered":1,"LightID":"L026720","Light_Source":"LED","Light_Type":"Cobra","Lighting_Type":"LED-Powered Lamp","Verification_Date":null},"id":"stl-city-public-streetlights:2:134004","sourceLayerId":2,"sourceObjectId":134004,"sourceURL":"https://maps8.stlouis-mo.gov/arcgis/rest/services/STREETS/Streets_Permitting/MapServer/2","title":"Street light L026720"},"type":"Feature"},{"geometry":{"coordinates":[-90.31356753039162,38.606312488388504],"type":"Point"},"id":"stl-city-public-streetlights:2:134005","properties":{"address":null,"attributes":{"Date_Installed":"6/15/2017","LED_Powered":1,"LightID":"L026721","Light_Source":"LED","Light_Type":"Cobra","Lighting_Type":"LED-Powered Lamp","Verification_Date":null},"id":"stl-city-public-streetlights:2:134005","sourceLayerId":2,"sourceObjectId":134005,"sourceURL":"https://maps8.stlouis-mo.gov/arcgis/rest/services/STREETS/Streets_Permitting/MapServer/2","title":"Street light L026721"},"type":"Feature"},{"geometry":{"coordinates":[-90.3131724336124,38.606678698331315],"type":"Point"},"id":"stl-city-public-streetlights:2:134006","properties":{"address":null,"attributes":{"Date_Installed":"6/15/2017","LED_Powered":1,"LightID":"L026722","Light_Source":"LED","Light_Type":"Cobra","Lighting_Type":"LED-Powered Lamp","Verification_Date":null},"id":"stl-city-public-streetlights:2:134006","sourceLayerId":2,"sourceObjectId":134006,"sourceURL":"https://maps8.stlouis-mo.gov/arcgis/rest/services/STREETS/Streets_Permitting/MapServer/2","title":"Street light L026722"},"type":"Feature"},{"geometry":{"coordinates":[-90.31269270267755,38.607055497536564],"type":"Point"},"id":"stl-city-public-streetlights:2:134007","properties":{"address":null,"attributes":{"Date_Installed":"6/15/2017","LED_Powered":1,"LightID":"L026723","Light_Source":"LED","Light_Type":"Cobra","Lighting_Type":"LED-Powered Lamp","Verification_Date":null},"id":"stl-city-public-streetlights:2:134007","sourceLayerId":2,"sourceObjectId":134007,"sourceURL":"https://maps8.stlouis-mo.gov/arcgis/rest/services/STREETS/Streets_Permitting/MapServer/2","title":"Street light L026723"},"type":"Feature"},{"geometry":{"coordinates":[-90.31224289457232,38.607418040149035],"type":"Point"},"id":"stl-city-public-streetlights:2:134008","properties":{"address":null,"attributes":{"Date_Installed":"6/15/2017","LED_Powered":1,"LightID":"L026724","Light_Source":"LED","Light_Type":"Cobra","Lighting_Type":"LED-Powered Lamp","Verification_Date":null},"id":"stl-city-public-streetlights:2:134008","sourceLayerId":2,"sourceObjectId":134008,"sourceURL":"https://maps8.stlouis-mo.gov/arcgis/rest/services/STREETS/Streets_Permitting/MapServer/2","title":"Street light L026724"},"type":"Feature"},{"geometry":{"coordinates":[-90.31180206412255,38.607784887308256],"type":"Point"},"id":"stl-city-public-streetlights:2:134009","properties":{"address":null,"attributes":{"Date_Installed":"6/15/2017","LED_Powered":1,"LightID":"L026725","Light_Source":"LED","Light_Type":"Cobra","Lighting_Type":"LED-Powered Lamp","Verification_Date":null},"id":"stl-city-public-streetlights:2:134009","sourceLayerId":2,"sourceObjectId":134009,"sourceURL":"https://maps8.stlouis-mo.gov/arcgis/rest/services/STREETS/Streets_Permitting/MapServer/2","title":"Street light L026725"},"type":"Feature"},{"geometry":{"coordinates":[-90.31145565944519,38.60828536695958],"type":"Point"},"id":"stl-city-public-streetlights:2:134010","properties":{"address":null,"attributes":{"Date_Installed":"6/15/2017","LED_Powered":1,"LightID":"L026726","Light_Source":"LED","Light_Type":"Cobra","Lighting_Type":"LED-Powered Lamp","Verification_Date":null},"id":"stl-city-public-streetlights:2:134010","sourceLayerId":2,"sourceObjectId":134010,"sourceURL":"https://maps8.stlouis-mo.gov/arcgis/rest/services/STREETS/Streets_Permitting/MapServer/2","title":"Street light L026726"},"type":"Feature"},{"geometry":{"coordinates":[-90.31113729597465,38.60874822978788],"type":"Point"},"id":"stl-city-public-streetlights:2:134011","properties":{"address":null,"attributes":{"Date_Installed":"6/15/2017","LED_Powered":1,"LightID":"L026727","Light_Source":"LED","Light_Type":"Cobra","Lighting_Type":"LED-Powered Lamp","Verification_Date":null},"id":"stl-city-public-streetlights:2:134011","sourceLayerId":2,"sourceObjectId":134011,"sourceURL":"https://maps8.stlouis-mo.gov/arcgis/rest/services/STREETS/Streets_Permitting/MapServer/2","title":"Street light L026727"},"type":"Feature"},{"geometry":{"coordinates":[-90.31086820036766,38.60918900392978],"type":"Point"},"id":"stl-city-public-streetlights:2:134012","properties":{"address":null,"attributes":{"Date_Installed":"6/15/2017","LED_Powered":1,"LightID":"L026728","Light_Source":"LED","Light_Type":"Cobra","Lighting_Type":"LED-Powered Lamp","Verification_Date":null},"id":"stl-city-public-streetlights:2:134012","sourceLayerId":2,"sourceObjectId":134012,"sourceURL":"https://maps8.stlouis-mo.gov/arcgis/rest/services/STREETS/Streets_Permitting/MapServer/2","title":"Street light L026728"},"type":"Feature"},{"geometry":{"coordinates":[-90.31060126428802,38.609639076343775],"type":"Point"},"id":"stl-city-public-streetlights:2:134013","properties":{"address":null,"attributes":{"Date_Installed":"6/15/2017","LED_Powered":1,"LightID":"L026729","Light_Source":"LED","Light_Type":"Cobra","Lighting_Type":"LED-Powered Lamp","Verification_Date":null},"id":"stl-city-public-streetlights:2:134013","sourceLayerId":2,"sourceObjectId":134013,"sourceURL":"https://maps8.stlouis-mo.gov/arcgis/rest/services/STREETS/Streets_Permitting/MapServer/2","title":"Street light L026729"},"type":"Feature"},{"geometry":{"coordinates":[-90.310396221758,38.60997984105864],"type":"Point"},"id":"stl-city-public-streetlights:2:134014","properties":{"address":null,"attributes":{"Date_Installed":"6/15/2017","LED_Powered":1,"LightID":"L026730","Light_Source":"LED","Light_Type":"Cobra","Lighting_Type":"LED-Powered Lamp","Verification_Date":null},"id":"stl-city-public-streetlights:2:134014","sourceLayerId":2,"sourceObjectId":134014,"sourceURL":"https://maps8.stlouis-mo.gov/arcgis/rest/services/STREETS/Streets_Permitting/MapServer/2","title":"Street light L026730"},"type":"Feature"},{"geometry":{"coordinates":[-90.31070252688943,38.60994744258421],"type":"Point"},"id":"stl-city-public-streetlights:2:134017","properties":{"address":null,"attributes":{"Date_Installed":"6/15/2017","LED_Powered":1,"LightID":"L026733","Light_Source":"LED","Light_Type":"Cobra","Lighting_Type":"LED-Powered Lamp","Verification_Date":null},"id":"stl-city-public-streetlights:2:134017","sourceLayerId":2,"sourceObjectId":134017,"sourceURL":"https://maps8.stlouis-mo.gov/arcgis/rest/services/STREETS/Streets_Permitting/MapServer/2","title":"Street light L026733"},"type":"Feature"},{"geometry":{"coordinates":[-90.31095756862518,38.60951522720413],"type":"Point"},"id":"stl-city-public-streetlights:2:134018","properties":{"address":null,"attributes":{"Date_Installed":"6/15/2017","LED_Powered":1,"LightID":"L026734","Light_Source":"LED","Light_Type":"Cobra","Lighting_Type":"LED-Powered Lamp","Verification_Date":null},"id":"stl-city-public-streetlights:2:134018","sourceLayerId":2,"sourceObjectId":134018,"sourceURL":"https://maps8.stlouis-mo.gov/arcgis/rest/services/STREETS/Streets_Permitting/MapServer/2","title":"Street light L026734"},"type":"Feature"},{"geometry":{"coordinates":[-90.3116008582174,38.60940597800539],"type":"Point"},"id":"stl-city-public-streetlights:2:135014","properties":{"address":null,"attributes":{"Date_Installed":null,"LED_Powered":0,"LightID":"L027730","Light_Source":"LED","Light_Type":"Cobra","Lighting_Type":"LED-Powered Lamp","Verification_Date":1648771200000},"id":"stl-city-public-streetlights:2:135014","sourceLayerId":2,"sourceObjectId":135014,"sourceURL":"https://maps8.stlouis-mo.gov/arcgis/rest/services/STREETS/Streets_Permitting/MapServer/2","title":"Street light L027730"},"type":"Feature"},{"geometry":{"coordinates":[-90.31209541948184,38.60946636467202],"type":"Point"},"id":"stl-city-public-streetlights:2:135015","properties":{"address":null,"attributes":{"Date_Installed":null,"LED_Powered":0,"LightID":"L027731","Light_Source":"LED","Light_Type":"Cobra","Lighting_Type":"LED-Powered Lamp","Verification_Date":1648771200000},"id":"stl-city-public-streetlights:2:135015","sourceLayerId":2,"sourceObjectId":135015,"sourceURL":"https://maps8.stlouis-mo.gov/arcgis/rest/services/STREETS/Streets_Permitting/MapServer/2","title":"Street light L027731"},"type":"Feature"},{"geometry":{"coordinates":[-90.31261019292906,38.60952320506457],"type":"Point"},"id":"stl-city-public-streetlights:2:135016","properties":{"address":null,"attributes":{"Date_Installed":null,"LED_Powered":0,"LightID":"L027732","Light_Source":"LED","Light_Type":"Cobra","Lighting_Type":"LED-Powered Lamp","Verification_Date":1648771200000},"id":"stl-city-public-streetlights:2:135016","sourceLayerId":2,"sourceObjectId":135016,"sourceURL":"https://maps8.stlouis-mo.gov/arcgis/rest/services/STREETS/Streets_Permitting/MapServer/2","title":"Street light L027732"},"type":"Feature"},{"geometry":{"coordinates":[-90.3130954994045,38.60957999613218],"type":"Point"},"id":"stl-city-public-streetlights:2:135017","properties":{"address":null,"attributes":{"Date_Installed":null,"LED_Powered":0,"LightID":"L027733","Light_Source":"LED","Light_Type":"Cobra","Lighting_Type":"LED-Powered Lamp","Verification_Date":1648771200000},"id":"stl-city-public-streetlights:2:135017","sourceLayerId":2,"sourceObjectId":135017,"sourceURL":"https://maps8.stlouis-mo.gov/arcgis/rest/services/STREETS/Streets_Permitting/MapServer/2","title":"Street light L027733"},"type":"Feature"},{"geometry":{"coordinates":[-90.31358657851032,38.60963679438317],"type":"Point"},"id":"stl-city-public-streetlights:2:135018","properties":{"address":null,"attributes":{"Date_Installed":null,"LED_Powered":0,"LightID":"L027734","Light_Source":"LED","Light_Type":"Cobra","Lighting_Type":"LED-Powered Lamp","Verification_Date":1648771200000},"id":"stl-city-public-streetlights:2:135018","sourceLayerId":2,"sourceObjectId":135018,"sourceURL":"https://maps8.stlouis-mo.gov/arcgis/rest/services/STREETS/Streets_Permitting/MapServer/2","title":"Street light L027734"},"type":"Feature"},{"geometry":{"coordinates":[-90.31409073037928,38.609690036592234],"type":"Point"},"id":"stl-city-public-streetlights:2:135019","properties":{"address":null,"attributes":{"Date_Installed":null,"LED_Powered":0,"LightID":"L027735","Light_Source":"LED","Light_Type":"Cobra","Lighting_Type":"LED-Powered Lamp","Verification_Date":1648771200000},"id":"stl-city-public-streetlights:2:135019","sourceLayerId":2,"sourceObjectId":135019,"sourceURL":"https://maps8.stlouis-mo.gov/arcgis/rest/services/STREETS/Streets_Permitting/MapServer/2","title":"Street light L027735"},"type":"Feature"},{"geometry":{"coordinates":[-90.31473223516497,38.60972799967872],"type":"Point"},"id":"stl-city-public-streetlights:2:135020","properties":{"address":null,"attributes":{"Date_Installed":null,"LED_Powered":0,"LightID":"L027736","Light_Source":"High Pressure Sodium","Light_Type":"Cobra","Lighting_Type":"150-W High Pressure Sodium Vapor Lamp","Verification_Date":1648771200000},"id":"stl-city-public-streetlights:2:135020","sourceLayerId":2,"sourceObjectId":135020,"sourceURL":"https://maps8.stlouis-mo.gov/arcgis/rest/services/STREETS/Streets_Permitting/MapServer/2","title":"Street light L027736"},"type":"Feature"}],"layerId":"city-streetlights","retrievedAt":"2026-09-13T21:56:18.173251+00:00","schema":"property-infrastructure-geojson-v1","sourceId":"stl-city-public-streetlights","tileId":"-9032_3860","type":"FeatureCollection"}