{"features":[{"geometry":{"coordinates":[-90.3100939514459,38.62013148915961],"type":"Point"},"id":"stl-city-public-streetlights:2:124553","properties":{"address":null,"attributes":{"Date_Installed":"3/26/20","LED_Powered":1,"LightID":"L017281","Light_Source":"LED","Light_Type":"Cobra","Lighting_Type":"LED-Powered Lamp","Verification_Date":null},"id":"stl-city-public-streetlights:2:124553","sourceLayerId":2,"sourceObjectId":124553,"sourceURL":"https://maps8.stlouis-mo.gov/arcgis/rest/services/STREETS/Streets_Permitting/MapServer/2","title":"Street light L017281"},"type":"Feature"},{"geometry":{"coordinates":[-90.31012236732586,38.62211659166541],"type":"Point"},"id":"stl-city-public-streetlights:2:124554","properties":{"address":null,"attributes":{"Date_Installed":"3/26/20","LED_Powered":1,"LightID":"L017282","Light_Source":"LED","Light_Type":"Cobra","Lighting_Type":"LED-Powered Lamp","Verification_Date":null},"id":"stl-city-public-streetlights:2:124554","sourceLayerId":2,"sourceObjectId":124554,"sourceURL":"https://maps8.stlouis-mo.gov/arcgis/rest/services/STREETS/Streets_Permitting/MapServer/2","title":"Street light L017282"},"type":"Feature"},{"geometry":{"coordinates":[-90.31000098034148,38.62306944454478],"type":"Point"},"id":"stl-city-public-streetlights:2:124594","properties":{"address":null,"attributes":{"Date_Installed":"3/26/20","LED_Powered":1,"LightID":"L017322","Light_Source":"LED","Light_Type":"Cobra","Lighting_Type":"LED-Powered Lamp","Verification_Date":null},"id":"stl-city-public-streetlights:2:124594","sourceLayerId":2,"sourceObjectId":124594,"sourceURL":"https://maps8.stlouis-mo.gov/arcgis/rest/services/STREETS/Streets_Permitting/MapServer/2","title":"Street light L017322"},"type":"Feature"},{"geometry":{"coordinates":[-90.31037629761609,38.62011639404033],"type":"Point"},"id":"stl-city-public-streetlights:2:125340","properties":{"address":null,"attributes":{"Date_Installed":"3/26/20","LED_Powered":1,"LightID":"L018068","Light_Source":"LED","Light_Type":"Cobra","Lighting_Type":"LED-Powered Lamp","Verification_Date":null},"id":"stl-city-public-streetlights:2:125340","sourceLayerId":2,"sourceObjectId":125340,"sourceURL":"https://maps8.stlouis-mo.gov/arcgis/rest/services/STREETS/Streets_Permitting/MapServer/2","title":"Street light L018068"},"type":"Feature"},{"geometry":{"coordinates":[-90.31027259562612,38.62049855776113],"type":"Point"},"id":"stl-city-public-streetlights:2:125341","properties":{"address":null,"attributes":{"Date_Installed":"3/26/20","LED_Powered":1,"LightID":"L018069","Light_Source":"LED","Light_Type":"Cobra","Lighting_Type":"LED-Powered Lamp","Verification_Date":null},"id":"stl-city-public-streetlights:2:125341","sourceLayerId":2,"sourceObjectId":125341,"sourceURL":"https://maps8.stlouis-mo.gov/arcgis/rest/services/STREETS/Streets_Permitting/MapServer/2","title":"Street light L018069"},"type":"Feature"},{"geometry":{"coordinates":[-90.31020231788415,38.62087934586761],"type":"Point"},"id":"stl-city-public-streetlights:2:125342","properties":{"address":null,"attributes":{"Date_Installed":"3/26/20","LED_Powered":1,"LightID":"L018070","Light_Source":"LED","Light_Type":"Cobra","Lighting_Type":"LED-Powered Lamp","Verification_Date":null},"id":"stl-city-public-streetlights:2:125342","sourceLayerId":2,"sourceObjectId":125342,"sourceURL":"https://maps8.stlouis-mo.gov/arcgis/rest/services/STREETS/Streets_Permitting/MapServer/2","title":"Street light L018070"},"type":"Feature"},{"geometry":{"coordinates":[-90.31013091880514,38.62122390177597],"type":"Point"},"id":"stl-city-public-streetlights:2:125343","properties":{"address":null,"attributes":{"Date_Installed":"3/26/20","LED_Powered":1,"LightID":"L018071","Light_Source":"LED","Light_Type":"Cobra","Lighting_Type":"LED-Powered Lamp","Verification_Date":null},"id":"stl-city-public-streetlights:2:125343","sourceLayerId":2,"sourceObjectId":125343,"sourceURL":"https://maps8.stlouis-mo.gov/arcgis/rest/services/STREETS/Streets_Permitting/MapServer/2","title":"Street light L018071"},"type":"Feature"},{"geometry":{"coordinates":[-90.31005941833875,38.62160707062559],"type":"Point"},"id":"stl-city-public-streetlights:2:125344","properties":{"address":null,"attributes":{"Date_Installed":"3/26/20","LED_Powered":1,"LightID":"L018072","Light_Source":"LED","Light_Type":"Cobra","Lighting_Type":"LED-Powered Lamp","Verification_Date":null},"id":"stl-city-public-streetlights:2:125344","sourceLayerId":2,"sourceObjectId":125344,"sourceURL":"https://maps8.stlouis-mo.gov/arcgis/rest/services/STREETS/Streets_Permitting/MapServer/2","title":"Street light L018072"},"type":"Feature"}],"layerId":"city-streetlights","retrievedAt":"2026-09-13T21:56:18.173251+00:00","schema":"property-infrastructure-geojson-v1","sourceId":"stl-city-public-streetlights","tileId":"-9032_3862","type":"FeatureCollection"}