{"type":"FeatureCollection","features":[{"type":"Feature","id":1,"geometry":{"type":"Polygon","coordinates":[[[-90.21983012528342,38.73234179244647],[-90.22177668865339,38.730211436490144],[-90.22428408939989,38.72921313345686],[-90.22806242811673,38.72819514641495],[-90.22792711080402,38.72661346099801],[-90.22858382889125,38.726448943427705],[-90.22946349872129,38.72604773231286],[-90.23080841096994,38.72539456759468],[-90.23052739619797,38.7249669501472],[-90.23036809947426,38.72438147570999],[-90.23045024277623,38.72401004207443],[-90.2305636738912,38.72336984823431],[-90.23062802036988,38.722935242694604],[-90.23032354698516,38.72280790735004],[-90.23023380820585,38.722515146190936],[-90.23030618368871,38.722056715798786],[-90.22870180832932,38.721942307940836],[-90.23023000353945,38.71309582576525],[-90.23039617672256,38.711846832112215],[-90.2303410290848,38.710407547878],[-90.23076504757509,38.71036898813279],[-90.23206799597818,38.71008731249021],[-90.2317380894613,38.709248365467914],[-90.23133651119753,38.70868601430321],[-90.23074555055337,38.70717699433847],[-90.23025151764784,38.70737087789809],[-90.23016592129761,38.705673350200186],[-90.22996043931302,38.70396498865859],[-90.22942043918827,38.70266701131232],[-90.22908055946715,38.701820186975375],[-90.22745978558025,38.69842106219065],[-90.22664805717348,38.69694837738285],[-90.22563602534274,38.69502026686577],[-90.22341915717594,38.689755372354895],[-90.22184424303867,38.6874654318636],[-90.22924115520796,38.68345065699463],[-90.2284694657476,38.683105144401225],[-90.22764529205513,38.68288184611222],[-90.22699853025131,38.68291529331944],[-90.22268026426087,38.68398840561575],[-90.22065796798339,38.68411176943106],[-90.21849614884175,38.68379779783429],[-90.2165003334625,38.68286078743391],[-90.21306245373714,38.68104679495848],[-90.21125388337715,38.67981891944419],[-90.20817446547802,38.67758509094615],[-90.2070114964172,38.67662086217204],[-90.20580318039144,38.675068931008774],[-90.20445048577099,38.67328864024321],[-90.20314316788988,38.67133367263543],[-90.20178380604102,38.66940186124959],[-90.20048440178695,38.66736532145701],[-90.19925723322822,38.665841626799306],[-90.19737038708749,38.6621723019843],[-90.19637599642415,38.660107373901575],[-90.19589378621508,38.65817193835856],[-90.19543134931872,38.65683661460861],[-90.19536855284647,38.65587518521952],[-90.19376427357811,38.652680487575005],[-90.19312237602261,38.65120862723524],[-90.1925591901609,38.65026284994388],[-90.18966024667922,38.6443366275461],[-90.18845060960743,38.64405377064278],[-90.18666947352146,38.64365868083132],[-90.1815473841238,38.644755935433594],[-90.18199169922333,38.646999206261384],[-90.18205117462725,38.64820660681318],[-90.18217948724184,38.64851194349215],[-90.18233639477052,38.64966875410964],[-90.18268389753143,38.651715645447545],[-90.18340064205435,38.6545514173708],[-90.18462766273875,38.65930742540064],[-90.18604555062163,38.6649280378655],[-90.18667563023403,38.66539990785816],[-90.18685367595828,38.66545121073872],[-90.18904765873695,38.67313120550869],[-90.1893255893202,38.674169005480294],[-90.19000355762971,38.675473262040825],[-90.19249938909812,38.6794065351323],[-90.19872839361717,38.68624675840332],[-90.2058232217057,38.69195806134763],[-90.2072749441145,38.693664325766946],[-90.20670528798331,38.69418390271815],[-90.20894767938557,38.69702331687871],[-90.21348179608309,38.702651278177285],[-90.2127993754103,38.70298001678245],[-90.21415176541166,38.70544858434985],[-90.21467170819389,38.705208408837805],[-90.21581358168419,38.70762564469023],[-90.21722765975778,38.71397936500791],[-90.21617684121017,38.72239276630071],[-90.21493089975925,38.725693708525284],[-90.21462933350656,38.72676225156115],[-90.2140062126659,38.72784849162221],[-90.21410878164413,38.72900902267913],[-90.21390927401154,38.72966866513316],[-90.21320737004291,38.73074708883404],[-90.21195121578397,38.732406579852515],[-90.21151128906448,38.73274900029578],[-90.21384078969812,38.73557723620742],[-90.21836187734975,38.73346902686794],[-90.21983012528342,38.73234179244647]]]},"properties":{"OBJECTID":1,"Name":"North Broadway Vicinity Commercial Area","UpDated":1147824000000,"ORDINANCE":"67390","ItemType":"SUD"}},{"type":"Feature","id":2,"geometry":{"type":"Polygon","coordinates":[[[-90.30285893777854,38.64947348059528],[-90.30337759451125,38.646295490016946],[-90.30209472938341,38.646172442864476],[-90.30139655510068,38.64610547677929],[-90.30090149320762,38.64921685462475],[-90.30095772389949,38.649243421118754],[-90.30227483356322,38.64937366914308],[-90.30226838323037,38.649414545065845],[-90.30285893777854,38.64947348059528]]]},"properties":{"OBJECTID":2,"Name":"Washington University Danforth Campus Amended and Restated CUP","UpDated":1196294400000,"ORDINANCE":"67878","ItemType":"CUP"}},{"type":"Feature","id":3,"geometry":{"type":"Polygon","coordinates":[[[-90.25404081360291,38.65947572056363],[-90.25236064915539,38.65873761278018],[-90.25216460149662,38.658654513326034],[-90.25033748828477,38.65784964623859],[-90.2503169166665,38.65788035769507],[-90.2485635131698,38.65711562852145],[-90.24853604267342,38.65716905330648],[-90.24795417663323,38.656938639808196],[-90.24567073272014,38.65593343133574],[-90.24547491294842,38.6558474211898],[-90.24303150166784,38.65477437073604],[-90.24292763789792,38.6547313558118],[-90.24297905232545,38.654659264507],[-90.2432858785218,38.65421200826172],[-90.2423188580614,38.65378602020968],[-90.24206084804376,38.654143048761],[-90.24185960080824,38.65405451611482],[-90.24175293219996,38.654207297227906],[-90.24163714875331,38.65416024319141],[-90.23928942913469,38.6531308124315],[-90.23910045752956,38.65304749059723],[-90.23810622511203,38.652613383693286],[-90.23801731465169,38.652555384593036],[-90.23762127558832,38.652380791530085],[-90.23751384895175,38.65233527554828],[-90.23703235639573,38.6529773419729],[-90.23234229904621,38.65092093440546],[-90.23224455117742,38.65107046610875],[-90.23207800438622,38.651316946812095],[-90.23390143429366,38.65212387401393],[-90.2341001689369,38.65220768319075],[-90.23635415163973,38.65318649777381],[-90.23634557598302,38.65319917014212],[-90.23732153877559,38.65363450947977],[-90.23750242912129,38.653713608002214],[-90.23846268441498,38.654136031579796],[-90.23837552602808,38.65424862772056],[-90.2395703025757,38.65477281532177],[-90.2396665385263,38.654691895664484],[-90.24009663642587,38.654873342011534],[-90.24028263519912,38.65495593941277],[-90.24296813143629,38.65614187040009],[-90.24314655781674,38.65622916994778],[-90.24354875945704,38.65639387411641],[-90.24325117847428,38.65676660370559],[-90.24514301205775,38.65758780334446],[-90.24542060916137,38.657216651597565],[-90.24706895166459,38.65793699511467],[-90.24718984184238,38.65799342130932],[-90.24635001841658,38.659168386029066],[-90.24754882379922,38.659699194192456],[-90.24806478735594,38.65895545654949],[-90.24811010434566,38.658816146490196],[-90.24834609126914,38.658497383897405],[-90.24902892833332,38.65880107035675],[-90.24919073892559,38.65886159391314],[-90.25084766501932,38.65958725193865],[-90.2508969901248,38.659626137438686],[-90.25132611851502,38.65981694019741],[-90.25151344580695,38.659897573910165],[-90.25197151526505,38.66010448325707],[-90.25207382771534,38.66011004871297],[-90.25235993817842,38.660231007757986],[-90.25250639069775,38.660295505851614],[-90.25323355231244,38.6606153080717],[-90.25360386927817,38.660108873573456],[-90.25404081360291,38.65947572056363]]]},"properties":{"OBJECTID":3,"Name":"Greater Ville Commercial Area SUD","UpDated":1247097600000,"ORDINANCE":"68619","ItemType":"SUD"}},{"type":"Feature","id":4,"geometry":{"type":"Polygon","coordinates":[[[-90.26344346832828,38.64049326482363],[-90.26360062742962,38.64001923628905],[-90.26402792140578,38.64012065438984],[-90.2640501928258,38.64005548392204],[-90.2643429336995,38.63916585366678],[-90.26545914929622,38.639423771870426],[-90.26564473370479,38.63849348603534],[-90.26603941304124,38.63602111335344],[-90.26616325504212,38.63533831052869],[-90.2662301948671,38.634937188688575],[-90.26630367715819,38.63430441139266],[-90.26620847731913,38.63389690883058],[-90.26597996704284,38.63352396531691],[-90.26553722185155,38.63313847883752],[-90.26395728520497,38.633052790362754],[-90.26412184053389,38.632281888719994],[-90.26393861156741,38.63223761156868],[-90.26372131638402,38.63222195059867],[-90.26340979567284,38.6322079761821],[-90.26319001122712,38.63222112417908],[-90.26318594484506,38.632245385942454],[-90.2631632047454,38.632278622416706],[-90.26301900996364,38.63225614150565],[-90.26287182564398,38.632282470017735],[-90.26253702130498,38.632326067950245],[-90.26234428307525,38.63234344217282],[-90.26177352905879,38.63237047931363],[-90.26104696591105,38.632367511213666],[-90.2610442549296,38.63233200428134],[-90.26055183203704,38.632286501653546],[-90.2606596706938,38.63178553071736],[-90.2606657686172,38.63169317937438],[-90.2607579199995,38.63126485646719],[-90.2577852845689,38.630639585999134],[-90.25769785643554,38.63089417148286],[-90.25809897610449,38.63104696013919],[-90.25887199050219,38.63137282151243],[-90.25931505796369,38.63152536361126],[-90.2595619631037,38.6315803814588],[-90.26041458768353,38.631762316754966],[-90.2604045586932,38.631875858891355],[-90.26032992829401,38.63225879265908],[-90.26031805802003,38.632345075462794],[-90.25891372127403,38.63204692687248],[-90.25888646319568,38.63211652215821],[-90.25861216988521,38.63292806974616],[-90.25861114445055,38.632931087415386],[-90.25871553240349,38.633081510906734],[-90.25834261189212,38.63417880136593],[-90.25690904005057,38.63388191341531],[-90.25668500760058,38.633831887945355],[-90.25694649125472,38.63305227030151],[-90.25696557562088,38.63291889437879],[-90.25696407776805,38.632916557060256],[-90.25698253779244,38.63289256865654],[-90.25700378815685,38.63284052240658],[-90.25718735669537,38.63234135252851],[-90.2564738971096,38.632371843198456],[-90.25554212981025,38.6323918151486],[-90.25495645385953,38.63237249559312],[-90.25495688856483,38.63242867693563],[-90.25493561991375,38.63278291567081],[-90.25493090730012,38.6328497527705],[-90.2544928694511,38.63283828049682],[-90.2544975504735,38.63278082522178],[-90.25450628154667,38.63264144696267],[-90.2542896763622,38.632634868919055],[-90.25437036410601,38.63241058688906],[-90.2541448511089,38.632388337805246],[-90.25445265387289,38.63150100880656],[-90.25445442697568,38.63148693070635],[-90.25445312788916,38.63147282003278],[-90.25444879311482,38.631459087668404],[-90.25444154878116,38.63144613207134],[-90.2544316049347,38.63143432935329],[-90.25441925098248,38.63142402245944],[-90.25440484539239,38.631415510336325],[-90.25339246135154,38.63152365438464],[-90.25328638614958,38.63150114812865],[-90.25284686493598,38.63279494069368],[-90.25344486576694,38.63281144816919],[-90.25307020811319,38.63395586620881],[-90.25471220364658,38.634301761171535],[-90.25465022321514,38.6344827777057],[-90.25452676211987,38.63483775863749],[-90.25400516360612,38.634726140105194],[-90.25369851808918,38.63560254926169],[-90.25367436667939,38.63566934445188],[-90.2543078695467,38.635803196530524],[-90.25425088943678,38.63596690459636],[-90.25407940009057,38.636473029061825],[-90.25420586941432,38.63649957378344],[-90.25401801769785,38.63705273162105],[-90.25457834436234,38.63716414573638],[-90.25474098689477,38.63665452281533],[-90.25461938024088,38.63662900507483],[-90.25481035304533,38.63608552201715],[-90.25514829982592,38.636157183855175],[-90.25496642694303,38.63670184055959],[-90.2548202594174,38.63713523709972],[-90.25478709512247,38.637214908950575],[-90.2556207944964,38.63738668998044],[-90.25580908360142,38.637415227822714],[-90.25923503070321,38.63813062037149],[-90.2595039759564,38.638185117000845],[-90.25919926974062,38.6390834645489],[-90.2594368295082,38.63914173361335],[-90.25972127782875,38.63919747150946],[-90.25955875085013,38.63969093764657],[-90.26005330417307,38.63979632013449],[-90.26018267134067,38.63941378033969],[-90.26022321421095,38.63930618191891],[-90.26009273104637,38.63927177161102],[-90.26001241670271,38.63925584853136],[-90.26018799157153,38.63875893373738],[-90.26026000007784,38.63832576151508],[-90.26251787866855,38.63879264268824],[-90.26231295507452,38.6399794187577],[-90.262316856161,38.640040556535446],[-90.26265300931051,38.64010880208575],[-90.26263057113655,38.640210557966846],[-90.2625867171753,38.64030814250948],[-90.26344346832828,38.64049326482363]],[[-90.2610380918589,38.637951131912374],[-90.2604546032158,38.63783760403833],[-90.260461112251,38.63781765454963],[-90.26014959478937,38.637753585578764],[-90.25971276817916,38.63765051391688],[-90.2596590461288,38.6376449666992],[-90.25982985925516,38.63718360604893],[-90.25985803869452,38.63696727465631],[-90.25982807205344,38.63693542164136],[-90.25974133610461,38.63653897001764],[-90.2597110691609,38.636449885519035],[-90.25970738524072,38.6364293484729],[-90.25970826535526,38.63640862080288],[-90.25971368675968,38.63638832137361],[-90.25972348546546,38.63636905884921],[-90.25973736780514,38.63635140829428],[-90.25975492081821,38.63633589678084],[-90.25977561689078,38.63632298988495],[-90.25979884023953,38.636313071921606],[-90.26042355964731,38.636215033328135],[-90.26214617771518,38.63660021644327],[-90.26212239775691,38.636674008639574],[-90.26202841499546,38.637020458331804],[-90.26199966176682,38.63701629809196],[-90.26198907255478,38.63705524724474],[-90.2627437009896,38.63722377885318],[-90.26265395518921,38.637637529574064],[-90.26191960636994,38.63748836004767],[-90.26123363734904,38.63734701969609],[-90.2610380918589,38.637951131912374]]]},"properties":{"OBJECTID":4,"Name":"WUMC CUP 2010","UpDated":1290556800000,"ORDINANCE":"68863","ItemType":"CUP"}},{"type":"Feature","id":5,"geometry":{"type":"Polygon","coordinates":[[[-90.26480076959757,38.64410776313206],[-90.26486129514993,38.64377686850276],[-90.26494253649511,38.64330307139766],[-90.26533995254314,38.64161877147879],[-90.26564813451837,38.639757081520344],[-90.2624798116398,38.63900910233503],[-90.25946017533967,38.638409156589006],[-90.25581022361865,38.637656770446185],[-90.25541205959115,38.63757260192671],[-90.25213376943279,38.636909423225944],[-90.2517887569201,38.63682014692528],[-90.25069384912459,38.63658343351873],[-90.24728960407943,38.63588339069898],[-90.2468649516414,38.63578350993788],[-90.24228624332882,38.6348463891424],[-90.24182975525939,38.636220444180054],[-90.24133332941253,38.63761524186842],[-90.24339106955273,38.63804195981373],[-90.24320476179156,38.63860733029272],[-90.24115194944652,38.6381929910087],[-90.24095045492005,38.63882278108606],[-90.24076362811718,38.63906716950595],[-90.2405166561659,38.63941559585303],[-90.24245262688159,38.6403105377476],[-90.24267386977174,38.640389602830815],[-90.24445552014284,38.64117101400429],[-90.2446739197559,38.64128940730673],[-90.2452972638599,38.64155119322863],[-90.2475916324166,38.64254579226535],[-90.24807498019753,38.641067603285876],[-90.25029857410827,38.641531676012235],[-90.25049197779683,38.64157281063003],[-90.25045856748793,38.64167639746149],[-90.25393065028828,38.642379813831404],[-90.25404742474653,38.6424137030851],[-90.25381248574749,38.64314240730619],[-90.25542520848659,38.64347392876045],[-90.25564762381167,38.64280178089979],[-90.2554259397031,38.642745767056766],[-90.25544496136574,38.642701405610126],[-90.25761501907394,38.643153890552824],[-90.25782259961882,38.64319874957969],[-90.25778923527702,38.643291245037396],[-90.26162625130857,38.644080503942284],[-90.26157879511005,38.64437208619205],[-90.26248709627058,38.644548592671086],[-90.2624870474146,38.64456339327284],[-90.2637749724539,38.64483257483026],[-90.26381837813423,38.6445587022053],[-90.26403065804632,38.64460355970235],[-90.264229760306,38.64464480291867],[-90.26469697011882,38.644701266239565],[-90.26480076959757,38.64410776313206]]]},"properties":{"OBJECTID":5,"Name":"CWE FBC and CWE FBD","UpDated":1596668430000,"ORDINANCE":"69406","ItemType":"FBD"}},{"type":"Feature","id":6,"geometry":{"type":"Polygon","coordinates":[[[-90.22057763460121,38.58636217984937],[-90.21910705579626,38.585655394313925],[-90.21729689830066,38.58675306012602],[-90.21799622812398,38.58744351259837],[-90.21939411018126,38.58876318072136],[-90.21949523789218,38.58887426405142],[-90.22004355286983,38.58894687565913],[-90.22057763460121,38.58636217984937]]]},"properties":{"OBJECTID":6,"Name":"Marine Winnebago Kosciusko Warehouse Area SUD","UpDated":1383264000000,"ORDINANCE":"69644","ItemType":"SUD"}},{"type":"Feature","id":7,"geometry":{"type":"Polygon","coordinates":[[[-90.25790063995152,38.629906297785645],[-90.25759307456828,38.63086229713764],[-90.25806324067034,38.63103787914458],[-90.2585801189373,38.63128550078817],[-90.25915261508847,38.63148972432768],[-90.25974365176117,38.63167948059823],[-90.2602804850921,38.63179453089214],[-90.26051314007185,38.63184912024129],[-90.26098168750737,38.631914066830575],[-90.26149925487736,38.631958632432976],[-90.26213413527363,38.631920069488196],[-90.26266458391004,38.63181597042231],[-90.26298949301717,38.63171392210367],[-90.26431027321873,38.63100454141758],[-90.26473361562715,38.630761881739204],[-90.26485546979971,38.630417152144645],[-90.26464143418495,38.629943227906075],[-90.26444557770316,38.629185242028946],[-90.2654387855269,38.62342264742668],[-90.26473707796848,38.62316016913308],[-90.26388742250563,38.62291189163504],[-90.26268697440962,38.6225178587976],[-90.26161561972881,38.62222560275058],[-90.2603589597771,38.62206349319449],[-90.25858405737226,38.62207434900234],[-90.25741872307636,38.62224598490505],[-90.25588789271632,38.62256583045568],[-90.25581196583825,38.622071884079844],[-90.25524066220359,38.622726819104884],[-90.254032427888,38.623109148313006],[-90.25238487243747,38.62371483566448],[-90.25136650304775,38.62414779242725],[-90.25023739137873,38.62452248832244],[-90.2493484706528,38.62494119932751],[-90.24845898225028,38.62551944569049],[-90.24762484470806,38.62612681151859],[-90.24706854139137,38.62658973416125],[-90.24625220518793,38.62738567875378],[-90.24543477852035,38.62793046384867],[-90.24518205434006,38.628674043363084],[-90.24473394837864,38.62857835952823],[-90.24424669289752,38.62981796086783],[-90.24404356044582,38.62974499676491],[-90.24379165432559,38.630369359952375],[-90.24347526773064,38.630882406772216],[-90.24369937446865,38.6309167218471],[-90.24346447399107,38.631491215719805],[-90.24382465851629,38.631486174343415],[-90.2445445683882,38.631821320193275],[-90.24615424202526,38.63152025779867],[-90.2473199498776,38.631276228107545],[-90.24717203425915,38.63127590856886],[-90.24913318652598,38.63091755126456],[-90.24946386327198,38.630087581830914],[-90.2529883277756,38.630812081130635],[-90.25325560613916,38.630826173776356],[-90.25350568383598,38.630826700899185],[-90.25462067226648,38.63073185020878],[-90.25476821558203,38.630581879258685],[-90.25514292697865,38.630449857426406],[-90.25537111785668,38.63048608840749],[-90.25554855263285,38.63039828186669],[-90.25577345005843,38.63017743598449],[-90.25600235692953,38.629499385068364],[-90.25790063995152,38.629906297785645]],[[-90.25761095797108,38.62416496062003],[-90.2589817033947,38.62397722203433],[-90.25920874508066,38.62485431575378],[-90.25780558055952,38.62504452856429],[-90.25761095797108,38.62416496062003]]]},"properties":{"OBJECTID":7,"Name":"Forest Park Southeast FBD","UpDated":1596717163000,"ORDINANCE":"70732","ItemType":"FBD"}},{"type":"Feature","id":8,"geometry":{"type":"Polygon","coordinates":[[[-90.18178597981839,38.77193706654432],[-90.18170329497889,38.77192844620155],[-90.18168529450614,38.771631212613386],[-90.18146566494043,38.77060810218252],[-90.18140320025097,38.76967820640749],[-90.18172642641956,38.76805024255371],[-90.18151596834544,38.767719568568026],[-90.18026765539042,38.767266199987326],[-90.18011344233949,38.76722451734422],[-90.1787088810707,38.76686098219123],[-90.17843448910847,38.76781377424814],[-90.17807345381678,38.7689638494225],[-90.1773273000114,38.77057622563586],[-90.17610873450707,38.77280898335132],[-90.17586875484015,38.77303700325614],[-90.18198440038651,38.77367300465235],[-90.18178597981839,38.77193706654432]]]},"properties":{"OBJECTID":8,"Name":"The Lighthouse Area SUD - Stream Setback Zone #1 - Stream Buffers","UpDated":1546819200000,"ORDINANCE":"70557","ItemType":"Buffer"}},{"type":"Feature","id":9,"geometry":{"type":"Polygon","coordinates":[[[-90.181796181243,38.7718749353458],[-90.1817134964739,38.771866315010456],[-90.18147586644547,38.77054597099817],[-90.18142414220009,38.769541393701886],[-90.18171235814793,38.76790722022022],[-90.18152616937817,38.767657437346614],[-90.18012364451432,38.767162386244856],[-90.17831370404055,38.76669427414228],[-90.17805978577113,38.76770740239142],[-90.1779036723901,38.76833027762306],[-90.17773834409817,38.768734085583866],[-90.17705353968248,38.77040664596801],[-90.17585875757165,38.7725974395778],[-90.1753547949911,38.77315214176697],[-90.18196210711226,38.773839640504676],[-90.181796181243,38.7718749353458]]]},"properties":{"OBJECTID":9,"Name":"The Lighthouse Area SUD - 2017","UpDated":1546819200000,"ORDINANCE":"70557","ItemType":"SUD"}},{"type":"Feature","id":10,"geometry":{"type":"Polygon","coordinates":[[[-90.21849292119045,38.6220983013188],[-90.21882371543872,38.62126841521633],[-90.21677857671041,38.62083266835666],[-90.216972282325,38.620375308402515],[-90.21576814794015,38.62012566870616],[-90.21554151216819,38.620651066649],[-90.21545689642358,38.62062887375077],[-90.21543051909883,38.62068402255124],[-90.21445231528612,38.620474616363936],[-90.21420221599286,38.6211976316367],[-90.21849292119045,38.6220983013188]]]},"properties":{"OBJECTID":10,"Name":"Lafayette Square Area SUD","UpDated":1542326400000,"ORDINANCE":"70907","ItemType":"SUD"}},{"type":"Feature","id":15,"geometry":{"type":"Polygon","coordinates":[[[-90.21201478170518,38.658977136616286],[-90.21320029047956,38.65961962221961],[-90.21479501811272,38.66030953218166],[-90.22192502609452,38.650366876277914],[-90.22096043368472,38.64992661039519],[-90.22193228125015,38.64848988393658],[-90.22247309035264,38.64847726386662],[-90.22243391747804,38.64268971994156],[-90.21615608721724,38.63855565646949],[-90.20684817377466,38.63663483456188],[-90.206677644486,38.63715580026415],[-90.20518989986705,38.63683227317676],[-90.20503699904967,38.6373741364501],[-90.20355817729411,38.63703670680483],[-90.20287623548715,38.63905102812773],[-90.20243339836111,38.63896648034796],[-90.20203838907292,38.640175105206055],[-90.20267595000239,38.6403296683625],[-90.20181494236186,38.64276064093039],[-90.1984937559526,38.64207084297731],[-90.19799144760518,38.64348078201418],[-90.19765054785596,38.64444621440775],[-90.19781689633481,38.644940228835424],[-90.19731098302549,38.64509186193681],[-90.19848896599389,38.64744464256023],[-90.19612799370971,38.64814067435078],[-90.19814189914607,38.65225358336411],[-90.19725171380745,38.654963385720656],[-90.19828802770377,38.65519547560637],[-90.197973877995,38.65611231277143],[-90.20254452491037,38.65711119090444],[-90.20295774771706,38.65795341779391],[-90.20416492307817,38.65761583497496],[-90.20501779109098,38.659355958457404],[-90.207325610496,38.6586315299988],[-90.20930843642032,38.658018035095374],[-90.20942158766157,38.65783756790224],[-90.21201478170518,38.658977136616286]],[[-90.21273838746002,38.64514263095686],[-90.21282081535041,38.646028502407155],[-90.21277319189566,38.648729199368816],[-90.21200746024147,38.64980345087769],[-90.21112520710658,38.65236304750295],[-90.21111288656476,38.65237254035117],[-90.2055170564432,38.651234836787836],[-90.20796517134451,38.644178480906945],[-90.21273838746002,38.64514263095686]]]},"properties":{"OBJECTID":15,"Name":"The Geospatial Protection and Enhancement SUD ","UpDated":1653004800000,"ORDINANCE":" 71495","ItemType":"SUD"}},{"type":"Feature","id":16,"geometry":{"type":"Polygon","coordinates":[[[-90.24302952862043,38.588048570456294],[-90.24371395701405,38.588134859103626],[-90.24410953654235,38.588184728946864],[-90.24433871720463,38.588213621564805],[-90.24439156624491,38.588220283815375],[-90.24443753019024,38.58823418232939],[-90.2446601781502,38.5883015076403],[-90.24514569823616,38.58835226475761],[-90.24516480016192,38.58824325094998],[-90.24519624335683,38.588063804837866],[-90.24528590967037,38.58755206967391],[-90.24529099606072,38.587523043022834],[-90.24529869824872,38.587469996034635],[-90.24530614226937,38.587417894425755],[-90.24532665866101,38.58728004322659],[-90.24534307278921,38.58718278293336],[-90.2454181280385,38.587190731768494],[-90.24548176105122,38.58719747103727],[-90.24549032417923,38.58714467725583],[-90.24551907827306,38.58696739903938],[-90.24552925702787,38.58690464754368],[-90.24559909026279,38.58691204346973],[-90.24563327428129,38.58691566369914],[-90.24565281833942,38.58690388009311],[-90.24566141532658,38.58685087826262],[-90.24568707129055,38.586692701296606],[-90.24571935523507,38.58649365419363],[-90.24552021902137,38.58647280164669],[-90.24541671027801,38.58646196217187],[-90.24541862615095,38.58644337992434],[-90.24543030449531,38.58633008323884],[-90.24543366085173,38.586297522195295],[-90.24543696101536,38.58627665017376],[-90.24546911386217,38.58607326231705],[-90.24552282945467,38.58573348490236],[-90.24559760283829,38.585246386187116],[-90.24554871006009,38.584981121405974],[-90.24540829092459,38.58421344489243],[-90.24523820999084,38.583289120292434],[-90.24496125399772,38.581784703020716],[-90.24490496473588,38.58147644165216],[-90.24485987196502,38.581229495456824],[-90.24487927397003,38.58118414328824],[-90.24492916242194,38.58106752623572],[-90.24496403992545,38.58102776451571],[-90.24499995220994,38.580986823961744],[-90.24508774376888,38.58088673981007],[-90.24517711036195,38.58078485812387],[-90.24513423832623,38.580762202682294],[-90.24505785826301,38.580721839161],[-90.24500647010922,38.580694683153936],[-90.24498899576574,38.580678242428284],[-90.24495960305919,38.5806505883757],[-90.2449200649529,38.58062997164549],[-90.24485414600657,38.580595600140306],[-90.24476102949188,38.58054704590958],[-90.24459723330484,38.58046163750378],[-90.24463180075284,38.58041897611107],[-90.24473355354993,38.58029340112453],[-90.24484772215062,38.58015250000199],[-90.24514728391308,38.57978279689706],[-90.24520883945142,38.57970682751096],[-90.24523473798496,38.57972026853278],[-90.24532424591848,38.579766722654774],[-90.24543989086175,38.579826741626164],[-90.24558352997046,38.57990128886284],[-90.24564652208166,38.57982564218915],[-90.2457249470974,38.57973146058963],[-90.24586128416686,38.57956773190439],[-90.2457862973187,38.579528937637875],[-90.24559439936034,38.57942965880302],[-90.24553658537533,38.57939974852352],[-90.24548096755552,38.57937097451947],[-90.24553450067432,38.57930490460207],[-90.24569864861076,38.579102316833215],[-90.24598135502093,38.578753402770204],[-90.24577767064866,38.57864934370249],[-90.24489673047971,38.57819945969144],[-90.24431483888951,38.57790229346412],[-90.2434250043594,38.57744785369803],[-90.24320145717768,38.577333686255265],[-90.24279178615058,38.57712446020962],[-90.24258196716333,38.57701730190987],[-90.2426222174819,38.576965913062025],[-90.242674130529,38.57689963455854],[-90.24272911060943,38.57683254385532],[-90.24278011042671,38.57677191913901],[-90.24268109626429,38.576721240364364],[-90.24254757005333,38.57665289464993],[-90.24266871317509,38.57643396242629],[-90.24278039418047,38.57623214617557],[-90.24283434120818,38.57613499735279],[-90.2428227478497,38.57610696203106],[-90.24277471315055,38.57608159167144],[-90.2427692527398,38.57606805807896],[-90.24276162066808,38.576049145851194],[-90.24276858013802,38.576040406209124],[-90.2427949158925,38.57600733622382],[-90.24292754229667,38.57584937926184],[-90.24306610173313,38.57566297306431],[-90.2432180618701,38.57547093664644],[-90.2433352674161,38.575330229124525],[-90.2431460523404,38.575231558410664],[-90.24291896996493,38.57511313940194],[-90.24292509806125,38.5750404268769],[-90.24293244716723,38.57495323688002],[-90.2429469871972,38.57478072049391],[-90.24300533960592,38.57471131632366],[-90.24314994207703,38.574540759261865],[-90.24334134639349,38.57431166331153],[-90.24357219381778,38.57403708506445],[-90.24363187970178,38.573962833050764],[-90.2436842285812,38.573903827976224],[-90.24347966231805,38.57379630165836],[-90.24353636654158,38.573698186439955],[-90.24359031778852,38.57360483722581],[-90.24368554938229,38.573440058684206],[-90.24376419222148,38.57330398334027],[-90.2437991193548,38.57324354817905],[-90.24383900466142,38.57317453468198],[-90.24384506300169,38.57315735247212],[-90.24386453057721,38.57310214290884],[-90.24388053457336,38.573071854552424],[-90.24392795145609,38.57298212059783],[-90.24404158804204,38.57277776495309],[-90.24416588198117,38.572554209989626],[-90.24422585340939,38.57244550967851],[-90.24421135293777,38.57240656363596],[-90.24415413873491,38.572376570172544],[-90.24409464055195,38.57234537889682],[-90.2441980215224,38.57222272666347],[-90.24432946708885,38.57206677892826],[-90.2443150430691,38.57197453674148],[-90.2442956255612,38.571850363867725],[-90.24438526213925,38.57174391204077],[-90.24450858935637,38.57159744905168],[-90.24438722492894,38.5715345616527],[-90.244231264296,38.57145374811208],[-90.24440378649898,38.57124794683765],[-90.24473659414248,38.57085085283515],[-90.2452086635589,38.57029297295307],[-90.24528232602671,38.57020548831774],[-90.24512368654888,38.57012176201593],[-90.24496340263615,38.57003716705163],[-90.24482100803507,38.5699620126584],[-90.24489334476996,38.56988763707122],[-90.24494863579078,38.569830788245184],[-90.24498103093748,38.56977687960098],[-90.24532936434234,38.56937770681495],[-90.24541399561076,38.569267606326164],[-90.24516986596583,38.56914160946723],[-90.24499695431328,38.56905024020573],[-90.24494072715632,38.56887835659357],[-90.24492650693472,38.56883488510467],[-90.24502626921142,38.56871964849092],[-90.24548398189548,38.568173145003165],[-90.24580875300785,38.567789028434085],[-90.2458701761739,38.56771624202494],[-90.24562825959136,38.567588383332286],[-90.24567342260771,38.56751137160162],[-90.24582078850385,38.56725014228529],[-90.24598487571866,38.566959270693204],[-90.24599875787635,38.56676799640658],[-90.24603348047646,38.566730000590965],[-90.24613338101072,38.566610335360345],[-90.24619053614015,38.56654221158067],[-90.24613338501857,38.56651200568277],[-90.24604545132306,38.566465530284276],[-90.24607793029273,38.566350289978146],[-90.24613704115215,38.56628135154506],[-90.24623100278154,38.566171767932204],[-90.24627121139098,38.56612487402774],[-90.2462664704543,38.566105816911715],[-90.2462616141559,38.56610325053045],[-90.24620733703959,38.56607456350849],[-90.24612319150255,38.56603009007135],[-90.24615230699024,38.56599375412601],[-90.2462611668388,38.56586400730015],[-90.24633822155272,38.565772167118915],[-90.24635266839269,38.565671268723285],[-90.24636026176046,38.56561823564174],[-90.24639196806402,38.565580236779425],[-90.24648904733981,38.565464738979664],[-90.24657191119317,38.56536597608421],[-90.24658088493295,38.56537072794265],[-90.24664062946,38.565300040163834],[-90.24675914566065,38.565159815560044],[-90.24681294883975,38.565096157178175],[-90.24688999348277,38.56513694990825],[-90.24695763267911,38.56517276189735],[-90.24714354647676,38.56495237267164],[-90.24722621453428,38.56485437554615],[-90.24710056120739,38.56478772848526],[-90.24691732825988,38.5646927081728],[-90.2466732850371,38.564559468608465],[-90.24673739757316,38.564472317250235],[-90.24689940681307,38.56427113972716],[-90.24696638248976,38.564190637672034],[-90.24686480535651,38.564136379328005],[-90.2467036222662,38.56405028112615],[-90.24657806524439,38.56398321208434],[-90.24654612169883,38.563966149233295],[-90.2464924251441,38.56389837800568],[-90.24643004889191,38.56381965191557],[-90.24639324488722,38.563773201015536],[-90.24635165352021,38.56382900459929],[-90.24625870102956,38.563953720274164],[-90.24615010280013,38.56409929473775],[-90.24594595621296,38.56437022482706],[-90.2455315329849,38.564921275972615],[-90.24572738122508,38.56502601684093],[-90.24563617508493,38.56513861957225],[-90.24548327652134,38.56535750340328],[-90.2454520656533,38.56540002561911],[-90.24546070231372,38.56542940114832],[-90.24550401402948,38.56545238179849],[-90.24548467719266,38.56549652533149],[-90.24538065164072,38.56573399994271],[-90.24528560450136,38.56595097507602],[-90.24525904708257,38.56598677222836],[-90.24522880875344,38.5660143784834],[-90.24519739096404,38.56606988125192],[-90.2451546127031,38.56604718363359],[-90.24503082504872,38.56598150419144],[-90.24483642231377,38.56587835541325],[-90.24466429927436,38.56611219893233],[-90.2445126748779,38.566318191444815],[-90.24461957974115,38.5663708823541],[-90.24484088488379,38.56647995859388],[-90.24503526011945,38.566575761353654],[-90.24502193122356,38.56661593050102],[-90.24496737213506,38.56678035391092],[-90.24492807761156,38.566898772739144],[-90.24493505621024,38.56692941675804],[-90.24497056055237,38.5670853345708],[-90.24493290048639,38.56713736960538],[-90.24483458438645,38.56727321201635],[-90.24471320511422,38.5674409211439],[-90.24459226910899,38.567378217738494],[-90.24428286522571,38.567217794599244],[-90.24397818286904,38.56705981880257],[-90.24387922969117,38.56719653919708],[-90.24371884266327,38.56741813938289],[-90.2442362049785,38.56768638876243],[-90.24459189208929,38.567870807586246],[-90.24447833175157,38.568031328110685],[-90.2443695988827,38.5681800815935],[-90.2442957920489,38.56828105454944],[-90.24410571726905,38.568265245510766],[-90.24415852394253,38.56819300243294],[-90.24406437613364,38.56818392726412],[-90.2440539936876,38.56819808473302],[-90.24383771658609,38.568086027046775],[-90.2434086441276,38.56786371269694],[-90.24329555177,38.56802258715187],[-90.24318875237678,38.568172618548765],[-90.24297549037816,38.56807915686241],[-90.24280915555194,38.56810150772305],[-90.24273301471172,38.56806156656464],[-90.24244640809047,38.5679112211173],[-90.24199998376066,38.56767703730737],[-90.24189719076735,38.567821203393436],[-90.24173250430579,38.56805217151746],[-90.241723100274,38.568065360668534],[-90.24171934682163,38.568065022657386],[-90.24170521987696,38.56809000047607],[-90.24165104473626,38.568185790757795],[-90.24157530299789,38.568319714452784],[-90.24153628123808,38.56838870932337],[-90.24163811662484,38.568425229595974],[-90.24150844576914,38.56864305665039],[-90.24135731354406,38.56889693249754],[-90.24183198460014,38.568983115391624],[-90.24216520662344,38.56904361463994],[-90.24230615909865,38.569069205177925],[-90.24240718185699,38.56892809342501],[-90.24249595896477,38.56893038514533],[-90.24265776122473,38.56892624637618],[-90.24294816830104,38.56894519074275],[-90.24309599905294,38.56895050356072],[-90.24309400587131,38.569005268505926],[-90.24308941165191,38.569131459207206],[-90.24308099125254,38.56936278464958],[-90.24313679887068,38.569362570186954],[-90.24333378145249,38.5693618112774],[-90.24381626282133,38.569359951984104],[-90.24407617585256,38.56935894845287],[-90.24407320250604,38.56937288338029],[-90.24406702707235,38.56940183021105],[-90.24403917104364,38.569532402509466],[-90.24400548836446,38.569690280947235],[-90.24397830193816,38.56981771415152],[-90.2439223556867,38.56990473672901],[-90.24387900891081,38.569972158939684],[-90.24386605318804,38.5700109350548],[-90.2438368070979,38.57009846015188],[-90.24379401474282,38.570226533024446],[-90.24371217021663,38.57047147790654],[-90.24350260587056,38.571123701882804],[-90.243249873769,38.57185501079965],[-90.24306902112802,38.57239624111945],[-90.24299662766883,38.57261833681429],[-90.24284756715612,38.57306761143877],[-90.24277865727299,38.57327531014378],[-90.24276338039098,38.57332135487461],[-90.24275956726213,38.57333284647576],[-90.24275574050291,38.57333850562405],[-90.24274250315999,38.57335808280584],[-90.2427146544126,38.57339927017714],[-90.24268673411,38.573440561888525],[-90.24265304546192,38.573489065223264],[-90.24265214631305,38.57350241637704],[-90.24263799503798,38.57356423921312],[-90.24260398800337,38.57373410829043],[-90.24252603669723,38.574094313694715],[-90.24249063424534,38.57426047875951],[-90.24245896630973,38.574295723437544],[-90.2424047130729,38.57435610574712],[-90.24235571720438,38.574410637451585],[-90.2423468476938,38.57443815751721],[-90.24230670179756,38.57462513545875],[-90.2422674955244,38.57481791363626],[-90.24224425381988,38.57492520909859],[-90.24221625237087,38.57505447510993],[-90.24220624291047,38.57510068270445],[-90.2421955206333,38.57511224735482],[-90.24215507964362,38.57515586269554],[-90.24209071128594,38.575225282909585],[-90.24206753740106,38.575250275940675],[-90.24205999604727,38.57528598177349],[-90.24203958185566,38.57538262668159],[-90.2420173846341,38.57549840004808],[-90.24195135430189,38.57580032864787],[-90.24193389334559,38.57588299628502],[-90.24191305269015,38.57598166273872],[-90.24191038897166,38.5759874496459],[-90.24189969882674,38.57601660439063],[-90.2418899327612,38.5760421647832],[-90.24187614355354,38.57607207755492],[-90.24185973206696,38.57612120522116],[-90.24185219723502,38.576140924597425],[-90.24185021779911,38.57614951390708],[-90.24184347278391,38.57617878455346],[-90.24182829356118,38.57624465723809],[-90.24180997611504,38.5763241454905],[-90.24178002321364,38.57645412687857],[-90.24181169090599,38.57645650033331],[-90.24187267769257,38.57646107176796],[-90.24200574147383,38.57647104439031],[-90.24216469500584,38.57648295767284],[-90.2421386360945,38.576561410004324],[-90.24208214670266,38.576731472551806],[-90.24203428036552,38.57687558386024],[-90.24196672429333,38.57707690025812],[-90.2419287745529,38.57707214182913],[-90.2418551326635,38.57706290738999],[-90.24163792269462,38.577035670553755],[-90.2413420386311,38.576998568518235],[-90.24132847067575,38.5770421951907],[-90.24130356276898,38.57712228320044],[-90.24122517677556,38.5773743138412],[-90.24112402751307,38.57769954795134],[-90.24101851634435,38.57803879929586],[-90.24093080591096,38.57832082520586],[-90.24091377742091,38.578375574762546],[-90.24087922366904,38.578371281166895],[-90.24086409866062,38.578446603345434],[-90.24083188529028,38.578607030708326],[-90.24076911051479,38.57891965754271],[-90.24059964300125,38.57889739206329],[-90.24043135829913,38.578876237967606],[-90.24028840884165,38.57885826866806],[-90.24015802370282,38.578840784743235],[-90.24003908299605,38.578824349512146],[-90.24001350074961,38.5789183735234],[-90.23990930443895,38.57890538981945],[-90.23969577032187,38.578878780971245],[-90.23941817391409,38.57884418861143],[-90.23936367018405,38.57910466295573],[-90.23933029156137,38.57926417918228],[-90.23920515551357,38.579248585160464],[-90.23899495433265,38.57922239056734],[-90.23894544154409,38.57945900382108],[-90.23868135059648,38.579425961452884],[-90.23819789880606,38.579365470466094],[-90.23789663490913,38.57933145038661],[-90.2377169617642,38.579302004747845],[-90.23763535724898,38.57928880838153],[-90.23768259148616,38.57906165541308],[-90.23776659051677,38.578657687964906],[-90.23785476334037,38.57823364784505],[-90.2374014860111,38.578176536449675],[-90.23689169528527,38.578112302604126],[-90.23685074669751,38.57831068571095],[-90.23680377630176,38.57853823716049],[-90.23674218379408,38.57883662397287],[-90.23649953160108,38.578806048316075],[-90.23615600803267,38.57876276197258],[-90.2356023930996,38.57869300031125],[-90.23554611423366,38.57896562107591],[-90.2355092112813,38.57914438674797],[-90.23547763980316,38.57929732128107],[-90.2354548129207,38.57940789280296],[-90.23534610726242,38.57939589754603],[-90.23518140001232,38.579376700744504],[-90.23487261163227,38.57933780992688],[-90.23437869730164,38.579275601997075],[-90.23375903594872,38.57919755471619],[-90.23318528162075,38.57912528627216],[-90.23315131996901,38.57928855253171],[-90.23309629012918,38.57954976775127],[-90.2330459182667,38.57978807380399],[-90.23302397348158,38.57989307569455],[-90.23300858217758,38.57996672145009],[-90.23311109932393,38.579979490349956],[-90.2332778949697,38.58000026418759],[-90.23351878101244,38.580030265924684],[-90.23390962043011,38.580078943240025],[-90.23423135892301,38.58011964527606],[-90.23465613192006,38.58017312325617],[-90.23521392594577,38.58024314478848],[-90.23616727041555,38.58036306659504],[-90.23665829493798,38.58042487669319],[-90.23793996649076,38.580586203259024],[-90.23859678136373,38.5806688717365],[-90.23906480182218,38.58072846631576],[-90.23967328280898,38.58080616875401],[-90.24006937572129,38.58085674799436],[-90.24061593813018,38.58092653866538],[-90.24091662217025,38.58096252613283],[-90.24097280565887,38.58096880812097],[-90.24096668537975,38.58099902421555],[-90.24095449151686,38.58105923308387],[-90.24093280521512,38.58116630187958],[-90.2410529034761,38.581181450477615],[-90.24122977226122,38.581203758689306],[-90.24135922609408,38.58122008621141],[-90.24139746185733,38.58119016808394],[-90.24144348836761,38.58115415455975],[-90.2414787109285,38.581158596312086],[-90.24155254833785,38.58116790889585],[-90.24166713557669,38.581182360012285],[-90.24178620728445,38.581197375863056],[-90.24187675495145,38.5812087953693],[-90.2418873775194,38.58115705498702],[-90.24190141789374,38.58108866363135],[-90.2419927731086,38.58109921275916],[-90.2422826181501,38.581134610664634],[-90.24273058366639,38.581191312203536],[-90.2434101180341,38.58127732161927],[-90.24358335545544,38.58129924804537],[-90.24361267463236,38.58130295910785],[-90.24365507635524,38.58131774923326],[-90.24370631609686,38.58133562084894],[-90.24372338368109,38.5814274065919],[-90.2437393160745,38.58151309256688],[-90.24376322432855,38.581641667039484],[-90.2437792232825,38.58172770450201],[-90.24378602959358,38.58177414718615],[-90.24380492124386,38.58190305300454],[-90.24381378652568,38.58194790740463],[-90.24382699414042,38.5820071766681],[-90.24384506367714,38.58210616365261],[-90.24387142969692,38.58223956327398],[-90.24388848617599,38.58232586789126],[-90.24392170520318,38.58249394093921],[-90.24395448549448,38.58267022199579],[-90.24396050582727,38.58269111888179],[-90.24396827784634,38.58271809525514],[-90.24399221183414,38.58280117256284],[-90.24400510514701,38.58284592584258],[-90.24400854098135,38.582864179243586],[-90.24401706654564,38.58290683378631],[-90.24403132102317,38.58297942328128],[-90.24409193895039,38.58330719258497],[-90.24418068081411,38.58378157416433],[-90.24426864821173,38.584236459420865],[-90.24431259185192,38.58449473649967],[-90.2443228694299,38.58455029929479],[-90.24432046164956,38.58463600904548],[-90.24431819838317,38.584716567777626],[-90.2442887564173,38.58485939033205],[-90.24425817681525,38.58500773289215],[-90.24416732255987,38.58544845073876],[-90.24422015508283,38.585621948446516],[-90.24413912768587,38.58601499688914],[-90.24346550820789,38.58593031368653],[-90.24302952862043,38.588048570456294]],[[-90.24416820091739,38.57991354442515],[-90.2440132953245,38.58010246918268],[-90.24396290258709,38.580179220908065],[-90.24393594971107,38.58022710505487],[-90.2438900900695,38.5802841928458],[-90.24377508154296,38.580427360552676],[-90.24370278193646,38.580517361462505],[-90.2433061990449,38.58030629750154],[-90.24279236546215,38.58003282792446],[-90.24278047856625,38.58009400613538],[-90.2427490232887,38.5802558897011],[-90.24273675282544,38.580319042732185],[-90.24245151811007,38.580285788521195],[-90.24213709455915,38.58024692969012],[-90.24199002802251,38.58023585247813],[-90.24170490288188,38.58019975165265],[-90.24160395628672,38.58018697032182],[-90.24161239869385,38.580146319705584],[-90.24163388002667,38.58013518066996],[-90.24166147010186,38.58004792109474],[-90.24167416167857,38.580007793363464],[-90.2417315633517,38.579826268292706],[-90.2417675511327,38.5797094543259],[-90.24181247307126,38.579569708764744],[-90.24182582600845,38.5795281707645],[-90.24187249252662,38.57955155740818],[-90.24188198697456,38.57952153608585],[-90.24189585891695,38.57947767039926],[-90.24184777741313,38.5794587500011],[-90.2418596759707,38.579421118687776],[-90.24186948267389,38.57939010886793],[-90.24189387150155,38.579402518473316],[-90.24195080884758,38.57931711631695],[-90.24204015280502,38.57918310640709],[-90.24213280459148,38.57904413435677],[-90.24219646844969,38.57894864151497],[-90.24218366951277,38.578942525051886],[-90.24222965803676,38.578875203092544],[-90.24227216107627,38.57881298693989],[-90.24229947650976,38.57877300214128],[-90.24232120215383,38.57874120050464],[-90.24250922143446,38.57884467166167],[-90.24260616760006,38.57889802348979],[-90.24266480133173,38.57893029106737],[-90.24269767537335,38.57894838220916],[-90.24276262342292,38.57885235314244],[-90.24290453081619,38.578642536639585],[-90.24298620204644,38.57852178027302],[-90.24303926217671,38.57844332850007],[-90.24306027898585,38.5784122530939],[-90.24308507316425,38.57837559319618],[-90.24342179235724,38.57855014216008],[-90.24471827610293,38.579222198650186],[-90.2445125995923,38.579499215819006],[-90.24416820091739,38.57991354442515]]]},"properties":{"OBJECTID":16,"Name":"Dutchtown SUD","UpDated":1664928000000,"ORDINANCE":"71557","ItemType":"SUD"}},{"type":"Feature","id":17,"geometry":{"type":"Polygon","coordinates":[[[-90.24201539242118,38.60325827758116],[-90.24211914089292,38.6027518907466],[-90.24241532689084,38.60266481660886],[-90.24266863961395,38.602752767004304],[-90.24275833504467,38.602761297479766],[-90.24282467136213,38.602345040643286],[-90.24292581341554,38.60235490964937],[-90.24294532820007,38.60234297872139],[-90.2430043834597,38.6019691541288],[-90.24307901373525,38.60181041092581],[-90.24313070938578,38.60148314815404],[-90.24311549844549,38.60146782747736],[-90.24297590235759,38.6014541949309],[-90.24298238419128,38.601413321142395],[-90.24301251099834,38.60141626296033],[-90.24306640668442,38.60107536817636],[-90.24321918413672,38.60092427383271],[-90.24333549326813,38.60018790839592],[-90.24334564636128,38.60002286862764],[-90.24345734381394,38.59928704148427],[-90.24324184215978,38.59926596270121],[-90.24328826295874,38.59910742586044],[-90.24334508756823,38.59875878863224],[-90.2432882482855,38.59870899489466],[-90.24334181373558,38.598360266711445],[-90.24339828166204,38.598202175256134],[-90.24345129876984,38.59786146195854],[-90.24339712592732,38.59781451823973],[-90.24315620602091,38.59778843044018],[-90.24320903017555,38.59743154302535],[-90.24295641212312,38.59723497246949],[-90.24306887253276,38.59649719387917],[-90.24203487891718,38.596368055147224],[-90.24196023716543,38.59673425069155],[-90.24197751209495,38.59673641489315],[-90.24186970608,38.59726408585341],[-90.24265238852384,38.59736363241425],[-90.24258153106209,38.597710975465375],[-90.24256491825747,38.597750596349485],[-90.24249439858026,38.598097956283],[-90.24259132777507,38.59811024782522],[-90.24257517911921,38.5982750933123],[-90.24253965469978,38.598448239362064],[-90.24242470505214,38.59900833440856],[-90.2423156495006,38.59916138439447],[-90.24223746404527,38.59954730895161],[-90.24231238047453,38.59955680811087],[-90.24224618310998,38.599904919638725],[-90.24212772035527,38.59988752273831],[-90.24191400761032,38.600943731454905],[-90.24087777907414,38.60081428209698],[-90.24080708056808,38.60115366299565],[-90.24127444722807,38.6012122571709],[-90.24126461000529,38.6012527729985],[-90.24034894441344,38.60113790157256],[-90.24027815243022,38.60147727291297],[-90.2411939759298,38.60159185965699],[-90.24162946539363,38.601813181750494],[-90.24155758305965,38.60217956926468],[-90.24138166850913,38.60215756006588],[-90.24131289168943,38.60249023557508],[-90.24136570887164,38.602496454977086],[-90.24125852827483,38.6030188911204],[-90.24189137246603,38.603093988107695],[-90.24186015789273,38.60324004079032],[-90.24201539242118,38.60325827758116]]]},"properties":{"OBJECTID":17,"Name":"South Grand Area SUD","UpDated":1657065600000,"ORDINANCE":"71542","ItemType":"SUD"}},{"type":"Feature","id":18,"geometry":{"type":"Polygon","coordinates":[[[-90.30213584844246,38.64597221235545],[-90.30224215120755,38.64529081634824],[-90.30157004579623,38.64522632686039],[-90.30141737727158,38.64590327425142],[-90.30213584844246,38.64597221235545]]]},"properties":{"OBJECTID":18,"Name":"Danforth CUP Amendment 2025","UpDated":null,"ORDINANCE":" ","ItemType":"CUP"}},{"type":"Feature","id":416,"geometry":{"type":"Polygon","coordinates":[[[-90.27542364924592,38.57605688143939],[-90.27503938016949,38.57638399166245],[-90.27462421025118,38.57666307902741],[-90.27437419103723,38.57680217369711],[-90.2741935064095,38.57689141610679],[-90.27242945267216,38.57730335932347],[-90.27222174964089,38.57733043635049],[-90.27172845259105,38.577210849454346],[-90.27160259032559,38.577530760989035],[-90.27142000877916,38.57763313951787],[-90.27140694142676,38.57762626896673],[-90.27120351386665,38.5777168388976],[-90.27100609552707,38.5778119382386],[-90.27070965389485,38.577969335977116],[-90.27053960668275,38.57807943585804],[-90.27052864749308,38.57807368375432],[-90.27046170344224,38.578116692046635],[-90.27030386590928,38.57823102542581],[-90.26926239354388,38.57905312572061],[-90.26845889303051,38.57969283306923],[-90.2684377904715,38.5797210182844],[-90.26839113471208,38.57969977827486],[-90.26841112959337,38.57967307285496],[-90.26813491151701,38.57961215858154],[-90.26807869247911,38.57977283872002],[-90.26781042293887,38.58025352823397],[-90.26772181107785,38.580430174510404],[-90.2676976280504,38.58042471391782],[-90.26760652211951,38.580695264827035],[-90.26726535948022,38.58085066584752],[-90.26641971240457,38.580404212164275],[-90.26596506004014,38.5809265152674],[-90.26608164214697,38.580988683290926],[-90.26597075185964,38.581128729729045],[-90.2654225491442,38.58176825495699],[-90.26537921405787,38.58174503032421],[-90.26522569241818,38.58192412019459],[-90.26541413627636,38.58202511396829],[-90.26515219205656,38.58232362207962],[-90.26516640726054,38.582331240669774],[-90.26502672616328,38.582454157286435],[-90.26489153493623,38.58238192925432],[-90.26464862466288,38.58266011684943],[-90.26421491927266,38.582428398680136],[-90.26404597561427,38.58262187388524],[-90.26435252417417,38.58278565675442],[-90.26405383380954,38.58313344948797],[-90.26390269381496,38.58318511032387],[-90.2634596596605,38.58369246472415],[-90.2633467044841,38.58383145307954],[-90.26309500035335,38.58369538034083],[-90.26228325802408,38.5846205315621],[-90.26215163640416,38.58464951001341],[-90.26194328269585,38.58488696582224],[-90.261853759908,38.58500526619503],[-90.26144824952756,38.58478664473178],[-90.26122110656753,38.585046516730046],[-90.26121453574436,38.58504297901226],[-90.26118484831855,38.585076943552835],[-90.25923692515197,38.58402797605596],[-90.2592261994019,38.583972248765264],[-90.25921386358456,38.58396560539146],[-90.25918201493802,38.583879468970636],[-90.2593683852194,38.58366528989387],[-90.25881356044738,38.58336614524161],[-90.25886308024694,38.58330956096245],[-90.2585839483104,38.5831590598942],[-90.2591611213633,38.58403710475556],[-90.25750589007473,38.58314570343737],[-90.25757238431189,38.58325486336699],[-90.257597852215,38.58331792042307],[-90.25761532046769,38.58338263387475],[-90.25762462013022,38.58344837995419],[-90.25762566263998,38.58351452424766],[-90.25761843748688,38.58358043069954],[-90.25760301450372,38.58364546341887],[-90.25757954268943,38.58370899568599],[-90.25754824674536,38.5837704162518],[-90.2574930173766,38.58385032410021],[-90.25737413625002,38.5839885619656],[-90.25824415184468,38.58445709764397],[-90.25720825545939,38.58567246905384],[-90.25725256503921,38.585700718519256],[-90.25667807596275,38.58635339623677],[-90.25750702138671,38.58679262132205],[-90.25766438753921,38.586855092971554],[-90.25758548487428,38.586946514820376],[-90.25819466883334,38.58726886025158],[-90.25771965861593,38.58781924157429],[-90.25829058997071,38.58812134158951],[-90.25858717811143,38.588313052069616],[-90.26137539549217,38.5897842406476],[-90.26187631746026,38.58920498037699],[-90.26188136547282,38.589199142022416],[-90.26188536901354,38.58920127538425],[-90.261993965501,38.58925912216447],[-90.26224865870789,38.588966365326314],[-90.26210435968063,38.58888875169996],[-90.26233632616837,38.588622115918284],[-90.2602543036903,38.58750630273884],[-90.26038371818426,38.587376159242126],[-90.26074377074652,38.58703383493504],[-90.26111720016331,38.58672122588059],[-90.2611705588989,38.58658316320276],[-90.26146391585058,38.58633815872221],[-90.26160060805209,38.586366213704196],[-90.26184001131493,38.58609553088251],[-90.26179904545994,38.58607320885655],[-90.26227112218129,38.58570301950183],[-90.2623291392716,38.58573449667932],[-90.2623534484722,38.585730995601786],[-90.26263540058444,38.58540956614345],[-90.26284078097967,38.58535386284795],[-90.26315820597429,38.58499198879578],[-90.26318898308915,38.58500862128599],[-90.26321475831361,38.58498921133587],[-90.26341094986473,38.585095232053156],[-90.26343581913305,38.585092014764186],[-90.26368593872212,38.584828941620785],[-90.26353552126602,38.58474765701],[-90.26487968163512,38.58372752219696],[-90.26493002206212,38.58374667009924],[-90.26493361883354,38.583781272712194],[-90.26607607633929,38.584398625451676],[-90.26628499906596,38.58442398688431],[-90.26620019886953,38.584661988837134],[-90.26662066590556,38.58475437543919],[-90.26706948933744,38.58349140405706],[-90.26778873378039,38.58147892264952],[-90.26795522717558,38.581347799131805],[-90.26834798832438,38.581434095818025],[-90.26846520701818,38.58110155023446],[-90.26836867891149,38.58108052686937],[-90.26845275445187,38.5809563547992],[-90.2700524435288,38.579695031297675],[-90.26994271149172,38.57960886361557],[-90.27010018091433,38.57948512374632],[-90.27021839125943,38.57934894626492],[-90.27035922957042,38.57942742609362],[-90.27045800007956,38.5793120516222],[-90.27048567749216,38.57932730496209],[-90.2708614278138,38.579046878702506],[-90.27092549109592,38.57908214095823],[-90.27099364451928,38.57890496118965],[-90.27119426147071,38.578749307010455],[-90.27136913017,38.5786433507361],[-90.27226120094174,38.578259323032775],[-90.27222950873151,38.57821362542166],[-90.27238521291981,38.57815098879434],[-90.27286883999069,38.57815295438234],[-90.27288642060431,38.578139296630965],[-90.27288687360863,38.578070515663825],[-90.27337660111266,38.57807250450337],[-90.2733775887817,38.577922534635896],[-90.27392468798115,38.5779235872027],[-90.27394226375162,38.577909928381644],[-90.27394269712163,38.577840498721265],[-90.27438869776873,38.5778422123809],[-90.27438975050279,38.57767333545038],[-90.27456462729138,38.57767811832726],[-90.27494066719532,38.57767956088496],[-90.2749582427257,38.57766589830644],[-90.27495918300231,38.57751497967352],[-90.27540518168254,38.577516688553146],[-90.2754082546975,38.57702257641687],[-90.2752893726744,38.57675543069429],[-90.27546533595691,38.576623587514014],[-90.27562711532966,38.57648088085942],[-90.27570222213637,38.576405908713724],[-90.27590690582727,38.576169919158055],[-90.27574110621387,38.576042843262414],[-90.27557530718477,38.575915767130915],[-90.27542364924592,38.57605688143939]]]},"properties":{"OBJECTID":416,"Name":"Bevo Mill SUD","UpDated":1618281736000,"ORDINANCE":"66941","ItemType":"SUD"}}]}